{"type":"FeatureCollection","features":[{"type":"Feature","id":"09020040001","geometry":{"type":"Polygon","coordinates":[[[118.336647,24.475874],[118.334581,24.476971],[118.331353,24.479044],[118.330201,24.480001],[118.328926,24.481492],[118.326989,24.48304],[118.326317,24.484087],[118.325602,24.485715],[118.324282,24.487713],[118.323941,24.487935],[118.322563,24.489595],[118.320392,24.491485],[118.318165,24.493157],[118.315608,24.494134],[118.312872,24.495524],[118.310466,24.496016],[118.307487,24.495774],[118.305703,24.495436],[118.302826,24.494728],[118.299783,24.493684],[118.297669,24.492651],[118.296541,24.49187],[118.294542,24.491343],[118.29274,24.48992],[118.292,24.488554],[118.289701,24.485978],[118.286556,24.4789],[118.285994,24.477073],[118.286222,24.474825],[118.287564,24.472633],[118.289104,24.470894],[118.288455,24.470671],[118.288464,24.46992],[118.289224,24.469255],[118.290755,24.468559],[118.290807,24.468212],[118.291166,24.468175],[118.29535,24.462359],[118.295923,24.460559],[118.295891,24.458676],[118.295554,24.456],[118.296032,24.454901],[118.303399,24.461678],[118.303733,24.461456],[118.303895,24.461674],[118.303681,24.462644],[118.303726,24.463237],[118.304289,24.464229],[118.304773,24.464478],[118.305085,24.465092],[118.306465,24.464933],[118.30888,24.465439],[118.310052,24.463872],[118.311336,24.46492],[118.312927,24.465963],[118.315067,24.467894],[118.317154,24.468467],[118.31897,24.46864],[118.320218,24.469118],[118.321545,24.470167],[118.323529,24.472192],[118.326036,24.470725],[118.327048,24.470697],[118.328021,24.470964],[118.329221,24.471461],[118.330864,24.472386],[118.336647,24.475874]]]},"properties":{"code":"09020040001","name":"古寧村","countyCode":"09020","countyName":"金門縣","townCode":"09020040","townName":"金寧鄉","level":"village","unassigned":false,"note":"","label":[118.30721782646614,24.480406681616298],"bounds":[118.285994,24.454901,118.336647,24.496016],"focusBounds":[118.285994,24.454901,118.336647,24.496016],"color":"#78a7e3"}},{"type":"Feature","id":"09020040002","geometry":{"type":"Polygon","coordinates":[[[118.35371,24.471291],[118.350439,24.471656],[118.347837,24.473141],[118.3465,24.474101],[118.345524,24.474405],[118.34367,24.474648],[118.342502,24.474616],[118.341409,24.474341],[118.338687,24.474983],[118.336647,24.475874],[118.330864,24.472386],[118.329221,24.471461],[118.328021,24.470964],[118.327048,24.470697],[118.326036,24.470725],[118.323529,24.472192],[118.321545,24.470167],[118.320218,24.469118],[118.31897,24.46864],[118.317154,24.468467],[118.315067,24.467894],[118.312927,24.465963],[118.311336,24.46492],[118.312023,24.464458],[118.315012,24.461495],[118.316623,24.455825],[118.316958,24.453872],[118.317749,24.452809],[118.317812,24.452434],[118.318979,24.451477],[118.322064,24.454673],[118.323219,24.454086],[118.326542,24.450967],[118.32741,24.451559],[118.329692,24.448788],[118.33421,24.452741],[118.33572,24.453289],[118.33836,24.453599],[118.341623,24.454319],[118.342675,24.455022],[118.342805,24.455331],[118.34355,24.454436],[118.347073,24.452434],[118.347169,24.454668],[118.346629,24.459659],[118.34673,24.46012],[118.347966,24.460956],[118.350874,24.463428],[118.35057,24.463798],[118.35371,24.471291]]]},"properties":{"code":"09020040002","name":"安美村","countyCode":"09020","countyName":"金門縣","townCode":"09020040","townName":"金寧鄉","level":"village","unassigned":false,"note":"","label":[118.33269471984383,24.462452958539785],"bounds":[118.311336,24.448788,118.35371,24.475874],"focusBounds":[118.311336,24.448788,118.35371,24.475874],"color":"#dd8590"}},{"type":"Feature","id":"09020040003","geometry":{"type":"Polygon","coordinates":[[[118.363055,24.439463],[118.362756,24.439723],[118.362349,24.440691],[118.361572,24.441523],[118.361339,24.441986],[118.360342,24.445822],[118.360493,24.447983],[118.360601,24.448377],[118.362448,24.450306],[118.362895,24.45133],[118.363315,24.451891],[118.365209,24.453661],[118.365832,24.454636],[118.36732,24.457154],[118.367214,24.45771],[118.367829,24.457914],[118.36748,24.459299],[118.368072,24.460368],[118.367976,24.460566],[118.366878,24.460901],[118.366408,24.461636],[118.365828,24.473749],[118.364652,24.472642],[118.363123,24.471673],[118.361824,24.471715],[118.359532,24.471144],[118.356638,24.471015],[118.35371,24.471291],[118.35057,24.463798],[118.350874,24.463428],[118.347966,24.460956],[118.34673,24.46012],[118.346629,24.459659],[118.347169,24.454668],[118.347073,24.452434],[118.346592,24.449148],[118.346721,24.447708],[118.347098,24.446144],[118.348403,24.443177],[118.350545,24.440979],[118.352076,24.440023],[118.354657,24.439263],[118.357581,24.439297],[118.359617,24.439484],[118.363055,24.439463]]]},"properties":{"code":"09020040003","name":"后盤村","countyCode":"09020","countyName":"金門縣","townCode":"09020040","townName":"金寧鄉","level":"village","unassigned":false,"note":"","label":[118.35587833362007,24.456403859923093],"bounds":[118.346592,24.439263,118.368072,24.473749],"focusBounds":[118.346592,24.439263,118.368072,24.473749],"color":"#a49ad4"}},{"type":"Feature","id":"09020040004","geometry":{"type":"Polygon","coordinates":[[[118.311336,24.46492],[118.310052,24.463872],[118.30888,24.465439],[118.306465,24.464933],[118.305085,24.465092],[118.304773,24.464478],[118.304289,24.464229],[118.303726,24.463237],[118.303681,24.462644],[118.303895,24.461674],[118.303733,24.461456],[118.303399,24.461678],[118.296032,24.454901],[118.296448,24.453983],[118.299437,24.45126],[118.300959,24.448703],[118.30219,24.446198],[118.302613,24.44455],[118.303003,24.441572],[118.305318,24.439433],[118.307591,24.438072],[118.309651,24.437404],[118.311923,24.437462],[118.311994,24.43765],[118.312523,24.43767],[118.312777,24.438767],[118.313231,24.439826],[118.313915,24.440439],[118.314711,24.439824],[118.315338,24.440498],[118.316054,24.439889],[118.31603,24.439629],[118.316333,24.439527],[118.31639,24.439182],[118.316478,24.439283],[118.31695,24.438912],[118.31877,24.440153],[118.319749,24.440604],[118.32062,24.441447],[118.320376,24.442166],[118.320845,24.442518],[118.321079,24.442911],[118.321587,24.443039],[118.323713,24.444866],[118.322578,24.445894],[118.322131,24.446126],[118.320417,24.447919],[118.319218,24.448862],[118.320569,24.450239],[118.318979,24.451477],[118.317812,24.452434],[118.317749,24.452809],[118.316958,24.453872],[118.316623,24.455825],[118.315012,24.461495],[118.312023,24.464458],[118.311336,24.46492]]]},"properties":{"code":"09020040004","name":"湖埔村","countyCode":"09020","countyName":"金門縣","townCode":"09020040","townName":"金寧鄉","level":"village","unassigned":false,"note":"","label":[118.3094536486707,24.450441255492457],"bounds":[118.296032,24.437404,118.323713,24.465439],"focusBounds":[118.296032,24.437404,118.323713,24.465439],"color":"#a8bf62"}},{"type":"Feature","id":"09020040005","geometry":{"type":"Polygon","coordinates":[[[118.361271,24.436578],[118.359058,24.436066],[118.356205,24.436064],[118.353009,24.436259],[118.34771,24.436071],[118.342016,24.436944],[118.33918,24.436728],[118.337709,24.43681],[118.336422,24.437312],[118.334313,24.43918],[118.331678,24.440434],[118.330495,24.4408],[118.327704,24.44088],[118.326829,24.440106],[118.326404,24.440075],[118.323219,24.436663],[118.324726,24.435319],[118.326516,24.434321],[118.324589,24.432393],[118.326281,24.432799],[118.328016,24.432677],[118.329068,24.432816],[118.330402,24.432468],[118.32859,24.426141],[118.328312,24.426044],[118.326675,24.426229],[118.325084,24.426024],[118.325461,24.424998],[118.325282,24.423748],[118.32549,24.42284],[118.325283,24.422168],[118.325292,24.42181],[118.325975,24.420471],[118.326569,24.419884],[118.327219,24.418029],[118.329176,24.413948],[118.334642,24.419091],[118.336961,24.417203],[118.336891,24.417125],[118.337669,24.416465],[118.338266,24.416194],[118.338879,24.415632],[118.339582,24.415244],[118.3397,24.415407],[118.339877,24.415262],[118.339805,24.415181],[118.340541,24.414378],[118.341142,24.414081],[118.34246,24.412613],[118.344575,24.411256],[118.345089,24.411566],[118.34604,24.412929],[118.34614,24.414112],[118.347719,24.414959],[118.348284,24.418374],[118.349385,24.419406],[118.349763,24.419457],[118.349934,24.419672],[118.349809,24.419678],[118.349847,24.420046],[118.350361,24.420551],[118.350953,24.421002],[118.352765,24.421388],[118.353981,24.423074],[118.357224,24.424998],[118.360573,24.426503],[118.358833,24.430278],[118.3593,24.431262],[118.360524,24.432183],[118.3605,24.433082],[118.361042,24.434707],[118.361271,24.436578]]]},"properties":{"code":"09020040005","name":"榜林村","countyCode":"09020","countyName":"金門縣","townCode":"09020040","townName":"金寧鄉","level":"village","unassigned":false,"note":"","label":[118.34150263002014,24.42702139095156],"bounds":[118.323219,24.411256,118.361271,24.44088],"focusBounds":[118.323219,24.411256,118.361271,24.44088],"color":"#c38cb8"}},{"type":"Feature","id":"09020040006","geometry":{"type":"Polygon","coordinates":[[[118.347073,24.452434],[118.34355,24.454436],[118.342805,24.455331],[118.342675,24.455022],[118.341623,24.454319],[118.33836,24.453599],[118.33572,24.453289],[118.33421,24.452741],[118.329692,24.448788],[118.32741,24.451559],[118.326542,24.450967],[118.323219,24.454086],[118.322064,24.454673],[118.318979,24.451477],[118.320569,24.450239],[118.319218,24.448862],[118.320417,24.447919],[118.322131,24.446126],[118.322578,24.445894],[118.323713,24.444866],[118.325145,24.44353],[118.325844,24.444111],[118.327301,24.442517],[118.328273,24.441273],[118.327704,24.44088],[118.330495,24.4408],[118.331678,24.440434],[118.334313,24.43918],[118.336422,24.437312],[118.337709,24.43681],[118.33918,24.436728],[118.342016,24.436944],[118.34771,24.436071],[118.353009,24.436259],[118.356205,24.436064],[118.359058,24.436066],[118.361271,24.436578],[118.361371,24.436944],[118.363865,24.437946],[118.363364,24.439092],[118.363055,24.439463],[118.359617,24.439484],[118.357581,24.439297],[118.354657,24.439263],[118.352076,24.440023],[118.350545,24.440979],[118.348403,24.443177],[118.347098,24.446144],[118.346721,24.447708],[118.346592,24.449148],[118.347073,24.452434]]]},"properties":{"code":"09020040006","name":"盤山村","countyCode":"09020","countyName":"金門縣","townCode":"09020040","townName":"金寧鄉","level":"village","unassigned":false,"note":"","label":[118.33904970152487,24.445243212460284],"bounds":[118.318979,24.436064,118.363865,24.455331],"focusBounds":[118.318979,24.436064,118.363865,24.455331],"color":"#df9f6a"}}]}
