{"type":"FeatureCollection","features":[{"type":"Feature","id":"09020030001","geometry":{"type":"Polygon","coordinates":[[[118.43299,24.438407],[118.430471,24.439972],[118.430345,24.440634],[118.429693,24.441842],[118.424581,24.442616],[118.422761,24.444345],[118.42231,24.444536],[118.421896,24.444504],[118.421486,24.444248],[118.42062,24.442613],[118.420211,24.442576],[118.419906,24.442828],[118.41903,24.442576],[118.418779,24.442135],[118.418701,24.441543],[118.417194,24.442397],[118.417712,24.443297],[118.415911,24.44451],[118.413258,24.440652],[118.412043,24.438976],[118.412852,24.438501],[118.413035,24.438738],[118.419437,24.436686],[118.420793,24.438151],[118.430213,24.435217],[118.431884,24.434738],[118.43299,24.438407]]]},"properties":{"code":"09020030001","name":"新市里","countyCode":"09020","countyName":"金門縣","townCode":"09020030","townName":"金湖鎮","level":"village","unassigned":false,"note":"","label":[118.4245215332103,24.43983094627114],"bounds":[118.412043,24.434738,118.43299,24.444536],"focusBounds":[118.412043,24.434738,118.43299,24.444536],"color":"#a49ad4"}},{"type":"Feature","id":"09020030002","geometry":{"type":"Polygon","coordinates":[[[118.43463,24.467694],[118.433025,24.470911],[118.43036,24.470715],[118.428722,24.470377],[118.427461,24.470509],[118.426331,24.470197],[118.425594,24.469261],[118.425109,24.468939],[118.425245,24.468542],[118.42494,24.467895],[118.424784,24.467873],[118.424397,24.468311],[118.42364,24.467371],[118.422335,24.466898],[118.421953,24.466238],[118.421885,24.465808],[118.421346,24.465353],[118.418848,24.464257],[118.418253,24.46344],[118.417553,24.463087],[118.417215,24.463515],[118.416134,24.463449],[118.415353,24.462927],[118.414853,24.462895],[118.413939,24.462375],[118.41332,24.461774],[118.411515,24.460906],[118.409896,24.459592],[118.409516,24.458808],[118.409207,24.45885],[118.408832,24.459294],[118.408356,24.459306],[118.407199,24.459305],[118.406889,24.459163],[118.406592,24.459402],[118.405693,24.459358],[118.405138,24.45837],[118.405227,24.457858],[118.403022,24.456981],[118.403205,24.456561],[118.396102,24.453674],[118.395872,24.453773],[118.403456,24.448249],[118.413258,24.440652],[118.415911,24.44451],[118.417712,24.443297],[118.417194,24.442397],[118.418701,24.441543],[118.418779,24.442135],[118.41903,24.442576],[118.419906,24.442828],[118.420211,24.442576],[118.42062,24.442613],[118.421486,24.444248],[118.421896,24.444504],[118.42231,24.444536],[118.422761,24.444345],[118.424581,24.442616],[118.429693,24.441842],[118.430345,24.440634],[118.430471,24.439972],[118.43299,24.438407],[118.440634,24.444117],[118.435435,24.447932],[118.439182,24.452035],[118.442477,24.453015],[118.441551,24.455808],[118.44156,24.456136],[118.441808,24.456456],[118.442242,24.456643],[118.443793,24.456879],[118.435461,24.466214],[118.43463,24.467694]]]},"properties":{"code":"09020030002","name":"山外里","countyCode":"09020","countyName":"金門縣","townCode":"09020030","townName":"金湖鎮","level":"village","unassigned":false,"note":"","label":[118.42536509064357,24.454713922851802],"bounds":[118.395872,24.438407,118.443793,24.470911],"focusBounds":[118.395872,24.438407,118.443793,24.470911],"color":"#a8bf62"}},{"type":"Feature","id":"09020030003","geometry":{"type":"Polygon","coordinates":[[[118.403456,24.448249],[118.395872,24.453773],[118.39575,24.453748],[118.395594,24.453455],[118.390094,24.451206],[118.389863,24.450994],[118.389427,24.449201],[118.387917,24.447165],[118.38766,24.447091],[118.386725,24.447698],[118.386067,24.447608],[118.385347,24.447314],[118.385219,24.447197],[118.38533,24.447],[118.382902,24.445985],[118.379623,24.444005],[118.377386,24.444355],[118.375911,24.444115],[118.371178,24.441687],[118.366611,24.43992],[118.364224,24.437984],[118.363865,24.437946],[118.361371,24.436944],[118.361271,24.436578],[118.361042,24.434707],[118.3605,24.433082],[118.360524,24.432183],[118.3593,24.431262],[118.358833,24.430278],[118.360573,24.426503],[118.361755,24.427036],[118.362359,24.427494],[118.364287,24.428229],[118.3664,24.429288],[118.372831,24.43192],[118.374618,24.432478],[118.375008,24.432343],[118.377705,24.433173],[118.379557,24.433617],[118.380347,24.433661],[118.381128,24.434015],[118.38199,24.434117],[118.385467,24.435067],[118.387158,24.435263],[118.387109,24.43498],[118.387665,24.434627],[118.387897,24.434656],[118.387967,24.434482],[118.388252,24.434717],[118.388416,24.434636],[118.388394,24.434818],[118.388561,24.434877],[118.390575,24.435398],[118.390986,24.435102],[118.391919,24.435311],[118.392357,24.435233],[118.39504,24.43587],[118.395408,24.435819],[118.395551,24.435502],[118.396018,24.435119],[118.397073,24.435017],[118.397164,24.434834],[118.397506,24.435221],[118.3993,24.435508],[118.400112,24.435458],[118.400253,24.435125],[118.401689,24.43515],[118.401722,24.437397],[118.400079,24.438067],[118.399667,24.438426],[118.401322,24.440999],[118.400427,24.441421],[118.39912,24.442343],[118.401979,24.446461],[118.403456,24.448249]]]},"properties":{"code":"09020030003","name":"正義里","countyCode":"09020","countyName":"金門縣","townCode":"09020030","townName":"金湖鎮","level":"village","unassigned":false,"note":"","label":[118.38699439504207,24.44125481681849],"bounds":[118.358833,24.426503,118.403456,24.453773],"focusBounds":[118.358833,24.426503,118.403456,24.453773],"color":"#68bec9"}},{"type":"Feature","id":"09020030004","geometry":{"type":"MultiPolygon","coordinates":[[[[118.438214,24.407096],[118.438253,24.407204],[118.437968,24.407268],[118.438018,24.407097],[118.438214,24.407096]]],[[[118.438546,24.407483],[118.438164,24.407891],[118.438279,24.40739],[118.438546,24.407483]]],[[[118.439301,24.408369],[118.438975,24.408264],[118.439054,24.40808],[118.439293,24.408093],[118.439409,24.408342],[118.439301,24.408369]]],[[[118.438825,24.408417],[118.438669,24.408598],[118.438518,24.408446],[118.43889,24.408286],[118.438825,24.408417]]],[[[118.43811,24.408657],[118.437979,24.408819],[118.437808,24.408788],[118.43811,24.408657]]],[[[118.437657,24.408971],[118.437545,24.409093],[118.437455,24.408851],[118.437657,24.408971]]],[[[118.43924,24.409597],[118.439028,24.409705],[118.439019,24.409556],[118.439271,24.409499],[118.43924,24.409597]]],[[[118.440031,24.409565],[118.440171,24.409678],[118.440009,24.409822],[118.439852,24.409571],[118.439565,24.409507],[118.439483,24.409716],[118.439289,24.409576],[118.439785,24.40911],[118.44006,24.409261],[118.440099,24.409402],[118.439919,24.409513],[118.440031,24.409565]]],[[[118.440234,24.410591],[118.439983,24.410619],[118.440088,24.410451],[118.440268,24.410458],[118.440234,24.410591]]],[[[118.447073,24.412189],[118.447205,24.412213],[118.447196,24.412398],[118.446999,24.412492],[118.446904,24.412255],[118.447073,24.412189]]],[[[118.446924,24.413184],[118.446758,24.413119],[118.44689,24.412945],[118.447178,24.41303],[118.446924,24.413184]]],[[[118.447974,24.413476],[118.448088,24.413638],[118.447694,24.413697],[118.447686,24.413507],[118.447974,24.413476]]],[[[118.44909,24.415771],[118.446813,24.417848],[118.444993,24.419986],[118.442357,24.421204],[118.442419,24.422646],[118.442289,24.423096],[118.442007,24.423381],[118.440488,24.423719],[118.43954,24.422454],[118.434634,24.42471],[118.431884,24.434738],[118.430213,24.435217],[118.43073,24.433571],[118.43097,24.432156],[118.431022,24.430438],[118.430844,24.428675],[118.4305,24.427693],[118.429839,24.426574],[118.427553,24.423788],[118.429507,24.422013],[118.431329,24.420097],[118.432547,24.418117],[118.43291,24.417224],[118.433017,24.416473],[118.431667,24.415115],[118.430829,24.412663],[118.430322,24.412373],[118.427713,24.412178],[118.425596,24.410956],[118.425632,24.410718],[118.425845,24.410742],[118.426104,24.411034],[118.427951,24.411995],[118.430206,24.41224],[118.429852,24.411372],[118.429092,24.410368],[118.430989,24.409521],[118.432306,24.409788],[118.430046,24.408715],[118.430033,24.40857],[118.427782,24.408595],[118.427516,24.408362],[118.426592,24.40922],[118.426246,24.409331],[118.426196,24.409105],[118.427201,24.408182],[118.426982,24.407352],[118.426941,24.407658],[118.426795,24.407526],[118.426787,24.407153],[118.426135,24.40705],[118.426201,24.40678],[118.427347,24.407025],[118.427353,24.406819],[118.427621,24.406753],[118.428255,24.407091],[118.428394,24.406974],[118.428577,24.407137],[118.428766,24.407042],[118.428869,24.407132],[118.428995,24.406999],[118.429345,24.407289],[118.42978,24.407184],[118.429874,24.407011],[118.430447,24.407114],[118.430529,24.406809],[118.431526,24.407407],[118.431416,24.407563],[118.430962,24.407563],[118.430852,24.407739],[118.431657,24.408043],[118.431995,24.407827],[118.431985,24.407679],[118.432269,24.407732],[118.432281,24.407546],[118.432491,24.407476],[118.433356,24.407455],[118.433915,24.407628],[118.434416,24.407533],[118.434712,24.407866],[118.434948,24.407692],[118.435201,24.407916],[118.43582,24.408079],[118.435776,24.408841],[118.436028,24.409064],[118.436091,24.408812],[118.436723,24.40906],[118.437018,24.409443],[118.437036,24.409735],[118.43754,24.41015],[118.438219,24.410265],[118.439579,24.410705],[118.439852,24.410926],[118.440298,24.410914],[118.441016,24.411225],[118.442078,24.411044],[118.442292,24.411173],[118.442364,24.410971],[118.442725,24.411245],[118.443101,24.410728],[118.443357,24.411101],[118.443522,24.411047],[118.443874,24.411254],[118.443848,24.411575],[118.444275,24.411403],[118.444712,24.411551],[118.444674,24.411683],[118.444891,24.411874],[118.444728,24.412188],[118.445012,24.412585],[118.445273,24.41255],[118.445339,24.412233],[118.445623,24.412263],[118.445771,24.412123],[118.44612,24.412641],[118.446794,24.412397],[118.446839,24.412629],[118.446552,24.412791],[118.446258,24.412737],[118.446209,24.413131],[118.445816,24.413272],[118.445957,24.414025],[118.446408,24.414404],[118.446803,24.414415],[118.447224,24.414228],[118.447266,24.414097],[118.447016,24.41409],[118.447105,24.413948],[118.447498,24.413934],[118.447714,24.414272],[118.44729,24.414538],[118.447476,24.414813],[118.448364,24.415501],[118.448757,24.415375],[118.448626,24.415524],[118.44909,24.415771]]]]},"properties":{"code":"09020030004","name":"料羅里","countyCode":"09020","countyName":"金門縣","townCode":"09020030","townName":"金湖鎮","level":"village","unassigned":false,"note":"","label":[118.43877760340291,24.4166251663942],"bounds":[118.425596,24.406753,118.44909,24.435217],"focusBounds":[118.425596,24.406753,118.44909,24.435217],"color":"#df9f6a"}},{"type":"Feature","id":"09020030005","geometry":{"type":"Polygon","coordinates":[[[118.39575,24.453748],[118.394459,24.454694],[118.392513,24.458815],[118.39211,24.459104],[118.390618,24.459952],[118.389466,24.460402],[118.386583,24.459371],[118.383667,24.461267],[118.382469,24.461553],[118.382043,24.462364],[118.379759,24.465185],[118.378735,24.466104],[118.377044,24.468699],[118.374559,24.473293],[118.371968,24.479072],[118.369694,24.477327],[118.365828,24.473749],[118.366408,24.461636],[118.366878,24.460901],[118.367976,24.460566],[118.368072,24.460368],[118.36748,24.459299],[118.367829,24.457914],[118.367214,24.45771],[118.36732,24.457154],[118.365832,24.454636],[118.365209,24.453661],[118.363315,24.451891],[118.362895,24.45133],[118.362448,24.450306],[118.360601,24.448377],[118.360493,24.447983],[118.360342,24.445822],[118.361339,24.441986],[118.361572,24.441523],[118.362349,24.440691],[118.362756,24.439723],[118.363055,24.439463],[118.363364,24.439092],[118.363865,24.437946],[118.364224,24.437984],[118.366611,24.43992],[118.371178,24.441687],[118.375911,24.444115],[118.377386,24.444355],[118.379623,24.444005],[118.382902,24.445985],[118.38533,24.447],[118.385219,24.447197],[118.385347,24.447314],[118.386067,24.447608],[118.386725,24.447698],[118.38766,24.447091],[118.387917,24.447165],[118.389427,24.449201],[118.389863,24.450994],[118.390094,24.451206],[118.395594,24.453455],[118.39575,24.453748]]]},"properties":{"code":"09020030005","name":"瓊林里","countyCode":"09020","countyName":"金門縣","townCode":"09020030","townName":"金湖鎮","level":"village","unassigned":false,"note":"","label":[118.37627848366405,24.45392534916246],"bounds":[118.360342,24.437946,118.39575,24.479072],"focusBounds":[118.360342,24.437946,118.39575,24.479072],"color":"#c38cb8"}},{"type":"Feature","id":"09020030006","geometry":{"type":"Polygon","coordinates":[[[118.413258,24.440652],[118.403456,24.448249],[118.401979,24.446461],[118.39912,24.442343],[118.400427,24.441421],[118.401322,24.440999],[118.399667,24.438426],[118.400079,24.438067],[118.401722,24.437397],[118.401689,24.43515],[118.402612,24.434981],[118.403077,24.434695],[118.403209,24.43451],[118.403044,24.434344],[118.403242,24.433576],[118.403995,24.433543],[118.404399,24.433702],[118.406028,24.432869],[118.40629,24.432531],[118.407067,24.432465],[118.407305,24.432205],[118.407486,24.432392],[118.407944,24.43211],[118.408215,24.432179],[118.407992,24.431992],[118.408362,24.431995],[118.40821,24.431869],[118.408395,24.431777],[118.408534,24.431855],[118.408413,24.431688],[118.40901,24.430373],[118.409016,24.42869],[118.409241,24.428671],[118.409363,24.430224],[118.409618,24.430162],[118.409715,24.430477],[118.409352,24.430582],[118.409859,24.431802],[118.410981,24.431422],[118.410646,24.430589],[118.410124,24.430484],[118.410212,24.430105],[118.410537,24.430201],[118.410715,24.429805],[118.410402,24.429356],[118.410606,24.429197],[118.409583,24.428153],[118.409133,24.427938],[118.409052,24.427776],[118.409218,24.42757],[118.410511,24.428563],[118.412639,24.428528],[118.412914,24.428034],[118.413154,24.428045],[118.413056,24.427883],[118.413574,24.427499],[118.413693,24.427155],[118.414049,24.427349],[118.414229,24.427281],[118.414593,24.427479],[118.415097,24.427508],[118.418184,24.427024],[118.425287,24.424875],[118.426164,24.424298],[118.426372,24.424292],[118.426351,24.424447],[118.427553,24.423788],[118.429839,24.426574],[118.4305,24.427693],[118.430844,24.428675],[118.431022,24.430438],[118.43097,24.432156],[118.43073,24.433571],[118.430213,24.435217],[118.420793,24.438151],[118.419437,24.436686],[118.413035,24.438738],[118.412852,24.438501],[118.412043,24.438976],[118.413258,24.440652]]]},"properties":{"code":"09020030006","name":"新湖里","countyCode":"09020","countyName":"金門縣","townCode":"09020030","townName":"金湖鎮","level":"village","unassigned":false,"note":"","label":[118.41621761586427,24.432524995068967],"bounds":[118.39912,24.423788,118.431022,24.448249],"focusBounds":[118.39912,24.423788,118.431022,24.448249],"color":"#98b69b"}},{"type":"Feature","id":"09020030007","geometry":{"type":"MultiPolygon","coordinates":[[[[118.505554,24.428167],[118.504944,24.428265],[118.50428,24.428074],[118.50375,24.428244],[118.503695,24.427062],[118.503879,24.42629],[118.505339,24.426479],[118.505658,24.426672],[118.505977,24.427322],[118.505554,24.428167]]],[[[118.46344,24.434551],[118.463671,24.435656],[118.463462,24.435853],[118.462127,24.435412],[118.460497,24.43628],[118.460419,24.436472],[118.460634,24.437513],[118.461213,24.438316],[118.461474,24.438472],[118.461867,24.438414],[118.462163,24.438319],[118.462349,24.438015],[118.462766,24.438011],[118.463041,24.438215],[118.463166,24.438701],[118.4627,24.438906],[118.462777,24.439358],[118.462439,24.439574],[118.462752,24.440286],[118.463607,24.441071],[118.464323,24.441478],[118.465439,24.44184],[118.466769,24.441999],[118.467713,24.441889],[118.468341,24.441524],[118.468421,24.441296],[118.468098,24.440885],[118.468099,24.440501],[118.46871,24.440493],[118.46834,24.440304],[118.468191,24.440387],[118.468205,24.440123],[118.468986,24.440325],[118.469136,24.440233],[118.468835,24.440225],[118.469359,24.440169],[118.469312,24.43984],[118.469491,24.43975],[118.469679,24.439751],[118.469538,24.439901],[118.470326,24.439985],[118.470615,24.439752],[118.470741,24.439848],[118.470633,24.440221],[118.469744,24.440096],[118.471082,24.440518],[118.471292,24.440884],[118.471225,24.441279],[118.470941,24.441279],[118.470782,24.441072],[118.470626,24.441142],[118.471095,24.44159],[118.471443,24.4418],[118.471506,24.441429],[118.472303,24.441225],[118.472672,24.441513],[118.472161,24.442283],[118.47243,24.442391],[118.472398,24.442582],[118.472831,24.442903],[118.47261,24.443135],[118.472284,24.443055],[118.473584,24.444429],[118.473778,24.444934],[118.474147,24.446353],[118.474015,24.446906],[118.474171,24.447691],[118.474028,24.447687],[118.474202,24.449564],[118.475377,24.450031],[118.477465,24.449519],[118.478167,24.450258],[118.477337,24.451404],[118.476732,24.451678],[118.476222,24.452893],[118.476202,24.453279],[118.473766,24.453603],[118.473155,24.453563],[118.472061,24.454786],[118.470344,24.45522],[118.469798,24.455904],[118.468903,24.457698],[118.465685,24.453485],[118.46453,24.453176],[118.464201,24.452887],[118.463746,24.452785],[118.462523,24.450518],[118.462258,24.450262],[118.459716,24.448457],[118.456769,24.447585],[118.455169,24.44663],[118.44625,24.454154],[118.443793,24.456879],[118.442242,24.456643],[118.441808,24.456456],[118.44156,24.456136],[118.441551,24.455808],[118.442477,24.453015],[118.439182,24.452035],[118.435435,24.447932],[118.440634,24.444117],[118.450436,24.43662],[118.449317,24.435693],[118.450356,24.43458],[118.451543,24.434596],[118.452935,24.432439],[118.456356,24.434745],[118.46344,24.434551]]]]},"properties":{"code":"09020030007","name":"溪湖里","countyCode":"09020","countyName":"金門縣","townCode":"09020030","townName":"金湖鎮","level":"village","unassigned":false,"note":"","label":[118.45488601708472,24.44031120376553],"bounds":[118.435435,24.42629,118.505977,24.457698],"focusBounds":[118.435435,24.42629,118.505977,24.457698],"color":"#58b99d"}},{"type":"Feature","id":"09020030008","geometry":{"type":"MultiPolygon","coordinates":[[[[118.457595,24.414338],[118.45737,24.414544],[118.456924,24.414618],[118.456555,24.414313],[118.456116,24.414235],[118.456279,24.413895],[118.45604,24.413553],[118.45617,24.412807],[118.456945,24.412806],[118.457325,24.413387],[118.457399,24.412504],[118.458167,24.412736],[118.459238,24.412689],[118.459297,24.413542],[118.458807,24.414094],[118.458538,24.414322],[118.458048,24.414346],[118.457756,24.414181],[118.457595,24.414338]]],[[[118.45784,24.415373],[118.458168,24.415536],[118.458466,24.415952],[118.458425,24.416249],[118.458113,24.41625],[118.457405,24.41571],[118.457455,24.415451],[118.45784,24.415373]]],[[[118.460135,24.415787],[118.460621,24.416699],[118.459942,24.417067],[118.45937,24.416925],[118.458883,24.415608],[118.459159,24.415513],[118.460135,24.415787]]],[[[118.46344,24.434551],[118.456356,24.434745],[118.452935,24.432439],[118.451543,24.434596],[118.450356,24.43458],[118.449317,24.435693],[118.450436,24.43662],[118.440634,24.444117],[118.43299,24.438407],[118.431884,24.434738],[118.434634,24.42471],[118.43954,24.422454],[118.440488,24.423719],[118.442007,24.423381],[118.442289,24.423096],[118.442419,24.422646],[118.442357,24.421204],[118.444993,24.419986],[118.446813,24.417848],[118.44909,24.415771],[118.449702,24.415949],[118.449966,24.415456],[118.450372,24.415341],[118.452406,24.415469],[118.453025,24.415378],[118.453177,24.415687],[118.452664,24.416151],[118.45282,24.416556],[118.453555,24.416895],[118.454074,24.416934],[118.454406,24.417208],[118.454728,24.417128],[118.454774,24.416484],[118.454956,24.416269],[118.455244,24.416734],[118.45546,24.417578],[118.455987,24.417654],[118.456041,24.417788],[118.455788,24.418941],[118.455349,24.418974],[118.455379,24.419393],[118.455543,24.419762],[118.456752,24.420392],[118.457051,24.422369],[118.457743,24.42405],[118.457029,24.425217],[118.457194,24.425299],[118.457323,24.426015],[118.457854,24.426097],[118.458452,24.425827],[118.45858,24.42598],[118.458626,24.425759],[118.459927,24.424577],[118.459768,24.424312],[118.459877,24.424096],[118.460535,24.423675],[118.46056,24.42447],[118.461277,24.424712],[118.461359,24.42505],[118.461878,24.425156],[118.461993,24.425599],[118.462258,24.425824],[118.461938,24.425971],[118.462339,24.426188],[118.462444,24.427233],[118.463056,24.426809],[118.463665,24.427348],[118.464072,24.427299],[118.464037,24.427597],[118.464592,24.427819],[118.464944,24.428481],[118.465286,24.428707],[118.465168,24.428987],[118.465316,24.429275],[118.465092,24.429496],[118.464909,24.429457],[118.464781,24.429707],[118.464547,24.429775],[118.464022,24.429139],[118.464168,24.429655],[118.463855,24.429677],[118.466076,24.430382],[118.466509,24.430907],[118.466521,24.431583],[118.465099,24.432231],[118.463819,24.433457],[118.46344,24.434551]]]]},"properties":{"code":"09020030008","name":"蓮庵里","countyCode":"09020","countyName":"金門縣","townCode":"09020030","townName":"金湖鎮","level":"village","unassigned":false,"note":"","label":[118.44716159965421,24.42832746785485],"bounds":[118.431884,24.412504,118.466521,24.444117],"focusBounds":[118.431884,24.412504,118.466521,24.444117],"color":"#efb44f"}}]}
