{"type":"FeatureCollection","features":[{"type":"Feature","id":"10007200001","geometry":{"type":"Polygon","coordinates":[[[120.371859,23.901586],[120.370908,23.901584],[120.368318,23.901148],[120.367985,23.902272],[120.366561,23.902629],[120.365997,23.903048],[120.365188,23.903352],[120.365145,23.903582],[120.364614,23.903443],[120.364303,23.903559],[120.364007,23.905772],[120.362127,23.905425],[120.36229,23.903901],[120.361396,23.903818],[120.36149,23.902115],[120.361978,23.900554],[120.365009,23.900317],[120.365948,23.900405],[120.367553,23.900966],[120.368456,23.898133],[120.370157,23.898996],[120.370912,23.89893],[120.372435,23.898139],[120.373051,23.897201],[120.3732,23.89621],[120.37398,23.896779],[120.374351,23.897761],[120.373968,23.8979],[120.372733,23.898927],[120.372406,23.89892],[120.372064,23.899146],[120.37204,23.899867],[120.372674,23.900034],[120.372829,23.901514],[120.371859,23.901586]]]},"properties":{"code":"10007200001","name":"東和里","countyCode":"10007","countyName":"彰化縣","townCode":"10007200","townName":"二林鎮","level":"village","unassigned":false,"note":"","label":[120.36468943567819,23.901902530916942],"bounds":[120.361396,23.89621,120.374351,23.905772],"focusBounds":[120.361396,23.89621,120.374351,23.905772],"color":"#78a7e3"}},{"type":"Feature","id":"10007200002","geometry":{"type":"Polygon","coordinates":[[[120.3732,23.89621],[120.373051,23.897201],[120.372435,23.898139],[120.370912,23.89893],[120.370157,23.898996],[120.368456,23.898133],[120.367702,23.897831],[120.366376,23.897687],[120.365981,23.8975],[120.364966,23.895956],[120.36423,23.895321],[120.362926,23.895309],[120.357488,23.896015],[120.356975,23.896306],[120.35628,23.895888],[120.356054,23.895644],[120.356021,23.895334],[120.356384,23.894132],[120.356782,23.893878],[120.360371,23.89367],[120.364598,23.891788],[120.365265,23.891309],[120.366035,23.889731],[120.368203,23.888189],[120.368652,23.887601],[120.369476,23.886916],[120.371478,23.886394],[120.372244,23.885739],[120.375021,23.885185],[120.375075,23.885579],[120.37363,23.886479],[120.373543,23.887162],[120.373896,23.887215],[120.374381,23.887643],[120.374652,23.888681],[120.374471,23.890256],[120.373666,23.890815],[120.373833,23.891619],[120.373342,23.894313],[120.373365,23.89468],[120.373888,23.895625],[120.3732,23.89621]]]},"properties":{"code":"10007200002","name":"南光里","countyCode":"10007","countyName":"彰化縣","townCode":"10007200","townName":"二林鎮","level":"village","unassigned":false,"note":"","label":[120.36917654153334,23.893265053253053],"bounds":[120.356021,23.885185,120.375075,23.898996],"focusBounds":[120.356021,23.885185,120.375075,23.898996],"color":"#a49ad4"}},{"type":"Feature","id":"10007200003","geometry":{"type":"Polygon","coordinates":[[[120.361978,23.900554],[120.361936,23.900387],[120.360268,23.900437],[120.354961,23.900943],[120.353752,23.901186],[120.353319,23.900728],[120.353245,23.900387],[120.356975,23.896306],[120.357488,23.896015],[120.362926,23.895309],[120.36423,23.895321],[120.364966,23.895956],[120.365981,23.8975],[120.366376,23.897687],[120.367702,23.897831],[120.368456,23.898133],[120.367553,23.900966],[120.365948,23.900405],[120.365009,23.900317],[120.361978,23.900554]]]},"properties":{"code":"10007200003","name":"西平里","countyCode":"10007","countyName":"彰化縣","townCode":"10007200","townName":"二林鎮","level":"village","unassigned":false,"note":"","label":[120.36118230568852,23.897972353824322],"bounds":[120.353245,23.895309,120.368456,23.901186],"focusBounds":[120.353245,23.895309,120.368456,23.901186],"color":"#a8bf62"}},{"type":"Feature","id":"10007200004","geometry":{"type":"Polygon","coordinates":[[[120.375746,23.923054],[120.375252,23.923002],[120.374355,23.92322],[120.371689,23.922539],[120.371007,23.923037],[120.370298,23.922938],[120.368641,23.922724],[120.368419,23.922391],[120.367912,23.92234],[120.36624,23.920509],[120.366031,23.920932],[120.36566,23.921248],[120.364514,23.921477],[120.36371,23.919246],[120.36539,23.918352],[120.364874,23.917058],[120.3648,23.916443],[120.364471,23.915921],[120.364147,23.91448],[120.363551,23.913785],[120.361339,23.914442],[120.361055,23.9144],[120.361011,23.913927],[120.361446,23.911586],[120.361417,23.909638],[120.362208,23.908301],[120.362903,23.907675],[120.363082,23.907281],[120.362904,23.906813],[120.362036,23.906767],[120.360463,23.906153],[120.361256,23.904471],[120.361396,23.903818],[120.36229,23.903901],[120.362127,23.905425],[120.364007,23.905772],[120.364303,23.903559],[120.364614,23.903443],[120.365145,23.903582],[120.365188,23.903352],[120.365997,23.903048],[120.366561,23.902629],[120.367985,23.902272],[120.368318,23.901148],[120.370908,23.901584],[120.371859,23.901586],[120.372897,23.903451],[120.373765,23.903397],[120.374599,23.904789],[120.376447,23.908193],[120.379741,23.914852],[120.379748,23.915161],[120.379519,23.915465],[120.377861,23.915862],[120.377731,23.916036],[120.377798,23.916552],[120.379112,23.918921],[120.37919,23.919586],[120.379027,23.920092],[120.377277,23.921181],[120.375746,23.923054]]]},"properties":{"code":"10007200004","name":"北平里","countyCode":"10007","countyName":"彰化縣","townCode":"10007200","townName":"二林鎮","level":"village","unassigned":false,"note":"","label":[120.37108441166374,23.913384381282],"bounds":[120.360463,23.901148,120.379748,23.92322],"focusBounds":[120.360463,23.901148,120.379748,23.92322],"color":"#a8bf62"}},{"type":"Feature","id":"10007200005","geometry":{"type":"Polygon","coordinates":[[[120.356975,23.896306],[120.353245,23.900387],[120.35326,23.899964],[120.353534,23.899343],[120.353455,23.898886],[120.353633,23.898499],[120.353694,23.896979],[120.354476,23.895541],[120.349596,23.897076],[120.349585,23.893783],[120.348995,23.893699],[120.349076,23.892607],[120.350011,23.892231],[120.346058,23.883695],[120.345986,23.883572],[120.345382,23.883638],[120.344081,23.879748],[120.343593,23.877666],[120.342192,23.871905],[120.341518,23.869883],[120.346651,23.868335],[120.346318,23.867429],[120.350235,23.866285],[120.351481,23.868924],[120.3518,23.870434],[120.352486,23.871917],[120.352897,23.872056],[120.354827,23.87172],[120.355314,23.871774],[120.356431,23.875189],[120.357272,23.876861],[120.357681,23.87864],[120.358678,23.880884],[120.358449,23.882216],[120.358252,23.882468],[120.356417,23.883223],[120.356101,23.883666],[120.356006,23.884482],[120.358698,23.887828],[120.358855,23.887877],[120.358973,23.887733],[120.361816,23.882906],[120.362185,23.88636],[120.363652,23.890519],[120.36426,23.890886],[120.364598,23.891788],[120.360371,23.89367],[120.356782,23.893878],[120.356384,23.894132],[120.356021,23.895334],[120.356054,23.895644],[120.35628,23.895888],[120.356975,23.896306]]]},"properties":{"code":"10007200005","name":"中西里","countyCode":"10007","countyName":"彰化縣","townCode":"10007200","townName":"二林鎮","level":"village","unassigned":false,"note":"","label":[120.35095970454579,23.87908623665139],"bounds":[120.341518,23.866285,120.364598,23.900387],"focusBounds":[120.341518,23.866285,120.364598,23.900387],"color":"#68bec9"}},{"type":"Feature","id":"10007200006","geometry":{"type":"Polygon","coordinates":[[[120.361816,23.882906],[120.358973,23.887733],[120.358855,23.887877],[120.358698,23.887828],[120.356006,23.884482],[120.356101,23.883666],[120.356417,23.883223],[120.358252,23.882468],[120.358449,23.882216],[120.358678,23.880884],[120.357681,23.87864],[120.357272,23.876861],[120.356431,23.875189],[120.355314,23.871774],[120.354827,23.87172],[120.352897,23.872056],[120.352486,23.871917],[120.3518,23.870434],[120.351481,23.868924],[120.350235,23.866285],[120.350419,23.866234],[120.348508,23.860737],[120.349462,23.860583],[120.349183,23.859148],[120.349254,23.858548],[120.349891,23.858603],[120.350798,23.859007],[120.351213,23.859396],[120.35206,23.859625],[120.352087,23.859263],[120.35246,23.859219],[120.352901,23.858726],[120.353147,23.858688],[120.353386,23.858914],[120.354037,23.859052],[120.354515,23.859502],[120.354855,23.859498],[120.355342,23.858674],[120.355562,23.858647],[120.355587,23.858213],[120.355899,23.857794],[120.3557,23.857419],[120.354986,23.856941],[120.355159,23.856128],[120.355394,23.855805],[120.356024,23.855853],[120.356276,23.855556],[120.35619,23.855285],[120.356431,23.85489],[120.356942,23.85536],[120.357489,23.855242],[120.357736,23.85485],[120.358075,23.8548],[120.359232,23.855574],[120.359783,23.856393],[120.360304,23.856612],[120.360821,23.856632],[120.361954,23.856081],[120.362315,23.855504],[120.362936,23.855753],[120.363206,23.855368],[120.363835,23.855161],[120.364313,23.854503],[120.364995,23.854241],[120.365279,23.853363],[120.365517,23.853197],[120.36625,23.853525],[120.366183,23.854175],[120.366566,23.85492],[120.367076,23.854922],[120.367225,23.855183],[120.367439,23.85514],[120.368048,23.853736],[120.368332,23.853718],[120.368422,23.853856],[120.36895,23.855882],[120.369393,23.856184],[120.369622,23.856774],[120.369747,23.857365],[120.369476,23.858069],[120.369771,23.859147],[120.370337,23.859627],[120.371281,23.863314],[120.370706,23.863996],[120.370144,23.865113],[120.368356,23.869872],[120.36645,23.870663],[120.367564,23.873366],[120.36765,23.874167],[120.366058,23.874824],[120.365237,23.87584],[120.364149,23.878712],[120.363422,23.88155],[120.363059,23.881946],[120.362377,23.882143],[120.361816,23.882906]]]},"properties":{"code":"10007200006","name":"廣興里","countyCode":"10007","countyName":"彰化縣","townCode":"10007200","townName":"二林鎮","level":"village","unassigned":false,"note":"","label":[120.36038707652266,23.865280444744727],"bounds":[120.348508,23.853197,120.371281,23.887877],"focusBounds":[120.348508,23.853197,120.371281,23.887877],"color":"#df9f6a"}},{"type":"Feature","id":"10007200007","geometry":{"type":"Polygon","coordinates":[[[120.373896,23.887215],[120.373543,23.887162],[120.37363,23.886479],[120.375075,23.885579],[120.375021,23.885185],[120.372244,23.885739],[120.371478,23.886394],[120.369476,23.886916],[120.368652,23.887601],[120.368203,23.888189],[120.366035,23.889731],[120.365265,23.891309],[120.364598,23.891788],[120.36426,23.890886],[120.363652,23.890519],[120.362185,23.88636],[120.361816,23.882906],[120.362377,23.882143],[120.363059,23.881946],[120.363422,23.88155],[120.364149,23.878712],[120.365237,23.87584],[120.366058,23.874824],[120.36765,23.874167],[120.367564,23.873366],[120.36645,23.870663],[120.368356,23.869872],[120.370144,23.865113],[120.370706,23.863996],[120.371281,23.863314],[120.373904,23.862936],[120.374047,23.863439],[120.378113,23.862594],[120.378585,23.863468],[120.38078,23.862876],[120.381288,23.86547],[120.381521,23.868188],[120.382025,23.869337],[120.38366,23.871471],[120.383929,23.873],[120.383707,23.87639],[120.382821,23.877278],[120.382657,23.877717],[120.381825,23.881642],[120.379502,23.882752],[120.377168,23.884551],[120.37563,23.886238],[120.373896,23.887215]]]},"properties":{"code":"10007200007","name":"香田里","countyCode":"10007","countyName":"彰化縣","townCode":"10007200","townName":"二林鎮","level":"village","unassigned":false,"note":"","label":[120.37525631497495,23.87544991461236],"bounds":[120.361816,23.862594,120.383929,23.891788],"focusBounds":[120.361816,23.862594,120.383929,23.891788],"color":"#c38cb8"}},{"type":"Feature","id":"10007200008","geometry":{"type":"Polygon","coordinates":[[[120.393632,23.880717],[120.390224,23.879984],[120.388855,23.880122],[120.386272,23.881228],[120.383818,23.881311],[120.381825,23.881642],[120.382657,23.877717],[120.382821,23.877278],[120.383707,23.87639],[120.383929,23.873],[120.38366,23.871471],[120.382025,23.869337],[120.381521,23.868188],[120.381288,23.86547],[120.38078,23.862876],[120.381668,23.862681],[120.382678,23.862468],[120.383484,23.862116],[120.383765,23.862396],[120.383826,23.862838],[120.384165,23.863464],[120.385594,23.863313],[120.386116,23.863484],[120.388483,23.862818],[120.388734,23.863553],[120.389001,23.86384],[120.389453,23.863939],[120.397319,23.863945],[120.397934,23.864044],[120.397911,23.864356],[120.399746,23.864064],[120.39971,23.869021],[120.3997,23.869659],[120.400146,23.869988],[120.402796,23.870044],[120.403717,23.87366],[120.403674,23.874747],[120.401877,23.875324],[120.400361,23.875603],[120.400371,23.87627],[120.396103,23.87672],[120.392824,23.877265],[120.392908,23.878569],[120.393632,23.880717]]]},"properties":{"code":"10007200008","name":"外竹里","countyCode":"10007","countyName":"彰化縣","townCode":"10007200","townName":"二林鎮","level":"village","unassigned":false,"note":"","label":[120.3908686252768,23.87072063722026],"bounds":[120.38078,23.862116,120.403717,23.881642],"focusBounds":[120.38078,23.862116,120.403717,23.881642],"color":"#98b69b"}},{"type":"Feature","id":"10007200009","geometry":{"type":"Polygon","coordinates":[[[120.411675,23.891498],[120.41172,23.891861],[120.411566,23.89209],[120.406269,23.893334],[120.406018,23.893689],[120.406132,23.896022],[120.405575,23.89653],[120.404228,23.896792],[120.40237,23.896861],[120.401136,23.89678],[120.396296,23.895219],[120.394839,23.895303],[120.392265,23.896182],[120.391701,23.894315],[120.395559,23.891729],[120.395965,23.891169],[120.395124,23.890447],[120.394354,23.888935],[120.395709,23.88808],[120.395848,23.887775],[120.395547,23.887107],[120.396287,23.886873],[120.396371,23.886615],[120.393632,23.880717],[120.392908,23.878569],[120.392824,23.877265],[120.396103,23.87672],[120.400371,23.87627],[120.400562,23.877427],[120.402609,23.877298],[120.403054,23.880399],[120.402798,23.881918],[120.401977,23.882711],[120.401292,23.885045],[120.403685,23.886644],[120.404106,23.886777],[120.407605,23.886843],[120.409353,23.88987],[120.410377,23.890634],[120.410799,23.891221],[120.411237,23.891483],[120.411675,23.891498]]]},"properties":{"code":"10007200009","name":"興華里","countyCode":"10007","countyName":"彰化縣","townCode":"10007200","townName":"二林鎮","level":"village","unassigned":false,"note":"","label":[120.40126755013648,23.891180364361176],"bounds":[120.391701,23.87627,120.41172,23.896861],"focusBounds":[120.391701,23.87627,120.41172,23.896861],"color":"#efb44f"}},{"type":"Feature","id":"10007200010","geometry":{"type":"Polygon","coordinates":[[[120.391701,23.894315],[120.390787,23.894977],[120.384425,23.896392],[120.383809,23.894519],[120.380388,23.895292],[120.380945,23.897192],[120.377996,23.897882],[120.377637,23.897574],[120.37741,23.896523],[120.375279,23.896647],[120.375184,23.89653],[120.374415,23.896768],[120.373888,23.895625],[120.373365,23.89468],[120.373342,23.894313],[120.373833,23.891619],[120.373666,23.890815],[120.374471,23.890256],[120.374652,23.888681],[120.374381,23.887643],[120.373896,23.887215],[120.37563,23.886238],[120.377168,23.884551],[120.379502,23.882752],[120.381825,23.881642],[120.383818,23.881311],[120.386272,23.881228],[120.388855,23.880122],[120.390224,23.879984],[120.393632,23.880717],[120.396371,23.886615],[120.396287,23.886873],[120.395547,23.887107],[120.395848,23.887775],[120.395709,23.88808],[120.394354,23.888935],[120.395124,23.890447],[120.395965,23.891169],[120.395559,23.891729],[120.391701,23.894315]]]},"properties":{"code":"10007200010","name":"東興里","countyCode":"10007","countyName":"彰化縣","townCode":"10007200","townName":"二林鎮","level":"village","unassigned":false,"note":"","label":[120.38716722051167,23.888313487238612],"bounds":[120.373342,23.879984,120.396371,23.897882],"focusBounds":[120.373342,23.879984,120.396371,23.897882],"color":"#78a7e3"}},{"type":"Feature","id":"10007200011","geometry":{"type":"Polygon","coordinates":[[[120.406547,23.9057],[120.406112,23.905529],[120.403519,23.90643],[120.401431,23.906381],[120.400304,23.906554],[120.397397,23.907757],[120.396257,23.907966],[120.39438,23.908018],[120.389764,23.907524],[120.382136,23.903798],[120.379667,23.902331],[120.379104,23.901578],[120.379066,23.899742],[120.378951,23.899593],[120.378242,23.899378],[120.375829,23.899362],[120.37554,23.898483],[120.375526,23.897662],[120.375279,23.896647],[120.37741,23.896523],[120.377637,23.897574],[120.377996,23.897882],[120.380945,23.897192],[120.380388,23.895292],[120.383809,23.894519],[120.384425,23.896392],[120.390787,23.894977],[120.391701,23.894315],[120.392265,23.896182],[120.394839,23.895303],[120.396296,23.895219],[120.401136,23.89678],[120.40237,23.896861],[120.402772,23.8987],[120.402873,23.902152],[120.403656,23.902302],[120.406596,23.902255],[120.406547,23.9057]]]},"properties":{"code":"10007200011","name":"後厝里","countyCode":"10007","countyName":"彰化縣","townCode":"10007200","townName":"二林鎮","level":"village","unassigned":false,"note":"","label":[120.39317784095947,23.901879736162385],"bounds":[120.375279,23.894315,120.406596,23.908018],"focusBounds":[120.375279,23.894315,120.406596,23.908018],"color":"#a49ad4"}},{"type":"Feature","id":"10007200012","geometry":{"type":"Polygon","coordinates":[[[120.397163,23.921434],[120.394363,23.921591],[120.393455,23.921372],[120.393017,23.921051],[120.392242,23.918474],[120.391784,23.918163],[120.39024,23.918494],[120.389687,23.918792],[120.387719,23.921094],[120.386772,23.921947],[120.385182,23.920697],[120.384615,23.919999],[120.383129,23.919332],[120.382948,23.918179],[120.382775,23.918065],[120.382465,23.918098],[120.380219,23.919798],[120.379027,23.920092],[120.37919,23.919586],[120.379112,23.918921],[120.377798,23.916552],[120.377731,23.916036],[120.377861,23.915862],[120.379519,23.915465],[120.379748,23.915161],[120.379741,23.914852],[120.376447,23.908193],[120.374599,23.904789],[120.373765,23.903397],[120.372897,23.903451],[120.371859,23.901586],[120.372829,23.901514],[120.372674,23.900034],[120.37204,23.899867],[120.372064,23.899146],[120.372406,23.89892],[120.372733,23.898927],[120.373968,23.8979],[120.374351,23.897761],[120.37398,23.896779],[120.3732,23.89621],[120.373888,23.895625],[120.374415,23.896768],[120.375184,23.89653],[120.375279,23.896647],[120.375526,23.897662],[120.37554,23.898483],[120.375829,23.899362],[120.378242,23.899378],[120.378951,23.899593],[120.379066,23.899742],[120.379104,23.901578],[120.379667,23.902331],[120.382136,23.903798],[120.389764,23.907524],[120.39438,23.908018],[120.396257,23.907966],[120.397397,23.907757],[120.400304,23.906554],[120.401431,23.906381],[120.403519,23.90643],[120.406112,23.905529],[120.406547,23.9057],[120.408486,23.909101],[120.411285,23.912853],[120.410412,23.913759],[120.409221,23.91463],[120.404599,23.916036],[120.403423,23.916545],[120.403009,23.916908],[120.402642,23.917552],[120.402714,23.918484],[120.403167,23.9198],[120.403002,23.920203],[120.399941,23.921217],[120.397163,23.921434]]]},"properties":{"code":"10007200012","name":"豐田里","countyCode":"10007","countyName":"彰化縣","townCode":"10007200","townName":"二林鎮","level":"village","unassigned":false,"note":"","label":[120.39049928465049,23.913020426765037],"bounds":[120.371859,23.895625,120.411285,23.921947],"focusBounds":[120.371859,23.895625,120.411285,23.921947],"color":"#dd8590"}},{"type":"Feature","id":"10007200013","geometry":{"type":"Polygon","coordinates":[[[120.396837,23.951221],[120.396704,23.950866],[120.394556,23.951951],[120.393573,23.952045],[120.392792,23.952307],[120.391507,23.953098],[120.388757,23.948254],[120.386835,23.945299],[120.385854,23.945295],[120.385447,23.947204],[120.384196,23.947489],[120.38422,23.948328],[120.383148,23.948513],[120.383047,23.948502],[120.383058,23.94761],[120.381813,23.947785],[120.381514,23.948054],[120.381566,23.948324],[120.380511,23.948467],[120.380408,23.947748],[120.380445,23.94758],[120.381796,23.947355],[120.381909,23.947205],[120.381705,23.946144],[120.381905,23.943845],[120.38158,23.942197],[120.381657,23.938921],[120.38235,23.936363],[120.382556,23.934914],[120.382306,23.933824],[120.382718,23.933084],[120.382804,23.932269],[120.383072,23.93196],[120.382574,23.93116],[120.381828,23.928067],[120.381432,23.925642],[120.379452,23.924912],[120.376837,23.924599],[120.376475,23.923609],[120.375746,23.923054],[120.377277,23.921181],[120.379027,23.920092],[120.380219,23.919798],[120.382465,23.918098],[120.382775,23.918065],[120.382948,23.918179],[120.383129,23.919332],[120.384615,23.919999],[120.385182,23.920697],[120.386772,23.921947],[120.387497,23.924427],[120.387482,23.92508],[120.387194,23.925458],[120.386605,23.925757],[120.38541,23.926068],[120.385895,23.927809],[120.386622,23.932049],[120.387737,23.936644],[120.388146,23.937788],[120.388876,23.938539],[120.389577,23.938605],[120.392014,23.937864],[120.392318,23.937835],[120.392693,23.938131],[120.394335,23.943707],[120.394706,23.944317],[120.395767,23.944624],[120.396529,23.945612],[120.396797,23.94684],[120.396532,23.948053],[120.39762,23.948955],[120.397577,23.949591],[120.396994,23.951111],[120.396837,23.951221]]]},"properties":{"code":"10007200013","name":"頂厝里","countyCode":"10007","countyName":"彰化縣","townCode":"10007200","townName":"二林鎮","level":"village","unassigned":false,"note":"","label":[120.3856360781128,23.94107271494174],"bounds":[120.375746,23.918065,120.39762,23.953098],"focusBounds":[120.375746,23.918065,120.39762,23.953098],"color":"#a49ad4"}},{"type":"Feature","id":"10007200014","geometry":{"type":"Polygon","coordinates":[[[120.412537,23.945812],[120.411395,23.94693],[120.408345,23.948893],[120.406908,23.950244],[120.403711,23.9526],[120.403367,23.95307],[120.403171,23.953765],[120.402863,23.9558],[120.402075,23.957699],[120.401857,23.957878],[120.398409,23.957687],[120.398026,23.952727],[120.396966,23.952803],[120.396757,23.95191],[120.396837,23.951221],[120.396994,23.951111],[120.397577,23.949591],[120.39762,23.948955],[120.396532,23.948053],[120.396797,23.94684],[120.396529,23.945612],[120.395767,23.944624],[120.394706,23.944317],[120.394335,23.943707],[120.392693,23.938131],[120.392318,23.937835],[120.392014,23.937864],[120.389577,23.938605],[120.388876,23.938539],[120.388146,23.937788],[120.387737,23.936644],[120.386622,23.932049],[120.385895,23.927809],[120.38541,23.926068],[120.386605,23.925757],[120.387194,23.925458],[120.387482,23.92508],[120.387497,23.924427],[120.386772,23.921947],[120.387719,23.921094],[120.389687,23.918792],[120.39024,23.918494],[120.391784,23.918163],[120.392242,23.918474],[120.393017,23.921051],[120.393455,23.921372],[120.394363,23.921591],[120.397163,23.921434],[120.3975,23.922193],[120.398292,23.922838],[120.399343,23.923335],[120.402422,23.924311],[120.403954,23.924975],[120.404453,23.925344],[120.405036,23.926119],[120.405388,23.927351],[120.407146,23.929308],[120.408056,23.931275],[120.408445,23.931752],[120.409261,23.932299],[120.410536,23.932116],[120.410644,23.932507],[120.411841,23.933669],[120.412532,23.934749],[120.41354,23.935793],[120.413975,23.937426],[120.41545,23.938419],[120.416753,23.940278],[120.416792,23.940965],[120.414787,23.942923],[120.412537,23.945812]]]},"properties":{"code":"10007200014","name":"趙甲里","countyCode":"10007","countyName":"彰化縣","townCode":"10007200","townName":"二林鎮","level":"village","unassigned":false,"note":"","label":[120.40165141150403,23.937400257464613],"bounds":[120.38541,23.918163,120.416792,23.957878],"focusBounds":[120.38541,23.918163,120.416792,23.957878],"color":"#a8bf62"}},{"type":"Feature","id":"10007200015","geometry":{"type":"Polygon","coordinates":[[[120.426002,23.959251],[120.426071,23.960863],[120.426001,23.961737],[120.425762,23.962433],[120.42539,23.962617],[120.420384,23.962947],[120.419643,23.963336],[120.419387,23.964362],[120.419345,23.966193],[120.418704,23.968803],[120.418106,23.973104],[120.417858,23.974035],[120.417443,23.974789],[120.418364,23.975819],[120.418526,23.976518],[120.417139,23.978585],[120.411317,23.985274],[120.40752,23.989245],[120.403293,23.986242],[120.402568,23.984478],[120.401968,23.983459],[120.401858,23.983092],[120.402246,23.981833],[120.402733,23.978537],[120.401484,23.973611],[120.402744,23.971],[120.402076,23.967351],[120.400532,23.964395],[120.406801,23.962842],[120.411526,23.961921],[120.413225,23.961234],[120.414205,23.959953],[120.41433,23.959253],[120.414125,23.957978],[120.416022,23.957103],[120.418599,23.956457],[120.418512,23.955473],[120.418773,23.955416],[120.419343,23.955366],[120.420602,23.955909],[120.420458,23.957383],[120.420881,23.957425],[120.420981,23.957069],[120.422878,23.957229],[120.423238,23.958289],[120.422561,23.95866],[120.42279,23.959802],[120.426002,23.959251]]]},"properties":{"code":"10007200015","name":"振興里","countyCode":"10007","countyName":"彰化縣","townCode":"10007200","townName":"二林鎮","level":"village","unassigned":false,"note":"","label":[120.41036491756542,23.971886463732865],"bounds":[120.400532,23.955366,120.426071,23.989245],"focusBounds":[120.400532,23.955366,120.426071,23.989245],"color":"#68bec9"}},{"type":"Feature","id":"10007200016","geometry":{"type":"Polygon","coordinates":[[[120.426002,23.959251],[120.42279,23.959802],[120.422561,23.95866],[120.423238,23.958289],[120.422878,23.957229],[120.420981,23.957069],[120.420881,23.957425],[120.420458,23.957383],[120.420602,23.955909],[120.419343,23.955366],[120.418773,23.955416],[120.418512,23.955473],[120.418599,23.956457],[120.416022,23.957103],[120.414125,23.957978],[120.41433,23.959253],[120.414205,23.959953],[120.413225,23.961234],[120.411526,23.961921],[120.406801,23.962842],[120.400532,23.964395],[120.400375,23.964024],[120.399836,23.963809],[120.399664,23.963561],[120.399686,23.963101],[120.400189,23.962407],[120.399987,23.960231],[120.400192,23.959789],[120.401769,23.958106],[120.402331,23.957958],[120.403784,23.958033],[120.406204,23.957842],[120.407994,23.957509],[120.418773,23.954729],[120.420194,23.954731],[120.420215,23.954883],[120.424819,23.954965],[120.426002,23.959251]]]},"properties":{"code":"10007200016","name":"萬興里","countyCode":"10007","countyName":"彰化縣","townCode":"10007200","townName":"二林鎮","level":"village","unassigned":false,"note":"","label":[120.41064220742257,23.959459611814374],"bounds":[120.399664,23.954729,120.426002,23.964395],"focusBounds":[120.399664,23.954729,120.426002,23.964395],"color":"#df9f6a"}},{"type":"Feature","id":"10007200017","geometry":{"type":"Polygon","coordinates":[[[120.424819,23.954965],[120.420215,23.954883],[120.420194,23.954731],[120.418773,23.954729],[120.407994,23.957509],[120.406204,23.957842],[120.403784,23.958033],[120.402331,23.957958],[120.401769,23.958106],[120.401857,23.957878],[120.402075,23.957699],[120.402863,23.9558],[120.403171,23.953765],[120.403367,23.95307],[120.403711,23.9526],[120.406908,23.950244],[120.408345,23.948893],[120.411395,23.94693],[120.412537,23.945812],[120.413236,23.945505],[120.418783,23.944475],[120.42067,23.94362],[120.424238,23.942363],[120.425342,23.944806],[120.426399,23.946165],[120.4263,23.946957],[120.426991,23.948615],[120.427735,23.951526],[120.428337,23.955087],[120.424819,23.954965]]]},"properties":{"code":"10007200017","name":"永興里","countyCode":"10007","countyName":"彰化縣","townCode":"10007200","townName":"二林鎮","level":"village","unassigned":false,"note":"","label":[120.41597938408154,23.95022259358586],"bounds":[120.401769,23.942363,120.428337,23.958106],"focusBounds":[120.401769,23.942363,120.428337,23.958106],"color":"#58b99d"}},{"type":"Feature","id":"10007200018","geometry":{"type":"Polygon","coordinates":[[[120.412571,23.996403],[120.411158,23.997293],[120.410219,23.998357],[120.409251,23.998759],[120.408814,23.998725],[120.405689,23.99144],[120.40752,23.989245],[120.411317,23.985274],[120.417139,23.978585],[120.418526,23.976518],[120.418364,23.975819],[120.417443,23.974789],[120.417858,23.974035],[120.418106,23.973104],[120.418704,23.968803],[120.419345,23.966193],[120.419387,23.964362],[120.419643,23.963336],[120.420384,23.962947],[120.42539,23.962617],[120.425762,23.962433],[120.426001,23.961737],[120.426071,23.960863],[120.426002,23.959251],[120.424819,23.954965],[120.428337,23.955087],[120.427735,23.951526],[120.426991,23.948615],[120.4263,23.946957],[120.426399,23.946165],[120.42674,23.946533],[120.427245,23.946703],[120.430088,23.946715],[120.431658,23.946898],[120.432413,23.947688],[120.433086,23.949252],[120.430799,23.951612],[120.430368,23.952831],[120.430192,23.953884],[120.430361,23.954158],[120.433115,23.953699],[120.433822,23.953803],[120.433965,23.956344],[120.434167,23.956845],[120.434939,23.956609],[120.436096,23.956508],[120.439656,23.95661],[120.443737,23.956526],[120.446614,23.957551],[120.445899,23.958842],[120.44455,23.961005],[120.442239,23.965382],[120.440932,23.966941],[120.440097,23.967622],[120.438792,23.968366],[120.437502,23.968869],[120.435572,23.969357],[120.432742,23.969741],[120.43061,23.970494],[120.42932,23.971206],[120.429203,23.972623],[120.427317,23.974585],[120.425227,23.975761],[120.424345,23.976491],[120.423554,23.977445],[120.423338,23.978247],[120.424192,23.979103],[120.424215,23.979675],[120.423859,23.980117],[120.422864,23.980495],[120.422203,23.981167],[120.421922,23.98187],[120.421773,23.983421],[120.419148,23.986432],[120.417574,23.988243],[120.416312,23.990289],[120.414665,23.993565],[120.412571,23.996403]]]},"properties":{"code":"10007200018","name":"西庄里","countyCode":"10007","countyName":"彰化縣","townCode":"10007200","townName":"二林鎮","level":"village","unassigned":false,"note":"","label":[120.42404458106756,23.969724865277513],"bounds":[120.405689,23.946165,120.446614,23.998759],"focusBounds":[120.405689,23.946165,120.446614,23.998759],"color":"#98b69b"}},{"type":"Feature","id":"10007200019","geometry":{"type":"Polygon","coordinates":[[[120.445747,23.930268],[120.445861,23.93316],[120.445751,23.933709],[120.445184,23.934179],[120.4451,23.934443],[120.445208,23.935633],[120.443332,23.938284],[120.443086,23.939794],[120.442402,23.940459],[120.441591,23.941746],[120.441154,23.944726],[120.440936,23.944963],[120.433086,23.949252],[120.432413,23.947688],[120.431658,23.946898],[120.430088,23.946715],[120.427245,23.946703],[120.42674,23.946533],[120.426399,23.946165],[120.425342,23.944806],[120.424238,23.942363],[120.424049,23.941924],[120.423936,23.940594],[120.424557,23.939279],[120.425034,23.937638],[120.426351,23.935385],[120.427596,23.93387],[120.429786,23.931951],[120.431312,23.931174],[120.433014,23.930736],[120.434449,23.930511],[120.445747,23.930268]]]},"properties":{"code":"10007200019","name":"梅芳里","countyCode":"10007","countyName":"彰化縣","townCode":"10007200","townName":"二林鎮","level":"village","unassigned":false,"note":"","label":[120.43452207325669,23.93886228157401],"bounds":[120.423936,23.930268,120.445861,23.949252],"focusBounds":[120.423936,23.930268,120.445861,23.949252],"color":"#dd8590"}},{"type":"Feature","id":"10007200020","geometry":{"type":"Polygon","coordinates":[[[120.46108,23.935173],[120.460567,23.935416],[120.458447,23.937193],[120.457847,23.937937],[120.45559,23.940048],[120.455052,23.940873],[120.451479,23.949695],[120.448529,23.954832],[120.447247,23.95627],[120.446614,23.957551],[120.443737,23.956526],[120.439656,23.95661],[120.436096,23.956508],[120.434939,23.956609],[120.434167,23.956845],[120.433965,23.956344],[120.433822,23.953803],[120.433115,23.953699],[120.430361,23.954158],[120.430192,23.953884],[120.430368,23.952831],[120.430799,23.951612],[120.433086,23.949252],[120.440936,23.944963],[120.441154,23.944726],[120.441591,23.941746],[120.442402,23.940459],[120.443086,23.939794],[120.443332,23.938284],[120.445208,23.935633],[120.4451,23.934443],[120.445184,23.934179],[120.445751,23.933709],[120.445861,23.93316],[120.445747,23.930268],[120.445846,23.93027],[120.454,23.930187],[120.454146,23.929881],[120.459015,23.929145],[120.459764,23.927279],[120.466708,23.93145],[120.465513,23.932978],[120.46108,23.935173]]]},"properties":{"code":"10007200020","name":"華崙里","countyCode":"10007","countyName":"彰化縣","townCode":"10007200","townName":"二林鎮","level":"village","unassigned":false,"note":"","label":[120.44808122989176,23.94279091638639],"bounds":[120.430192,23.927279,120.466708,23.957551],"focusBounds":[120.430192,23.927279,120.466708,23.957551],"color":"#efb44f"}},{"type":"Feature","id":"10007200021","geometry":{"type":"Polygon","coordinates":[[[120.445747,23.930268],[120.434449,23.930511],[120.433014,23.930736],[120.431312,23.931174],[120.429786,23.931951],[120.427596,23.93387],[120.42688,23.932937],[120.426001,23.932287],[120.42521,23.931737],[120.423387,23.930982],[120.423107,23.930627],[120.422703,23.929634],[120.422702,23.927539],[120.422559,23.926666],[120.421008,23.924874],[120.426272,23.919668],[120.426112,23.912986],[120.426515,23.910101],[120.427352,23.907309],[120.429046,23.904225],[120.431328,23.901776],[120.433232,23.899175],[120.435582,23.898842],[120.439096,23.897906],[120.441243,23.897501],[120.441307,23.898833],[120.441737,23.898949],[120.441676,23.9006],[120.442492,23.90046],[120.442672,23.900547],[120.442729,23.900894],[120.443886,23.901001],[120.443801,23.903203],[120.443727,23.908107],[120.445393,23.907983],[120.446945,23.908219],[120.447315,23.908618],[120.447351,23.909176],[120.445757,23.909259],[120.44609,23.911737],[120.446587,23.911732],[120.447222,23.915228],[120.447424,23.915292],[120.447487,23.915647],[120.447166,23.917104],[120.446585,23.918683],[120.446473,23.918802],[120.445528,23.918891],[120.445846,23.93027],[120.445747,23.930268]]]},"properties":{"code":"10007200021","name":"東勢里","countyCode":"10007","countyName":"彰化縣","townCode":"10007200","townName":"二林鎮","level":"village","unassigned":false,"note":"","label":[120.4357078067729,23.91691589469049],"bounds":[120.421008,23.897501,120.447487,23.93387],"focusBounds":[120.421008,23.897501,120.447487,23.93387],"color":"#78a7e3"}},{"type":"Feature","id":"10007200022","geometry":{"type":"Polygon","coordinates":[[[120.424238,23.942363],[120.42067,23.94362],[120.418783,23.944475],[120.413236,23.945505],[120.412537,23.945812],[120.414787,23.942923],[120.416792,23.940965],[120.416753,23.940278],[120.41545,23.938419],[120.413975,23.937426],[120.41354,23.935793],[120.412532,23.934749],[120.411841,23.933669],[120.410644,23.932507],[120.410536,23.932116],[120.409261,23.932299],[120.408445,23.931752],[120.408056,23.931275],[120.407146,23.929308],[120.405388,23.927351],[120.405036,23.926119],[120.404453,23.925344],[120.403954,23.924975],[120.402422,23.924311],[120.399343,23.923335],[120.398292,23.922838],[120.3975,23.922193],[120.397163,23.921434],[120.399941,23.921217],[120.403002,23.920203],[120.403167,23.9198],[120.402714,23.918484],[120.402642,23.917552],[120.403009,23.916908],[120.403423,23.916545],[120.404599,23.916036],[120.409221,23.91463],[120.410412,23.913759],[120.411285,23.912853],[120.412094,23.911634],[120.412982,23.90965],[120.413204,23.910283],[120.413888,23.910953],[120.413987,23.911312],[120.414723,23.917569],[120.415286,23.920225],[120.415452,23.920398],[120.416444,23.920239],[120.418169,23.91969],[120.418859,23.919222],[120.419325,23.918645],[120.419536,23.918023],[120.419693,23.918004],[120.419921,23.918264],[120.41991,23.918533],[120.419323,23.921464],[120.419497,23.922373],[120.420189,23.923939],[120.421008,23.924874],[120.422559,23.926666],[120.422702,23.927539],[120.422703,23.929634],[120.423107,23.930627],[120.423387,23.930982],[120.42521,23.931737],[120.426001,23.932287],[120.42688,23.932937],[120.427596,23.93387],[120.426351,23.935385],[120.425034,23.937638],[120.424557,23.939279],[120.423936,23.940594],[120.424049,23.941924],[120.424238,23.942363]]]},"properties":{"code":"10007200022","name":"萬合里","countyCode":"10007","countyName":"彰化縣","townCode":"10007200","townName":"二林鎮","level":"village","unassigned":false,"note":"","label":[120.41426027124498,23.92700870335233],"bounds":[120.397163,23.90965,120.427596,23.945812],"focusBounds":[120.397163,23.90965,120.427596,23.945812],"color":"#a49ad4"}},{"type":"Feature","id":"10007200023","geometry":{"type":"Polygon","coordinates":[[[120.433232,23.899175],[120.431328,23.901776],[120.429046,23.904225],[120.427352,23.907309],[120.426515,23.910101],[120.426112,23.912986],[120.426272,23.919668],[120.421008,23.924874],[120.420189,23.923939],[120.419497,23.922373],[120.419323,23.921464],[120.41991,23.918533],[120.419921,23.918264],[120.419693,23.918004],[120.419536,23.918023],[120.419325,23.918645],[120.418859,23.919222],[120.418169,23.91969],[120.416444,23.920239],[120.415452,23.920398],[120.415286,23.920225],[120.414723,23.917569],[120.413987,23.911312],[120.413888,23.910953],[120.413204,23.910283],[120.412982,23.90965],[120.413947,23.907858],[120.41463,23.907045],[120.417032,23.904664],[120.419782,23.902438],[120.421675,23.901128],[120.422633,23.900653],[120.424511,23.899828],[120.426256,23.899354],[120.429182,23.899012],[120.433232,23.899175]]]},"properties":{"code":"10007200023","name":"大永里","countyCode":"10007","countyName":"彰化縣","townCode":"10007200","townName":"二林鎮","level":"village","unassigned":false,"note":"","label":[120.4202538747079,23.910300617266287],"bounds":[120.412982,23.899012,120.433232,23.924874],"focusBounds":[120.412982,23.899012,120.433232,23.924874],"color":"#df9f6a"}},{"type":"Feature","id":"10007200024","geometry":{"type":"Polygon","coordinates":[[[120.433232,23.899175],[120.429182,23.899012],[120.426256,23.899354],[120.424511,23.899828],[120.422633,23.900653],[120.421675,23.901128],[120.419782,23.902438],[120.418635,23.90075],[120.417363,23.897511],[120.415772,23.894912],[120.414842,23.893593],[120.4122,23.890921],[120.412652,23.889585],[120.41248,23.888151],[120.412909,23.887934],[120.413018,23.886113],[120.420945,23.885778],[120.420997,23.889915],[120.421459,23.891044],[120.422219,23.891729],[120.424849,23.893423],[120.427499,23.892726],[120.427838,23.892812],[120.428239,23.893099],[120.429032,23.894674],[120.42951,23.895202],[120.430695,23.89589],[120.431733,23.895991],[120.43464,23.895746],[120.441097,23.894663],[120.441243,23.897501],[120.439096,23.897906],[120.435582,23.898842],[120.433232,23.899175]]]},"properties":{"code":"10007200024","name":"原斗里","countyCode":"10007","countyName":"彰化縣","townCode":"10007200","townName":"二林鎮","level":"village","unassigned":false,"note":"","label":[120.42185931574204,23.896220639849567],"bounds":[120.4122,23.885778,120.441243,23.902438],"focusBounds":[120.4122,23.885778,120.441243,23.902438],"color":"#a8bf62"}},{"type":"Feature","id":"10007200025","geometry":{"type":"Polygon","coordinates":[[[120.412982,23.90965],[120.412094,23.911634],[120.411285,23.912853],[120.408486,23.909101],[120.406547,23.9057],[120.406596,23.902255],[120.403656,23.902302],[120.402873,23.902152],[120.402772,23.8987],[120.40237,23.896861],[120.404228,23.896792],[120.405575,23.89653],[120.406132,23.896022],[120.406018,23.893689],[120.406269,23.893334],[120.411566,23.89209],[120.41172,23.891861],[120.411675,23.891498],[120.412027,23.891317],[120.4122,23.890921],[120.414842,23.893593],[120.415772,23.894912],[120.417363,23.897511],[120.418635,23.90075],[120.419782,23.902438],[120.417032,23.904664],[120.41463,23.907045],[120.413947,23.907858],[120.412982,23.90965]]]},"properties":{"code":"10007200025","name":"西斗里","countyCode":"10007","countyName":"彰化縣","townCode":"10007200","townName":"二林鎮","level":"village","unassigned":false,"note":"","label":[120.41235808253059,23.901061849935033],"bounds":[120.40237,23.890921,120.419782,23.912853],"focusBounds":[120.40237,23.890921,120.419782,23.912853],"color":"#68bec9"}},{"type":"Feature","id":"10007200026","geometry":{"type":"Polygon","coordinates":[[[120.441097,23.894663],[120.43464,23.895746],[120.436592,23.889456],[120.436632,23.889175],[120.436414,23.888958],[120.435669,23.88889],[120.435143,23.889011],[120.431766,23.890523],[120.42867,23.892375],[120.428286,23.892424],[120.428106,23.892221],[120.42826,23.889078],[120.427781,23.88754],[120.428467,23.884957],[120.428727,23.882972],[120.429786,23.882625],[120.430298,23.882293],[120.431294,23.881103],[120.432548,23.880378],[120.432797,23.879333],[120.43214,23.878486],[120.432495,23.878149],[120.433544,23.877795],[120.43544,23.876061],[120.437102,23.875973],[120.438022,23.876192],[120.440579,23.875005],[120.442107,23.874586],[120.443459,23.874528],[120.44522,23.875826],[120.445666,23.875502],[120.446664,23.87512],[120.447324,23.875432],[120.447602,23.876128],[120.448047,23.879165],[120.447049,23.8801],[120.446126,23.884216],[120.44499,23.885058],[120.447234,23.885429],[120.448062,23.885939],[120.447969,23.886475],[120.447163,23.886992],[120.447002,23.887238],[120.446788,23.88869],[120.445902,23.889333],[120.446852,23.891723],[120.444452,23.892408],[120.443961,23.893691],[120.443465,23.894317],[120.441097,23.894663]]]},"properties":{"code":"10007200026","name":"東華里","countyCode":"10007","countyName":"彰化縣","townCode":"10007200","townName":"二林鎮","level":"village","unassigned":false,"note":"","label":[120.43894171511326,23.88307717392665],"bounds":[120.427781,23.874528,120.448062,23.895746],"focusBounds":[120.427781,23.874528,120.448062,23.895746],"color":"#df9f6a"}},{"type":"Feature","id":"10007200027","geometry":{"type":"Polygon","coordinates":[[[120.43464,23.895746],[120.431733,23.895991],[120.430695,23.89589],[120.42951,23.895202],[120.429032,23.894674],[120.428239,23.893099],[120.427838,23.892812],[120.427499,23.892726],[120.424849,23.893423],[120.422219,23.891729],[120.421459,23.891044],[120.420997,23.889915],[120.420945,23.885778],[120.425815,23.878278],[120.4275,23.878965],[120.428275,23.879272],[120.428466,23.879044],[120.42895,23.878866],[120.429603,23.880143],[120.429908,23.880289],[120.430667,23.879395],[120.43214,23.878486],[120.432797,23.879333],[120.432548,23.880378],[120.431294,23.881103],[120.430298,23.882293],[120.429786,23.882625],[120.428727,23.882972],[120.428467,23.884957],[120.427781,23.88754],[120.42826,23.889078],[120.428106,23.892221],[120.428286,23.892424],[120.42867,23.892375],[120.431766,23.890523],[120.435143,23.889011],[120.435669,23.88889],[120.436414,23.888958],[120.436632,23.889175],[120.436592,23.889456],[120.43464,23.895746]]]},"properties":{"code":"10007200027","name":"復豐里","countyCode":"10007","countyName":"彰化縣","townCode":"10007200","townName":"二林鎮","level":"village","unassigned":false,"note":"","label":[120.42450382259301,23.888888017821476],"bounds":[120.420945,23.878278,120.436632,23.895991],"focusBounds":[120.420945,23.878278,120.436632,23.895991],"color":"#c38cb8"}}]}
