{"type":"FeatureCollection","features":[{"type":"Feature","id":"10005060001","geometry":{"type":"Polygon","coordinates":[[[120.789555,24.619284],[120.788269,24.619915],[120.785706,24.620492],[120.785167,24.620476],[120.784425,24.619369],[120.78319,24.618682],[120.782453,24.618583],[120.781552,24.618816],[120.781005,24.61875],[120.778324,24.616768],[120.776566,24.616053],[120.775773,24.615334],[120.775052,24.61383],[120.77447,24.613369],[120.772409,24.612873],[120.769938,24.612878],[120.770088,24.612288],[120.772108,24.610541],[120.773305,24.610036],[120.774324,24.609864],[120.777549,24.610173],[120.781917,24.610251],[120.783305,24.610103],[120.788861,24.6115],[120.789095,24.612223],[120.786307,24.613232],[120.785299,24.613868],[120.787036,24.6161],[120.789555,24.619284]]]},"properties":{"code":"10005060001","name":"南龍里","countyCode":"10005","countyName":"苗栗縣","townCode":"10005060","townName":"後龍鎮","level":"village","unassigned":false,"note":"","label":[120.78121094914785,24.614061027748544],"bounds":[120.769938,24.609864,120.789555,24.620492],"focusBounds":[120.769938,24.609864,120.789555,24.620492],"color":"#98b69b"}},{"type":"Feature","id":"10005060002","geometry":{"type":"Polygon","coordinates":[[[120.787036,24.6161],[120.785299,24.613868],[120.786307,24.613232],[120.789095,24.612223],[120.789598,24.613319],[120.790219,24.614202],[120.789798,24.614313],[120.789193,24.61423],[120.788648,24.614392],[120.788614,24.614567],[120.788755,24.614652],[120.787036,24.6161]]]},"properties":{"code":"10005060002","name":"中龍里","countyCode":"10005","countyName":"苗栗縣","townCode":"10005060","townName":"後龍鎮","level":"village","unassigned":false,"note":"","label":[120.7874438524028,24.614176329878767],"bounds":[120.785299,24.612223,120.790219,24.6161],"focusBounds":[120.785299,24.612223,120.790219,24.6161],"color":"#58b99d"}},{"type":"Feature","id":"10005060003","geometry":{"type":"Polygon","coordinates":[[[120.789555,24.619284],[120.787036,24.6161],[120.788755,24.614652],[120.788614,24.614567],[120.788648,24.614392],[120.789193,24.61423],[120.789798,24.614313],[120.790219,24.614202],[120.791406,24.615789],[120.794152,24.615385],[120.794504,24.616112],[120.795646,24.616162],[120.795829,24.616571],[120.796315,24.616555],[120.796657,24.617063],[120.797395,24.61729],[120.797651,24.617532],[120.79319,24.618921],[120.792546,24.618597],[120.792202,24.618573],[120.789555,24.619284]]]},"properties":{"code":"10005060003","name":"北龍里","countyCode":"10005","countyName":"苗栗縣","townCode":"10005060","townName":"後龍鎮","level":"village","unassigned":false,"note":"","label":[120.79024823983,24.61715149454713],"bounds":[120.787036,24.614202,120.797651,24.619284],"focusBounds":[120.787036,24.614202,120.797651,24.619284],"color":"#efb44f"}},{"type":"Feature","id":"10005060004","geometry":{"type":"Polygon","coordinates":[[[120.801306,24.617788],[120.79974,24.618316],[120.798307,24.617661],[120.797651,24.617532],[120.797395,24.61729],[120.796657,24.617063],[120.796315,24.616555],[120.795829,24.616571],[120.795646,24.616162],[120.794504,24.616112],[120.794152,24.615385],[120.791406,24.615789],[120.790219,24.614202],[120.789598,24.613319],[120.789095,24.612223],[120.788861,24.6115],[120.78965,24.6116],[120.791124,24.611169],[120.793504,24.610803],[120.794722,24.610199],[120.795641,24.609446],[120.796361,24.6083],[120.796581,24.605891],[120.796938,24.60522],[120.799049,24.603787],[120.801526,24.602473],[120.802674,24.601487],[120.803608,24.601136],[120.806438,24.599604],[120.807168,24.598993],[120.808196,24.599117],[120.808793,24.598742],[120.809929,24.598494],[120.812743,24.598292],[120.813492,24.598066],[120.813539,24.598055],[120.814172,24.600813],[120.814957,24.60302],[120.815116,24.607744],[120.814982,24.608508],[120.811989,24.607072],[120.810737,24.606675],[120.809696,24.605859],[120.80859,24.605623],[120.807161,24.605436],[120.805969,24.60558],[120.804668,24.60641],[120.804068,24.60661],[120.802722,24.608459],[120.802155,24.609861],[120.802276,24.611597],[120.802628,24.612422],[120.802088,24.616708],[120.80163,24.61765],[120.801306,24.617788]]]},"properties":{"code":"10005060004","name":"大庄里","countyCode":"10005","countyName":"苗栗縣","townCode":"10005060","townName":"後龍鎮","level":"village","unassigned":false,"note":"","label":[120.79812780639564,24.612809091610366],"bounds":[120.788861,24.598055,120.815116,24.618316],"focusBounds":[120.788861,24.598055,120.815116,24.618316],"color":"#78a7e3"}},{"type":"Feature","id":"10005060005","geometry":{"type":"Polygon","coordinates":[[[120.765375,24.618274],[120.764028,24.61634],[120.76547,24.615958],[120.76852,24.614525],[120.769938,24.612878],[120.772409,24.612873],[120.77447,24.613369],[120.775052,24.61383],[120.775773,24.615334],[120.776566,24.616053],[120.778324,24.616768],[120.781005,24.61875],[120.781552,24.618816],[120.782453,24.618583],[120.78319,24.618682],[120.784425,24.619369],[120.785167,24.620476],[120.785706,24.620492],[120.788269,24.619915],[120.789555,24.619284],[120.790708,24.620891],[120.791644,24.623088],[120.790391,24.62383],[120.787259,24.632144],[120.786329,24.633798],[120.784065,24.636992],[120.783286,24.63607],[120.782778,24.635618],[120.780597,24.634532],[120.779427,24.633659],[120.776981,24.631561],[120.775999,24.631004],[120.773551,24.628591],[120.773084,24.627927],[120.769145,24.624056],[120.76844,24.622773],[120.767117,24.621182],[120.765375,24.618274]]]},"properties":{"code":"10005060005","name":"溪洲里","countyCode":"10005","countyName":"苗栗縣","townCode":"10005060","townName":"後龍鎮","level":"village","unassigned":false,"note":"","label":[120.77870852725158,24.624419938340857],"bounds":[120.764028,24.612873,120.791644,24.636992],"focusBounds":[120.764028,24.612873,120.791644,24.636992],"color":"#dd8590"}},{"type":"Feature","id":"10005060006","geometry":{"type":"Polygon","coordinates":[[[120.834089,24.60096],[120.833054,24.601398],[120.830946,24.602644],[120.829613,24.603859],[120.828989,24.604814],[120.828022,24.604267],[120.827326,24.603096],[120.825782,24.603276],[120.823728,24.60251],[120.823175,24.602782],[120.822243,24.603495],[120.821932,24.604037],[120.821892,24.604529],[120.82235,24.604867],[120.822638,24.605843],[120.822052,24.607943],[120.821538,24.608525],[120.820972,24.610671],[120.820718,24.610989],[120.820046,24.611181],[120.818886,24.61094],[120.817748,24.610318],[120.816725,24.610123],[120.815734,24.609483],[120.814982,24.608508],[120.815116,24.607744],[120.814957,24.60302],[120.814172,24.600813],[120.813539,24.598055],[120.815607,24.597723],[120.823425,24.597448],[120.82408,24.597321],[120.826029,24.596331],[120.827449,24.5946],[120.829156,24.593198],[120.832179,24.591253],[120.833659,24.590876],[120.834904,24.590886],[120.835902,24.590718],[120.837216,24.590332],[120.838867,24.589594],[120.840825,24.588581],[120.843728,24.586474],[120.844527,24.58727],[120.844747,24.58824],[120.844713,24.590788],[120.843721,24.592556],[120.843264,24.593111],[120.841415,24.594538],[120.84017,24.595884],[120.837519,24.597699],[120.835422,24.598795],[120.834474,24.599559],[120.834339,24.599745],[120.83458,24.599941],[120.833556,24.600553],[120.833706,24.600796],[120.834089,24.60096]]]},"properties":{"code":"10005060006","name":"豐富里","countyCode":"10005","countyName":"苗栗縣","townCode":"10005060","townName":"後龍鎮","level":"village","unassigned":false,"note":"","label":[120.8290929527552,24.59895212923422],"bounds":[120.813539,24.586474,120.844747,24.611181],"focusBounds":[120.813539,24.586474,120.844747,24.611181],"color":"#a49ad4"}},{"type":"Feature","id":"10005060007","geometry":{"type":"Polygon","coordinates":[[[120.820046,24.611181],[120.820718,24.610989],[120.820972,24.610671],[120.821538,24.608525],[120.822052,24.607943],[120.822638,24.605843],[120.82235,24.604867],[120.821892,24.604529],[120.821932,24.604037],[120.822243,24.603495],[120.823175,24.602782],[120.823728,24.60251],[120.825782,24.603276],[120.827326,24.603096],[120.828022,24.604267],[120.828989,24.604814],[120.829613,24.603859],[120.830946,24.602644],[120.833054,24.601398],[120.834089,24.60096],[120.835399,24.601099],[120.83622,24.601444],[120.836976,24.601527],[120.83883,24.601095],[120.839824,24.601071],[120.840147,24.601536],[120.839761,24.603274],[120.838193,24.603591],[120.836452,24.604481],[120.835584,24.604381],[120.834777,24.603717],[120.833612,24.605365],[120.833375,24.605461],[120.832083,24.606931],[120.834251,24.611367],[120.834677,24.611782],[120.834106,24.612757],[120.832755,24.613205],[120.829815,24.613532],[120.824842,24.614729],[120.823456,24.614865],[120.8226,24.614694],[120.822644,24.614348],[120.822141,24.612906],[120.821691,24.612292],[120.820832,24.611618],[120.820046,24.611181]]]},"properties":{"code":"10005060007","name":"校椅里","countyCode":"10005","countyName":"苗栗縣","townCode":"10005060","townName":"後龍鎮","level":"village","unassigned":false,"note":"","label":[120.82765304653995,24.609306021543603],"bounds":[120.820046,24.60096,120.840147,24.614865],"focusBounds":[120.820046,24.60096,120.840147,24.614865],"color":"#a8bf62"}},{"type":"Feature","id":"10005060008","geometry":{"type":"Polygon","coordinates":[[[120.828926,24.625491],[120.828481,24.62552],[120.826339,24.625099],[120.823227,24.623733],[120.822711,24.623622],[120.822342,24.623782],[120.82192,24.624544],[120.82063,24.62456],[120.820734,24.625438],[120.820337,24.626461],[120.82039,24.627598],[120.820082,24.62826],[120.819494,24.628941],[120.819315,24.630057],[120.819045,24.630463],[120.818022,24.630276],[120.817467,24.62927],[120.817013,24.629252],[120.816644,24.627387],[120.816117,24.626839],[120.816085,24.625452],[120.815777,24.624958],[120.814998,24.624928],[120.814213,24.625932],[120.813682,24.626331],[120.813438,24.625815],[120.811318,24.624929],[120.809109,24.624332],[120.808192,24.623787],[120.806899,24.622548],[120.804175,24.621446],[120.803621,24.620523],[120.803208,24.620317],[120.80223,24.618644],[120.801772,24.618434],[120.801306,24.617788],[120.80163,24.61765],[120.802088,24.616708],[120.803428,24.616458],[120.804235,24.616527],[120.804953,24.616321],[120.805614,24.61596],[120.80591,24.61534],[120.807211,24.614135],[120.807795,24.614002],[120.808232,24.613574],[120.80947,24.614914],[120.811378,24.615665],[120.813608,24.614793],[120.814713,24.614068],[120.814788,24.61422],[120.815599,24.613886],[120.815646,24.613565],[120.817449,24.613065],[120.818442,24.612625],[120.818704,24.612853],[120.819623,24.612092],[120.819368,24.611735],[120.819826,24.611788],[120.820353,24.612079],[120.820832,24.611618],[120.821691,24.612292],[120.822141,24.612906],[120.822644,24.614348],[120.8226,24.614694],[120.823456,24.614865],[120.824842,24.614729],[120.829815,24.613532],[120.832755,24.613205],[120.834106,24.612757],[120.834677,24.611782],[120.835222,24.613203],[120.83415,24.614893],[120.832364,24.615587],[120.83185,24.616005],[120.831804,24.616355],[120.832302,24.617153],[120.832294,24.617402],[120.831791,24.618006],[120.831172,24.618354],[120.831163,24.619471],[120.830256,24.620332],[120.830278,24.621561],[120.83004,24.622288],[120.829298,24.623242],[120.829303,24.625124],[120.829217,24.625375],[120.828926,24.625491]]]},"properties":{"code":"10005060008","name":"埔頂里","countyCode":"10005","countyName":"苗栗縣","townCode":"10005060","townName":"後龍鎮","level":"village","unassigned":false,"note":"","label":[120.8168967684118,24.619400437897504],"bounds":[120.801306,24.611618,120.835222,24.630463],"focusBounds":[120.801306,24.611618,120.835222,24.630463],"color":"#68bec9"}},{"type":"Feature","id":"10005060009","geometry":{"type":"Polygon","coordinates":[[[120.814982,24.608508],[120.815734,24.609483],[120.816725,24.610123],[120.817748,24.610318],[120.818886,24.61094],[120.820046,24.611181],[120.820832,24.611618],[120.820353,24.612079],[120.819826,24.611788],[120.819368,24.611735],[120.819623,24.612092],[120.818704,24.612853],[120.818442,24.612625],[120.817449,24.613065],[120.815646,24.613565],[120.815599,24.613886],[120.814788,24.61422],[120.814713,24.614068],[120.813608,24.614793],[120.811378,24.615665],[120.80947,24.614914],[120.808232,24.613574],[120.809215,24.612509],[120.81032,24.612465],[120.811489,24.613072],[120.812149,24.613136],[120.814415,24.612257],[120.815358,24.611408],[120.814624,24.610357],[120.814982,24.608508]]]},"properties":{"code":"10005060009","name":"新民里","countyCode":"10005","countyName":"苗栗縣","townCode":"10005060","townName":"後龍鎮","level":"village","unassigned":false,"note":"","label":[120.81684155017794,24.61168950610176],"bounds":[120.808232,24.608508,120.820832,24.615665],"focusBounds":[120.808232,24.608508,120.820832,24.615665],"color":"#df9f6a"}},{"type":"Feature","id":"10005060010","geometry":{"type":"Polygon","coordinates":[[[120.808232,24.613574],[120.807795,24.614002],[120.807211,24.614135],[120.80591,24.61534],[120.805614,24.61596],[120.804953,24.616321],[120.804235,24.616527],[120.803428,24.616458],[120.802088,24.616708],[120.802628,24.612422],[120.802276,24.611597],[120.802155,24.609861],[120.802722,24.608459],[120.804068,24.60661],[120.804668,24.60641],[120.805969,24.60558],[120.807161,24.605436],[120.80859,24.605623],[120.809696,24.605859],[120.810737,24.606675],[120.811989,24.607072],[120.814982,24.608508],[120.814624,24.610357],[120.815358,24.611408],[120.814415,24.612257],[120.812149,24.613136],[120.811489,24.613072],[120.81032,24.612465],[120.809215,24.612509],[120.808232,24.613574]]]},"properties":{"code":"10005060010","name":"復興里","countyCode":"10005","countyName":"苗栗縣","townCode":"10005060","townName":"後龍鎮","level":"village","unassigned":false,"note":"","label":[120.80655615089823,24.609746081232547],"bounds":[120.802088,24.605436,120.815358,24.616708],"focusBounds":[120.802088,24.605436,120.815358,24.616708],"color":"#c38cb8"}},{"type":"Feature","id":"10005060011","geometry":{"type":"Polygon","coordinates":[[[120.805724,24.641505],[120.803446,24.638031],[120.799948,24.640118],[120.796907,24.635423],[120.794493,24.631202],[120.791644,24.623088],[120.790708,24.620891],[120.789555,24.619284],[120.792202,24.618573],[120.792546,24.618597],[120.79319,24.618921],[120.797651,24.617532],[120.798307,24.617661],[120.79974,24.618316],[120.801306,24.617788],[120.801772,24.618434],[120.80223,24.618644],[120.803208,24.620317],[120.803621,24.620523],[120.804175,24.621446],[120.806899,24.622548],[120.808192,24.623787],[120.809109,24.624332],[120.811318,24.624929],[120.813438,24.625815],[120.813682,24.626331],[120.813457,24.626458],[120.813443,24.626829],[120.814622,24.629297],[120.814881,24.629686],[120.815289,24.62964],[120.815443,24.629874],[120.815382,24.630068],[120.817258,24.632815],[120.815283,24.63383],[120.810677,24.636633],[120.809682,24.637508],[120.809824,24.637864],[120.809272,24.637863],[120.808861,24.638293],[120.807138,24.639464],[120.807324,24.639926],[120.806656,24.640571],[120.806703,24.640807],[120.805724,24.641505]]]},"properties":{"code":"10005060011","name":"東明里","countyCode":"10005","countyName":"苗栗縣","townCode":"10005060","townName":"後龍鎮","level":"village","unassigned":false,"note":"","label":[120.80268260358397,24.6295821480297],"bounds":[120.789555,24.617532,120.817258,24.641505],"focusBounds":[120.789555,24.617532,120.817258,24.641505],"color":"#98b69b"}},{"type":"Feature","id":"10005060012","geometry":{"type":"Polygon","coordinates":[[[120.807731,24.654099],[120.807568,24.65426],[120.807536,24.654647],[120.807846,24.655664],[120.808854,24.657153],[120.809363,24.658984],[120.809673,24.659544],[120.80883,24.661052],[120.809668,24.662837],[120.809685,24.663509],[120.809524,24.663667],[120.808949,24.663781],[120.808438,24.66372],[120.808015,24.663841],[120.80714,24.663718],[120.806226,24.664639],[120.80498,24.665194],[120.804687,24.665177],[120.801586,24.66893],[120.798244,24.668488],[120.794003,24.662331],[120.793184,24.660001],[120.791403,24.654145],[120.791981,24.652643],[120.792744,24.65132],[120.792971,24.649707],[120.7929,24.649086],[120.791298,24.646596],[120.790758,24.644856],[120.789482,24.642204],[120.788384,24.640917],[120.784065,24.636992],[120.786329,24.633798],[120.787259,24.632144],[120.790391,24.62383],[120.791644,24.623088],[120.794493,24.631202],[120.796907,24.635423],[120.799948,24.640118],[120.803446,24.638031],[120.805724,24.641505],[120.807943,24.644245],[120.807779,24.64453],[120.808145,24.64518],[120.808143,24.64616],[120.808383,24.647146],[120.807956,24.647573],[120.807903,24.648039],[120.807484,24.648302],[120.80767,24.648686],[120.806055,24.649584],[120.806412,24.650117],[120.806006,24.650394],[120.807431,24.652938],[120.807731,24.654099]]]},"properties":{"code":"10005060012","name":"大山里","countyCode":"10005","countyName":"苗栗縣","townCode":"10005060","townName":"後龍鎮","level":"village","unassigned":false,"note":"","label":[120.79914772663014,24.646760935523492],"bounds":[120.784065,24.623088,120.809685,24.66893],"focusBounds":[120.784065,24.623088,120.809685,24.66893],"color":"#58b99d"}},{"type":"Feature","id":"10005060013","geometry":{"type":"Polygon","coordinates":[[[120.807731,24.654099],[120.807431,24.652938],[120.806006,24.650394],[120.806412,24.650117],[120.806055,24.649584],[120.80767,24.648686],[120.807484,24.648302],[120.807903,24.648039],[120.807956,24.647573],[120.808383,24.647146],[120.808143,24.64616],[120.808145,24.64518],[120.807779,24.64453],[120.807943,24.644245],[120.805724,24.641505],[120.806703,24.640807],[120.806656,24.640571],[120.807324,24.639926],[120.807138,24.639464],[120.808861,24.638293],[120.809272,24.637863],[120.809824,24.637864],[120.809682,24.637508],[120.810677,24.636633],[120.815283,24.63383],[120.817258,24.632815],[120.817731,24.633514],[120.818738,24.634255],[120.819144,24.635005],[120.819035,24.636084],[120.819683,24.637042],[120.819301,24.63784],[120.818758,24.638282],[120.819228,24.639904],[120.819466,24.640043],[120.82025,24.640019],[120.820865,24.640873],[120.821328,24.640951],[120.821675,24.641474],[120.822235,24.641228],[120.822779,24.641174],[120.82303,24.641506],[120.823796,24.641997],[120.823881,24.642379],[120.824224,24.642797],[120.824886,24.643138],[120.825576,24.643748],[120.826149,24.645402],[120.827186,24.646716],[120.827505,24.647534],[120.828939,24.648067],[120.828958,24.648732],[120.829137,24.649099],[120.830402,24.650931],[120.831319,24.651904],[120.83173,24.653879],[120.831073,24.65394],[120.830297,24.653726],[120.829103,24.652066],[120.828641,24.652282],[120.82742,24.652252],[120.827096,24.652487],[120.826865,24.653115],[120.826045,24.653412],[120.825329,24.653367],[120.825202,24.653234],[120.824426,24.653545],[120.824253,24.654033],[120.823512,24.65451],[120.823869,24.655094],[120.822992,24.655697],[120.82249,24.655523],[120.821871,24.655857],[120.821661,24.655593],[120.821179,24.65585],[120.820043,24.655212],[120.819764,24.654917],[120.819601,24.654433],[120.819176,24.654348],[120.819005,24.654042],[120.818226,24.654102],[120.817767,24.653745],[120.817511,24.653306],[120.818212,24.65272],[120.81814,24.652085],[120.81705,24.650504],[120.815755,24.651144],[120.815529,24.651435],[120.814663,24.651969],[120.814152,24.650968],[120.812717,24.651519],[120.811419,24.652165],[120.8118,24.652946],[120.811018,24.653385],[120.810817,24.653292],[120.810307,24.653538],[120.809848,24.652833],[120.808628,24.653499],[120.808483,24.653776],[120.807731,24.654099]]]},"properties":{"code":"10005060013","name":"灣寶里","countyCode":"10005","countyName":"苗栗縣","townCode":"10005060","townName":"後龍鎮","level":"village","unassigned":false,"note":"","label":[120.81576862423675,24.64472347996748],"bounds":[120.805724,24.632815,120.83173,24.655857],"focusBounds":[120.805724,24.632815,120.83173,24.655857],"color":"#efb44f"}},{"type":"Feature","id":"10005060014","geometry":{"type":"Polygon","coordinates":[[[120.834951,24.669342],[120.832425,24.671242],[120.831586,24.671695],[120.824364,24.673636],[120.82306,24.672675],[120.820838,24.672847],[120.813876,24.671754],[120.809383,24.671229],[120.806525,24.670573],[120.804726,24.669666],[120.802806,24.669092],[120.801586,24.66893],[120.804687,24.665177],[120.80498,24.665194],[120.806226,24.664639],[120.80714,24.663718],[120.808015,24.663841],[120.808438,24.66372],[120.808949,24.663781],[120.809524,24.663667],[120.809685,24.663509],[120.809668,24.662837],[120.80883,24.661052],[120.809673,24.659544],[120.809363,24.658984],[120.808854,24.657153],[120.807846,24.655664],[120.807536,24.654647],[120.807568,24.65426],[120.807731,24.654099],[120.808483,24.653776],[120.808628,24.653499],[120.809848,24.652833],[120.810307,24.653538],[120.810817,24.653292],[120.811018,24.653385],[120.8118,24.652946],[120.811419,24.652165],[120.812717,24.651519],[120.814152,24.650968],[120.814663,24.651969],[120.815529,24.651435],[120.815755,24.651144],[120.81705,24.650504],[120.81814,24.652085],[120.818212,24.65272],[120.817511,24.653306],[120.817767,24.653745],[120.818226,24.654102],[120.819005,24.654042],[120.819176,24.654348],[120.819601,24.654433],[120.819764,24.654917],[120.820043,24.655212],[120.821179,24.65585],[120.821661,24.655593],[120.821871,24.655857],[120.82249,24.655523],[120.822992,24.655697],[120.823869,24.655094],[120.823512,24.65451],[120.824253,24.654033],[120.824426,24.653545],[120.825202,24.653234],[120.825329,24.653367],[120.826045,24.653412],[120.826865,24.653115],[120.827096,24.652487],[120.82742,24.652252],[120.828641,24.652282],[120.829103,24.652066],[120.830297,24.653726],[120.831073,24.65394],[120.83173,24.653879],[120.831929,24.654305],[120.832744,24.655023],[120.834132,24.655957],[120.834664,24.656134],[120.835309,24.656736],[120.836639,24.659525],[120.838248,24.661264],[120.839008,24.66261],[120.840161,24.665736],[120.836866,24.667787],[120.834951,24.669342]]]},"properties":{"code":"10005060014","name":"海寶里","countyCode":"10005","countyName":"苗栗縣","townCode":"10005060","townName":"後龍鎮","level":"village","unassigned":false,"note":"","label":[120.82129026082826,24.664301507372272],"bounds":[120.801586,24.650504,120.840161,24.673636],"focusBounds":[120.801586,24.650504,120.840161,24.673636],"color":"#78a7e3"}},{"type":"Feature","id":"10005060015","geometry":{"type":"Polygon","coordinates":[[[120.790758,24.644856],[120.791298,24.646596],[120.7929,24.649086],[120.792971,24.649707],[120.792744,24.65132],[120.791981,24.652643],[120.791403,24.654145],[120.793184,24.660001],[120.794003,24.662331],[120.798244,24.668488],[120.793378,24.667659],[120.791593,24.667814],[120.788595,24.667],[120.78641,24.666211],[120.784397,24.665226],[120.782238,24.664494],[120.778713,24.662565],[120.777109,24.661211],[120.776443,24.660891],[120.771107,24.655353],[120.776134,24.650342],[120.779686,24.649638],[120.7812,24.648225],[120.783412,24.64495],[120.786249,24.644663],[120.787417,24.645083],[120.788828,24.645215],[120.789271,24.645487],[120.790758,24.644856]]]},"properties":{"code":"10005060015","name":"外埔里","countyCode":"10005","countyName":"苗栗縣","townCode":"10005060","townName":"後龍鎮","level":"village","unassigned":false,"note":"","label":[120.78387225964323,24.656209339937043],"bounds":[120.771107,24.644663,120.798244,24.668488],"focusBounds":[120.771107,24.644663,120.798244,24.668488],"color":"#dd8590"}},{"type":"Feature","id":"10005060016","geometry":{"type":"Polygon","coordinates":[[[120.790758,24.644856],[120.789271,24.645487],[120.788828,24.645215],[120.787417,24.645083],[120.786249,24.644663],[120.783412,24.64495],[120.7812,24.648225],[120.779686,24.649638],[120.776134,24.650342],[120.771107,24.655353],[120.769433,24.653944],[120.768633,24.654723],[120.768468,24.65463],[120.76846,24.654439],[120.768616,24.654478],[120.769338,24.653864],[120.768929,24.651977],[120.767781,24.650446],[120.766476,24.649735],[120.764227,24.649522],[120.763586,24.64907],[120.763102,24.647884],[120.76247,24.646917],[120.761144,24.643801],[120.769739,24.645094],[120.773216,24.643052],[120.775747,24.641069],[120.783286,24.63607],[120.784065,24.636992],[120.788384,24.640917],[120.789482,24.642204],[120.790758,24.644856]]]},"properties":{"code":"10005060016","name":"海埔里","countyCode":"10005","countyName":"苗栗縣","townCode":"10005060","townName":"後龍鎮","level":"village","unassigned":false,"note":"","label":[120.77724054962157,24.645773526883005],"bounds":[120.761144,24.63607,120.790758,24.655353],"focusBounds":[120.761144,24.63607,120.790758,24.655353],"color":"#a49ad4"}},{"type":"Feature","id":"10005060017","geometry":{"type":"Polygon","coordinates":[[[120.783286,24.63607],[120.775747,24.641069],[120.773216,24.643052],[120.769739,24.645094],[120.761144,24.643801],[120.760854,24.643122],[120.759724,24.642398],[120.758536,24.64212],[120.757695,24.64152],[120.757084,24.640141],[120.756957,24.637779],[120.76229,24.634806],[120.762259,24.634519],[120.762551,24.634303],[120.762733,24.634382],[120.763873,24.634109],[120.763709,24.633773],[120.76685,24.632149],[120.76718,24.632394],[120.773551,24.628591],[120.775999,24.631004],[120.776981,24.631561],[120.779427,24.633659],[120.780597,24.634532],[120.782778,24.635618],[120.783286,24.63607]]]},"properties":{"code":"10005060017","name":"秀水里","countyCode":"10005","countyName":"苗栗縣","townCode":"10005060","townName":"後龍鎮","level":"village","unassigned":false,"note":"","label":[120.76965724736311,24.637998425681907],"bounds":[120.756957,24.628591,120.783286,24.645094],"focusBounds":[120.756957,24.628591,120.783286,24.645094],"color":"#a8bf62"}},{"type":"Feature","id":"10005060018","geometry":{"type":"Polygon","coordinates":[[[120.773551,24.628591],[120.76718,24.632394],[120.76685,24.632149],[120.763709,24.633773],[120.763873,24.634109],[120.762733,24.634382],[120.762551,24.634303],[120.762259,24.634519],[120.76229,24.634806],[120.756957,24.637779],[120.756374,24.632544],[120.755953,24.631472],[120.754865,24.631228],[120.754015,24.6312],[120.753895,24.630252],[120.752374,24.627404],[120.749905,24.626408],[120.75689,24.623051],[120.758303,24.622752],[120.760222,24.622027],[120.76316,24.620115],[120.765375,24.618274],[120.767117,24.621182],[120.76844,24.622773],[120.769145,24.624056],[120.773084,24.627927],[120.773551,24.628591]]]},"properties":{"code":"10005060018","name":"水尾里","countyCode":"10005","countyName":"苗栗縣","townCode":"10005060","townName":"後龍鎮","level":"village","unassigned":false,"note":"","label":[120.76201757833977,24.627908199577817],"bounds":[120.749905,24.618274,120.773551,24.637779],"focusBounds":[120.749905,24.618274,120.773551,24.637779],"color":"#68bec9"}},{"type":"Feature","id":"10005060019","geometry":{"type":"Polygon","coordinates":[[[120.765375,24.618274],[120.76316,24.620115],[120.760222,24.622027],[120.758303,24.622752],[120.75689,24.623051],[120.749905,24.626408],[120.748929,24.625953],[120.747971,24.624851],[120.747413,24.62386],[120.745835,24.621733],[120.742847,24.621205],[120.740287,24.621122],[120.750302,24.611958],[120.754688,24.608641],[120.75906,24.605694],[120.760215,24.604502],[120.762486,24.601555],[120.763485,24.600532],[120.765069,24.60043],[120.766292,24.599353],[120.767936,24.598784],[120.768339,24.59832],[120.768523,24.597017],[120.771477,24.597773],[120.772952,24.597196],[120.774001,24.595977],[120.774456,24.59651],[120.775242,24.598434],[120.77544,24.598525],[120.776169,24.59843],[120.776384,24.598811],[120.776723,24.60055],[120.776787,24.602244],[120.775987,24.605352],[120.777181,24.60705],[120.777368,24.607852],[120.777093,24.608964],[120.776774,24.609262],[120.775901,24.60918],[120.773111,24.607812],[120.771955,24.6076],[120.770207,24.607598],[120.769342,24.607749],[120.7681,24.608214],[120.765897,24.610447],[120.762457,24.612638],[120.759856,24.614839],[120.759934,24.615661],[120.76017,24.616103],[120.760795,24.61662],[120.761899,24.616686],[120.764028,24.61634],[120.765375,24.618274]]]},"properties":{"code":"10005060019","name":"龍津里","countyCode":"10005","countyName":"苗栗縣","townCode":"10005060","townName":"後龍鎮","level":"village","unassigned":false,"note":"","label":[120.7541503457108,24.617550550020667],"bounds":[120.740287,24.595977,120.777368,24.626408],"focusBounds":[120.740287,24.595977,120.777368,24.626408],"color":"#df9f6a"}},{"type":"Feature","id":"10005060020","geometry":{"type":"Polygon","coordinates":[[[120.764028,24.61634],[120.761899,24.616686],[120.760795,24.61662],[120.76017,24.616103],[120.759934,24.615661],[120.759856,24.614839],[120.762457,24.612638],[120.765897,24.610447],[120.7681,24.608214],[120.769342,24.607749],[120.770207,24.607598],[120.771955,24.6076],[120.773111,24.607812],[120.775901,24.60918],[120.776774,24.609262],[120.777093,24.608964],[120.777368,24.607852],[120.777181,24.60705],[120.775987,24.605352],[120.776787,24.602244],[120.776723,24.60055],[120.776384,24.598811],[120.776169,24.59843],[120.77544,24.598525],[120.775242,24.598434],[120.774456,24.59651],[120.774001,24.595977],[120.771571,24.594707],[120.770998,24.594233],[120.769872,24.59153],[120.769134,24.590433],[120.769075,24.589586],[120.768833,24.589188],[120.768435,24.589029],[120.767282,24.589058],[120.766551,24.588089],[120.766555,24.587542],[120.767104,24.586795],[120.767954,24.584943],[120.768036,24.583528],[120.767849,24.581462],[120.769067,24.581386],[120.770136,24.580386],[120.770737,24.579186],[120.77079,24.578444],[120.771207,24.577856],[120.771102,24.575775],[120.771615,24.575079],[120.773781,24.574243],[120.773821,24.573246],[120.774949,24.572835],[120.775501,24.572268],[120.775522,24.571839],[120.775094,24.571375],[120.775714,24.571088],[120.775797,24.570508],[120.776718,24.570496],[120.777274,24.57033],[120.7784,24.56933],[120.778352,24.56966],[120.778718,24.571255],[120.779534,24.572022],[120.780181,24.573245],[120.779867,24.573893],[120.780311,24.574691],[120.780501,24.576142],[120.780435,24.576372],[120.779993,24.576729],[120.779869,24.577863],[120.780584,24.57873],[120.780888,24.57961],[120.780397,24.580548],[120.780434,24.581926],[120.78129,24.582734],[120.781967,24.584574],[120.782575,24.585205],[120.783032,24.585974],[120.783509,24.586424],[120.784238,24.586561],[120.784462,24.586736],[120.784569,24.587251],[120.784029,24.587983],[120.787278,24.587527],[120.788435,24.588082],[120.789544,24.588097],[120.79187,24.589161],[120.793651,24.58817],[120.795409,24.587831],[120.795725,24.587982],[120.795928,24.588497],[120.796782,24.589046],[120.797013,24.588972],[120.797547,24.588141],[120.798107,24.58848],[120.799335,24.588222],[120.800555,24.590262],[120.800832,24.591344],[120.801933,24.592719],[120.802002,24.59302],[120.801859,24.593295],[120.80219,24.593982],[120.802477,24.59408],[120.803308,24.593803],[120.803509,24.593899],[120.80416,24.594968],[120.805545,24.596459],[120.806423,24.598104],[120.807168,24.598993],[120.806438,24.599604],[120.803608,24.601136],[120.802674,24.601487],[120.801526,24.602473],[120.799049,24.603787],[120.796938,24.60522],[120.796581,24.605891],[120.796361,24.6083],[120.795641,24.609446],[120.794722,24.610199],[120.793504,24.610803],[120.791124,24.611169],[120.78965,24.6116],[120.788861,24.6115],[120.783305,24.610103],[120.781917,24.610251],[120.777549,24.610173],[120.774324,24.609864],[120.773305,24.610036],[120.772108,24.610541],[120.770088,24.612288],[120.769938,24.612878],[120.76852,24.614525],[120.76547,24.615958],[120.764028,24.61634]]]},"properties":{"code":"10005060020","name":"龍坑里","countyCode":"10005","countyName":"苗栗縣","townCode":"10005060","townName":"後龍鎮","level":"village","unassigned":false,"note":"","label":[120.78745244449004,24.599378313145145],"bounds":[120.759856,24.56933,120.807168,24.616686],"focusBounds":[120.759856,24.56933,120.807168,24.616686],"color":"#c38cb8"}},{"type":"Feature","id":"10005060021","geometry":{"type":"Polygon","coordinates":[[[120.774001,24.595977],[120.772952,24.597196],[120.771477,24.597773],[120.768523,24.597017],[120.768339,24.59832],[120.767936,24.598784],[120.766292,24.599353],[120.765069,24.60043],[120.763485,24.600532],[120.762486,24.601555],[120.760215,24.604502],[120.75906,24.605694],[120.754688,24.608641],[120.750302,24.611958],[120.740287,24.621122],[120.738199,24.62086],[120.734975,24.617395],[120.740446,24.611975],[120.741991,24.61068],[120.744714,24.608683],[120.747246,24.607148],[120.748111,24.606014],[120.749497,24.604898],[120.74994,24.604166],[120.750303,24.603012],[120.750489,24.601246],[120.750354,24.598278],[120.750157,24.596838],[120.748721,24.592153],[120.748485,24.58988],[120.748695,24.588152],[120.749846,24.587574],[120.751053,24.586204],[120.751363,24.586044],[120.751902,24.583954],[120.751814,24.580365],[120.752886,24.581233],[120.75307,24.58123],[120.754031,24.580843],[120.755091,24.579781],[120.756578,24.579718],[120.757256,24.579862],[120.758194,24.579709],[120.760512,24.580922],[120.761024,24.580597],[120.76255,24.580463],[120.763746,24.579818],[120.764271,24.579719],[120.764792,24.579844],[120.76534,24.580203],[120.766702,24.580586],[120.767849,24.581462],[120.768036,24.583528],[120.767954,24.584943],[120.767104,24.586795],[120.766555,24.587542],[120.766551,24.588089],[120.767282,24.589058],[120.768435,24.589029],[120.768833,24.589188],[120.769075,24.589586],[120.769134,24.590433],[120.769872,24.59153],[120.770998,24.594233],[120.771571,24.594707],[120.774001,24.595977]]]},"properties":{"code":"10005060021","name":"福寧里","countyCode":"10005","countyName":"苗栗縣","townCode":"10005060","townName":"後龍鎮","level":"village","unassigned":false,"note":"","label":[120.75880311003247,24.59294719831193],"bounds":[120.734975,24.579709,120.774001,24.621122],"focusBounds":[120.734975,24.579709,120.774001,24.621122],"color":"#98b69b"}},{"type":"Feature","id":"10005060022","geometry":{"type":"Polygon","coordinates":[[[120.751814,24.580365],[120.751902,24.583954],[120.751363,24.586044],[120.751053,24.586204],[120.749846,24.587574],[120.748695,24.588152],[120.748485,24.58988],[120.748721,24.592153],[120.750157,24.596838],[120.750354,24.598278],[120.750489,24.601246],[120.750303,24.603012],[120.74994,24.604166],[120.749497,24.604898],[120.748111,24.606014],[120.747246,24.607148],[120.744714,24.608683],[120.741991,24.61068],[120.740446,24.611975],[120.734975,24.617395],[120.732682,24.613295],[120.731172,24.611864],[120.729965,24.610844],[120.728248,24.610089],[120.725995,24.60943],[120.723775,24.608222],[120.722367,24.60694],[120.72082,24.604943],[120.723372,24.603157],[120.725561,24.602073],[120.726514,24.601392],[120.726155,24.600946],[120.726314,24.600607],[120.726194,24.599592],[120.725405,24.597785],[120.726262,24.597496],[120.726533,24.59702],[120.727212,24.596817],[120.72752,24.59636],[120.727856,24.59613],[120.728346,24.596052],[120.729012,24.595514],[120.728747,24.594075],[120.729474,24.593609],[120.728758,24.592631],[120.728671,24.591969],[120.729263,24.590182],[120.730445,24.588994],[120.730128,24.587955],[120.730648,24.587619],[120.731112,24.587555],[120.730185,24.586668],[120.730975,24.586166],[120.729037,24.583825],[120.729308,24.583482],[120.730014,24.583383],[120.729717,24.583006],[120.729952,24.582809],[120.730735,24.583195],[120.731356,24.583167],[120.732141,24.584048],[120.733736,24.583113],[120.7323,24.581564],[120.731694,24.581191],[120.730775,24.581004],[120.730575,24.580481],[120.730097,24.580069],[120.73003,24.579627],[120.73072,24.577032],[120.731858,24.575835],[120.734188,24.5744],[120.734363,24.574793],[120.735878,24.574548],[120.737552,24.574113],[120.739587,24.573274],[120.740614,24.573854],[120.740986,24.574219],[120.740955,24.574631],[120.740229,24.574862],[120.74022,24.575084],[120.74157,24.575145],[120.742037,24.575339],[120.742275,24.575795],[120.742796,24.575817],[120.743788,24.576773],[120.744238,24.576613],[120.744449,24.5767],[120.744529,24.576947],[120.74414,24.578234],[120.744265,24.578743],[120.744876,24.579015],[120.745746,24.578782],[120.74718,24.579035],[120.747895,24.578851],[120.748391,24.578059],[120.749533,24.578979],[120.750044,24.579612],[120.751319,24.580041],[120.751814,24.580365]]]},"properties":{"code":"10005060022","name":"中和里","countyCode":"10005","countyName":"苗栗縣","townCode":"10005060","townName":"後龍鎮","level":"village","unassigned":false,"note":"","label":[120.73927227340313,24.596802882030943],"bounds":[120.72082,24.573274,120.751902,24.617395],"focusBounds":[120.72082,24.573274,120.751902,24.617395],"color":"#58b99d"}},{"type":"Feature","id":"10005060023","geometry":{"type":"Polygon","coordinates":[[[120.739587,24.573274],[120.737552,24.574113],[120.735878,24.574548],[120.734363,24.574793],[120.734188,24.5744],[120.731858,24.575835],[120.73072,24.577032],[120.73003,24.579627],[120.730097,24.580069],[120.730575,24.580481],[120.730775,24.581004],[120.731694,24.581191],[120.7323,24.581564],[120.733736,24.583113],[120.732141,24.584048],[120.731356,24.583167],[120.730735,24.583195],[120.729952,24.582809],[120.729717,24.583006],[120.730014,24.583383],[120.729308,24.583482],[120.729037,24.583825],[120.730975,24.586166],[120.730185,24.586668],[120.731112,24.587555],[120.730648,24.587619],[120.730128,24.587955],[120.730445,24.588994],[120.729263,24.590182],[120.728671,24.591969],[120.728758,24.592631],[120.729474,24.593609],[120.728747,24.594075],[120.729012,24.595514],[120.728346,24.596052],[120.727856,24.59613],[120.72752,24.59636],[120.727212,24.596817],[120.726533,24.59702],[120.726262,24.597496],[120.725405,24.597785],[120.726194,24.599592],[120.726314,24.600607],[120.726155,24.600946],[120.726514,24.601392],[120.725561,24.602073],[120.723372,24.603157],[120.72082,24.604943],[120.720259,24.604153],[120.718288,24.602863],[120.715813,24.600971],[120.713467,24.594881],[120.712656,24.59348],[120.711328,24.59294],[120.710422,24.592043],[120.709765,24.591018],[120.70911,24.588861],[120.7091,24.587546],[120.708085,24.582452],[120.707219,24.580388],[120.705336,24.577588],[120.70501,24.575874],[120.703918,24.575161],[120.703915,24.574772],[120.704657,24.573852],[120.704552,24.572862],[120.708193,24.573576],[120.711219,24.573479],[120.712306,24.573592],[120.712572,24.57332],[120.712438,24.572457],[120.712867,24.571772],[120.713966,24.571354],[120.71421,24.571022],[120.71497,24.571729],[120.715433,24.571748],[120.715817,24.571502],[120.716178,24.571603],[120.716456,24.572108],[120.716489,24.572799],[120.716731,24.57299],[120.71846,24.572834],[120.718882,24.572484],[120.718534,24.572143],[120.718581,24.571887],[120.71922,24.571371],[120.719507,24.570461],[120.719359,24.568872],[120.719771,24.56681],[120.720725,24.56627],[120.721225,24.565734],[120.721971,24.565305],[120.723,24.563435],[120.724243,24.56299],[120.725188,24.562337],[120.725591,24.561924],[120.725856,24.561051],[120.726128,24.560664],[120.726492,24.560254],[120.727038,24.560017],[120.727395,24.560127],[120.728003,24.560693],[120.72813,24.561296],[120.728755,24.561828],[120.728878,24.562175],[120.728687,24.562951],[120.729105,24.563367],[120.729259,24.563956],[120.732285,24.56822],[120.732973,24.567941],[120.734227,24.568349],[120.73667,24.569904],[120.736799,24.570126],[120.736693,24.570501],[120.736994,24.570931],[120.737201,24.570955],[120.737511,24.570677],[120.737842,24.57095],[120.738836,24.571034],[120.739197,24.571356],[120.739367,24.571859],[120.739836,24.572187],[120.739839,24.572353],[120.739319,24.572912],[120.739587,24.573274]]]},"properties":{"code":"10005060023","name":"南港里","countyCode":"10005","countyName":"苗栗縣","townCode":"10005060","townName":"後龍鎮","level":"village","unassigned":false,"note":"","label":[120.71850865998198,24.583001675516947],"bounds":[120.703915,24.560017,120.739839,24.604943],"focusBounds":[120.703915,24.560017,120.739839,24.604943],"color":"#efb44f"}}]}
