{"type":"FeatureCollection","features":[{"type":"Feature","id":"10004020001","geometry":{"type":"Polygon","coordinates":[[[121.127085,24.65374],[121.126104,24.654624],[121.124814,24.655248],[121.124345,24.655854],[121.124255,24.657793],[121.123866,24.658861],[121.124134,24.660643],[121.124037,24.662626],[121.123892,24.663474],[121.123376,24.664834],[121.122697,24.665678],[121.121894,24.666258],[121.119673,24.667334],[121.117659,24.664849],[121.117366,24.664084],[121.11644,24.663424],[121.115277,24.661915],[121.114222,24.661605],[121.113555,24.660675],[121.112876,24.660443],[121.112318,24.659599],[121.111683,24.658038],[121.110778,24.657347],[121.110737,24.656932],[121.109802,24.655183],[121.108559,24.65391],[121.107447,24.653752],[121.10716,24.653469],[121.106367,24.651863],[121.103989,24.649919],[121.102611,24.64792],[121.100027,24.648257],[121.098414,24.646852],[121.097339,24.646558],[121.09644,24.646664],[121.093233,24.647863],[121.092445,24.648021],[121.091901,24.6478],[121.093501,24.646584],[121.094994,24.645802],[121.095763,24.645006],[121.095868,24.644601],[121.095766,24.643665],[121.095982,24.642997],[121.095919,24.641746],[121.096027,24.641574],[121.09673,24.641328],[121.096972,24.641295],[121.097587,24.64041],[121.098382,24.64],[121.099174,24.640567],[121.099786,24.641879],[121.100165,24.641862],[121.100998,24.641399],[121.101586,24.641318],[121.102894,24.64249],[121.10409,24.642553],[121.104404,24.642796],[121.105107,24.643939],[121.106911,24.644498],[121.108781,24.645639],[121.109228,24.646327],[121.109287,24.647575],[121.109986,24.648443],[121.11055,24.64948],[121.111448,24.649845],[121.112015,24.650468],[121.113025,24.650666],[121.114025,24.651201],[121.114327,24.650272],[121.114825,24.649806],[121.115181,24.648916],[121.11612,24.648283],[121.116597,24.648033],[121.116998,24.648039],[121.117669,24.647402],[121.119694,24.646317],[121.121444,24.645835],[121.121802,24.645247],[121.123095,24.645022],[121.123945,24.645189],[121.124189,24.645354],[121.124938,24.64724],[121.125518,24.64823],[121.126948,24.649514],[121.127394,24.649703],[121.128655,24.651274],[121.128414,24.65226],[121.127085,24.65374]]]},"properties":{"code":"10004020001","name":"上坪里","countyCode":"10004","countyName":"新竹縣","townCode":"10004020","townName":"竹東鎮","level":"village","unassigned":false,"note":"","label":[121.1176025005017,24.65608328485611],"bounds":[121.091901,24.64,121.128655,24.667334],"focusBounds":[121.091901,24.64,121.128655,24.667334],"color":"#58b99d"}},{"type":"Feature","id":"10004020002","geometry":{"type":"Polygon","coordinates":[[[121.103632,24.690452],[121.101663,24.691102],[121.101226,24.691103],[121.096386,24.687919],[121.094952,24.687295],[121.094078,24.687166],[121.09361,24.686858],[121.092967,24.686104],[121.091266,24.685111],[121.08952,24.683687],[121.089343,24.683119],[121.08948,24.682389],[121.089207,24.681075],[121.088748,24.680813],[121.087928,24.679964],[121.086801,24.679752],[121.086432,24.679546],[121.08634,24.678629],[121.086072,24.677936],[121.085146,24.676715],[121.084978,24.676406],[121.084997,24.675837],[121.085614,24.675105],[121.086119,24.673232],[121.08649,24.673045],[121.086563,24.672772],[121.086624,24.671766],[121.086138,24.671269],[121.08611,24.670592],[121.08632,24.669706],[121.086068,24.668857],[121.087233,24.667253],[121.086453,24.666501],[121.085885,24.664972],[121.08669,24.663267],[121.08738,24.662853],[121.087418,24.661119],[121.087708,24.66043],[121.087774,24.659394],[121.089353,24.655732],[121.089379,24.655478],[121.08873,24.654531],[121.090116,24.653784],[121.09027,24.653068],[121.090737,24.652455],[121.091377,24.652333],[121.092182,24.651778],[121.091811,24.650329],[121.091752,24.648232],[121.091901,24.6478],[121.092445,24.648021],[121.093233,24.647863],[121.09644,24.646664],[121.097339,24.646558],[121.098414,24.646852],[121.100027,24.648257],[121.102611,24.64792],[121.103989,24.649919],[121.106367,24.651863],[121.10716,24.653469],[121.107447,24.653752],[121.108559,24.65391],[121.109802,24.655183],[121.110737,24.656932],[121.110778,24.657347],[121.111683,24.658038],[121.112318,24.659599],[121.112876,24.660443],[121.113555,24.660675],[121.114222,24.661605],[121.115277,24.661915],[121.11644,24.663424],[121.117366,24.664084],[121.117659,24.664849],[121.119673,24.667334],[121.117689,24.668393],[121.116855,24.668671],[121.114486,24.668865],[121.112247,24.669233],[121.110431,24.668764],[121.10826,24.667124],[121.106517,24.666237],[121.105875,24.666184],[121.105327,24.666354],[121.104979,24.666764],[121.10393,24.669538],[121.103825,24.671318],[121.102538,24.671712],[121.101347,24.672292],[121.100785,24.672803],[121.099879,24.674345],[121.099586,24.675136],[121.099923,24.676091],[121.100757,24.677451],[121.101282,24.678947],[121.103661,24.683575],[121.10362,24.686188],[121.103249,24.689041],[121.103632,24.690452]]]},"properties":{"code":"10004020002","name":"瑞峰里","countyCode":"10004","countyName":"新竹縣","townCode":"10004020","townName":"竹東鎮","level":"village","unassigned":false,"note":"","label":[121.0968240668769,24.662681579851608],"bounds":[121.084978,24.646558,121.119673,24.691103],"focusBounds":[121.084978,24.646558,121.119673,24.691103],"color":"#efb44f"}},{"type":"Feature","id":"10004020003","geometry":{"type":"Polygon","coordinates":[[[121.103632,24.690452],[121.104897,24.692664],[121.105315,24.694],[121.105221,24.695483],[121.10447,24.697319],[121.103826,24.697921],[121.100257,24.698349],[121.099398,24.698752],[121.098904,24.699181],[121.098575,24.699737],[121.098245,24.701354],[121.096838,24.701147],[121.096173,24.700555],[121.09313,24.699425],[121.092599,24.698679],[121.092059,24.698268],[121.090298,24.698321],[121.09023,24.697866],[121.089785,24.697463],[121.089634,24.697077],[121.090051,24.695624],[121.090838,24.69498],[121.091083,24.693508],[121.091619,24.692563],[121.092222,24.691802],[121.093324,24.691207],[121.093633,24.690751],[121.093535,24.689737],[121.09387,24.687517],[121.094078,24.687166],[121.094952,24.687295],[121.096386,24.687919],[121.101226,24.691103],[121.101663,24.691102],[121.103632,24.690452]]]},"properties":{"code":"10004020003","name":"軟橋里","countyCode":"10004","countyName":"新竹縣","townCode":"10004020","townName":"竹東鎮","level":"village","unassigned":false,"note":"","label":[121.09682186887991,24.69466915830173],"bounds":[121.089634,24.687166,121.105315,24.701354],"focusBounds":[121.089634,24.687166,121.105315,24.701354],"color":"#a49ad4"}},{"type":"Feature","id":"10004020004","geometry":{"type":"Polygon","coordinates":[[[121.101852,24.715966],[121.099938,24.716667],[121.098939,24.718079],[121.09855,24.718947],[121.09822,24.719126],[121.097657,24.719019],[121.097071,24.720229],[121.09672,24.720381],[121.095976,24.720286],[121.095747,24.720194],[121.095553,24.718669],[121.095944,24.718191],[121.095726,24.71736],[121.095798,24.717221],[121.096864,24.716845],[121.096792,24.716269],[121.097459,24.714612],[121.096066,24.713903],[121.095073,24.712629],[121.094024,24.709442],[121.093094,24.707585],[121.092842,24.707387],[121.090469,24.707013],[121.087042,24.706693],[121.08567,24.706693],[121.085888,24.706457],[121.085799,24.706232],[121.083953,24.704933],[121.083854,24.703925],[121.085647,24.703043],[121.087567,24.703006],[121.087379,24.701822],[121.087448,24.700566],[121.087726,24.700453],[121.088676,24.70056],[121.089324,24.700182],[121.089484,24.699569],[121.090141,24.698981],[121.090298,24.698321],[121.092059,24.698268],[121.092599,24.698679],[121.09313,24.699425],[121.096173,24.700555],[121.096838,24.701147],[121.098245,24.701354],[121.098231,24.702445],[121.098554,24.703392],[121.099303,24.70467],[121.10012,24.705299],[121.100211,24.706883],[121.099867,24.708135],[121.100013,24.709662],[121.101852,24.715966]]]},"properties":{"code":"10004020004","name":"員崠里","countyCode":"10004","countyName":"新竹縣","townCode":"10004020","townName":"竹東鎮","level":"village","unassigned":false,"note":"","label":[121.09510022560876,24.70436477002049],"bounds":[121.083854,24.698268,121.101852,24.720381],"focusBounds":[121.083854,24.698268,121.101852,24.720381],"color":"#dd8590"}},{"type":"Feature","id":"10004020005","geometry":{"type":"Polygon","coordinates":[[[121.104564,24.723969],[121.103784,24.724206],[121.100721,24.725669],[121.099667,24.727448],[121.096123,24.727579],[121.094989,24.727285],[121.094559,24.727002],[121.094422,24.72673],[121.094492,24.725595],[121.093647,24.724938],[121.093538,24.724693],[121.093954,24.72317],[121.095137,24.722148],[121.095408,24.721616],[121.09576,24.721336],[121.095976,24.720286],[121.09672,24.720381],[121.097071,24.720229],[121.097657,24.719019],[121.09822,24.719126],[121.09855,24.718947],[121.098939,24.718079],[121.099938,24.716667],[121.101852,24.715966],[121.102215,24.716969],[121.103039,24.719201],[121.103524,24.721202],[121.104564,24.723969]]]},"properties":{"code":"10004020005","name":"東寧里","countyCode":"10004","countyName":"新竹縣","townCode":"10004020","townName":"竹東鎮","level":"village","unassigned":false,"note":"","label":[121.0991455656582,24.722627161759384],"bounds":[121.093538,24.715966,121.104564,24.727579],"focusBounds":[121.093538,24.715966,121.104564,24.727579],"color":"#a49ad4"}},{"type":"Feature","id":"10004020006","geometry":{"type":"Polygon","coordinates":[[[121.093538,24.724693],[121.093419,24.725564],[121.093916,24.726598],[121.092911,24.72817],[121.092495,24.728394],[121.091052,24.728415],[121.08986,24.727472],[121.088457,24.726838],[121.08772,24.726154],[121.087158,24.725974],[121.086334,24.725406],[121.085878,24.725582],[121.085078,24.726282],[121.083384,24.725201],[121.083251,24.724875],[121.08372,24.724199],[121.08492,24.724136],[121.08564,24.722835],[121.086678,24.722074],[121.085451,24.718641],[121.085239,24.716956],[121.085235,24.714744],[121.084942,24.714217],[121.084591,24.713966],[121.082521,24.712968],[121.08261,24.71169],[121.083205,24.71088],[121.084664,24.709551],[121.084784,24.708637],[121.084248,24.707202],[121.084841,24.706613],[121.08567,24.706693],[121.087042,24.706693],[121.090469,24.707013],[121.092842,24.707387],[121.093094,24.707585],[121.094024,24.709442],[121.095073,24.712629],[121.096066,24.713903],[121.097459,24.714612],[121.096792,24.716269],[121.096864,24.716845],[121.095798,24.717221],[121.095726,24.71736],[121.095944,24.718191],[121.095553,24.718669],[121.095747,24.720194],[121.095976,24.720286],[121.09576,24.721336],[121.095408,24.721616],[121.095137,24.722148],[121.093954,24.72317],[121.093538,24.724693]]]},"properties":{"code":"10004020006","name":"上舘里","countyCode":"10004","countyName":"新竹縣","townCode":"10004020","townName":"竹東鎮","level":"village","unassigned":false,"note":"","label":[121.09055169014486,24.716242200417064],"bounds":[121.082521,24.706613,121.097459,24.728415],"focusBounds":[121.082521,24.706613,121.097459,24.728415],"color":"#a8bf62"}},{"type":"Feature","id":"10004020007","geometry":{"type":"Polygon","coordinates":[[[121.088566,24.731475],[121.086858,24.731493],[121.086584,24.731764],[121.086476,24.732462],[121.085002,24.732476],[121.084379,24.731072],[121.081998,24.730458],[121.081605,24.730395],[121.081128,24.730531],[121.079786,24.731393],[121.077327,24.731883],[121.075972,24.731774],[121.074227,24.730427],[121.074258,24.7301],[121.073717,24.728127],[121.07278,24.727454],[121.072164,24.72729],[121.07194,24.72704],[121.071848,24.726298],[121.072527,24.726265],[121.072735,24.725946],[121.072515,24.725204],[121.072141,24.724797],[121.071709,24.723884],[121.070249,24.722686],[121.068994,24.722082],[121.06927,24.721665],[121.069327,24.720841],[121.069654,24.720378],[121.070124,24.718781],[121.07056,24.71836],[121.070801,24.716362],[121.071307,24.716218],[121.071606,24.715786],[121.072271,24.715396],[121.072894,24.714672],[121.073858,24.714709],[121.075063,24.713807],[121.075308,24.713887],[121.075669,24.714449],[121.076019,24.714527],[121.076475,24.71413],[121.077789,24.713695],[121.078877,24.713642],[121.079276,24.713303],[121.079731,24.71324],[121.080203,24.712957],[121.0815,24.713664],[121.082052,24.713713],[121.082343,24.713518],[121.082521,24.712968],[121.084591,24.713966],[121.084942,24.714217],[121.085235,24.714744],[121.085239,24.716956],[121.085451,24.718641],[121.086678,24.722074],[121.08564,24.722835],[121.08492,24.724136],[121.08372,24.724199],[121.083251,24.724875],[121.083384,24.725201],[121.085078,24.726282],[121.085878,24.725582],[121.086334,24.725406],[121.087158,24.725974],[121.08772,24.726154],[121.088457,24.726838],[121.08986,24.727472],[121.091052,24.728415],[121.091129,24.730512],[121.090823,24.730495],[121.088566,24.731475]]]},"properties":{"code":"10004020007","name":"大鄉里","countyCode":"10004","countyName":"新竹縣","townCode":"10004020","townName":"竹東鎮","level":"village","unassigned":false,"note":"","label":[121.07811737765432,24.720804883875722],"bounds":[121.068994,24.712957,121.091129,24.732476],"focusBounds":[121.068994,24.712957,121.091129,24.732476],"color":"#68bec9"}},{"type":"Feature","id":"10004020008","geometry":{"type":"Polygon","coordinates":[[[121.089924,24.737048],[121.08991,24.738145],[121.089335,24.737897],[121.087923,24.73629],[121.087802,24.736101],[121.088178,24.73581],[121.08852,24.735673],[121.089936,24.735666],[121.089924,24.737048]]]},"properties":{"code":"10004020008","name":"東華里","countyCode":"10004","countyName":"新竹縣","townCode":"10004020","townName":"竹東鎮","level":"village","unassigned":false,"note":"","label":[121.08915877472786,24.73656102597808],"bounds":[121.087802,24.735666,121.089936,24.738145],"focusBounds":[121.087802,24.735666,121.089936,24.738145],"color":"#df9f6a"}},{"type":"Feature","id":"10004020009","geometry":{"type":"Polygon","coordinates":[[[121.08991,24.738145],[121.089362,24.73886],[121.088642,24.738794],[121.086969,24.737573],[121.085868,24.738089],[121.083918,24.737968],[121.083171,24.737658],[121.082693,24.736894],[121.081376,24.735765],[121.081033,24.734984],[121.081126,24.734047],[121.081352,24.733638],[121.081963,24.733622],[121.083384,24.733126],[121.083837,24.732456],[121.085002,24.732476],[121.086476,24.732462],[121.086584,24.731764],[121.086858,24.731493],[121.088566,24.731475],[121.088386,24.732866],[121.086352,24.733066],[121.086469,24.734668],[121.087128,24.735324],[121.088178,24.73581],[121.087802,24.736101],[121.087923,24.73629],[121.089335,24.737897],[121.08991,24.738145]]]},"properties":{"code":"10004020009","name":"商華里","countyCode":"10004","countyName":"新竹縣","townCode":"10004020","townName":"竹東鎮","level":"village","unassigned":false,"note":"","label":[121.08449267761611,24.735638774081742],"bounds":[121.081033,24.731475,121.08991,24.73886],"focusBounds":[121.081033,24.731475,121.08991,24.73886],"color":"#c38cb8"}},{"type":"Feature","id":"10004020010","geometry":{"type":"Polygon","coordinates":[[[121.087929,24.740803],[121.087459,24.741389],[121.086754,24.7406],[121.086326,24.7405],[121.085411,24.740765],[121.085119,24.74134],[121.084537,24.741072],[121.083574,24.7409],[121.083647,24.740384],[121.08424,24.739487],[121.083918,24.737968],[121.085868,24.738089],[121.086969,24.737573],[121.088642,24.738794],[121.089362,24.73886],[121.087929,24.740803]]]},"properties":{"code":"10004020010","name":"竹東里","countyCode":"10004","countyName":"新竹縣","townCode":"10004020","townName":"竹東鎮","level":"village","unassigned":false,"note":"","label":[121.08681757207626,24.739157492158313],"bounds":[121.083574,24.737573,121.089362,24.741389],"focusBounds":[121.083574,24.737573,121.089362,24.741389],"color":"#98b69b"}},{"type":"Feature","id":"10004020011","geometry":{"type":"Polygon","coordinates":[[[121.093417,24.737192],[121.092325,24.738034],[121.092465,24.742577],[121.090143,24.742151],[121.087929,24.740803],[121.089362,24.73886],[121.08991,24.738145],[121.089924,24.737048],[121.093084,24.736989],[121.093417,24.737192]]]},"properties":{"code":"10004020011","name":"榮樂里","countyCode":"10004","countyName":"新竹縣","townCode":"10004020","townName":"竹東鎮","level":"village","unassigned":false,"note":"","label":[121.09061770434634,24.740135144756135],"bounds":[121.087929,24.736989,121.093417,24.742577],"focusBounds":[121.087929,24.736989,121.093417,24.742577],"color":"#58b99d"}},{"type":"Feature","id":"10004020012","geometry":{"type":"Polygon","coordinates":[[[121.105281,24.74073],[121.105257,24.7408],[121.103831,24.740272],[121.100204,24.737615],[121.099161,24.737074],[121.097834,24.737062],[121.095792,24.739038],[121.093417,24.737192],[121.093084,24.736989],[121.089924,24.737048],[121.089936,24.735666],[121.090102,24.735597],[121.0902,24.734759],[121.090759,24.733949],[121.090705,24.733333],[121.090887,24.733424],[121.091839,24.734001],[121.095169,24.733888],[121.095131,24.73197],[121.096631,24.730961],[121.097185,24.730183],[121.097989,24.730292],[121.098892,24.730053],[121.101207,24.729908],[121.107168,24.730685],[121.10681,24.732197],[121.106378,24.733325],[121.105752,24.736316],[121.105713,24.738535],[121.105281,24.74073]]]},"properties":{"code":"10004020012","name":"鷄林里","countyCode":"10004","countyName":"新竹縣","townCode":"10004020","townName":"竹東鎮","level":"village","unassigned":false,"note":"","label":[121.09989100024332,24.733721526529184],"bounds":[121.089924,24.729908,121.107168,24.7408],"focusBounds":[121.089924,24.729908,121.107168,24.7408],"color":"#efb44f"}},{"type":"Feature","id":"10004020013","geometry":{"type":"Polygon","coordinates":[[[121.094441,24.748347],[121.092706,24.748976],[121.091604,24.749899],[121.090278,24.746656],[121.090145,24.745954],[121.090641,24.745553],[121.09164,24.745107],[121.092402,24.744218],[121.092542,24.743786],[121.092465,24.742577],[121.092325,24.738034],[121.093417,24.737192],[121.095792,24.739038],[121.097834,24.737062],[121.099161,24.737074],[121.100204,24.737615],[121.103831,24.740272],[121.105257,24.7408],[121.104612,24.742115],[121.104519,24.744097],[121.104056,24.744758],[121.101426,24.746323],[121.100601,24.746659],[121.094441,24.748347]]]},"properties":{"code":"10004020013","name":"仁愛里","countyCode":"10004","countyName":"新竹縣","townCode":"10004020","townName":"竹東鎮","level":"village","unassigned":false,"note":"","label":[121.09723776335687,24.743041877941735],"bounds":[121.090145,24.737062,121.105257,24.749899],"focusBounds":[121.090145,24.737062,121.105257,24.749899],"color":"#78a7e3"}},{"type":"Feature","id":"10004020014","geometry":{"type":"Polygon","coordinates":[[[121.082735,24.757411],[121.082234,24.757924],[121.081772,24.758008],[121.080562,24.755509],[121.080256,24.755162],[121.079695,24.754899],[121.079461,24.754518],[121.079295,24.753659],[121.07889,24.752951],[121.076972,24.7523],[121.076658,24.752105],[121.075572,24.750739],[121.072803,24.74926],[121.072205,24.748007],[121.071154,24.746911],[121.070978,24.743988],[121.070308,24.743031],[121.069554,24.74248],[121.067473,24.741735],[121.065801,24.741705],[121.063149,24.742205],[121.063316,24.741813],[121.064349,24.741142],[121.064262,24.740201],[121.064401,24.739702],[121.064677,24.73944],[121.065316,24.739207],[121.065929,24.738246],[121.06636,24.738712],[121.066633,24.738786],[121.067164,24.738297],[121.067784,24.738078],[121.068154,24.737205],[121.068383,24.735485],[121.069514,24.733775],[121.069362,24.73239],[121.069782,24.731259],[121.069568,24.730807],[121.070073,24.731254],[121.07041,24.731287],[121.07102,24.730319],[121.071899,24.729833],[121.072206,24.730124],[121.072805,24.730228],[121.073536,24.730684],[121.074093,24.730704],[121.074227,24.730427],[121.075972,24.731774],[121.077327,24.731883],[121.079786,24.731393],[121.081128,24.730531],[121.081605,24.730395],[121.081998,24.730458],[121.084379,24.731072],[121.085002,24.732476],[121.083837,24.732456],[121.083384,24.733126],[121.081963,24.733622],[121.081352,24.733638],[121.081126,24.734047],[121.081033,24.734984],[121.081376,24.735765],[121.082693,24.736894],[121.083171,24.737658],[121.083918,24.737968],[121.08424,24.739487],[121.083647,24.740384],[121.083574,24.7409],[121.082832,24.742537],[121.081264,24.744757],[121.082028,24.745608],[121.082037,24.745953],[121.085345,24.748654],[121.085775,24.74933],[121.085849,24.749938],[121.085644,24.752175],[121.085756,24.754141],[121.084777,24.755179],[121.082669,24.756927],[121.082735,24.757411]]]},"properties":{"code":"10004020014","name":"五豐里","countyCode":"10004","countyName":"新竹縣","townCode":"10004020","townName":"竹東鎮","level":"village","unassigned":false,"note":"","label":[121.07600628822158,24.739982895664347],"bounds":[121.063149,24.729833,121.085849,24.758008],"focusBounds":[121.063149,24.729833,121.085849,24.758008],"color":"#dd8590"}},{"type":"Feature","id":"10004020015","geometry":{"type":"Polygon","coordinates":[[[121.081772,24.758008],[121.077071,24.762573],[121.072151,24.768073],[121.070375,24.770717],[121.06832,24.774525],[121.060137,24.772964],[121.059915,24.771186],[121.060052,24.770348],[121.060412,24.769573],[121.059608,24.768693],[121.059598,24.767522],[121.05772,24.764851],[121.057154,24.7613],[121.056941,24.760896],[121.055116,24.759575],[121.05481,24.75918],[121.054728,24.758345],[121.054883,24.757486],[121.053561,24.756852],[121.053428,24.756605],[121.053399,24.755094],[121.052939,24.755042],[121.051938,24.755484],[121.051289,24.755582],[121.050256,24.754527],[121.050778,24.754272],[121.051199,24.753669],[121.051179,24.75282],[121.051487,24.752658],[121.052312,24.752633],[121.052373,24.751643],[121.053072,24.751278],[121.052996,24.750758],[121.053267,24.750556],[121.053342,24.750119],[121.053622,24.749708],[121.05425,24.749365],[121.055254,24.749271],[121.05722,24.747857],[121.05847,24.7474],[121.059281,24.746896],[121.061309,24.746839],[121.062869,24.745692],[121.0632,24.74479],[121.062728,24.744191],[121.063385,24.742892],[121.063149,24.742205],[121.065801,24.741705],[121.067473,24.741735],[121.069554,24.74248],[121.070308,24.743031],[121.070978,24.743988],[121.071154,24.746911],[121.072205,24.748007],[121.072803,24.74926],[121.075572,24.750739],[121.076658,24.752105],[121.076972,24.7523],[121.07889,24.752951],[121.079295,24.753659],[121.079461,24.754518],[121.079695,24.754899],[121.080256,24.755162],[121.080562,24.755509],[121.081772,24.758008]]]},"properties":{"code":"10004020015","name":"三重里","countyCode":"10004","countyName":"新竹縣","townCode":"10004020","townName":"竹東鎮","level":"village","unassigned":false,"note":"","label":[121.06723215246961,24.758023809935473],"bounds":[121.050256,24.741705,121.081772,24.774525],"focusBounds":[121.050256,24.741705,121.081772,24.774525],"color":"#a8bf62"}},{"type":"Feature","id":"10004020016","geometry":{"type":"Polygon","coordinates":[[[121.048618,24.783279],[121.048363,24.783134],[121.046365,24.783059],[121.045857,24.782842],[121.04461,24.781726],[121.043834,24.781585],[121.042447,24.782332],[121.040464,24.782383],[121.039636,24.782581],[121.036908,24.784332],[121.036525,24.784332],[121.03579,24.783889],[121.03431,24.785684],[121.033761,24.785401],[121.033476,24.78474],[121.032275,24.785723],[121.031498,24.785383],[121.031188,24.785751],[121.030774,24.785902],[121.029945,24.785515],[121.029738,24.785648],[121.029531,24.786177],[121.029415,24.786946],[121.029156,24.787182],[121.028108,24.787277],[121.027739,24.787549],[121.02727,24.788732],[121.027082,24.788856],[121.026137,24.788915],[121.024492,24.788562],[121.024356,24.787403],[121.024522,24.787019],[121.025054,24.786478],[121.025089,24.786242],[121.024815,24.786039],[121.023328,24.785669],[121.022987,24.785292],[121.023272,24.784941],[121.02515,24.78417],[121.027502,24.782751],[121.026959,24.781188],[121.026624,24.780809],[121.026459,24.780715],[121.029214,24.779314],[121.029084,24.778639],[121.029855,24.777678],[121.030336,24.776042],[121.030706,24.77535],[121.030539,24.773402],[121.030708,24.772982],[121.031752,24.772656],[121.034838,24.772704],[121.039344,24.772032],[121.041933,24.77123],[121.042426,24.770928],[121.043118,24.769589],[121.04296,24.768919],[121.043039,24.768471],[121.043564,24.767405],[121.043668,24.766505],[121.044996,24.767694],[121.045151,24.768615],[121.047233,24.769528],[121.047223,24.76999],[121.047704,24.770083],[121.04838,24.770714],[121.048769,24.770803],[121.049193,24.770224],[121.049556,24.770014],[121.049475,24.770929],[121.050014,24.771579],[121.050705,24.772078],[121.050552,24.772423],[121.050019,24.772794],[121.050643,24.773246],[121.050725,24.773463],[121.050516,24.774814],[121.051356,24.776257],[121.050666,24.777851],[121.049638,24.779523],[121.048911,24.779845],[121.048618,24.783279]]]},"properties":{"code":"10004020016","name":"頭重里","countyCode":"10004","countyName":"新竹縣","townCode":"10004020","townName":"竹東鎮","level":"village","unassigned":false,"note":"","label":[121.03878961284293,24.777619813083227],"bounds":[121.022987,24.766505,121.051356,24.788915],"focusBounds":[121.022987,24.766505,121.051356,24.788915],"color":"#a8bf62"}},{"type":"Feature","id":"10004020017","geometry":{"type":"Polygon","coordinates":[[[121.038402,24.798445],[121.035553,24.799624],[121.033548,24.800228],[121.030114,24.800486],[121.021189,24.802043],[121.02128,24.801698],[121.022059,24.8011],[121.025745,24.799074],[121.02206,24.798509],[121.020607,24.798806],[121.020723,24.798528],[121.021693,24.797584],[121.022261,24.796684],[121.023139,24.796135],[121.023119,24.795854],[121.022689,24.79547],[121.02141,24.795056],[121.020629,24.794255],[121.021938,24.7909],[121.021809,24.790446],[121.022145,24.790419],[121.022823,24.790712],[121.02335,24.79064],[121.024519,24.789258],[121.024492,24.788562],[121.026137,24.788915],[121.027082,24.788856],[121.02727,24.788732],[121.027739,24.787549],[121.028108,24.787277],[121.029156,24.787182],[121.029415,24.786946],[121.029531,24.786177],[121.029738,24.785648],[121.029945,24.785515],[121.030774,24.785902],[121.031188,24.785751],[121.031498,24.785383],[121.032275,24.785723],[121.033476,24.78474],[121.033761,24.785401],[121.03431,24.785684],[121.03579,24.783889],[121.036525,24.784332],[121.036908,24.784332],[121.039636,24.782581],[121.040464,24.782383],[121.042447,24.782332],[121.043834,24.781585],[121.04461,24.781726],[121.045857,24.782842],[121.046365,24.783059],[121.048363,24.783134],[121.048618,24.783279],[121.049452,24.783901],[121.050615,24.785471],[121.051381,24.78617],[121.053413,24.787269],[121.054148,24.787854],[121.055734,24.790004],[121.053334,24.790542],[121.052052,24.791151],[121.05072,24.791944],[121.047884,24.794243],[121.04118,24.796425],[121.040686,24.796778],[121.039885,24.797071],[121.039046,24.798186],[121.038402,24.798445]]]},"properties":{"code":"10004020017","name":"員山里","countyCode":"10004","countyName":"新竹縣","townCode":"10004020","townName":"竹東鎮","level":"village","unassigned":false,"note":"","label":[121.03383408364975,24.792790099002886],"bounds":[121.020607,24.781585,121.055734,24.802043],"focusBounds":[121.020607,24.781585,121.055734,24.802043],"color":"#68bec9"}},{"type":"Feature","id":"10004020018","geometry":{"type":"Polygon","coordinates":[[[121.043668,24.766505],[121.043564,24.767405],[121.043039,24.768471],[121.04296,24.768919],[121.043118,24.769589],[121.042426,24.770928],[121.041933,24.77123],[121.039344,24.772032],[121.034838,24.772704],[121.031752,24.772656],[121.030708,24.772982],[121.030539,24.773402],[121.030706,24.77535],[121.030336,24.776042],[121.029855,24.777678],[121.029084,24.778639],[121.029214,24.779314],[121.026459,24.780715],[121.02575,24.780269],[121.024955,24.780505],[121.024955,24.779988],[121.026143,24.778878],[121.026763,24.778784],[121.027558,24.778968],[121.027946,24.77881],[121.0275,24.777366],[121.027659,24.777049],[121.028644,24.776697],[121.029513,24.777123],[121.029702,24.77701],[121.029524,24.776053],[121.028262,24.773692],[121.028156,24.773163],[121.028396,24.772966],[121.029473,24.772764],[121.030377,24.772036],[121.030164,24.77142],[121.029439,24.771147],[121.029272,24.770902],[121.029462,24.769626],[121.029164,24.768868],[121.029682,24.767986],[121.029893,24.766469],[121.030512,24.765899],[121.03126,24.765737],[121.031985,24.765215],[121.033066,24.764889],[121.033506,24.76411],[121.033543,24.763762],[121.03345,24.76343],[121.033043,24.763025],[121.032831,24.762131],[121.032406,24.761691],[121.030598,24.761201],[121.030146,24.760486],[121.029111,24.759667],[121.02863,24.758727],[121.028272,24.758352],[121.027291,24.757858],[121.026477,24.757899],[121.026316,24.757655],[121.027377,24.757455],[121.028684,24.756174],[121.029072,24.755389],[121.029156,24.754282],[121.029746,24.754185],[121.030106,24.753882],[121.030898,24.752953],[121.031083,24.752297],[121.032165,24.751446],[121.032637,24.750399],[121.033208,24.749854],[121.03381,24.749557],[121.03456,24.748238],[121.035168,24.74811],[121.03564,24.747805],[121.036485,24.748281],[121.036903,24.748702],[121.036969,24.749824],[121.037218,24.75038],[121.037999,24.750793],[121.038265,24.751314],[121.038239,24.751778],[121.039181,24.752669],[121.03958,24.752625],[121.04002,24.752318],[121.040225,24.751857],[121.041249,24.751411],[121.041956,24.752123],[121.043148,24.752792],[121.043822,24.752622],[121.044449,24.752999],[121.044977,24.752804],[121.045605,24.752856],[121.046156,24.752568],[121.04664,24.752687],[121.047207,24.753304],[121.047652,24.753296],[121.048343,24.753641],[121.0487,24.754122],[121.049123,24.754317],[121.049129,24.754728],[121.046459,24.758176],[121.045172,24.759318],[121.044948,24.76034],[121.044778,24.762718],[121.044479,24.764115],[121.043668,24.766505]]]},"properties":{"code":"10004020018","name":"柯湖里","countyCode":"10004","countyName":"新竹縣","townCode":"10004020","townName":"竹東鎮","level":"village","unassigned":false,"note":"","label":[121.03886286258277,24.760587750820143],"bounds":[121.024955,24.747805,121.049129,24.780715],"focusBounds":[121.024955,24.747805,121.049129,24.780715],"color":"#df9f6a"}},{"type":"Feature","id":"10004020019","geometry":{"type":"Polygon","coordinates":[[[121.060843,24.787206],[121.06003,24.78796],[121.058211,24.789254],[121.055734,24.790004],[121.054148,24.787854],[121.053413,24.787269],[121.051381,24.78617],[121.050615,24.785471],[121.049452,24.783901],[121.048618,24.783279],[121.048911,24.779845],[121.049638,24.779523],[121.050666,24.777851],[121.051356,24.776257],[121.050516,24.774814],[121.050725,24.773463],[121.050643,24.773246],[121.050019,24.772794],[121.050552,24.772423],[121.050705,24.772078],[121.050014,24.771579],[121.049475,24.770929],[121.049556,24.770014],[121.049193,24.770224],[121.048769,24.770803],[121.04838,24.770714],[121.047704,24.770083],[121.047223,24.76999],[121.047233,24.769528],[121.045151,24.768615],[121.044996,24.767694],[121.043668,24.766505],[121.044479,24.764115],[121.044778,24.762718],[121.044948,24.76034],[121.045172,24.759318],[121.046459,24.758176],[121.049129,24.754728],[121.04922,24.755122],[121.049621,24.755133],[121.049851,24.755033],[121.049981,24.754645],[121.050256,24.754527],[121.051289,24.755582],[121.051938,24.755484],[121.052939,24.755042],[121.053399,24.755094],[121.053428,24.756605],[121.053561,24.756852],[121.054883,24.757486],[121.054728,24.758345],[121.05481,24.75918],[121.055116,24.759575],[121.056941,24.760896],[121.057154,24.7613],[121.05772,24.764851],[121.059598,24.767522],[121.059608,24.768693],[121.060412,24.769573],[121.060052,24.770348],[121.059915,24.771186],[121.060137,24.772964],[121.06832,24.774525],[121.066977,24.777374],[121.067432,24.778341],[121.063688,24.779345],[121.062491,24.780279],[121.06229,24.780638],[121.062285,24.781645],[121.062041,24.782576],[121.061896,24.785453],[121.061472,24.786483],[121.060843,24.787206]]]},"properties":{"code":"10004020019","name":"二重里","countyCode":"10004","countyName":"新竹縣","townCode":"10004020","townName":"竹東鎮","level":"village","unassigned":false,"note":"","label":[121.05686209562279,24.778051592403546],"bounds":[121.043668,24.754527,121.06832,24.790004],"focusBounds":[121.043668,24.754527,121.06832,24.790004],"color":"#c38cb8"}},{"type":"Feature","id":"10004020020","geometry":{"type":"Polygon","coordinates":[[[121.091129,24.730512],[121.091445,24.731184],[121.092411,24.731505],[121.092599,24.731738],[121.092526,24.731929],[121.091775,24.732072],[121.091159,24.732502],[121.090798,24.732995],[121.090887,24.733424],[121.090705,24.733333],[121.089857,24.732751],[121.088386,24.732866],[121.088566,24.731475],[121.090823,24.730495],[121.091129,24.730512]]]},"properties":{"code":"10004020020","name":"中山里","countyCode":"10004","countyName":"新竹縣","townCode":"10004020","townName":"竹東鎮","level":"village","unassigned":false,"note":"","label":[121.09031845042973,24.731795267225614],"bounds":[121.088386,24.730495,121.092599,24.733424],"focusBounds":[121.088386,24.730495,121.092599,24.733424],"color":"#98b69b"}},{"type":"Feature","id":"10004020021","geometry":{"type":"Polygon","coordinates":[[[121.107168,24.730685],[121.101207,24.729908],[121.098892,24.730053],[121.097989,24.730292],[121.097185,24.730183],[121.096631,24.730961],[121.095131,24.73197],[121.095169,24.733888],[121.091839,24.734001],[121.090887,24.733424],[121.090798,24.732995],[121.091159,24.732502],[121.091775,24.732072],[121.092526,24.731929],[121.092599,24.731738],[121.092411,24.731505],[121.091445,24.731184],[121.091129,24.730512],[121.091052,24.728415],[121.092495,24.728394],[121.092911,24.72817],[121.093916,24.726598],[121.093419,24.725564],[121.093538,24.724693],[121.093647,24.724938],[121.094492,24.725595],[121.094422,24.72673],[121.094559,24.727002],[121.094989,24.727285],[121.096123,24.727579],[121.099667,24.727448],[121.100721,24.725669],[121.103784,24.724206],[121.104564,24.723969],[121.107168,24.730685]]]},"properties":{"code":"10004020021","name":"中正里","countyCode":"10004","countyName":"新竹縣","townCode":"10004020","townName":"竹東鎮","level":"village","unassigned":false,"note":"","label":[121.10206196371013,24.727895910293455],"bounds":[121.090798,24.723969,121.107168,24.734001],"focusBounds":[121.090798,24.723969,121.107168,24.734001],"color":"#58b99d"}},{"type":"Feature","id":"10004020022","geometry":{"type":"Polygon","coordinates":[[[121.089936,24.735666],[121.08852,24.735673],[121.088178,24.73581],[121.087128,24.735324],[121.086469,24.734668],[121.086352,24.733066],[121.088386,24.732866],[121.089857,24.732751],[121.090705,24.733333],[121.090759,24.733949],[121.0902,24.734759],[121.090102,24.735597],[121.089936,24.735666]]]},"properties":{"code":"10004020022","name":"南華里","countyCode":"10004","countyName":"新竹縣","townCode":"10004020","townName":"竹東鎮","level":"village","unassigned":false,"note":"","label":[121.08854260061383,24.734263419344984],"bounds":[121.086352,24.732751,121.090759,24.73581],"focusBounds":[121.086352,24.732751,121.090759,24.73581],"color":"#78a7e3"}},{"type":"Feature","id":"10004020023","geometry":{"type":"Polygon","coordinates":[[[121.091604,24.749899],[121.089309,24.75144],[121.085756,24.754141],[121.085644,24.752175],[121.085849,24.749938],[121.085775,24.74933],[121.085345,24.748654],[121.082037,24.745953],[121.082028,24.745608],[121.085123,24.741727],[121.085119,24.74134],[121.085411,24.740765],[121.086326,24.7405],[121.086754,24.7406],[121.087459,24.741389],[121.087929,24.740803],[121.090143,24.742151],[121.092465,24.742577],[121.092542,24.743786],[121.092402,24.744218],[121.09164,24.745107],[121.090641,24.745553],[121.090145,24.745954],[121.090278,24.746656],[121.091604,24.749899]]]},"properties":{"code":"10004020023","name":"榮華里","countyCode":"10004","countyName":"新竹縣","townCode":"10004020","townName":"竹東鎮","level":"village","unassigned":false,"note":"","label":[121.08699306570992,24.745839426453315],"bounds":[121.082028,24.7405,121.092542,24.754141],"focusBounds":[121.082028,24.7405,121.092542,24.754141],"color":"#a49ad4"}},{"type":"Feature","id":"10004020024","geometry":{"type":"Polygon","coordinates":[[[121.085119,24.74134],[121.085123,24.741727],[121.082028,24.745608],[121.081264,24.744757],[121.082832,24.742537],[121.083574,24.7409],[121.084537,24.741072],[121.085119,24.74134]]]},"properties":{"code":"10004020024","name":"忠孝里","countyCode":"10004","countyName":"新竹縣","townCode":"10004020","townName":"竹東鎮","level":"village","unassigned":false,"note":"","label":[121.08322682841603,24.743059845686165],"bounds":[121.081264,24.7409,121.085123,24.745608],"focusBounds":[121.081264,24.7409,121.085123,24.745608],"color":"#a8bf62"}},{"type":"Feature","id":"10004020025","geometry":{"type":"Polygon","coordinates":[[[121.078573,24.766262],[121.078066,24.766737],[121.078091,24.76729],[121.077115,24.768578],[121.076639,24.769639],[121.075616,24.770587],[121.075265,24.772046],[121.074341,24.773508],[121.073914,24.773917],[121.073365,24.774159],[121.071943,24.774095],[121.070627,24.774578],[121.070208,24.775965],[121.069367,24.776488],[121.067801,24.778119],[121.067432,24.778341],[121.066977,24.777374],[121.06832,24.774525],[121.070375,24.770717],[121.072151,24.768073],[121.077071,24.762573],[121.081772,24.758008],[121.082234,24.757924],[121.082735,24.757411],[121.083938,24.756861],[121.084536,24.757248],[121.084069,24.758637],[121.082664,24.759925],[121.082615,24.760464],[121.081855,24.762216],[121.081739,24.762914],[121.081245,24.76359],[121.080887,24.764681],[121.079869,24.765108],[121.078573,24.766262]]]},"properties":{"code":"10004020025","name":"陸豐里","countyCode":"10004","countyName":"新竹縣","townCode":"10004020","townName":"竹東鎮","level":"village","unassigned":false,"note":"","label":[121.07498796050426,24.76829337534155],"bounds":[121.066977,24.756861,121.084536,24.778341],"focusBounds":[121.066977,24.756861,121.084536,24.778341],"color":"#a49ad4"}}]}
