{"type":"FeatureCollection","features":[{"type":"Feature","id":"10009040001","geometry":{"type":"Polygon","coordinates":[[[120.474716,23.780182],[120.478381,23.788482],[120.480323,23.793434],[120.468872,23.793206],[120.465961,23.793123],[120.465876,23.792545],[120.465126,23.792583],[120.465378,23.790076],[120.465104,23.787091],[120.463991,23.779935],[120.469941,23.780179],[120.474716,23.780182]]]},"properties":{"code":"10009040001","name":"振興里","countyCode":"10009","countyName":"雲林縣","townCode":"10009040","townName":"西螺鎮","level":"village","unassigned":false,"note":"","label":[120.4711917335843,23.787182632694158],"bounds":[120.463991,23.779935,120.480323,23.793434],"focusBounds":[120.463991,23.779935,120.480323,23.793434],"color":"#df9f6a"}},{"type":"Feature","id":"10009040002","geometry":{"type":"Polygon","coordinates":[[[120.483849,23.806455],[120.475263,23.809035],[120.469031,23.811585],[120.470382,23.803502],[120.468158,23.804203],[120.466609,23.80202],[120.465923,23.801365],[120.464932,23.801005],[120.465248,23.800216],[120.466475,23.797631],[120.468872,23.793206],[120.480323,23.793434],[120.482468,23.799893],[120.483849,23.806455]]]},"properties":{"code":"10009040002","name":"大園里","countyCode":"10009","countyName":"雲林縣","townCode":"10009040","townName":"西螺鎮","level":"village","unassigned":false,"note":"","label":[120.47581330345628,23.800025716347932],"bounds":[120.464932,23.793206,120.483849,23.811585],"focusBounds":[120.464932,23.793206,120.483849,23.811585],"color":"#98b69b"}},{"type":"Feature","id":"10009040003","geometry":{"type":"Polygon","coordinates":[[[120.465248,23.800216],[120.464193,23.800131],[120.461889,23.80003],[120.462014,23.798759],[120.463563,23.79894],[120.464315,23.794269],[120.463898,23.794191],[120.464152,23.79255],[120.465126,23.792583],[120.465876,23.792545],[120.465961,23.793123],[120.468872,23.793206],[120.466475,23.797631],[120.465248,23.800216]]]},"properties":{"code":"10009040003","name":"廣福里","countyCode":"10009","countyName":"雲林縣","townCode":"10009040","townName":"西螺鎮","level":"village","unassigned":false,"note":"","label":[120.46560820751473,23.796007740864155],"bounds":[120.461889,23.792545,120.468872,23.800216],"focusBounds":[120.461889,23.792545,120.468872,23.800216],"color":"#c38cb8"}},{"type":"Feature","id":"10009040004","geometry":{"type":"Polygon","coordinates":[[[120.464152,23.79255],[120.463898,23.794191],[120.464315,23.794269],[120.463563,23.79894],[120.462014,23.798759],[120.461889,23.80003],[120.459226,23.800007],[120.459368,23.79322],[120.457634,23.7929],[120.457971,23.790513],[120.459137,23.7907],[120.460719,23.791468],[120.461618,23.791722],[120.462401,23.792309],[120.464152,23.79255]]]},"properties":{"code":"10009040004","name":"正興里","countyCode":"10009","countyName":"雲林縣","townCode":"10009040","townName":"西螺鎮","level":"village","unassigned":false,"note":"","label":[120.46158392734517,23.795297411125617],"bounds":[120.457634,23.790513,120.464315,23.80003],"focusBounds":[120.457634,23.790513,120.464315,23.80003],"color":"#98b69b"}},{"type":"Feature","id":"10009040005","geometry":{"type":"Polygon","coordinates":[[[120.469031,23.811585],[120.466674,23.812502],[120.466023,23.809426],[120.46558,23.808258],[120.465786,23.807554],[120.465135,23.80655],[120.465112,23.805335],[120.463234,23.803593],[120.463562,23.802316],[120.463638,23.801136],[120.464087,23.801149],[120.464193,23.800131],[120.465248,23.800216],[120.464932,23.801005],[120.465923,23.801365],[120.466609,23.80202],[120.468158,23.804203],[120.470382,23.803502],[120.469031,23.811585]]]},"properties":{"code":"10009040005","name":"永安里","countyCode":"10009","countyName":"雲林縣","townCode":"10009040","townName":"西螺鎮","level":"village","unassigned":false,"note":"","label":[120.46763987354413,23.806337305404522],"bounds":[120.463234,23.800131,120.470382,23.812502],"focusBounds":[120.463234,23.800131,120.470382,23.812502],"color":"#58b99d"}},{"type":"Feature","id":"10009040006","geometry":{"type":"Polygon","coordinates":[[[120.466674,23.812502],[120.464987,23.813186],[120.464054,23.809523],[120.46389,23.808177],[120.463195,23.806337],[120.462157,23.805686],[120.461765,23.805043],[120.460595,23.804107],[120.461229,23.801236],[120.461768,23.80128],[120.461889,23.80003],[120.464193,23.800131],[120.464087,23.801149],[120.463638,23.801136],[120.463562,23.802316],[120.463234,23.803593],[120.465112,23.805335],[120.465135,23.80655],[120.465786,23.807554],[120.46558,23.808258],[120.466023,23.809426],[120.466674,23.812502]]]},"properties":{"code":"10009040006","name":"中和里","countyCode":"10009","countyName":"雲林縣","townCode":"10009040","townName":"西螺鎮","level":"village","unassigned":false,"note":"","label":[120.46402634137506,23.80570736105193],"bounds":[120.460595,23.80003,120.466674,23.813186],"focusBounds":[120.460595,23.80003,120.466674,23.813186],"color":"#efb44f"}},{"type":"Feature","id":"10009040007","geometry":{"type":"Polygon","coordinates":[[[120.462671,23.814176],[120.461297,23.81477],[120.459239,23.804152],[120.459226,23.800007],[120.461889,23.80003],[120.461768,23.80128],[120.461229,23.801236],[120.460595,23.804107],[120.461765,23.805043],[120.462157,23.805686],[120.463195,23.806337],[120.46389,23.808177],[120.464054,23.809523],[120.464987,23.813186],[120.462671,23.814176]]]},"properties":{"code":"10009040007","name":"福興里","countyCode":"10009","countyName":"雲林縣","townCode":"10009040","townName":"西螺鎮","level":"village","unassigned":false,"note":"","label":[120.46189675045055,23.808182877418147],"bounds":[120.459226,23.800007,120.464987,23.81477],"focusBounds":[120.459226,23.800007,120.464987,23.81477],"color":"#78a7e3"}},{"type":"Feature","id":"10009040008","geometry":{"type":"Polygon","coordinates":[[[120.461297,23.81477],[120.458124,23.816124],[120.457904,23.816104],[120.456553,23.808795],[120.456147,23.805434],[120.456132,23.803904],[120.456821,23.799543],[120.459226,23.800007],[120.459239,23.804152],[120.461297,23.81477]]]},"properties":{"code":"10009040008","name":"光華里","countyCode":"10009","countyName":"雲林縣","townCode":"10009040","townName":"西螺鎮","level":"village","unassigned":false,"note":"","label":[120.45833157186196,23.808672892617025],"bounds":[120.456132,23.799543,120.461297,23.816124],"focusBounds":[120.456132,23.799543,120.461297,23.816124],"color":"#dd8590"}},{"type":"Feature","id":"10009040009","geometry":{"type":"Polygon","coordinates":[[[120.455338,23.816663],[120.454919,23.81673],[120.452904,23.810064],[120.451903,23.807972],[120.449939,23.808566],[120.449647,23.805621],[120.449032,23.805371],[120.447438,23.804157],[120.44754,23.803422],[120.445373,23.792861],[120.451132,23.793136],[120.452426,23.793168],[120.452171,23.79891],[120.456821,23.799543],[120.456132,23.803904],[120.456147,23.805434],[120.456553,23.808795],[120.457904,23.816104],[120.457445,23.816138],[120.456499,23.816506],[120.455338,23.816663]]]},"properties":{"code":"10009040009","name":"中興里","countyCode":"10009","countyName":"雲林縣","townCode":"10009040","townName":"西螺鎮","level":"village","unassigned":false,"note":"","label":[120.45242178236893,23.80286119461288],"bounds":[120.445373,23.792861,120.457904,23.81673],"focusBounds":[120.445373,23.792861,120.457904,23.81673],"color":"#a8bf62"}},{"type":"Feature","id":"10009040010","geometry":{"type":"Polygon","coordinates":[[[120.457971,23.790513],[120.457634,23.7929],[120.459368,23.79322],[120.459226,23.800007],[120.456821,23.799543],[120.452171,23.79891],[120.452426,23.793168],[120.452644,23.789377],[120.453293,23.78948],[120.454442,23.790643],[120.454731,23.789407],[120.455652,23.789746],[120.456483,23.790248],[120.457971,23.790513]]]},"properties":{"code":"10009040010","name":"漢光里","countyCode":"10009","countyName":"雲林縣","townCode":"10009040","townName":"西螺鎮","level":"village","unassigned":false,"note":"","label":[120.45573487954557,23.795829375694538],"bounds":[120.452171,23.789377,120.459368,23.800007],"focusBounds":[120.452171,23.789377,120.459368,23.800007],"color":"#df9f6a"}},{"type":"Feature","id":"10009040011","geometry":{"type":"Polygon","coordinates":[[[120.457971,23.790513],[120.456483,23.790248],[120.455652,23.789746],[120.454731,23.789407],[120.454442,23.790643],[120.453293,23.78948],[120.452644,23.789377],[120.452426,23.793168],[120.451132,23.793136],[120.451358,23.789226],[120.450017,23.789103],[120.450126,23.787779],[120.44923,23.787574],[120.449203,23.786383],[120.44828,23.7864],[120.448283,23.785491],[120.449391,23.78554],[120.449441,23.784634],[120.45075,23.784694],[120.450977,23.776449],[120.45328,23.777322],[120.453172,23.779428],[120.453325,23.779469],[120.463991,23.779935],[120.465104,23.787091],[120.465378,23.790076],[120.465126,23.792583],[120.464152,23.79255],[120.462401,23.792309],[120.461618,23.791722],[120.460719,23.791468],[120.459137,23.7907],[120.457971,23.790513]]]},"properties":{"code":"10009040011","name":"新安里","countyCode":"10009","countyName":"雲林縣","townCode":"10009040","townName":"西螺鎮","level":"village","unassigned":false,"note":"","label":[120.45832285769983,23.785128319922073],"bounds":[120.44828,23.776449,120.465378,23.793168],"focusBounds":[120.44828,23.776449,120.465378,23.793168],"color":"#68bec9"}},{"type":"Feature","id":"10009040012","geometry":{"type":"Polygon","coordinates":[[[120.450977,23.776449],[120.45075,23.784694],[120.449441,23.784634],[120.449391,23.78554],[120.448283,23.785491],[120.44828,23.7864],[120.449203,23.786383],[120.44923,23.787574],[120.450126,23.787779],[120.450017,23.789103],[120.451358,23.789226],[120.451132,23.793136],[120.445373,23.792861],[120.445197,23.792038],[120.444785,23.78998],[120.443322,23.786196],[120.442562,23.782769],[120.442094,23.782271],[120.440944,23.781815],[120.441089,23.773989],[120.443813,23.774979],[120.444444,23.775144],[120.448776,23.775538],[120.450977,23.776449]]]},"properties":{"code":"10009040012","name":"新豐里","countyCode":"10009","countyName":"雲林縣","townCode":"10009040","townName":"西螺鎮","level":"village","unassigned":false,"note":"","label":[120.44654080015118,23.781150053083692],"bounds":[120.440944,23.773989,120.451358,23.793136],"focusBounds":[120.440944,23.773989,120.451358,23.793136],"color":"#df9f6a"}},{"type":"Feature","id":"10009040013","geometry":{"type":"Polygon","coordinates":[[[120.447438,23.804157],[120.443569,23.801264],[120.443829,23.800901],[120.443543,23.799825],[120.443843,23.798673],[120.443439,23.798578],[120.443919,23.7964],[120.44253,23.796106],[120.442727,23.795068],[120.442823,23.791926],[120.445197,23.792038],[120.445373,23.792861],[120.44754,23.803422],[120.447438,23.804157]]]},"properties":{"code":"10009040013","name":"詔安里","countyCode":"10009","countyName":"雲林縣","townCode":"10009040","townName":"西螺鎮","level":"village","unassigned":false,"note":"","label":[120.44497790389897,23.797856065360754],"bounds":[120.44253,23.791926,120.44754,23.804157],"focusBounds":[120.44253,23.791926,120.44754,23.804157],"color":"#c38cb8"}},{"type":"Feature","id":"10009040014","geometry":{"type":"Polygon","coordinates":[[[120.452089,23.817216],[120.451983,23.817275],[120.451405,23.813637],[120.45068,23.81346],[120.45,23.813004],[120.449728,23.812082],[120.446949,23.810068],[120.446081,23.809277],[120.445996,23.80885],[120.444769,23.807096],[120.442049,23.805136],[120.44198,23.804255],[120.443143,23.803844],[120.442972,23.800862],[120.440816,23.799721],[120.440218,23.798954],[120.438288,23.798274],[120.437776,23.7984],[120.433521,23.798146],[120.43261,23.798337],[120.432088,23.798272],[120.430334,23.79868],[120.429524,23.798619],[120.429621,23.795739],[120.428665,23.795496],[120.428672,23.794633],[120.428814,23.793434],[120.42818,23.79181],[120.428525,23.791043],[120.430529,23.791764],[120.434014,23.790652],[120.434538,23.790372],[120.435921,23.791176],[120.43664,23.792262],[120.43754,23.791828],[120.438035,23.791744],[120.442823,23.791926],[120.442727,23.795068],[120.44253,23.796106],[120.443919,23.7964],[120.443439,23.798578],[120.443843,23.798673],[120.443543,23.799825],[120.443829,23.800901],[120.443569,23.801264],[120.447438,23.804157],[120.449032,23.805371],[120.449647,23.805621],[120.449939,23.808566],[120.451903,23.807972],[120.452904,23.810064],[120.454919,23.81673],[120.452089,23.817216]]]},"properties":{"code":"10009040014","name":"河南里","countyCode":"10009","countyName":"雲林縣","townCode":"10009040","townName":"西螺鎮","level":"village","unassigned":false,"note":"","label":[120.43912026892937,23.79517625258854],"bounds":[120.42818,23.790372,120.454919,23.817275],"focusBounds":[120.42818,23.790372,120.454919,23.817275],"color":"#98b69b"}},{"type":"Feature","id":"10009040015","geometry":{"type":"Polygon","coordinates":[[[120.452089,23.817216],[120.450652,23.818659],[120.448555,23.819746],[120.447325,23.820707],[120.44325,23.818829],[120.439949,23.818304],[120.438745,23.818236],[120.437522,23.8178],[120.437102,23.817504],[120.436683,23.816764],[120.436115,23.816194],[120.434747,23.814039],[120.434019,23.813503],[120.430459,23.814294],[120.430185,23.810424],[120.428966,23.810478],[120.428926,23.809771],[120.428827,23.808688],[120.430117,23.808495],[120.429712,23.799643],[120.429637,23.799382],[120.428355,23.799169],[120.428619,23.79778],[120.428839,23.796487],[120.428665,23.795496],[120.429621,23.795739],[120.429524,23.798619],[120.430334,23.79868],[120.432088,23.798272],[120.43261,23.798337],[120.433521,23.798146],[120.437776,23.7984],[120.438288,23.798274],[120.440218,23.798954],[120.440816,23.799721],[120.442972,23.800862],[120.443143,23.803844],[120.44198,23.804255],[120.442049,23.805136],[120.444769,23.807096],[120.445996,23.80885],[120.446081,23.809277],[120.446949,23.810068],[120.449728,23.812082],[120.45,23.813004],[120.45068,23.81346],[120.451405,23.813637],[120.451983,23.817275],[120.452089,23.817216]]]},"properties":{"code":"10009040015","name":"安定里","countyCode":"10009","countyName":"雲林縣","townCode":"10009040","townName":"西螺鎮","level":"village","unassigned":false,"note":"","label":[120.43804726387246,23.809239101552055],"bounds":[120.428355,23.795496,120.452089,23.820707],"focusBounds":[120.428355,23.795496,120.452089,23.820707],"color":"#58b99d"}},{"type":"Feature","id":"10009040016","geometry":{"type":"Polygon","coordinates":[[[120.442823,23.791926],[120.438035,23.791744],[120.43754,23.791828],[120.43664,23.792262],[120.435921,23.791176],[120.434538,23.790372],[120.434014,23.790652],[120.430529,23.791764],[120.428525,23.791043],[120.429224,23.786287],[120.427319,23.78454],[120.425876,23.783624],[120.426356,23.782405],[120.425497,23.78149],[120.422219,23.778229],[120.422421,23.776577],[120.422632,23.776],[120.4233,23.775425],[120.427081,23.774042],[120.43139,23.772245],[120.433268,23.771484],[120.435216,23.771293],[120.436044,23.771346],[120.436945,23.771798],[120.439138,23.773239],[120.441089,23.773989],[120.440944,23.781815],[120.442094,23.782271],[120.442562,23.782769],[120.443322,23.786196],[120.444785,23.78998],[120.445197,23.792038],[120.442823,23.791926]]]},"properties":{"code":"10009040016","name":"福田里","countyCode":"10009","countyName":"雲林縣","townCode":"10009040","townName":"西螺鎮","level":"village","unassigned":false,"note":"","label":[120.4340123846062,23.781031993767094],"bounds":[120.422219,23.771293,120.445197,23.792262],"focusBounds":[120.422219,23.771293,120.445197,23.792262],"color":"#efb44f"}},{"type":"Feature","id":"10009040017","geometry":{"type":"Polygon","coordinates":[[[120.499771,23.80309],[120.497798,23.803742],[120.493543,23.804468],[120.483849,23.806455],[120.482468,23.799893],[120.480323,23.793434],[120.478381,23.788482],[120.474716,23.780182],[120.476123,23.780374],[120.476326,23.780601],[120.478214,23.780819],[120.483754,23.783055],[120.484874,23.783345],[120.485182,23.783894],[120.498258,23.784251],[120.500418,23.782215],[120.501996,23.783722],[120.507996,23.792301],[120.512351,23.798058],[120.513373,23.799983],[120.512162,23.800039],[120.510001,23.8002],[120.507512,23.800741],[120.501174,23.802555],[120.499771,23.80309]]]},"properties":{"code":"10009040017","name":"大新里","countyCode":"10009","countyName":"雲林縣","townCode":"10009040","townName":"西螺鎮","level":"village","unassigned":false,"note":"","label":[120.49316602591699,23.794328482406456],"bounds":[120.474716,23.780182,120.513373,23.806455],"focusBounds":[120.474716,23.780182,120.513373,23.806455],"color":"#78a7e3"}},{"type":"Feature","id":"10009040018","geometry":{"type":"Polygon","coordinates":[[[120.484874,23.783345],[120.483754,23.783055],[120.478214,23.780819],[120.476326,23.780601],[120.476123,23.780374],[120.474716,23.780182],[120.469941,23.780179],[120.463991,23.779935],[120.453325,23.779469],[120.453172,23.779428],[120.45328,23.777322],[120.458025,23.777763],[120.461185,23.773916],[120.461878,23.773724],[120.463312,23.774009],[120.463649,23.771191],[120.47107,23.771497],[120.480192,23.771902],[120.480371,23.772318],[120.477063,23.778366],[120.477217,23.780507],[120.481427,23.781004],[120.482323,23.781548],[120.483924,23.781981],[120.4844,23.782257],[120.485487,23.782276],[120.485254,23.783234],[120.484874,23.783345]]]},"properties":{"code":"10009040018","name":"埤頭里","countyCode":"10009","countyName":"雲林縣","townCode":"10009040","townName":"西螺鎮","level":"village","unassigned":false,"note":"","label":[120.46904272376167,23.775777792994113],"bounds":[120.453172,23.771191,120.485487,23.783345],"focusBounds":[120.453172,23.771191,120.485487,23.783345],"color":"#dd8590"}},{"type":"Feature","id":"10009040019","geometry":{"type":"Polygon","coordinates":[[[120.480371,23.772318],[120.480192,23.771902],[120.47107,23.771497],[120.470378,23.769715],[120.469309,23.766109],[120.468094,23.760655],[120.469709,23.760476],[120.479818,23.760282],[120.480529,23.766471],[120.480781,23.767712],[120.484517,23.768846],[120.484166,23.769121],[120.481003,23.77153],[120.480371,23.772318]]]},"properties":{"code":"10009040019","name":"東興里","countyCode":"10009","countyName":"雲林縣","townCode":"10009040","townName":"西螺鎮","level":"village","unassigned":false,"note":"","label":[120.47520094536861,23.766025344171844],"bounds":[120.468094,23.760282,120.484517,23.772318],"focusBounds":[120.468094,23.760282,120.484517,23.772318],"color":"#a49ad4"}},{"type":"Feature","id":"10009040020","geometry":{"type":"Polygon","coordinates":[[[120.47107,23.771497],[120.463649,23.771191],[120.463312,23.774009],[120.461878,23.773724],[120.461185,23.773916],[120.457072,23.773721],[120.456504,23.767229],[120.45523,23.76722],[120.455219,23.766809],[120.456065,23.7659],[120.45749,23.765896],[120.457168,23.763848],[120.457051,23.759032],[120.461828,23.759782],[120.461895,23.761385],[120.468094,23.760655],[120.469309,23.766109],[120.470378,23.769715],[120.47107,23.771497]]]},"properties":{"code":"10009040020","name":"廣興里","countyCode":"10009","countyName":"雲林縣","townCode":"10009040","townName":"西螺鎮","level":"village","unassigned":false,"note":"","label":[120.4628063283479,23.76623489985073],"bounds":[120.455219,23.759032,120.47107,23.774009],"focusBounds":[120.455219,23.759032,120.47107,23.774009],"color":"#a8bf62"}},{"type":"Feature","id":"10009040021","geometry":{"type":"Polygon","coordinates":[[[120.468094,23.760655],[120.461895,23.761385],[120.461828,23.759782],[120.464134,23.749215],[120.463486,23.749124],[120.464558,23.746652],[120.464821,23.742862],[120.46871,23.74272],[120.468868,23.745329],[120.469603,23.745732],[120.473452,23.745639],[120.475632,23.743794],[120.477886,23.744162],[120.480603,23.74458],[120.479849,23.748509],[120.479618,23.751425],[120.479655,23.757725],[120.479818,23.760282],[120.469709,23.760476],[120.468094,23.760655]]]},"properties":{"code":"10009040021","name":"鹿場里","countyCode":"10009","countyName":"雲林縣","townCode":"10009040","townName":"西螺鎮","level":"village","unassigned":false,"note":"","label":[120.47135346491214,23.753066867782803],"bounds":[120.461828,23.74272,120.480603,23.761385],"focusBounds":[120.461828,23.74272,120.480603,23.761385],"color":"#68bec9"}},{"type":"Feature","id":"10009040022","geometry":{"type":"Polygon","coordinates":[[[120.450977,23.776449],[120.448776,23.775538],[120.444444,23.775144],[120.443813,23.774979],[120.442786,23.771311],[120.443913,23.767902],[120.447275,23.767596],[120.446752,23.762881],[120.45217,23.762383],[120.451843,23.759515],[120.454379,23.759273],[120.457051,23.759032],[120.457168,23.763848],[120.45749,23.765896],[120.456065,23.7659],[120.455219,23.766809],[120.45523,23.76722],[120.456504,23.767229],[120.457072,23.773721],[120.461185,23.773916],[120.458025,23.777763],[120.45328,23.777322],[120.450977,23.776449]]]},"properties":{"code":"10009040022","name":"頂湳里","countyCode":"10009","countyName":"雲林縣","townCode":"10009040","townName":"西螺鎮","level":"village","unassigned":false,"note":"","label":[120.45154786407507,23.770807201089443],"bounds":[120.442786,23.759032,120.461185,23.777763],"focusBounds":[120.442786,23.759032,120.461185,23.777763],"color":"#c38cb8"}},{"type":"Feature","id":"10009040023","geometry":{"type":"Polygon","coordinates":[[[120.436945,23.771798],[120.436044,23.771346],[120.435216,23.771293],[120.433268,23.771484],[120.43139,23.772245],[120.431445,23.771551],[120.431265,23.771189],[120.431041,23.771071],[120.433045,23.767466],[120.433052,23.767217],[120.432963,23.767077],[120.432711,23.767077],[120.432285,23.765634],[120.431124,23.763236],[120.42894,23.76211],[120.425467,23.760328],[120.429859,23.759286],[120.429512,23.757965],[120.434308,23.756867],[120.437011,23.760909],[120.440361,23.766111],[120.439949,23.766278],[120.436131,23.766795],[120.436945,23.771798]]]},"properties":{"code":"10009040023","name":"下湳里","countyCode":"10009","countyName":"雲林縣","townCode":"10009040","townName":"西螺鎮","level":"village","unassigned":false,"note":"","label":[120.43453656933141,23.76293041329146],"bounds":[120.425467,23.756867,120.440361,23.772245],"focusBounds":[120.425467,23.756867,120.440361,23.772245],"color":"#c38cb8"}},{"type":"Feature","id":"10009040024","geometry":{"type":"Polygon","coordinates":[[[120.444021,23.747749],[120.441457,23.748121],[120.440803,23.753579],[120.437451,23.753364],[120.437011,23.760909],[120.434308,23.756867],[120.433005,23.754908],[120.432717,23.755176],[120.432288,23.755247],[120.426692,23.754602],[120.427442,23.749072],[120.428343,23.749114],[120.429091,23.749775],[120.430151,23.745213],[120.430407,23.739179],[120.432779,23.739559],[120.438948,23.738252],[120.443902,23.738398],[120.444125,23.741261],[120.442831,23.74157],[120.443113,23.742276],[120.444021,23.747749]]]},"properties":{"code":"10009040024","name":"九隆里","countyCode":"10009","countyName":"雲林縣","townCode":"10009040","townName":"西螺鎮","level":"village","unassigned":false,"note":"","label":[120.4356491077791,23.747326792223568],"bounds":[120.426692,23.738252,120.444125,23.760909],"focusBounds":[120.426692,23.738252,120.444125,23.760909],"color":"#98b69b"}},{"type":"Feature","id":"10009040025","geometry":{"type":"Polygon","coordinates":[[[120.430407,23.739179],[120.430151,23.745213],[120.429091,23.749775],[120.428343,23.749114],[120.427442,23.749072],[120.422112,23.748547],[120.421932,23.748414],[120.422019,23.747789],[120.420948,23.747348],[120.420548,23.746869],[120.420278,23.746825],[120.419778,23.747109],[120.416646,23.749621],[120.416758,23.748513],[120.417023,23.748534],[120.416878,23.747949],[120.417193,23.744072],[120.418223,23.743862],[120.419708,23.743862],[120.420992,23.743672],[120.422288,23.743291],[120.423612,23.742161],[120.425027,23.740501],[120.425622,23.740025],[120.426038,23.739928],[120.4274,23.74009],[120.428577,23.740012],[120.429581,23.739707],[120.430407,23.739179]]]},"properties":{"code":"10009040025","name":"吳厝里","countyCode":"10009","countyName":"雲林縣","townCode":"10009040","townName":"西螺鎮","level":"village","unassigned":false,"note":"","label":[120.4259886435225,23.745059650227294],"bounds":[120.416646,23.739179,120.430407,23.749775],"focusBounds":[120.416646,23.739179,120.430407,23.749775],"color":"#58b99d"}},{"type":"Feature","id":"10009040026","geometry":{"type":"Polygon","coordinates":[[[120.436945,23.771798],[120.436131,23.766795],[120.439949,23.766278],[120.440361,23.766111],[120.437011,23.760909],[120.437451,23.753364],[120.440803,23.753579],[120.441457,23.748121],[120.444021,23.747749],[120.44448,23.747689],[120.444401,23.750457],[120.445723,23.750466],[120.450792,23.749854],[120.451255,23.754192],[120.453357,23.754008],[120.454379,23.759273],[120.451843,23.759515],[120.45217,23.762383],[120.446752,23.762881],[120.447275,23.767596],[120.443913,23.767902],[120.442786,23.771311],[120.443813,23.774979],[120.441089,23.773989],[120.439138,23.773239],[120.436945,23.771798]]]},"properties":{"code":"10009040026","name":"七座里","countyCode":"10009","countyName":"雲林縣","townCode":"10009040","townName":"西螺鎮","level":"village","unassigned":false,"note":"","label":[120.44350204467177,23.758484561808785],"bounds":[120.436131,23.747689,120.454379,23.774979],"focusBounds":[120.436131,23.747689,120.454379,23.774979],"color":"#dd8590"}},{"type":"Feature","id":"10009040027","geometry":{"type":"Polygon","coordinates":[[[120.464821,23.742862],[120.464558,23.746652],[120.463486,23.749124],[120.464134,23.749215],[120.461828,23.759782],[120.457051,23.759032],[120.454379,23.759273],[120.453357,23.754008],[120.451255,23.754192],[120.450792,23.749854],[120.445723,23.750466],[120.444401,23.750457],[120.44448,23.747689],[120.444021,23.747749],[120.443113,23.742276],[120.442831,23.74157],[120.444125,23.741261],[120.443902,23.738398],[120.453717,23.738261],[120.457246,23.738224],[120.45723,23.738348],[120.456547,23.743097],[120.464821,23.742862]]]},"properties":{"code":"10009040027","name":"公舘里","countyCode":"10009","countyName":"雲林縣","townCode":"10009040","townName":"西螺鎮","level":"village","unassigned":false,"note":"","label":[120.45687280396581,23.749183302068985],"bounds":[120.442831,23.738224,120.464821,23.759782],"focusBounds":[120.442831,23.738224,120.464821,23.759782],"color":"#78a7e3"}}]}
