{"type":"FeatureCollection","features":[{"type":"Feature","id":"10007190001","geometry":{"type":"Polygon","coordinates":[[[120.526671,23.88327],[120.525585,23.882491],[120.523038,23.883368],[120.522562,23.882333],[120.522997,23.881364],[120.523624,23.878151],[120.524069,23.87604],[120.524259,23.872166],[120.525553,23.872328],[120.525304,23.8731],[120.525327,23.874414],[120.525985,23.874405],[120.525954,23.877242],[120.527452,23.877398],[120.527409,23.878822],[120.52824,23.879051],[120.528262,23.879792],[120.52882,23.881039],[120.526671,23.88327]]]},"properties":{"code":"10007190001","name":"光復里","countyCode":"10007","countyName":"彰化縣","townCode":"10007190","townName":"北斗鎮","level":"village","unassigned":false,"note":"","label":[120.52547831744849,23.879749772697956],"bounds":[120.522562,23.872166,120.52882,23.883368],"focusBounds":[120.522562,23.872166,120.52882,23.883368],"color":"#df9f6a"}},{"type":"Feature","id":"10007190002","geometry":{"type":"Polygon","coordinates":[[[120.524259,23.872166],[120.524069,23.87604],[120.523624,23.878151],[120.522458,23.878113],[120.522708,23.875414],[120.521846,23.87543],[120.52214,23.871938],[120.524259,23.872166]]]},"properties":{"code":"10007190002","name":"新政里","countyCode":"10007","countyName":"彰化縣","townCode":"10007190","townName":"北斗鎮","level":"village","unassigned":false,"note":"","label":[120.52303243101778,23.874324280478113],"bounds":[120.521846,23.871938,120.524259,23.878151],"focusBounds":[120.521846,23.871938,120.524259,23.878151],"color":"#c38cb8"}},{"type":"Feature","id":"10007190003","geometry":{"type":"Polygon","coordinates":[[[120.52478,23.866827],[120.524955,23.869101],[120.52532,23.869213],[120.525293,23.869935],[120.525202,23.870446],[120.524615,23.8704],[120.524259,23.872166],[120.52214,23.871938],[120.522203,23.871439],[120.522601,23.871325],[120.5229,23.870884],[120.523687,23.867925],[120.52478,23.866827]]]},"properties":{"code":"10007190003","name":"重慶里","countyCode":"10007","countyName":"彰化縣","townCode":"10007190","townName":"北斗鎮","level":"village","unassigned":false,"note":"","label":[120.52412708034007,23.869672933247045],"bounds":[120.52214,23.866827,120.52532,23.872166],"focusBounds":[120.52214,23.866827,120.52532,23.872166],"color":"#98b69b"}},{"type":"Feature","id":"10007190004","geometry":{"type":"Polygon","coordinates":[[[120.525974,23.872322],[120.525553,23.872328],[120.524259,23.872166],[120.524615,23.8704],[120.525202,23.870446],[120.525293,23.869935],[120.52532,23.869213],[120.524955,23.869101],[120.52478,23.866827],[120.523614,23.863464],[120.524362,23.863193],[120.526051,23.862996],[120.528165,23.863253],[120.528473,23.863353],[120.528661,23.863785],[120.528826,23.864875],[120.528679,23.866141],[120.528286,23.867426],[120.527587,23.868854],[120.527314,23.869275],[120.525982,23.869185],[120.525797,23.870539],[120.526326,23.87076],[120.525974,23.872322]]]},"properties":{"code":"10007190004","name":"五權里","countyCode":"10007","countyName":"彰化縣","townCode":"10007190","townName":"北斗鎮","level":"village","unassigned":false,"note":"","label":[120.52652772049433,23.865308739909544],"bounds":[120.523614,23.862996,120.528826,23.872328],"focusBounds":[120.523614,23.862996,120.528826,23.872328],"color":"#58b99d"}},{"type":"Feature","id":"10007190005","geometry":{"type":"Polygon","coordinates":[[[120.528359,23.872408],[120.525974,23.872322],[120.526326,23.87076],[120.525797,23.870539],[120.525982,23.869185],[120.527314,23.869275],[120.527587,23.868854],[120.528286,23.867426],[120.528679,23.866141],[120.528826,23.864875],[120.528661,23.863785],[120.528473,23.863353],[120.528165,23.863253],[120.526051,23.862996],[120.524362,23.863193],[120.523614,23.863464],[120.523097,23.861875],[120.521863,23.860006],[120.522677,23.858772],[120.523345,23.858131],[120.523043,23.857414],[120.521844,23.854453],[120.523144,23.853622],[120.526933,23.849736],[120.528529,23.847579],[120.5289,23.846725],[120.530669,23.845446],[120.532116,23.843208],[120.535322,23.841537],[120.535462,23.841481],[120.531111,23.852465],[120.535951,23.85243],[120.538546,23.852145],[120.538558,23.852571],[120.535851,23.854538],[120.535554,23.854887],[120.535438,23.858422],[120.535068,23.858932],[120.533142,23.860903],[120.532706,23.861135],[120.530859,23.861402],[120.530569,23.861551],[120.530649,23.864563],[120.530518,23.865495],[120.529477,23.867511],[120.529377,23.868242],[120.528917,23.868513],[120.528315,23.869235],[120.528269,23.870232],[120.528359,23.872408]]]},"properties":{"code":"10007190005","name":"七星里","countyCode":"10007","countyName":"彰化縣","townCode":"10007190","townName":"北斗鎮","level":"village","unassigned":false,"note":"","label":[120.52840086922347,23.856680226773218],"bounds":[120.521844,23.841481,120.538558,23.872408],"focusBounds":[120.521844,23.841481,120.538558,23.872408],"color":"#efb44f"}},{"type":"Feature","id":"10007190006","geometry":{"type":"Polygon","coordinates":[[[120.529759,23.87249],[120.529628,23.873358],[120.529729,23.874377],[120.527463,23.874389],[120.527452,23.877398],[120.525954,23.877242],[120.525985,23.874405],[120.525327,23.874414],[120.525304,23.8731],[120.525553,23.872328],[120.525974,23.872322],[120.528359,23.872408],[120.529759,23.87249]]]},"properties":{"code":"10007190006","name":"居仁里","countyCode":"10007","countyName":"彰化縣","townCode":"10007190","townName":"北斗鎮","level":"village","unassigned":false,"note":"","label":[120.52682458556329,23.873526412304244],"bounds":[120.525304,23.872322,120.529759,23.877398],"focusBounds":[120.525304,23.872322,120.529759,23.877398],"color":"#78a7e3"}},{"type":"Feature","id":"10007190007","geometry":{"type":"Polygon","coordinates":[[[120.54198,23.86736],[120.542168,23.868562],[120.541911,23.869728],[120.541963,23.87072],[120.540719,23.870722],[120.540526,23.870827],[120.540066,23.875582],[120.53837,23.874819],[120.53599,23.874244],[120.532865,23.874087],[120.532927,23.872885],[120.531225,23.872728],[120.530624,23.872501],[120.529759,23.87249],[120.528359,23.872408],[120.528269,23.870232],[120.53013,23.869732],[120.533228,23.869796],[120.534927,23.869512],[120.537318,23.868568],[120.540532,23.867247],[120.541219,23.867463],[120.54198,23.86736]]]},"properties":{"code":"10007190007","name":"東光里","countyCode":"10007","countyName":"彰化縣","townCode":"10007190","townName":"北斗鎮","level":"village","unassigned":false,"note":"","label":[120.53738944799137,23.87156020539232],"bounds":[120.528269,23.867247,120.542168,23.875582],"focusBounds":[120.528269,23.867247,120.542168,23.875582],"color":"#dd8590"}},{"type":"Feature","id":"10007190008","geometry":{"type":"Polygon","coordinates":[[[120.538709,23.88503],[120.538261,23.884855],[120.537408,23.885195],[120.535903,23.885062],[120.535371,23.884879],[120.534795,23.884267],[120.534505,23.884144],[120.533146,23.884149],[120.5316,23.88443],[120.530217,23.88374],[120.528226,23.88319],[120.526671,23.88327],[120.52882,23.881039],[120.528262,23.879792],[120.52824,23.879051],[120.527409,23.878822],[120.527452,23.877398],[120.527463,23.874389],[120.529729,23.874377],[120.529628,23.873358],[120.529759,23.87249],[120.530624,23.872501],[120.531225,23.872728],[120.532927,23.872885],[120.532865,23.874087],[120.53599,23.874244],[120.53837,23.874819],[120.540066,23.875582],[120.541452,23.876178],[120.544185,23.87669],[120.545405,23.877941],[120.546754,23.878774],[120.546588,23.87948],[120.545474,23.882088],[120.544892,23.88273],[120.543771,23.88324],[120.543149,23.883728],[120.541726,23.884236],[120.541067,23.884679],[120.538709,23.88503]]]},"properties":{"code":"10007190008","name":"文昌里","countyCode":"10007","countyName":"彰化縣","townCode":"10007190","townName":"北斗鎮","level":"village","unassigned":false,"note":"","label":[120.53628570114239,23.8797056054216],"bounds":[120.526671,23.87249,120.546754,23.885195],"focusBounds":[120.526671,23.87249,120.546754,23.885195],"color":"#a49ad4"}},{"type":"Feature","id":"10007190009","geometry":{"type":"Polygon","coordinates":[[[120.548184,23.870684],[120.548053,23.871611],[120.547557,23.871799],[120.547942,23.872552],[120.547981,23.873042],[120.547681,23.873833],[120.547309,23.874196],[120.547447,23.874665],[120.547247,23.876922],[120.546754,23.878774],[120.545405,23.877941],[120.544185,23.87669],[120.541452,23.876178],[120.540066,23.875582],[120.540526,23.870827],[120.540719,23.870722],[120.541963,23.87072],[120.541911,23.869728],[120.542168,23.868562],[120.54198,23.86736],[120.542837,23.866827],[120.544707,23.865201],[120.54625,23.864316],[120.547892,23.863956],[120.548744,23.863914],[120.549298,23.864039],[120.551191,23.86372],[120.55169,23.863783],[120.551949,23.864376],[120.550297,23.865043],[120.550154,23.866036],[120.549527,23.865933],[120.549215,23.866318],[120.549307,23.867224],[120.548523,23.868493],[120.547661,23.870476],[120.548184,23.870684]]]},"properties":{"code":"10007190009","name":"中和里","countyCode":"10007","countyName":"彰化縣","townCode":"10007190","townName":"北斗鎮","level":"village","unassigned":false,"note":"","label":[120.54475523404,23.87095394749949],"bounds":[120.540066,23.86372,120.551949,23.878774],"focusBounds":[120.540066,23.86372,120.551949,23.878774],"color":"#a8bf62"}},{"type":"Feature","id":"10007190010","geometry":{"type":"Polygon","coordinates":[[[120.52214,23.871938],[120.52157,23.871989],[120.520785,23.872422],[120.520739,23.872761],[120.520289,23.872948],[120.518178,23.872876],[120.517225,23.873459],[120.514029,23.86988],[120.510518,23.865982],[120.510653,23.86579],[120.511077,23.865427],[120.511268,23.864816],[120.511521,23.864525],[120.512445,23.863777],[120.515023,23.863927],[120.516317,23.864565],[120.518473,23.864232],[120.520421,23.862119],[120.521863,23.860006],[120.523097,23.861875],[120.523614,23.863464],[120.52478,23.866827],[120.523687,23.867925],[120.5229,23.870884],[120.522601,23.871325],[120.522203,23.871439],[120.52214,23.871938]]]},"properties":{"code":"10007190010","name":"西德里","countyCode":"10007","countyName":"彰化縣","townCode":"10007190","townName":"北斗鎮","level":"village","unassigned":false,"note":"","label":[120.51858068327479,23.86850233304606],"bounds":[120.510518,23.860006,120.52478,23.873459],"focusBounds":[120.510518,23.860006,120.52478,23.873459],"color":"#68bec9"}},{"type":"Feature","id":"10007190011","geometry":{"type":"Polygon","coordinates":[[[120.521846,23.87543],[120.518748,23.87748],[120.517494,23.877232],[120.516837,23.877367],[120.514301,23.877344],[120.513779,23.877255],[120.513435,23.877008],[120.513652,23.876248],[120.512518,23.873953],[120.510572,23.870668],[120.512934,23.87051],[120.513888,23.870164],[120.514029,23.86988],[120.517225,23.873459],[120.518178,23.872876],[120.520289,23.872948],[120.520739,23.872761],[120.520785,23.872422],[120.52157,23.871989],[120.52214,23.871938],[120.521846,23.87543]]]},"properties":{"code":"10007190011","name":"西安里","countyCode":"10007","countyName":"彰化縣","townCode":"10007190","townName":"北斗鎮","level":"village","unassigned":false,"note":"","label":[120.51556710998402,23.875004780447952],"bounds":[120.510572,23.86988,120.52214,23.87748],"focusBounds":[120.510572,23.86988,120.52214,23.87748],"color":"#df9f6a"}},{"type":"Feature","id":"10007190012","geometry":{"type":"Polygon","coordinates":[[[120.509742,23.892849],[120.508619,23.893223],[120.505893,23.893606],[120.503908,23.894118],[120.501633,23.893929],[120.500259,23.894916],[120.500009,23.894943],[120.500478,23.8936],[120.500449,23.893108],[120.499243,23.89048],[120.49912,23.889889],[120.499686,23.882478],[120.501747,23.880115],[120.501983,23.879156],[120.502227,23.876047],[120.502513,23.875282],[120.502985,23.874855],[120.50418,23.874361],[120.506572,23.871673],[120.507222,23.871141],[120.507323,23.871083],[120.508261,23.87077],[120.510572,23.870668],[120.512518,23.873953],[120.513652,23.876248],[120.513435,23.877008],[120.513779,23.877255],[120.514301,23.877344],[120.514192,23.87774],[120.512977,23.87837],[120.511443,23.883721],[120.509113,23.88361],[120.508846,23.883658],[120.508534,23.884086],[120.507583,23.88405],[120.507503,23.884809],[120.507747,23.884848],[120.508064,23.885761],[120.509317,23.890694],[120.509734,23.891429],[120.509891,23.892106],[120.509745,23.892317],[120.509742,23.892849]]]},"properties":{"code":"10007190012","name":"中寮里","countyCode":"10007","countyName":"彰化縣","townCode":"10007190","townName":"北斗鎮","level":"village","unassigned":false,"note":"","label":[120.50735253532011,23.878767187409927],"bounds":[120.49912,23.870668,120.514301,23.894943],"focusBounds":[120.49912,23.870668,120.514301,23.894943],"color":"#c38cb8"}},{"type":"Feature","id":"10007190013","geometry":{"type":"Polygon","coordinates":[[[120.515794,23.889999],[120.511561,23.892111],[120.509742,23.892849],[120.509745,23.892317],[120.509891,23.892106],[120.509734,23.891429],[120.509317,23.890694],[120.508064,23.885761],[120.507747,23.884848],[120.507503,23.884809],[120.507583,23.88405],[120.508534,23.884086],[120.508846,23.883658],[120.509113,23.88361],[120.511443,23.883721],[120.512977,23.87837],[120.514192,23.87774],[120.514301,23.877344],[120.516837,23.877367],[120.517494,23.877232],[120.518748,23.87748],[120.521846,23.87543],[120.522708,23.875414],[120.522458,23.878113],[120.523624,23.878151],[120.522997,23.881364],[120.522562,23.882333],[120.523038,23.883368],[120.520985,23.88443],[120.520749,23.884966],[120.520641,23.886901],[120.519868,23.888023],[120.518131,23.888262],[120.517381,23.888665],[120.515794,23.889999]]]},"properties":{"code":"10007190013","name":"大道里","countyCode":"10007","countyName":"彰化縣","townCode":"10007190","townName":"北斗鎮","level":"village","unassigned":false,"note":"","label":[120.51631755091506,23.883827001213547],"bounds":[120.507503,23.875414,120.523624,23.892849],"focusBounds":[120.507503,23.875414,120.523624,23.892849],"color":"#98b69b"}},{"type":"Feature","id":"10007190014","geometry":{"type":"Polygon","coordinates":[[[120.537318,23.868568],[120.534927,23.869512],[120.533228,23.869796],[120.53013,23.869732],[120.528269,23.870232],[120.528315,23.869235],[120.528917,23.868513],[120.529377,23.868242],[120.529477,23.867511],[120.530518,23.865495],[120.530649,23.864563],[120.530569,23.861551],[120.530859,23.861402],[120.532706,23.861135],[120.533142,23.860903],[120.535068,23.858932],[120.535438,23.858422],[120.535554,23.854887],[120.535851,23.854538],[120.538558,23.852571],[120.538546,23.852145],[120.54215,23.850898],[120.543549,23.848517],[120.547376,23.846719],[120.548045,23.846076],[120.54888,23.846157],[120.549387,23.846042],[120.551318,23.845222],[120.5518,23.844775],[120.552228,23.845212],[120.552485,23.844995],[120.553443,23.845034],[120.555274,23.843879],[120.555722,23.844177],[120.556872,23.843472],[120.557582,23.842338],[120.559855,23.840961],[120.56277,23.843269],[120.559097,23.847323],[120.558373,23.848849],[120.560044,23.84818],[120.561535,23.848134],[120.565434,23.847595],[120.566701,23.847229],[120.568442,23.846467],[120.569107,23.847205],[120.566139,23.848895],[120.560423,23.851568],[120.553288,23.854219],[120.552746,23.854973],[120.551308,23.85779],[120.550017,23.858459],[120.549828,23.8583],[120.54739,23.858618],[120.547183,23.858795],[120.547079,23.859438],[120.545637,23.861383],[120.545741,23.861523],[120.543787,23.863366],[120.543635,23.86335],[120.54314,23.864132],[120.541973,23.864905],[120.539468,23.866134],[120.53808,23.867212],[120.538109,23.867552],[120.537318,23.868568]]]},"properties":{"code":"10007190014","name":"新生里","countyCode":"10007","countyName":"彰化縣","townCode":"10007190","townName":"北斗鎮","level":"village","unassigned":false,"note":"","label":[120.54759517428603,23.852613006099247],"bounds":[120.528269,23.840961,120.569107,23.870232],"focusBounds":[120.528269,23.840961,120.569107,23.870232],"color":"#58b99d"}},{"type":"Feature","id":"10007190015","geometry":{"type":"Polygon","coordinates":[[[120.554987,23.869931],[120.550617,23.870605],[120.548184,23.870684],[120.547661,23.870476],[120.548523,23.868493],[120.549307,23.867224],[120.549215,23.866318],[120.549527,23.865933],[120.550154,23.866036],[120.550297,23.865043],[120.551949,23.864376],[120.55169,23.863783],[120.551191,23.86372],[120.549298,23.864039],[120.548744,23.863914],[120.547892,23.863956],[120.54625,23.864316],[120.544707,23.865201],[120.542837,23.866827],[120.54198,23.86736],[120.541219,23.867463],[120.540532,23.867247],[120.537318,23.868568],[120.538109,23.867552],[120.53808,23.867212],[120.539468,23.866134],[120.541973,23.864905],[120.54314,23.864132],[120.543635,23.86335],[120.543787,23.863366],[120.545741,23.861523],[120.545637,23.861383],[120.547079,23.859438],[120.547183,23.858795],[120.54739,23.858618],[120.549828,23.8583],[120.550017,23.858459],[120.551308,23.85779],[120.552746,23.854973],[120.553288,23.854219],[120.560423,23.851568],[120.566139,23.848895],[120.569107,23.847205],[120.573176,23.851764],[120.571982,23.851262],[120.570986,23.851964],[120.567369,23.854555],[120.56307,23.857895],[120.561803,23.860452],[120.55629,23.864486],[120.55475,23.864912],[120.554987,23.869931]]]},"properties":{"code":"10007190015","name":"大新里","countyCode":"10007","countyName":"彰化縣","townCode":"10007190","townName":"北斗鎮","level":"village","unassigned":false,"note":"","label":[120.55618793488674,23.858827795594316],"bounds":[120.537318,23.847205,120.573176,23.870684],"focusBounds":[120.537318,23.847205,120.573176,23.870684],"color":"#efb44f"}}]}
