{"type":"FeatureCollection","features":[{"type":"Feature","id":"10004050001","geometry":{"type":"Polygon","coordinates":[[[121.046534,24.901646],[121.044264,24.902709],[121.042262,24.899029],[121.043804,24.899619],[121.044665,24.899577],[121.045616,24.899196],[121.04593,24.900435],[121.046534,24.901646]]]},"properties":{"code":"10004050001","name":"孝勢村","countyCode":"10004","countyName":"新竹縣","townCode":"10004050","townName":"湖口鄉","level":"village","unassigned":false,"note":"","label":[121.0447282137402,24.90082741422276],"bounds":[121.042262,24.899029,121.046534,24.902709],"focusBounds":[121.042262,24.899029,121.046534,24.902709],"color":"#a8bf62"}},{"type":"Feature","id":"10004050002","geometry":{"type":"Polygon","coordinates":[[[121.048023,24.902347],[121.044846,24.903873],[121.044264,24.902709],[121.046534,24.901646],[121.047421,24.901246],[121.048023,24.902347]]]},"properties":{"code":"10004050002","name":"仁勢村","countyCode":"10004","countyName":"新竹縣","townCode":"10004050","townName":"湖口鄉","level":"village","unassigned":false,"note":"","label":[121.04612916043038,24.902546206407465],"bounds":[121.044264,24.901246,121.048023,24.903873],"focusBounds":[121.044264,24.901246,121.048023,24.903873],"color":"#68bec9"}},{"type":"Feature","id":"10004050003","geometry":{"type":"Polygon","coordinates":[[[121.057588,24.905897],[121.057032,24.905877],[121.056207,24.905612],[121.055929,24.905705],[121.055233,24.906164],[121.054554,24.90717],[121.053668,24.907513],[121.052825,24.90832],[121.051918,24.908627],[121.051236,24.908551],[121.049786,24.907873],[121.048361,24.90756],[121.047463,24.906983],[121.046465,24.906712],[121.044846,24.903873],[121.048023,24.902347],[121.048597,24.903286],[121.050412,24.902718],[121.051779,24.903135],[121.053192,24.902781],[121.053583,24.903153],[121.05439,24.904479],[121.056107,24.905369],[121.057354,24.905423],[121.057588,24.905897]]]},"properties":{"code":"10004050003","name":"愛勢村","countyCode":"10004","countyName":"新竹縣","townCode":"10004050","townName":"湖口鄉","level":"village","unassigned":false,"note":"","label":[121.05040817893774,24.905441568147534],"bounds":[121.044846,24.902347,121.057588,24.908627],"focusBounds":[121.044846,24.902347,121.057588,24.908627],"color":"#df9f6a"}},{"type":"Feature","id":"10004050004","geometry":{"type":"Polygon","coordinates":[[[121.044846,24.903873],[121.046465,24.906712],[121.044023,24.905993],[121.043096,24.905865],[121.041608,24.905355],[121.040142,24.904319],[121.039242,24.904419],[121.037339,24.905223],[121.036096,24.905464],[121.036036,24.905069],[121.036632,24.904555],[121.036618,24.904203],[121.036412,24.903931],[121.035033,24.903671],[121.033329,24.904012],[121.033304,24.902322],[121.031114,24.902104],[121.031149,24.9012],[121.028142,24.901277],[121.027958,24.899335],[121.027736,24.899171],[121.028462,24.89824],[121.029255,24.897617],[121.030483,24.89714],[121.031419,24.89722],[121.033222,24.89804],[121.034128,24.898174],[121.034814,24.898808],[121.035142,24.899386],[121.035142,24.899763],[121.034711,24.90026],[121.034754,24.900659],[121.035057,24.900835],[121.036055,24.900927],[121.03821,24.900631],[121.039052,24.900365],[121.041605,24.899066],[121.042262,24.899029],[121.044264,24.902709],[121.044846,24.903873]]]},"properties":{"code":"10004050004","name":"信勢村","countyCode":"10004","countyName":"新竹縣","townCode":"10004050","townName":"湖口鄉","level":"village","unassigned":false,"note":"","label":[121.04103824496838,24.90215341100861],"bounds":[121.027736,24.89714,121.046465,24.906712],"focusBounds":[121.027736,24.89714,121.046465,24.906712],"color":"#c38cb8"}},{"type":"Feature","id":"10004050005","geometry":{"type":"Polygon","coordinates":[[[121.060622,24.903682],[121.06027,24.903885],[121.059793,24.904522],[121.058293,24.905213],[121.057588,24.905897],[121.057354,24.905423],[121.056107,24.905369],[121.05439,24.904479],[121.053583,24.903153],[121.053192,24.902781],[121.051779,24.903135],[121.050412,24.902718],[121.048597,24.903286],[121.048023,24.902347],[121.050648,24.90109],[121.050828,24.900829],[121.048186,24.897316],[121.049347,24.89693],[121.049748,24.897055],[121.050447,24.89767],[121.050897,24.897755],[121.051274,24.897512],[121.051924,24.896675],[121.052843,24.896163],[121.053997,24.895973],[121.055766,24.895207],[121.057478,24.894904],[121.058234,24.894552],[121.058981,24.893691],[121.059594,24.894107],[121.060048,24.89422],[121.061937,24.893294],[121.064192,24.896823],[121.06072,24.898118],[121.060921,24.898604],[121.060702,24.898841],[121.0607,24.899267],[121.060989,24.899502],[121.062751,24.902411],[121.060622,24.903682]]]},"properties":{"code":"10004050005","name":"中勢村","countyCode":"10004","countyName":"新竹縣","townCode":"10004050","townName":"湖口鄉","level":"village","unassigned":false,"note":"","label":[121.0564279498248,24.89986869464061],"bounds":[121.048023,24.893294,121.064192,24.905897],"focusBounds":[121.048023,24.893294,121.064192,24.905897],"color":"#98b69b"}},{"type":"Feature","id":"10004050006","geometry":{"type":"Polygon","coordinates":[[[121.044478,24.911126],[121.043834,24.911179],[121.042955,24.911519],[121.042132,24.911985],[121.038965,24.913291],[121.036821,24.913661],[121.035722,24.914097],[121.032654,24.914369],[121.028645,24.9144],[121.028164,24.914541],[121.027613,24.914928],[121.027116,24.91427],[121.026756,24.912925],[121.025552,24.911712],[121.024284,24.907464],[121.023385,24.905176],[121.023322,24.904454],[121.022751,24.903789],[121.023016,24.902901],[121.021467,24.900819],[121.021491,24.900407],[121.0212,24.899922],[121.021073,24.898837],[121.020933,24.898854],[121.020334,24.89728],[121.020372,24.897123],[121.020846,24.896898],[121.020343,24.895917],[121.020892,24.896002],[121.021479,24.895455],[121.02212,24.896266],[121.023076,24.896981],[121.024586,24.897748],[121.024957,24.898195],[121.027736,24.899171],[121.027958,24.899335],[121.028142,24.901277],[121.031149,24.9012],[121.031114,24.902104],[121.033304,24.902322],[121.033329,24.904012],[121.035033,24.903671],[121.036412,24.903931],[121.036618,24.904203],[121.036632,24.904555],[121.036036,24.905069],[121.036096,24.905464],[121.037339,24.905223],[121.039242,24.904419],[121.040142,24.904319],[121.041608,24.905355],[121.043096,24.905865],[121.044023,24.905993],[121.046465,24.906712],[121.047463,24.906983],[121.048361,24.90756],[121.049786,24.907873],[121.051236,24.908551],[121.049225,24.909581],[121.044478,24.911126]]]},"properties":{"code":"10004050006","name":"德盛村","countyCode":"10004","countyName":"新竹縣","townCode":"10004050","townName":"湖口鄉","level":"village","unassigned":false,"note":"","label":[121.03020765162518,24.908507991348262],"bounds":[121.020334,24.895455,121.051236,24.914928],"focusBounds":[121.020334,24.895455,121.051236,24.914928],"color":"#58b99d"}},{"type":"Feature","id":"10004050007","geometry":{"type":"Polygon","coordinates":[[[121.058337,24.936841],[121.057662,24.936655],[121.056987,24.936845],[121.055448,24.93624],[121.054515,24.936914],[121.053545,24.937268],[121.053338,24.937884],[121.052952,24.937713],[121.051632,24.938697],[121.051147,24.938777],[121.050252,24.938649],[121.04959,24.939211],[121.048565,24.939463],[121.047993,24.940164],[121.048004,24.941195],[121.046824,24.941789],[121.046245,24.942407],[121.045231,24.941887],[121.044487,24.94118],[121.043751,24.938866],[121.043718,24.938324],[121.042628,24.935475],[121.039036,24.930496],[121.038443,24.929898],[121.037914,24.928795],[121.037354,24.928536],[121.037097,24.927984],[121.035842,24.926651],[121.033117,24.922169],[121.032268,24.920401],[121.03138,24.918724],[121.029954,24.9181],[121.028485,24.917719],[121.028038,24.917373],[121.027613,24.914928],[121.028164,24.914541],[121.028645,24.9144],[121.032654,24.914369],[121.035722,24.914097],[121.036821,24.913661],[121.038965,24.913291],[121.042132,24.911985],[121.042955,24.911519],[121.043834,24.911179],[121.044478,24.911126],[121.044358,24.911651],[121.045267,24.913486],[121.046354,24.914577],[121.046115,24.91766],[121.047108,24.919615],[121.048212,24.92016],[121.049569,24.921738],[121.050943,24.924727],[121.054296,24.928066],[121.05643,24.928395],[121.057561,24.930507],[121.058336,24.932377],[121.058309,24.932549],[121.057836,24.932756],[121.057657,24.933032],[121.058555,24.935158],[121.058337,24.936841]]]},"properties":{"code":"10004050007","name":"和興村","countyCode":"10004","countyName":"新竹縣","townCode":"10004050","townName":"湖口鄉","level":"village","unassigned":false,"note":"","label":[121.04382994540481,24.925850966470907],"bounds":[121.027613,24.911126,121.058555,24.942407],"focusBounds":[121.027613,24.911126,121.058555,24.942407],"color":"#efb44f"}},{"type":"Feature","id":"10004050008","geometry":{"type":"Polygon","coordinates":[[[121.092183,24.893395],[121.091125,24.893412],[121.090047,24.89484],[121.089429,24.895382],[121.086552,24.896517],[121.086196,24.897227],[121.085771,24.897635],[121.084581,24.898049],[121.083537,24.898806],[121.082906,24.899041],[121.081961,24.898999],[121.080644,24.898352],[121.079972,24.898597],[121.078827,24.89875],[121.076959,24.898709],[121.076181,24.899397],[121.075161,24.899427],[121.073839,24.899905],[121.072368,24.89955],[121.071551,24.899665],[121.071107,24.899478],[121.070947,24.899963],[121.070945,24.901045],[121.070546,24.901854],[121.069215,24.90272],[121.068487,24.903026],[121.067915,24.903218],[121.067218,24.903047],[121.066938,24.903262],[121.0644,24.903742],[121.062453,24.904597],[121.06142,24.903807],[121.060622,24.903682],[121.062751,24.902411],[121.060989,24.899502],[121.0607,24.899267],[121.060702,24.898841],[121.060921,24.898604],[121.06072,24.898118],[121.064192,24.896823],[121.061937,24.893294],[121.060048,24.89422],[121.059594,24.894107],[121.058981,24.893691],[121.059476,24.893322],[121.06034,24.893148],[121.061709,24.891902],[121.062655,24.891391],[121.065896,24.891458],[121.068699,24.890821],[121.069871,24.889581],[121.071195,24.888591],[121.07287,24.887793],[121.074188,24.887547],[121.074919,24.887009],[121.076277,24.886896],[121.076914,24.886149],[121.077747,24.886492],[121.07841,24.885981],[121.079366,24.886393],[121.080032,24.885816],[121.081953,24.885284],[121.084947,24.884818],[121.088107,24.884816],[121.091882,24.885969],[121.092002,24.886649],[121.091608,24.887765],[121.091617,24.888147],[121.091941,24.888768],[121.092897,24.889502],[121.093323,24.890653],[121.092183,24.893395]]]},"properties":{"code":"10004050008","name":"長嶺村","countyCode":"10004","countyName":"新竹縣","townCode":"10004050","townName":"湖口鄉","level":"village","unassigned":false,"note":"","label":[121.07640571406901,24.892972123598838],"bounds":[121.058981,24.884816,121.093323,24.904597],"focusBounds":[121.058981,24.884816,121.093323,24.904597],"color":"#78a7e3"}},{"type":"Feature","id":"10004050009","geometry":{"type":"Polygon","coordinates":[[[121.109067,24.897739],[121.105497,24.896406],[121.10141,24.895177],[121.098418,24.894657],[121.093955,24.893611],[121.092183,24.893395],[121.093323,24.890653],[121.092897,24.889502],[121.091941,24.888768],[121.091617,24.888147],[121.091608,24.887765],[121.092002,24.886649],[121.091882,24.885969],[121.088107,24.884816],[121.084947,24.884818],[121.081953,24.885284],[121.082593,24.884333],[121.084612,24.88267],[121.085726,24.881068],[121.086341,24.879441],[121.086776,24.878948],[121.089102,24.877677],[121.090606,24.877286],[121.094528,24.876707],[121.09737,24.876843],[121.098269,24.876675],[121.100455,24.875484],[121.10254,24.872947],[121.104677,24.871298],[121.1056,24.871322],[121.105751,24.871561],[121.107134,24.872213],[121.108269,24.872151],[121.108927,24.872264],[121.109807,24.87211],[121.110206,24.871751],[121.110655,24.871607],[121.111001,24.871197],[121.111486,24.869582],[121.112032,24.869616],[121.112415,24.870115],[121.112517,24.870849],[121.113268,24.871857],[121.113303,24.873157],[121.112868,24.873577],[121.112215,24.874694],[121.112928,24.875569],[121.113879,24.875626],[121.114533,24.876304],[121.115164,24.876409],[121.115759,24.876162],[121.116504,24.876261],[121.117623,24.875297],[121.118977,24.875207],[121.120114,24.875402],[121.120989,24.875315],[121.121157,24.875465],[121.121284,24.875917],[121.121096,24.876814],[121.121623,24.877814],[121.121611,24.878872],[121.122037,24.880263],[121.121512,24.880559],[121.12033,24.880714],[121.11949,24.881158],[121.117184,24.881786],[121.116334,24.881678],[121.115013,24.882546],[121.113559,24.88253],[121.112205,24.883737],[121.110569,24.884857],[121.108538,24.886038],[121.107821,24.886],[121.107759,24.886148],[121.10799,24.88656],[121.109284,24.887466],[121.109314,24.887652],[121.109078,24.887965],[121.109978,24.888776],[121.111024,24.89122],[121.110536,24.892898],[121.110694,24.893234],[121.110682,24.893838],[121.110317,24.894163],[121.109855,24.8954],[121.109868,24.895723],[121.110114,24.896074],[121.109067,24.897739]]]},"properties":{"code":"10004050009","name":"長安村","countyCode":"10004","countyName":"新竹縣","townCode":"10004050","townName":"湖口鄉","level":"village","unassigned":false,"note":"","label":[121.09979937863673,24.884458183921204],"bounds":[121.081953,24.869582,121.122037,24.897739],"focusBounds":[121.081953,24.869582,121.122037,24.897739],"color":"#dd8590"}},{"type":"Feature","id":"10004050010","geometry":{"type":"Polygon","coordinates":[[[121.058981,24.893691],[121.058234,24.894552],[121.057478,24.894904],[121.056086,24.892269],[121.055779,24.887012],[121.056071,24.886674],[121.056824,24.886467],[121.057182,24.886113],[121.057718,24.884459],[121.057958,24.882986],[121.058713,24.88154],[121.05887,24.880423],[121.059349,24.878821],[121.059744,24.878272],[121.060128,24.877297],[121.05987,24.876391],[121.058202,24.872973],[121.058175,24.872613],[121.058851,24.872473],[121.05956,24.872572],[121.062173,24.872481],[121.066,24.872102],[121.068653,24.872013],[121.071254,24.872785],[121.07263,24.872924],[121.073653,24.873435],[121.076688,24.87314],[121.078054,24.872753],[121.079044,24.87269],[121.08088,24.872144],[121.082408,24.871381],[121.084,24.871112],[121.085981,24.870181],[121.086227,24.869945],[121.087285,24.869612],[121.090823,24.868929],[121.092445,24.868465],[121.093508,24.868632],[121.094387,24.86904],[121.095215,24.869146],[121.096264,24.869139],[121.098575,24.868717],[121.100307,24.868772],[121.100712,24.868692],[121.100693,24.869899],[121.100964,24.870404],[121.101194,24.87052],[121.101447,24.870492],[121.103522,24.869201],[121.104007,24.869265],[121.104256,24.869702],[121.104374,24.871123],[121.104677,24.871298],[121.10254,24.872947],[121.100455,24.875484],[121.098269,24.876675],[121.09737,24.876843],[121.094528,24.876707],[121.090606,24.877286],[121.089102,24.877677],[121.086776,24.878948],[121.086341,24.879441],[121.085726,24.881068],[121.084612,24.88267],[121.082593,24.884333],[121.081953,24.885284],[121.080032,24.885816],[121.079366,24.886393],[121.07841,24.885981],[121.077747,24.886492],[121.076914,24.886149],[121.076277,24.886896],[121.074919,24.887009],[121.074188,24.887547],[121.07287,24.887793],[121.071195,24.888591],[121.069871,24.889581],[121.068699,24.890821],[121.065896,24.891458],[121.062655,24.891391],[121.061709,24.891902],[121.06034,24.893148],[121.059476,24.893322],[121.058981,24.893691]]]},"properties":{"code":"10004050010","name":"湖口村","countyCode":"10004","countyName":"新竹縣","townCode":"10004050","townName":"湖口鄉","level":"village","unassigned":false,"note":"","label":[121.0715049021248,24.880626776179902],"bounds":[121.055779,24.868465,121.104677,24.894904],"focusBounds":[121.055779,24.868465,121.104677,24.894904],"color":"#a49ad4"}},{"type":"Feature","id":"10004050011","geometry":{"type":"Polygon","coordinates":[[[121.055779,24.887012],[121.054304,24.887171],[121.052333,24.887865],[121.050307,24.888373],[121.049157,24.888509],[121.047132,24.886293],[121.045556,24.885283],[121.045191,24.884552],[121.047257,24.88385],[121.047561,24.882665],[121.050175,24.879504],[121.050305,24.879178],[121.050255,24.878079],[121.050646,24.877296],[121.051896,24.876034],[121.052114,24.875849],[121.053673,24.87589],[121.055259,24.875642],[121.055116,24.875069],[121.05527,24.874661],[121.055906,24.874331],[121.056945,24.87339],[121.058175,24.872613],[121.058202,24.872973],[121.05987,24.876391],[121.060128,24.877297],[121.059744,24.878272],[121.059349,24.878821],[121.05887,24.880423],[121.058713,24.88154],[121.057958,24.882986],[121.057718,24.884459],[121.057182,24.886113],[121.056824,24.886467],[121.056071,24.886674],[121.055779,24.887012]]]},"properties":{"code":"10004050011","name":"湖鏡村","countyCode":"10004","countyName":"新竹縣","townCode":"10004050","townName":"湖口鄉","level":"village","unassigned":false,"note":"","label":[121.05371096900225,24.88197150022568],"bounds":[121.045191,24.872613,121.060128,24.888509],"focusBounds":[121.045191,24.872613,121.060128,24.888509],"color":"#a8bf62"}},{"type":"Feature","id":"10004050012","geometry":{"type":"Polygon","coordinates":[[[121.045191,24.884552],[121.043368,24.885225],[121.042686,24.885634],[121.041883,24.885692],[121.04158,24.885528],[121.041187,24.884686],[121.040759,24.884211],[121.040177,24.884071],[121.0386,24.884117],[121.037559,24.882947],[121.03688,24.882489],[121.036313,24.882329],[121.035549,24.880608],[121.035089,24.880681],[121.03436,24.88028],[121.034242,24.87985],[121.033048,24.878817],[121.032864,24.878061],[121.032994,24.876905],[121.033041,24.87655],[121.033987,24.870466],[121.035328,24.871529],[121.038162,24.87163],[121.042518,24.874038],[121.044572,24.872465],[121.04639,24.871803],[121.047543,24.871932],[121.050563,24.873173],[121.051467,24.873097],[121.051966,24.872714],[121.05238,24.872039],[121.053295,24.871105],[121.053618,24.869695],[121.054397,24.869496],[121.054654,24.869173],[121.057272,24.864468],[121.057895,24.863617],[121.059781,24.861979],[121.06103,24.861546],[121.063643,24.860103],[121.064419,24.860984],[121.065225,24.861573],[121.065777,24.86164],[121.069565,24.863599],[121.070979,24.863774],[121.073108,24.863289],[121.074015,24.863597],[121.074385,24.863299],[121.074087,24.862881],[121.074237,24.862542],[121.075139,24.862843],[121.075537,24.862725],[121.075884,24.862971],[121.076466,24.862955],[121.077696,24.86361],[121.078441,24.86381],[121.078592,24.863799],[121.078949,24.863267],[121.079391,24.863084],[121.080281,24.863089],[121.082116,24.863827],[121.082624,24.864299],[121.083128,24.865307],[121.08347,24.865531],[121.084768,24.865521],[121.086456,24.864875],[121.087921,24.864946],[121.088705,24.866026],[121.08883,24.86702],[121.089588,24.868443],[121.092445,24.868465],[121.090823,24.868929],[121.087285,24.869612],[121.086227,24.869945],[121.085981,24.870181],[121.084,24.871112],[121.082408,24.871381],[121.08088,24.872144],[121.079044,24.87269],[121.078054,24.872753],[121.076688,24.87314],[121.073653,24.873435],[121.07263,24.872924],[121.071254,24.872785],[121.068653,24.872013],[121.066,24.872102],[121.062173,24.872481],[121.05956,24.872572],[121.058851,24.872473],[121.058175,24.872613],[121.056945,24.87339],[121.055906,24.874331],[121.05527,24.874661],[121.055116,24.875069],[121.055259,24.875642],[121.053673,24.87589],[121.052114,24.875849],[121.051896,24.876034],[121.050646,24.877296],[121.050255,24.878079],[121.050305,24.879178],[121.050175,24.879504],[121.047561,24.882665],[121.047257,24.88385],[121.045191,24.884552]]]},"properties":{"code":"10004050012","name":"湖南村","countyCode":"10004","countyName":"新竹縣","townCode":"10004050","townName":"湖口鄉","level":"village","unassigned":false,"note":"","label":[121.0623094066326,24.866653207787195],"bounds":[121.032864,24.860103,121.092445,24.885692],"focusBounds":[121.032864,24.860103,121.092445,24.885692],"color":"#68bec9"}},{"type":"Feature","id":"10004050013","geometry":{"type":"Polygon","coordinates":[[[121.036313,24.882329],[121.035248,24.88244],[121.034537,24.882699],[121.033458,24.88361],[121.032458,24.883653],[121.031921,24.88387],[121.031339,24.884597],[121.031233,24.885189],[121.03144,24.885815],[121.031301,24.886294],[121.029383,24.887697],[121.028528,24.887772],[121.026844,24.887448],[121.025515,24.887819],[121.024114,24.888532],[121.02401,24.888854],[121.024321,24.889534],[121.024317,24.889966],[121.024017,24.890591],[121.021726,24.892537],[121.020934,24.893469],[121.020644,24.895318],[121.020343,24.895917],[121.020481,24.894912],[121.019783,24.893199],[121.019458,24.891319],[121.019118,24.890573],[121.018259,24.889569],[121.018392,24.889192],[121.019077,24.888701],[121.017397,24.887557],[121.016724,24.887619],[121.015952,24.887098],[121.015528,24.88675],[121.015433,24.886398],[121.014883,24.885967],[121.014768,24.885534],[121.011482,24.883092],[121.01132,24.882478],[121.011047,24.882231],[121.010768,24.882281],[121.010509,24.883304],[121.009976,24.883104],[121.009986,24.88263],[121.010464,24.882419],[121.010448,24.882276],[121.009,24.881225],[121.009957,24.88064],[121.010372,24.879261],[121.011065,24.877978],[121.012289,24.87752],[121.012481,24.877235],[121.012602,24.876493],[121.013282,24.876],[121.014525,24.87548],[121.015681,24.87555],[121.016431,24.87598],[121.0179,24.875724],[121.019556,24.875818],[121.020239,24.876027],[121.023354,24.875979],[121.025709,24.876664],[121.027001,24.877737],[121.027986,24.878302],[121.030278,24.877807],[121.031962,24.87699],[121.032994,24.876905],[121.032864,24.878061],[121.033048,24.878817],[121.034242,24.87985],[121.03436,24.88028],[121.035089,24.880681],[121.035549,24.880608],[121.036313,24.882329]]]},"properties":{"code":"10004050013","name":"波羅村","countyCode":"10004","countyName":"新竹縣","townCode":"10004050","townName":"湖口鄉","level":"village","unassigned":false,"note":"","label":[121.02097934841925,24.882232393490508],"bounds":[121.009,24.87548,121.036313,24.895917],"focusBounds":[121.009,24.87548,121.036313,24.895917],"color":"#df9f6a"}},{"type":"Feature","id":"10004050014","geometry":{"type":"Polygon","coordinates":[[[121.032994,24.876905],[121.031962,24.87699],[121.030278,24.877807],[121.027986,24.878302],[121.027001,24.877737],[121.025709,24.876664],[121.023354,24.875979],[121.020239,24.876027],[121.019556,24.875818],[121.0179,24.875724],[121.016431,24.87598],[121.015681,24.87555],[121.014525,24.87548],[121.013282,24.876],[121.012602,24.876493],[121.012481,24.877235],[121.012289,24.87752],[121.011065,24.877978],[121.010372,24.879261],[121.009957,24.88064],[121.009,24.881225],[121.008599,24.880657],[121.007015,24.879883],[121.006122,24.879154],[121.00579,24.878729],[121.006058,24.878478],[121.005962,24.878296],[121.008232,24.876094],[121.010105,24.875183],[121.011471,24.874718],[121.011438,24.874378],[121.009958,24.872243],[121.015614,24.868925],[121.017349,24.870327],[121.018383,24.870718],[121.020533,24.872148],[121.024457,24.874125],[121.030454,24.875976],[121.033041,24.87655],[121.032994,24.876905]]]},"properties":{"code":"10004050014","name":"鳳凰村","countyCode":"10004","countyName":"新竹縣","townCode":"10004050","townName":"湖口鄉","level":"village","unassigned":false,"note":"","label":[121.01683853002882,24.872911763000594],"bounds":[121.00579,24.868925,121.033041,24.881225],"focusBounds":[121.00579,24.868925,121.033041,24.881225],"color":"#c38cb8"}},{"type":"Feature","id":"10004050015","geometry":{"type":"Polygon","coordinates":[[[121.015614,24.868925],[121.009958,24.872243],[121.011438,24.874378],[121.011471,24.874718],[121.010105,24.875183],[121.008232,24.876094],[121.005962,24.878296],[121.00591,24.87823],[121.005603,24.877859],[121.005207,24.877726],[121.004353,24.876726],[121.000483,24.873287],[120.998673,24.871806],[120.998718,24.871661],[120.999273,24.871507],[120.999255,24.871339],[120.995888,24.868338],[120.995092,24.867618],[120.99265,24.86475],[120.992738,24.863775],[120.993071,24.862884],[120.994138,24.861727],[121.002862,24.857026],[121.007387,24.855201],[121.010815,24.854482],[121.011535,24.85415],[121.01246,24.853345],[121.013461,24.850855],[121.013613,24.850706],[121.013934,24.851735],[121.014281,24.852204],[121.015925,24.853834],[121.016553,24.854211],[121.018121,24.853568],[121.020129,24.853725],[121.021246,24.85316],[121.023471,24.853235],[121.027167,24.85274],[121.029115,24.854151],[121.02949,24.855555],[121.029415,24.856416],[121.028824,24.858322],[121.02823,24.858962],[121.026014,24.859688],[121.022442,24.861179],[121.020617,24.860538],[121.019742,24.86064],[121.014384,24.86343],[121.013462,24.86364],[121.012764,24.864094],[121.012964,24.864971],[121.013826,24.866534],[121.013822,24.867003],[121.015614,24.868925]]]},"properties":{"code":"10004050015","name":"鳳山村","countyCode":"10004","countyName":"新竹縣","townCode":"10004050","townName":"湖口鄉","level":"village","unassigned":false,"note":"","label":[121.00475897191748,24.86505656986027],"bounds":[120.99265,24.850706,121.02949,24.878296],"focusBounds":[120.99265,24.850706,121.02949,24.878296],"color":"#98b69b"}},{"type":"Feature","id":"10004050016","geometry":{"type":"Polygon","coordinates":[[[121.063643,24.860103],[121.06103,24.861546],[121.059781,24.861979],[121.057895,24.863617],[121.057272,24.864468],[121.054654,24.869173],[121.054397,24.869496],[121.053618,24.869695],[121.053295,24.871105],[121.05238,24.872039],[121.051966,24.872714],[121.051467,24.873097],[121.050563,24.873173],[121.047543,24.871932],[121.04639,24.871803],[121.044572,24.872465],[121.042518,24.874038],[121.038162,24.87163],[121.035328,24.871529],[121.033987,24.870466],[121.033041,24.87655],[121.030454,24.875976],[121.024457,24.874125],[121.020533,24.872148],[121.018383,24.870718],[121.018175,24.870437],[121.0226,24.8682],[121.023329,24.869254],[121.023948,24.869693],[121.026419,24.870342],[121.026927,24.868595],[121.028103,24.867191],[121.029831,24.865797],[121.032831,24.864143],[121.032961,24.863616],[121.032454,24.858517],[121.032472,24.85681],[121.032756,24.854522],[121.033719,24.854382],[121.034518,24.853317],[121.035504,24.852746],[121.036831,24.852394],[121.038635,24.852231],[121.038849,24.851928],[121.03871,24.85152],[121.038838,24.851272],[121.042699,24.85142],[121.043781,24.85029],[121.044799,24.852516],[121.047005,24.854505],[121.048418,24.855079],[121.049403,24.856503],[121.050831,24.857607],[121.053463,24.859094],[121.053829,24.857558],[121.054314,24.857768],[121.055268,24.858199],[121.055944,24.858013],[121.056788,24.858534],[121.057592,24.858444],[121.058169,24.858959],[121.059162,24.859433],[121.060092,24.860139],[121.061145,24.860593],[121.062437,24.860501],[121.063643,24.860103]]]},"properties":{"code":"10004050016","name":"中興村","countyCode":"10004","countyName":"新竹縣","townCode":"10004050","townName":"湖口鄉","level":"village","unassigned":false,"note":"","label":[121.04170461120911,24.863518389505053],"bounds":[121.018175,24.85029,121.063643,24.87655],"focusBounds":[121.018175,24.85029,121.063643,24.87655],"color":"#58b99d"}},{"type":"Feature","id":"10004050017","geometry":{"type":"Polygon","coordinates":[[[121.042262,24.899029],[121.041605,24.899066],[121.039052,24.900365],[121.03821,24.900631],[121.036055,24.900927],[121.035057,24.900835],[121.034754,24.900659],[121.034711,24.90026],[121.035142,24.899763],[121.035142,24.899386],[121.034814,24.898808],[121.034128,24.898174],[121.033222,24.89804],[121.031419,24.89722],[121.030483,24.89714],[121.029255,24.897617],[121.028462,24.89824],[121.027736,24.899171],[121.024957,24.898195],[121.024586,24.897748],[121.023076,24.896981],[121.02212,24.896266],[121.021479,24.895455],[121.020892,24.896002],[121.020343,24.895917],[121.020644,24.895318],[121.020934,24.893469],[121.021726,24.892537],[121.024017,24.890591],[121.024317,24.889966],[121.024321,24.889534],[121.02401,24.888854],[121.024114,24.888532],[121.025515,24.887819],[121.026844,24.887448],[121.028528,24.887772],[121.029383,24.887697],[121.031301,24.886294],[121.03144,24.885815],[121.031233,24.885189],[121.031339,24.884597],[121.031921,24.88387],[121.032458,24.883653],[121.033458,24.88361],[121.034537,24.882699],[121.035248,24.88244],[121.036313,24.882329],[121.03688,24.882489],[121.037559,24.882947],[121.0386,24.884117],[121.040177,24.884071],[121.040759,24.884211],[121.041187,24.884686],[121.04158,24.885528],[121.041883,24.885692],[121.042686,24.885634],[121.043368,24.885225],[121.045191,24.884552],[121.045556,24.885283],[121.047132,24.886293],[121.049157,24.888509],[121.045412,24.889034],[121.043739,24.888905],[121.040957,24.889331],[121.040297,24.889307],[121.041407,24.892715],[121.041434,24.893493],[121.041846,24.895172],[121.042351,24.896461],[121.043383,24.897801],[121.043567,24.899169],[121.043804,24.899619],[121.042262,24.899029]]]},"properties":{"code":"10004050017","name":"信義村","countyCode":"10004","countyName":"新竹縣","townCode":"10004050","townName":"湖口鄉","level":"village","unassigned":false,"note":"","label":[121.0343587002296,24.891927825010136],"bounds":[121.020343,24.882329,121.049157,24.900927],"focusBounds":[121.020343,24.882329,121.049157,24.900927],"color":"#efb44f"}},{"type":"Feature","id":"10004050018","geometry":{"type":"Polygon","coordinates":[[[121.057478,24.894904],[121.055766,24.895207],[121.053997,24.895973],[121.052843,24.896163],[121.051924,24.896675],[121.051274,24.897512],[121.050897,24.897755],[121.050447,24.89767],[121.049748,24.897055],[121.049347,24.89693],[121.048186,24.897316],[121.050828,24.900829],[121.050648,24.90109],[121.048023,24.902347],[121.047421,24.901246],[121.046534,24.901646],[121.04593,24.900435],[121.045616,24.899196],[121.044665,24.899577],[121.043804,24.899619],[121.043567,24.899169],[121.043383,24.897801],[121.042351,24.896461],[121.041846,24.895172],[121.041434,24.893493],[121.041407,24.892715],[121.040297,24.889307],[121.040957,24.889331],[121.043739,24.888905],[121.045412,24.889034],[121.049157,24.888509],[121.050307,24.888373],[121.052333,24.887865],[121.054304,24.887171],[121.055779,24.887012],[121.056086,24.892269],[121.057478,24.894904]]]},"properties":{"code":"10004050018","name":"中正村","countyCode":"10004","countyName":"新竹縣","townCode":"10004050","townName":"湖口鄉","level":"village","unassigned":false,"note":"","label":[121.04863999751883,24.892873307587024],"bounds":[121.040297,24.887012,121.057478,24.902347],"focusBounds":[121.040297,24.887012,121.057478,24.902347],"color":"#78a7e3"}},{"type":"Feature","id":"10004050019","geometry":{"type":"Polygon","coordinates":[[[121.059237,24.927136],[121.059208,24.927631],[121.05875,24.928527],[121.058365,24.930076],[121.057561,24.930507],[121.05643,24.928395],[121.054296,24.928066],[121.050943,24.924727],[121.049569,24.921738],[121.048212,24.92016],[121.047108,24.919615],[121.046115,24.91766],[121.046354,24.914577],[121.045267,24.913486],[121.044358,24.911651],[121.044478,24.911126],[121.049225,24.909581],[121.051236,24.908551],[121.051918,24.908627],[121.052825,24.90832],[121.053668,24.907513],[121.054554,24.90717],[121.055233,24.906164],[121.055929,24.905705],[121.056207,24.905612],[121.057032,24.905877],[121.057588,24.905897],[121.058235,24.906608],[121.05912,24.907179],[121.059133,24.908246],[121.058359,24.909737],[121.058103,24.910613],[121.058239,24.913902],[121.059072,24.915785],[121.059668,24.916534],[121.060421,24.918574],[121.06087,24.920294],[121.060096,24.920676],[121.060652,24.92149],[121.060933,24.923824],[121.060753,24.924519],[121.059663,24.925761],[121.059237,24.927136]]]},"properties":{"code":"10004050019","name":"東興村","countyCode":"10004","countyName":"新竹縣","townCode":"10004050","townName":"湖口鄉","level":"village","unassigned":false,"note":"","label":[121.05326851963734,24.917092537745077],"bounds":[121.044358,24.905612,121.060933,24.930507],"focusBounds":[121.044358,24.905612,121.060933,24.930507],"color":"#dd8590"}},{"type":"Feature","id":"10004050020","geometry":{"type":"Polygon","coordinates":[[[121.032756,24.854522],[121.032472,24.85681],[121.032454,24.858517],[121.032961,24.863616],[121.032831,24.864143],[121.029831,24.865797],[121.028103,24.867191],[121.026927,24.868595],[121.026419,24.870342],[121.023948,24.869693],[121.023329,24.869254],[121.0226,24.8682],[121.018175,24.870437],[121.018383,24.870718],[121.017349,24.870327],[121.015614,24.868925],[121.013822,24.867003],[121.013826,24.866534],[121.012964,24.864971],[121.012764,24.864094],[121.013462,24.86364],[121.014384,24.86343],[121.019742,24.86064],[121.020617,24.860538],[121.022442,24.861179],[121.026014,24.859688],[121.02823,24.858962],[121.028824,24.858322],[121.029415,24.856416],[121.02949,24.855555],[121.029115,24.854151],[121.031507,24.854702],[121.032756,24.854522]]]},"properties":{"code":"10004050020","name":"勝利村","countyCode":"10004","countyName":"新竹縣","townCode":"10004050","townName":"湖口鄉","level":"village","unassigned":false,"note":"","label":[121.02562457254317,24.864074023642033],"bounds":[121.012764,24.854151,121.032961,24.870718],"focusBounds":[121.012764,24.854151,121.032961,24.870718],"color":"#a49ad4"}}]}
