{"type":"FeatureCollection","features":[{"type":"Feature","id":"10004110001","geometry":{"type":"Polygon","coordinates":[[[121.023428,24.69742],[121.022625,24.697616],[121.021118,24.697616],[121.020325,24.69737],[121.019482,24.696221],[121.018978,24.69589],[121.018575,24.695731],[121.01774,24.695712],[121.016725,24.695982],[121.015386,24.696628],[121.015057,24.696898],[121.014309,24.698188],[121.013932,24.698532],[121.012936,24.698593],[121.012318,24.698347],[121.011954,24.697935],[121.01182,24.69737],[121.011926,24.696498],[121.011667,24.695978],[121.011215,24.695811],[121.009929,24.695869],[121.009493,24.695728],[121.009925,24.694265],[121.009861,24.694027],[121.008558,24.694291],[121.007575,24.694031],[121.00711,24.693667],[121.010874,24.691249],[121.013163,24.690011],[121.014343,24.689494],[121.015262,24.68943],[121.015641,24.689226],[121.015792,24.688916],[121.015311,24.687545],[121.014965,24.685312],[121.015127,24.684073],[121.015389,24.683448],[121.015964,24.683472],[121.0165,24.68397],[121.018037,24.686597],[121.018696,24.687061],[121.019174,24.687081],[121.01956,24.686964],[121.02167,24.685509],[121.022997,24.683498],[121.023559,24.683149],[121.023931,24.683086],[121.024267,24.682789],[121.02439,24.681035],[121.02408,24.679577],[121.024331,24.678192],[121.024298,24.677496],[121.024799,24.676199],[121.024794,24.675267],[121.024345,24.67348],[121.024441,24.672328],[121.02459,24.671511],[121.025001,24.670743],[121.026424,24.66913],[121.026776,24.669014],[121.028505,24.669661],[121.029941,24.670367],[121.031435,24.671346],[121.032495,24.671594],[121.033403,24.671541],[121.034714,24.671961],[121.035361,24.672836],[121.036125,24.673082],[121.036792,24.673624],[121.03691,24.674271],[121.036825,24.675147],[121.037461,24.675931],[121.037117,24.676847],[121.037911,24.677641],[121.03785,24.679476],[121.035272,24.678728],[121.033998,24.678868],[121.033088,24.680333],[121.032208,24.681337],[121.031066,24.682323],[121.030794,24.683359],[121.0292,24.686985],[121.027717,24.688717],[121.026755,24.689137],[121.026585,24.689366],[121.026111,24.69054],[121.026158,24.691886],[121.025813,24.692724],[121.0254,24.693184],[121.024065,24.693968],[121.023194,24.695014],[121.02299,24.695634],[121.022986,24.69639],[121.023222,24.697235],[121.023428,24.69742]]]},"properties":{"code":"10004110001","name":"峨眉村","countyCode":"10004","countyName":"新竹縣","townCode":"10004110","townName":"峨眉鄉","level":"village","unassigned":false,"note":"","label":[121.03019149989538,24.67623067167772],"bounds":[121.00711,24.669014,121.037911,24.698593],"focusBounds":[121.00711,24.669014,121.037911,24.698593],"color":"#a8bf62"}},{"type":"Feature","id":"10004110002","geometry":{"type":"Polygon","coordinates":[[[121.040084,24.701009],[121.040171,24.702475],[121.040328,24.702615],[121.040976,24.702631],[121.041361,24.70285],[121.041808,24.70348],[121.042022,24.704165],[121.040704,24.704314],[121.040236,24.705327],[121.039141,24.706306],[121.038637,24.707082],[121.037291,24.707236],[121.037412,24.707995],[121.037911,24.708794],[121.037928,24.709195],[121.037052,24.710679],[121.036727,24.710255],[121.035815,24.710026],[121.034488,24.709942],[121.033791,24.709699],[121.033478,24.709552],[121.033206,24.709063],[121.03294,24.709299],[121.032664,24.70933],[121.032037,24.709029],[121.030554,24.708867],[121.029535,24.708373],[121.028747,24.707542],[121.028291,24.70752],[121.027939,24.707807],[121.027543,24.706856],[121.027225,24.705163],[121.028259,24.702731],[121.028419,24.701714],[121.028319,24.701016],[121.028035,24.700628],[121.027458,24.70033],[121.025824,24.700225],[121.02542,24.700086],[121.024643,24.699084],[121.023979,24.697697],[121.023428,24.69742],[121.023222,24.697235],[121.022986,24.69639],[121.02299,24.695634],[121.023194,24.695014],[121.024065,24.693968],[121.0254,24.693184],[121.025813,24.692724],[121.026158,24.691886],[121.026111,24.69054],[121.026585,24.689366],[121.026755,24.689137],[121.027717,24.688717],[121.0292,24.686985],[121.030794,24.683359],[121.031066,24.682323],[121.032208,24.681337],[121.033088,24.680333],[121.033998,24.678868],[121.035272,24.678728],[121.03785,24.679476],[121.037933,24.681193],[121.038473,24.681381],[121.038638,24.681603],[121.038674,24.682214],[121.038503,24.682795],[121.03781,24.683816],[121.036245,24.685451],[121.035708,24.685671],[121.034489,24.685641],[121.034184,24.685749],[121.034137,24.686578],[121.033915,24.686847],[121.03414,24.687285],[121.034977,24.687735],[121.03524,24.688697],[121.035474,24.688867],[121.035599,24.689569],[121.035997,24.690183],[121.036606,24.690323],[121.038588,24.69018],[121.039023,24.690832],[121.039204,24.691493],[121.03936,24.694047],[121.03903,24.694428],[121.036988,24.69567],[121.036564,24.696495],[121.03649,24.697187],[121.036592,24.697464],[121.037357,24.69761],[121.039324,24.699244],[121.039579,24.699561],[121.040084,24.701009]]]},"properties":{"code":"10004110002","name":"中盛村","countyCode":"10004","countyName":"新竹縣","townCode":"10004110","townName":"峨眉鄉","level":"village","unassigned":false,"note":"","label":[121.03102189379668,24.695270930207467],"bounds":[121.022986,24.678728,121.042022,24.710679],"focusBounds":[121.022986,24.678728,121.042022,24.710679],"color":"#68bec9"}},{"type":"Feature","id":"10004110003","geometry":{"type":"Polygon","coordinates":[[[120.998102,24.715533],[120.997206,24.715472],[120.99642,24.715226],[120.99591,24.714361],[120.996166,24.71342],[120.995751,24.712838],[120.995759,24.711512],[120.99518,24.710748],[120.995377,24.710161],[120.994184,24.709555],[120.993211,24.709505],[120.991717,24.708942],[120.991229,24.708473],[120.990431,24.707292],[120.989912,24.707039],[120.989342,24.706075],[120.98868,24.706037],[120.98745,24.704684],[120.987145,24.703381],[120.986131,24.70284],[120.985945,24.702267],[120.986124,24.70133],[120.985194,24.699835],[120.985737,24.69959],[120.988215,24.699066],[120.989043,24.699747],[120.9897,24.699942],[120.990138,24.69981],[120.991231,24.698976],[120.992068,24.698789],[120.992366,24.69893],[120.993248,24.700148],[120.994213,24.700475],[120.996418,24.699938],[120.997564,24.699231],[120.998076,24.698608],[120.998222,24.697213],[120.997889,24.696308],[120.995942,24.694027],[120.995772,24.693216],[120.996205,24.692741],[120.998001,24.692476],[120.998703,24.692778],[120.999027,24.693462],[120.999234,24.69473],[120.999833,24.69624],[121.000212,24.696606],[121.000837,24.696806],[121.002508,24.696918],[121.003399,24.696279],[121.003912,24.69624],[121.00419,24.696513],[121.004288,24.697642],[121.005111,24.69793],[121.006587,24.697534],[121.007196,24.697012],[121.007078,24.696705],[121.005827,24.695751],[121.005721,24.695439],[121.006362,24.694422],[121.00711,24.693667],[121.007575,24.694031],[121.008558,24.694291],[121.009861,24.694027],[121.009925,24.694265],[121.009493,24.695728],[121.009929,24.695869],[121.011215,24.695811],[121.011667,24.695978],[121.011926,24.696498],[121.01182,24.69737],[121.011954,24.697935],[121.012318,24.698347],[121.012936,24.698593],[121.013932,24.698532],[121.014309,24.698188],[121.015057,24.696898],[121.015386,24.696628],[121.016725,24.695982],[121.01774,24.695712],[121.018575,24.695731],[121.018978,24.69589],[121.019482,24.696221],[121.020325,24.69737],[121.021118,24.697616],[121.022625,24.697616],[121.023428,24.69742],[121.023979,24.697697],[121.024643,24.699084],[121.02542,24.700086],[121.025824,24.700225],[121.027458,24.70033],[121.028035,24.700628],[121.028319,24.701016],[121.028419,24.701714],[121.028259,24.702731],[121.027225,24.705163],[121.027543,24.706856],[121.027939,24.707807],[121.02715,24.708428],[121.025467,24.710215],[121.024939,24.710541],[121.02359,24.710249],[121.023059,24.710512],[121.021781,24.710373],[121.020968,24.711173],[121.02055,24.711065],[121.019885,24.710597],[121.019185,24.711108],[121.018652,24.711173],[121.017991,24.71088],[121.017688,24.709977],[121.017256,24.709573],[121.016498,24.709352],[121.015834,24.709574],[121.015489,24.709166],[121.014994,24.707902],[121.013661,24.708032],[121.012877,24.706897],[121.011548,24.706028],[121.011085,24.707103],[121.010035,24.707897],[121.009931,24.708415],[121.010178,24.70962],[121.009818,24.710012],[121.009476,24.711034],[121.008913,24.71062],[121.008377,24.710442],[121.006694,24.710381],[121.006367,24.71061],[121.005983,24.711879],[121.00514,24.712314],[121.004749,24.713158],[121.00265,24.714477],[121.000903,24.714789],[121.000078,24.714813],[120.999648,24.714603],[120.998743,24.714726],[120.998247,24.715016],[120.998102,24.715533]]]},"properties":{"code":"10004110003","name":"石井村","countyCode":"10004","countyName":"新竹縣","townCode":"10004110","townName":"峨眉鄉","level":"village","unassigned":false,"note":"","label":[121.00232426741357,24.704737910506665],"bounds":[120.985194,24.692476,121.028419,24.715533],"focusBounds":[120.985194,24.692476,121.028419,24.715533],"color":"#98b69b"}},{"type":"Feature","id":"10004110004","geometry":{"type":"Polygon","coordinates":[[[120.99642,24.715226],[120.996173,24.714954],[120.995962,24.714936],[120.995485,24.715272],[120.994613,24.71559],[120.994356,24.71602],[120.993664,24.716491],[120.993298,24.717809],[120.993125,24.717921],[120.992649,24.71704],[120.991934,24.716783],[120.991338,24.716355],[120.990511,24.716175],[120.990359,24.715699],[120.989828,24.715081],[120.988948,24.714626],[120.988376,24.714317],[120.988071,24.713551],[120.987056,24.713257],[120.987254,24.71239],[120.986931,24.711562],[120.986077,24.710941],[120.985117,24.710825],[120.984726,24.710934],[120.984083,24.711818],[120.983136,24.711984],[120.982772,24.712571],[120.981467,24.713952],[120.979144,24.71418],[120.978612,24.7144],[120.978241,24.71654],[120.977804,24.717321],[120.977408,24.716644],[120.976881,24.716434],[120.976848,24.716271],[120.977161,24.715636],[120.976895,24.714385],[120.976645,24.714107],[120.976118,24.713887],[120.976492,24.713442],[120.976479,24.713044],[120.97617,24.712728],[120.975203,24.712569],[120.973792,24.711875],[120.974327,24.711119],[120.974847,24.711093],[120.975169,24.710889],[120.975827,24.709495],[120.975771,24.709317],[120.974562,24.708565],[120.975798,24.70713],[120.976686,24.706467],[120.975832,24.704942],[120.975283,24.704779],[120.974648,24.704366],[120.973181,24.704508],[120.972467,24.704203],[120.97222,24.70358],[120.972292,24.70307],[120.973147,24.702325],[120.97302,24.701786],[120.973624,24.701159],[120.9737,24.700133],[120.974093,24.69911],[120.973859,24.698067],[120.974001,24.696943],[120.973261,24.696752],[120.972959,24.696778],[120.972581,24.697037],[120.971879,24.696773],[120.971381,24.695586],[120.97104,24.695321],[120.970565,24.695209],[120.970603,24.694591],[120.970192,24.694098],[120.969494,24.693586],[120.968349,24.693115],[120.967876,24.691898],[120.966424,24.691224],[120.966015,24.690374],[120.966427,24.689163],[120.965289,24.688309],[120.965171,24.688107],[120.965307,24.687908],[120.966063,24.687183],[120.966747,24.686108],[120.965701,24.684782],[120.965372,24.684671],[120.964964,24.684787],[120.9647,24.684576],[120.964469,24.683576],[120.965542,24.684114],[120.96652,24.684071],[120.967357,24.684441],[120.969962,24.684463],[120.970582,24.684211],[120.971656,24.685487],[120.972699,24.685854],[120.973518,24.685846],[120.974355,24.684853],[120.97537,24.684653],[120.977824,24.686085],[120.978897,24.686001],[120.979277,24.685654],[120.979452,24.684728],[120.979671,24.6845],[120.982461,24.684333],[120.983242,24.684051],[120.983686,24.683708],[120.98477,24.683552],[120.987129,24.684216],[120.987573,24.684209],[120.988427,24.683733],[120.989941,24.682342],[120.991174,24.681827],[120.993862,24.681554],[120.994573,24.681969],[120.994949,24.683092],[120.994965,24.684796],[120.993007,24.692481],[120.992341,24.693557],[120.98894,24.694869],[120.988787,24.695313],[120.98893,24.696617],[120.988273,24.697921],[120.988215,24.699066],[120.985737,24.69959],[120.985194,24.699835],[120.986124,24.70133],[120.985945,24.702267],[120.986131,24.70284],[120.987145,24.703381],[120.98745,24.704684],[120.98868,24.706037],[120.989342,24.706075],[120.989912,24.707039],[120.990431,24.707292],[120.991229,24.708473],[120.991717,24.708942],[120.993211,24.709505],[120.994184,24.709555],[120.995377,24.710161],[120.99518,24.710748],[120.995759,24.711512],[120.995751,24.712838],[120.996166,24.71342],[120.99591,24.714361],[120.99642,24.715226]]]},"properties":{"code":"10004110004","name":"富興村","countyCode":"10004","countyName":"新竹縣","townCode":"10004110","townName":"峨眉鄉","level":"village","unassigned":false,"note":"","label":[120.98078604908638,24.693417002579807],"bounds":[120.964469,24.681554,120.99642,24.717921],"focusBounds":[120.964469,24.681554,120.99642,24.717921],"color":"#c38cb8"}},{"type":"Feature","id":"10004110005","geometry":{"type":"Polygon","coordinates":[[[121.034714,24.671961],[121.033403,24.671541],[121.032495,24.671594],[121.031435,24.671346],[121.029941,24.670367],[121.028505,24.669661],[121.026776,24.669014],[121.026424,24.66913],[121.025001,24.670743],[121.02459,24.671511],[121.024441,24.672328],[121.024345,24.67348],[121.024794,24.675267],[121.024799,24.676199],[121.024298,24.677496],[121.024331,24.678192],[121.02408,24.679577],[121.02439,24.681035],[121.024267,24.682789],[121.023931,24.683086],[121.023559,24.683149],[121.022997,24.683498],[121.02167,24.685509],[121.01956,24.686964],[121.019174,24.687081],[121.018696,24.687061],[121.018037,24.686597],[121.0165,24.68397],[121.015964,24.683472],[121.015389,24.683448],[121.015313,24.682956],[121.016167,24.682551],[121.017252,24.682293],[121.017919,24.682402],[121.018466,24.682262],[121.018722,24.681528],[121.016644,24.679911],[121.015658,24.679747],[121.015351,24.679833],[121.013975,24.680739],[121.013181,24.681051],[121.012753,24.681066],[121.011142,24.680494],[121.010039,24.679487],[121.009757,24.678738],[121.009885,24.677767],[121.009748,24.677221],[121.008423,24.675328],[121.007902,24.673853],[121.008047,24.673257],[121.009766,24.672349],[121.010236,24.67149],[121.010039,24.670234],[121.009167,24.669475],[121.00956,24.665979],[121.009479,24.665652],[121.009026,24.665091],[121.007639,24.664335],[121.007036,24.66366],[121.005969,24.662994],[121.005352,24.662109],[121.004899,24.661899],[121.003683,24.661961],[121.00333,24.6617],[121.003466,24.661089],[121.00452,24.660441],[121.00532,24.660354],[121.006549,24.660545],[121.007755,24.66026],[121.008762,24.659668],[121.010075,24.659951],[121.011298,24.659913],[121.011217,24.659241],[121.010608,24.65803],[121.01028,24.656207],[121.010888,24.654504],[121.01067,24.653513],[121.01068,24.652332],[121.009762,24.651614],[121.008756,24.651568],[121.008329,24.65104],[121.008102,24.65044],[121.008959,24.647568],[121.008322,24.645654],[121.008186,24.644386],[121.010602,24.643743],[121.012079,24.642308],[121.012572,24.642124],[121.014388,24.64085],[121.015777,24.640835],[121.016707,24.640624],[121.01848,24.640758],[121.021966,24.641471],[121.022784,24.641789],[121.023508,24.641818],[121.024424,24.641423],[121.025436,24.64121],[121.025982,24.640001],[121.025161,24.637816],[121.025652,24.636742],[121.025737,24.636177],[121.026233,24.6356],[121.026959,24.635368],[121.027161,24.634985],[121.028077,24.634275],[121.02938,24.63287],[121.030188,24.632462],[121.0315,24.632566],[121.032391,24.632231],[121.033215,24.632145],[121.034092,24.631732],[121.037284,24.629642],[121.037978,24.6295],[121.039059,24.629625],[121.040504,24.62702],[121.040838,24.626881],[121.04314,24.62725],[121.04318,24.627767],[121.043653,24.628486],[121.044358,24.628578],[121.045609,24.629673],[121.045962,24.631298],[121.046567,24.63246],[121.046786,24.633525],[121.048791,24.635005],[121.048597,24.636092],[121.048866,24.637825],[121.048232,24.638894],[121.049143,24.640621],[121.047541,24.642089],[121.046784,24.643326],[121.046028,24.643352],[121.044766,24.644047],[121.04371,24.64407],[121.042943,24.644518],[121.041595,24.644862],[121.040239,24.645929],[121.039854,24.646406],[121.039925,24.647661],[121.038759,24.649268],[121.038811,24.649897],[121.03944,24.651392],[121.040805,24.652309],[121.04122,24.653025],[121.041418,24.654025],[121.041325,24.654558],[121.042077,24.655192],[121.042499,24.656442],[121.042761,24.657983],[121.043291,24.65903],[121.042876,24.659505],[121.043096,24.660453],[121.043644,24.661277],[121.044429,24.661618],[121.044726,24.663737],[121.045249,24.664441],[121.045459,24.665121],[121.045917,24.665515],[121.045886,24.666075],[121.046453,24.667053],[121.046329,24.667358],[121.045976,24.667478],[121.045524,24.668024],[121.045293,24.66883],[121.044336,24.669057],[121.043641,24.66826],[121.043315,24.668149],[121.04167,24.668503],[121.041206,24.668846],[121.040726,24.668803],[121.040268,24.668637],[121.039949,24.668142],[121.038838,24.66736],[121.037981,24.667391],[121.037754,24.66754],[121.037457,24.668574],[121.036898,24.669137],[121.03631,24.669251],[121.036024,24.669532],[121.035636,24.670422],[121.035213,24.670811],[121.034714,24.671961]]]},"properties":{"code":"10004110005","name":"七星村","countyCode":"10004","countyName":"新竹縣","townCode":"10004110","townName":"峨眉鄉","level":"village","unassigned":false,"note":"","label":[121.0264229452863,24.655426512863297],"bounds":[121.00333,24.626881,121.049143,24.687081],"focusBounds":[121.00333,24.626881,121.049143,24.687081],"color":"#98b69b"}},{"type":"Feature","id":"10004110006","geometry":{"type":"Polygon","coordinates":[[[121.00711,24.693667],[121.006362,24.694422],[121.005721,24.695439],[121.005827,24.695751],[121.007078,24.696705],[121.007196,24.697012],[121.006587,24.697534],[121.005111,24.69793],[121.004288,24.697642],[121.00419,24.696513],[121.003912,24.69624],[121.003399,24.696279],[121.002508,24.696918],[121.000837,24.696806],[121.000212,24.696606],[120.999833,24.69624],[120.999234,24.69473],[120.999027,24.693462],[120.998703,24.692778],[120.998001,24.692476],[120.996205,24.692741],[120.995772,24.693216],[120.995942,24.694027],[120.997889,24.696308],[120.998222,24.697213],[120.998076,24.698608],[120.997564,24.699231],[120.996418,24.699938],[120.994213,24.700475],[120.993248,24.700148],[120.992366,24.69893],[120.992068,24.698789],[120.991231,24.698976],[120.990138,24.69981],[120.9897,24.699942],[120.989043,24.699747],[120.988215,24.699066],[120.988273,24.697921],[120.98893,24.696617],[120.988787,24.695313],[120.98894,24.694869],[120.992341,24.693557],[120.993007,24.692481],[120.994965,24.684796],[120.994949,24.683092],[120.994573,24.681969],[120.993862,24.681554],[120.991174,24.681827],[120.989941,24.682342],[120.988427,24.683733],[120.987573,24.684209],[120.987129,24.684216],[120.98477,24.683552],[120.983686,24.683708],[120.983242,24.684051],[120.982461,24.684333],[120.979671,24.6845],[120.979452,24.684728],[120.979277,24.685654],[120.978897,24.686001],[120.977824,24.686085],[120.97537,24.684653],[120.975904,24.684163],[120.976428,24.68314],[120.976293,24.68131],[120.976393,24.680923],[120.976803,24.680551],[120.976792,24.678987],[120.97694,24.678709],[120.977519,24.678294],[120.977042,24.677415],[120.976888,24.676605],[120.976484,24.676175],[120.976524,24.675422],[120.977154,24.674649],[120.977017,24.673647],[120.977759,24.673986],[120.979313,24.673716],[120.979907,24.673416],[120.980884,24.672367],[120.981755,24.671783],[120.98173,24.671021],[120.982532,24.67051],[120.983197,24.669811],[120.98319,24.667194],[120.983613,24.667022],[120.985039,24.666915],[120.985323,24.666743],[120.985648,24.666142],[120.985891,24.664778],[120.986773,24.663766],[120.987908,24.663195],[120.989084,24.663032],[120.989378,24.663215],[120.989785,24.663837],[120.990111,24.664759],[120.990646,24.664789],[120.990485,24.660709],[120.990694,24.660331],[120.991562,24.659591],[120.992707,24.6595],[120.994507,24.659582],[120.995329,24.659057],[120.996142,24.658015],[120.996005,24.657678],[120.995513,24.657245],[120.995823,24.656893],[120.996096,24.655487],[120.997242,24.654613],[120.997756,24.654799],[120.998436,24.654636],[120.999217,24.654843],[121.000291,24.654766],[121.001127,24.655133],[121.001654,24.655541],[121.002208,24.655539],[121.003178,24.656184],[121.004015,24.656382],[121.004469,24.656403],[121.005042,24.655821],[121.005997,24.655259],[121.006974,24.655758],[121.008961,24.655926],[121.01028,24.656207],[121.010608,24.65803],[121.011217,24.659241],[121.011298,24.659913],[121.010075,24.659951],[121.008762,24.659668],[121.007755,24.66026],[121.006549,24.660545],[121.00532,24.660354],[121.00452,24.660441],[121.003466,24.661089],[121.00333,24.6617],[121.003683,24.661961],[121.004899,24.661899],[121.005352,24.662109],[121.005969,24.662994],[121.007036,24.66366],[121.007639,24.664335],[121.009026,24.665091],[121.009479,24.665652],[121.00956,24.665979],[121.009167,24.669475],[121.010039,24.670234],[121.010236,24.67149],[121.009766,24.672349],[121.008047,24.673257],[121.007902,24.673853],[121.008423,24.675328],[121.009748,24.677221],[121.009885,24.677767],[121.009757,24.678738],[121.010039,24.679487],[121.011142,24.680494],[121.012753,24.681066],[121.013181,24.681051],[121.013975,24.680739],[121.015351,24.679833],[121.015658,24.679747],[121.016644,24.679911],[121.018722,24.681528],[121.018466,24.682262],[121.017919,24.682402],[121.017252,24.682293],[121.016167,24.682551],[121.015313,24.682956],[121.015389,24.683448],[121.015127,24.684073],[121.014965,24.685312],[121.015311,24.687545],[121.015792,24.688916],[121.015641,24.689226],[121.015262,24.68943],[121.014343,24.689494],[121.013163,24.690011],[121.010874,24.691249],[121.00711,24.693667]]]},"properties":{"code":"10004110006","name":"湖光村","countyCode":"10004","countyName":"新竹縣","townCode":"10004110","townName":"峨眉鄉","level":"village","unassigned":false,"note":"","label":[120.99782093279354,24.67265782368611],"bounds":[120.97537,24.654613,121.018722,24.700475],"focusBounds":[120.97537,24.654613,121.018722,24.700475],"color":"#58b99d"}}]}
