{"type":"FeatureCollection","features":[{"type":"Feature","id":"10007130001","geometry":{"type":"Polygon","coordinates":[[[120.545686,24.002638],[120.545214,24.003095],[120.544244,24.003471],[120.543771,24.004042],[120.542957,24.003643],[120.543937,24.00249],[120.539646,24.000943],[120.537918,24.000748],[120.537967,23.998221],[120.538609,23.994017],[120.538696,23.993594],[120.539508,23.993481],[120.540498,23.993561],[120.54088,23.992096],[120.541155,23.989829],[120.542935,23.990207],[120.545008,23.990344],[120.546721,23.989765],[120.546854,23.990785],[120.549386,23.991381],[120.549652,23.991341],[120.549384,23.993294],[120.54879,23.993615],[120.548023,23.99579],[120.547612,23.996433],[120.547137,23.997287],[120.547011,23.998467],[120.546688,23.999277],[120.546813,24.001271],[120.545686,24.002638]]]},"properties":{"code":"10007130001","name":"大村村","countyCode":"10007","countyName":"彰化縣","townCode":"10007130","townName":"大村鄉","level":"village","unassigned":false,"note":"","label":[120.54336919083845,23.996260401017196],"bounds":[120.537918,23.989765,120.549652,24.004042],"focusBounds":[120.537918,23.989765,120.549652,24.004042],"color":"#a49ad4"}},{"type":"Feature","id":"10007130002","geometry":{"type":"Polygon","coordinates":[[[120.539191,24.012521],[120.538079,24.01286],[120.537409,24.013517],[120.536339,24.013121],[120.535837,24.013022],[120.535681,24.013123],[120.534843,24.012841],[120.534603,24.012687],[120.534613,24.012535],[120.535143,24.011847],[120.535099,24.01164],[120.532914,24.011305],[120.528777,24.010947],[120.528795,24.010594],[120.529521,24.009806],[120.529569,24.009472],[120.529113,24.009326],[120.52947,24.008649],[120.528459,24.006554],[120.531259,24.005736],[120.532243,24.005303],[120.534816,24.005289],[120.535359,24.004449],[120.53687,24.002908],[120.537116,24.002091],[120.537178,24.001063],[120.537602,24.000711],[120.537918,24.000748],[120.539646,24.000943],[120.543937,24.00249],[120.542957,24.003643],[120.543771,24.004042],[120.544244,24.003471],[120.545214,24.003095],[120.545686,24.002638],[120.545068,24.003658],[120.545067,24.00394],[120.54537,24.004474],[120.545473,24.00557],[120.545302,24.006729],[120.544395,24.00814],[120.544179,24.00884],[120.543519,24.009694],[120.543497,24.010017],[120.543706,24.010164],[120.541913,24.011814],[120.539191,24.012521]]]},"properties":{"code":"10007130002","name":"茄苳村","countyCode":"10007","countyName":"彰化縣","townCode":"10007130","townName":"大村鄉","level":"village","unassigned":false,"note":"","label":[120.53878111429458,24.007730013265608],"bounds":[120.528459,24.000711,120.545686,24.013517],"focusBounds":[120.528459,24.000711,120.545686,24.013517],"color":"#a8bf62"}},{"type":"Feature","id":"10007130003","geometry":{"type":"Polygon","coordinates":[[[120.549652,23.991341],[120.549386,23.991381],[120.546854,23.990785],[120.546721,23.989765],[120.545008,23.990344],[120.542935,23.990207],[120.541155,23.989829],[120.541753,23.987076],[120.541823,23.985593],[120.541185,23.985482],[120.541675,23.981646],[120.541816,23.981597],[120.542187,23.980466],[120.542414,23.980467],[120.543015,23.976528],[120.544976,23.976319],[120.547182,23.975495],[120.547286,23.975504],[120.547627,23.976161],[120.547751,23.977327],[120.547872,23.979883],[120.547758,23.980487],[120.549929,23.980745],[120.550595,23.981116],[120.551543,23.981347],[120.552631,23.981943],[120.553912,23.982261],[120.553491,23.984692],[120.552665,23.98626],[120.550931,23.990249],[120.549988,23.991233],[120.549652,23.991341]]]},"properties":{"code":"10007130003","name":"南勢村","countyCode":"10007","countyName":"彰化縣","townCode":"10007130","townName":"大村鄉","level":"village","unassigned":false,"note":"","label":[120.54692687808492,23.985038565685528],"bounds":[120.541155,23.975495,120.553912,23.991381],"focusBounds":[120.541155,23.975495,120.553912,23.991381],"color":"#68bec9"}},{"type":"Feature","id":"10007130004","geometry":{"type":"Polygon","coordinates":[[[120.528459,24.006554],[120.527107,24.007079],[120.525721,24.007842],[120.525548,24.00788],[120.525525,24.007751],[120.526394,24.006823],[120.526379,24.004649],[120.526944,24.004115],[120.527014,24.003795],[120.527771,24.0034],[120.527944,24.002805],[120.528689,24.00229],[120.528745,24.001009],[120.529228,23.999713],[120.52929,23.994742],[120.530719,23.993993],[120.530868,23.993219],[120.538609,23.994017],[120.537967,23.998221],[120.537918,24.000748],[120.537602,24.000711],[120.537178,24.001063],[120.537116,24.002091],[120.53687,24.002908],[120.535359,24.004449],[120.534816,24.005289],[120.532243,24.005303],[120.531259,24.005736],[120.528459,24.006554]]]},"properties":{"code":"10007130004","name":"田洋村","countyCode":"10007","countyName":"彰化縣","townCode":"10007130","townName":"大村鄉","level":"village","unassigned":false,"note":"","label":[120.53333826043665,23.999385558956803],"bounds":[120.525525,23.993219,120.538609,24.00788],"focusBounds":[120.525525,23.993219,120.538609,24.00788],"color":"#df9f6a"}},{"type":"Feature","id":"10007130005","geometry":{"type":"Polygon","coordinates":[[[120.537085,23.978401],[120.53565,23.977754],[120.535105,23.977187],[120.534843,23.978248],[120.534438,23.978651],[120.533813,23.97911],[120.532128,23.979637],[120.531929,23.979993],[120.530723,23.981123],[120.527844,23.982537],[120.527488,23.982305],[120.526153,23.982164],[120.523823,23.981615],[120.522195,23.980692],[120.523426,23.977381],[120.52595,23.977868],[120.526508,23.977964],[120.527862,23.977863],[120.529635,23.977392],[120.53053,23.977442],[120.53086,23.977974],[120.531263,23.978248],[120.532564,23.977898],[120.533182,23.977257],[120.533367,23.975728],[120.534137,23.974637],[120.534431,23.973854],[120.535899,23.972884],[120.536461,23.972076],[120.537477,23.971558],[120.538486,23.971158],[120.539955,23.970964],[120.541449,23.971315],[120.54153,23.97149],[120.541363,23.971636],[120.54185,23.972481],[120.543325,23.973717],[120.543703,23.974401],[120.543801,23.975043],[120.544634,23.976251],[120.544976,23.976319],[120.543015,23.976528],[120.54228,23.976337],[120.5412,23.976314],[120.539581,23.976777],[120.538293,23.977389],[120.537793,23.978062],[120.537085,23.978401]]]},"properties":{"code":"10007130005","name":"新興村","countyCode":"10007","countyName":"彰化縣","townCode":"10007130","townName":"大村鄉","level":"village","unassigned":false,"note":"","label":[120.53830354315019,23.974307225409767],"bounds":[120.522195,23.970964,120.544976,23.982537],"focusBounds":[120.522195,23.970964,120.544976,23.982537],"color":"#c38cb8"}},{"type":"Feature","id":"10007130006","geometry":{"type":"Polygon","coordinates":[[[120.564521,23.993079],[120.562554,23.992833],[120.561639,23.992893],[120.559934,23.992364],[120.558789,23.992326],[120.558339,23.993042],[120.555887,23.993355],[120.555226,23.99636],[120.553535,23.996167],[120.552874,23.996555],[120.551821,23.996803],[120.550981,23.996341],[120.55048,23.99627],[120.550138,23.996575],[120.549901,23.997201],[120.549627,23.997347],[120.549293,23.997297],[120.548287,23.996674],[120.547612,23.996433],[120.548023,23.99579],[120.54879,23.993615],[120.549384,23.993294],[120.549652,23.991341],[120.549988,23.991233],[120.550931,23.990249],[120.552665,23.98626],[120.555859,23.987065],[120.556233,23.98749],[120.557104,23.987956],[120.557017,23.989491],[120.557134,23.990229],[120.557348,23.990308],[120.557869,23.990263],[120.558332,23.989848],[120.560001,23.989586],[120.560341,23.9892],[120.560983,23.988904],[120.560636,23.990079],[120.563776,23.990771],[120.564521,23.993079]]]},"properties":{"code":"10007130006","name":"過溝村","countyCode":"10007","countyName":"彰化縣","townCode":"10007130","townName":"大村鄉","level":"village","unassigned":false,"note":"","label":[120.55388494994827,23.991003098980222],"bounds":[120.547612,23.98626,120.564521,23.997347],"focusBounds":[120.547612,23.98626,120.564521,23.997347],"color":"#98b69b"}},{"type":"Feature","id":"10007130007","geometry":{"type":"Polygon","coordinates":[[[120.574086,23.985574],[120.573361,23.986236],[120.572573,23.986234],[120.57248,23.986749],[120.571952,23.987871],[120.571754,23.987989],[120.571749,23.989866],[120.569597,23.989128],[120.569859,23.988325],[120.568685,23.988096],[120.567454,23.988218],[120.567827,23.986964],[120.569121,23.985],[120.569552,23.982578],[120.569338,23.980925],[120.567765,23.979404],[120.567996,23.979281],[120.568644,23.978214],[120.568991,23.977959],[120.568964,23.977438],[120.568505,23.976417],[120.56844,23.975896],[120.569568,23.975101],[120.569714,23.974021],[120.570119,23.973799],[120.571341,23.973866],[120.57233,23.974408],[120.575744,23.975607],[120.576102,23.975689],[120.577421,23.975506],[120.578043,23.975444],[120.578215,23.975553],[120.577655,23.976179],[120.57745,23.976777],[120.576773,23.977238],[120.57646,23.977999],[120.575795,23.978463],[120.575841,23.978571],[120.575438,23.97869],[120.575298,23.979069],[120.575465,23.979856],[120.575396,23.981862],[120.57574,23.983404],[120.575442,23.983961],[120.575449,23.984281],[120.575106,23.984463],[120.574086,23.985574]]]},"properties":{"code":"10007130007","name":"美港村","countyCode":"10007","countyName":"彰化縣","townCode":"10007130","townName":"大村鄉","level":"village","unassigned":false,"note":"","label":[120.5724171178085,23.98090527172082],"bounds":[120.567454,23.973799,120.578215,23.989866],"focusBounds":[120.567454,23.973799,120.578215,23.989866],"color":"#58b99d"}},{"type":"Feature","id":"10007130008","geometry":{"type":"Polygon","coordinates":[[[120.605104,24.009593],[120.604367,24.010222],[120.603481,24.010204],[120.602786,24.010438],[120.600881,24.010113],[120.599094,24.009364],[120.598024,24.009767],[120.597204,24.009519],[120.59375,24.011131],[120.593042,24.010188],[120.592555,24.01004],[120.591679,24.010047],[120.590368,24.010535],[120.590143,24.010486],[120.58941,24.009897],[120.588808,24.008887],[120.588148,24.008646],[120.586699,24.00873],[120.585674,24.009417],[120.585384,24.009472],[120.584802,24.009151],[120.582708,24.007395],[120.581742,24.006841],[120.580316,24.006432],[120.578802,24.005651],[120.576743,24.005468],[120.575671,24.005624],[120.574675,24.004806],[120.574336,24.004693],[120.570466,24.004393],[120.566854,24.003789],[120.564631,24.00341],[120.557676,24.002604],[120.558525,24.002116],[120.560067,24.001694],[120.561812,24.002076],[120.562309,24.002021],[120.562656,24.001547],[120.562878,24.001498],[120.563466,24.000494],[120.563841,24.000607],[120.564771,23.998417],[120.565489,23.998505],[120.566354,23.996364],[120.566836,23.996563],[120.567422,23.995764],[120.567952,23.994314],[120.568631,23.992883],[120.568418,23.992718],[120.568565,23.992303],[120.568207,23.992173],[120.568584,23.991618],[120.569597,23.989128],[120.571749,23.989866],[120.573633,23.990601],[120.576926,23.992343],[120.57996,23.994025],[120.581805,23.995502],[120.58381,23.996813],[120.585161,23.99752],[120.586309,23.997887],[120.587627,23.999234],[120.588095,24.001301],[120.588665,24.001593],[120.589065,24.002141],[120.589854,24.002411],[120.590915,24.003199],[120.591581,24.003905],[120.593514,24.004122],[120.594718,24.004069],[120.595666,24.004418],[120.596152,24.004352],[120.5974,24.003707],[120.599054,24.003544],[120.600511,24.002822],[120.602712,24.002883],[120.60702,24.002446],[120.606254,24.003351],[120.606428,24.003777],[120.606308,24.004093],[120.605424,24.004789],[120.605028,24.004703],[120.604259,24.005207],[120.604077,24.005675],[120.6035,24.006386],[120.603502,24.00746],[120.603693,24.007508],[120.603935,24.007338],[120.604064,24.007504],[120.603908,24.007724],[120.603109,24.007949],[120.602953,24.008303],[120.60302,24.00853],[120.603565,24.008829],[120.604421,24.008619],[120.604471,24.009204],[120.604791,24.009096],[120.604976,24.009249],[120.605104,24.009593]]]},"properties":{"code":"10007130008","name":"平和村","countyCode":"10007","countyName":"彰化縣","townCode":"10007130","townName":"大村鄉","level":"village","unassigned":false,"note":"","label":[120.57560043864191,23.998604408561107],"bounds":[120.557676,23.989128,120.60702,24.011131],"focusBounds":[120.557676,23.989128,120.60702,24.011131],"color":"#78a7e3"}},{"type":"Feature","id":"10007130009","geometry":{"type":"Polygon","coordinates":[[[120.541155,23.989829],[120.54088,23.992096],[120.540498,23.993561],[120.539508,23.993481],[120.538696,23.993594],[120.538609,23.994017],[120.530868,23.993219],[120.531028,23.992557],[120.531127,23.990338],[120.532077,23.990299],[120.532491,23.987159],[120.535173,23.987474],[120.535536,23.98449],[120.535711,23.984231],[120.536472,23.984256],[120.536852,23.980673],[120.536812,23.978878],[120.537085,23.978401],[120.537793,23.978062],[120.538293,23.977389],[120.539581,23.976777],[120.5412,23.976314],[120.54228,23.976337],[120.543015,23.976528],[120.542414,23.980467],[120.542187,23.980466],[120.541816,23.981597],[120.541675,23.981646],[120.541185,23.985482],[120.541823,23.985593],[120.541753,23.987076],[120.541155,23.989829]]]},"properties":{"code":"10007130009","name":"貢旗村","countyCode":"10007","countyName":"彰化縣","townCode":"10007130","townName":"大村鄉","level":"village","unassigned":false,"note":"","label":[120.53841737003047,23.987043763576533],"bounds":[120.530868,23.976314,120.543015,23.994017],"focusBounds":[120.530868,23.976314,120.543015,23.994017],"color":"#78a7e3"}},{"type":"Feature","id":"10007130010","geometry":{"type":"Polygon","coordinates":[[[120.530868,23.993219],[120.530719,23.993993],[120.52929,23.994742],[120.529228,23.999713],[120.528745,24.001009],[120.528689,24.00229],[120.527944,24.002805],[120.527771,24.0034],[120.527014,24.003795],[120.526793,24.003647],[120.526868,24.003053],[120.526555,24.002197],[120.526642,24.001048],[120.524744,24.000744],[120.524496,24.000769],[120.524379,24.001136],[120.523821,24.001122],[120.52382,23.999877],[120.523647,23.99897],[120.523365,23.999177],[120.521051,23.998793],[120.521459,23.997526],[120.521375,23.996263],[120.51735,23.995889],[120.517456,23.995334],[120.51644,23.995144],[120.516406,23.99504],[120.516865,23.993598],[120.516792,23.993453],[120.517392,23.991474],[120.517376,23.991298],[120.517051,23.991149],[120.517139,23.990485],[120.51737,23.99028],[120.517683,23.989454],[120.517642,23.989115],[120.518082,23.987185],[120.520442,23.987601],[120.523434,23.98847],[120.523712,23.987806],[120.525678,23.984933],[120.527844,23.982537],[120.530723,23.981123],[120.531929,23.979993],[120.532128,23.979637],[120.533813,23.97911],[120.534438,23.978651],[120.534843,23.978248],[120.535105,23.977187],[120.53565,23.977754],[120.537085,23.978401],[120.536812,23.978878],[120.536852,23.980673],[120.536472,23.984256],[120.535711,23.984231],[120.535536,23.98449],[120.535173,23.987474],[120.532491,23.987159],[120.532077,23.990299],[120.531127,23.990338],[120.531028,23.992557],[120.530868,23.993219]]]},"properties":{"code":"10007130010","name":"加錫村","countyCode":"10007","countyName":"彰化縣","townCode":"10007130","townName":"大村鄉","level":"village","unassigned":false,"note":"","label":[120.52687720543227,23.990835302282434],"bounds":[120.516406,23.977187,120.537085,24.003795],"focusBounds":[120.516406,23.977187,120.537085,24.003795],"color":"#a49ad4"}},{"type":"Feature","id":"10007130011","geometry":{"type":"Polygon","coordinates":[[[120.569597,23.989128],[120.568584,23.991618],[120.568207,23.992173],[120.568565,23.992303],[120.568418,23.992718],[120.568631,23.992883],[120.567952,23.994314],[120.566454,23.993566],[120.564521,23.993079],[120.563776,23.990771],[120.560636,23.990079],[120.560983,23.988904],[120.56183,23.988686],[120.562116,23.988361],[120.562297,23.987694],[120.563145,23.987422],[120.563291,23.987186],[120.563164,23.986793],[120.563653,23.986391],[120.563503,23.985291],[120.563649,23.985032],[120.564238,23.985168],[120.564686,23.984373],[120.564423,23.983775],[120.564664,23.983156],[120.564819,23.982952],[120.565426,23.982993],[120.565806,23.982646],[120.565979,23.982097],[120.567007,23.981534],[120.567191,23.980638],[120.567509,23.980223],[120.567588,23.979571],[120.567765,23.979404],[120.569338,23.980925],[120.569552,23.982578],[120.569121,23.985],[120.567827,23.986964],[120.567454,23.988218],[120.568685,23.988096],[120.569859,23.988325],[120.569597,23.989128]]]},"properties":{"code":"10007130011","name":"村上村","countyCode":"10007","countyName":"彰化縣","townCode":"10007130","townName":"大村鄉","level":"village","unassigned":false,"note":"","label":[120.5653633772679,23.987720709513198],"bounds":[120.560636,23.979404,120.569859,23.994314],"focusBounds":[120.560636,23.979404,120.569859,23.994314],"color":"#a49ad4"}},{"type":"Feature","id":"10007130012","geometry":{"type":"Polygon","coordinates":[[[120.54813,24.008314],[120.54659,24.008078],[120.545927,24.008105],[120.543706,24.010164],[120.543497,24.010017],[120.543519,24.009694],[120.544179,24.00884],[120.544395,24.00814],[120.545302,24.006729],[120.545473,24.00557],[120.54537,24.004474],[120.545067,24.00394],[120.545068,24.003658],[120.545686,24.002638],[120.546813,24.001271],[120.546688,23.999277],[120.547011,23.998467],[120.547137,23.997287],[120.547612,23.996433],[120.548287,23.996674],[120.549293,23.997297],[120.549627,23.997347],[120.549901,23.997201],[120.550138,23.996575],[120.55048,23.99627],[120.550981,23.996341],[120.551821,23.996803],[120.552874,23.996555],[120.553535,23.996167],[120.555226,23.99636],[120.555887,23.993355],[120.558339,23.993042],[120.558789,23.992326],[120.559934,23.992364],[120.561639,23.992893],[120.562554,23.992833],[120.564521,23.993079],[120.566454,23.993566],[120.567952,23.994314],[120.567422,23.995764],[120.566836,23.996563],[120.566354,23.996364],[120.565489,23.998505],[120.564771,23.998417],[120.563841,24.000607],[120.563466,24.000494],[120.562878,24.001498],[120.562656,24.001547],[120.562309,24.002021],[120.561812,24.002076],[120.560067,24.001694],[120.558525,24.002116],[120.557676,24.002604],[120.557159,24.002591],[120.555227,24.002007],[120.554596,24.002213],[120.554085,24.003146],[120.553361,24.00637],[120.552213,24.007691],[120.549376,24.00832],[120.54813,24.008314]]]},"properties":{"code":"10007130012","name":"大橋村","countyCode":"10007","countyName":"彰化縣","townCode":"10007130","townName":"大村鄉","level":"village","unassigned":false,"note":"","label":[120.56031900024472,23.997116327059413],"bounds":[120.543497,23.992326,120.567952,24.010164],"focusBounds":[120.543497,23.992326,120.567952,24.010164],"color":"#68bec9"}},{"type":"Feature","id":"10007130013","geometry":{"type":"Polygon","coordinates":[[[120.516792,23.993453],[120.516403,23.99357],[120.515572,23.993386],[120.515394,23.993209],[120.514151,23.992781],[120.51386,23.992965],[120.513162,23.992559],[120.511723,23.993683],[120.511054,23.993556],[120.510759,23.993065],[120.510424,23.99291],[120.510134,23.993025],[120.510006,23.993353],[120.509658,23.993348],[120.509043,23.993134],[120.508913,23.992575],[120.50823,23.991405],[120.505683,23.990794],[120.506266,23.990465],[120.507119,23.989651],[120.507361,23.989056],[120.507216,23.98851],[120.506741,23.987876],[120.50624,23.987579],[120.505531,23.987495],[120.505273,23.987328],[120.506567,23.985393],[120.506829,23.985437],[120.507117,23.985075],[120.507552,23.984069],[120.507975,23.983409],[120.508801,23.982578],[120.50985,23.98238],[120.511074,23.981376],[120.512418,23.979808],[120.513206,23.979289],[120.51399,23.979057],[120.514106,23.978864],[120.514053,23.978111],[120.514352,23.977926],[120.514636,23.97789],[120.515048,23.978136],[120.515437,23.978144],[120.516438,23.977757],[120.51691,23.977941],[120.517256,23.978319],[120.518603,23.978141],[120.519728,23.978218],[120.520654,23.977922],[120.521626,23.977215],[120.523426,23.977381],[120.522195,23.980692],[120.523823,23.981615],[120.526153,23.982164],[120.527488,23.982305],[120.527844,23.982537],[120.525678,23.984933],[120.523712,23.987806],[120.523434,23.98847],[120.520442,23.987601],[120.518082,23.987185],[120.517642,23.989115],[120.517683,23.989454],[120.51737,23.99028],[120.517139,23.990485],[120.517051,23.991149],[120.517376,23.991298],[120.517392,23.991474],[120.516792,23.993453]]]},"properties":{"code":"10007130013","name":"大崙村","countyCode":"10007","countyName":"彰化縣","townCode":"10007130","townName":"大村鄉","level":"village","unassigned":false,"note":"","label":[120.5127055275353,23.98678015154559],"bounds":[120.505273,23.977215,120.527844,23.993683],"focusBounds":[120.505273,23.977215,120.527844,23.993683],"color":"#68bec9"}},{"type":"Feature","id":"10007130014","geometry":{"type":"Polygon","coordinates":[[[120.560983,23.988904],[120.560341,23.9892],[120.560001,23.989586],[120.558332,23.989848],[120.557869,23.990263],[120.557348,23.990308],[120.557134,23.990229],[120.557017,23.989491],[120.557104,23.987956],[120.556233,23.98749],[120.555859,23.987065],[120.552665,23.98626],[120.553491,23.984692],[120.553912,23.982261],[120.552631,23.981943],[120.551543,23.981347],[120.550595,23.981116],[120.549929,23.980745],[120.547758,23.980487],[120.547872,23.979883],[120.547751,23.977327],[120.547627,23.976161],[120.547286,23.975504],[120.548232,23.974855],[120.549507,23.974767],[120.548917,23.976446],[120.550357,23.977063],[120.550503,23.977625],[120.553783,23.978099],[120.553794,23.978611],[120.555308,23.978974],[120.555901,23.979309],[120.561474,23.979892],[120.562598,23.980217],[120.562918,23.980052],[120.562928,23.979436],[120.562353,23.978586],[120.562216,23.978052],[120.562737,23.975763],[120.562565,23.972545],[120.563126,23.972479],[120.565023,23.972792],[120.565841,23.972967],[120.566063,23.973152],[120.567504,23.973016],[120.568032,23.973103],[120.568308,23.973243],[120.5684,23.97378],[120.569032,23.97424],[120.5693,23.974311],[120.569714,23.974021],[120.569568,23.975101],[120.56844,23.975896],[120.568505,23.976417],[120.568964,23.977438],[120.568991,23.977959],[120.568644,23.978214],[120.567996,23.979281],[120.567765,23.979404],[120.567588,23.979571],[120.567509,23.980223],[120.567191,23.980638],[120.567007,23.981534],[120.565979,23.982097],[120.565806,23.982646],[120.565426,23.982993],[120.564819,23.982952],[120.564664,23.983156],[120.564423,23.983775],[120.564686,23.984373],[120.564238,23.985168],[120.563649,23.985032],[120.563503,23.985291],[120.563653,23.986391],[120.563164,23.986793],[120.563291,23.987186],[120.563145,23.987422],[120.562297,23.987694],[120.562116,23.988361],[120.56183,23.988686],[120.560983,23.988904]]]},"properties":{"code":"10007130014","name":"擺塘村","countyCode":"10007","countyName":"彰化縣","townCode":"10007130","townName":"大村鄉","level":"village","unassigned":false,"note":"","label":[120.55846478627153,23.983682927338663],"bounds":[120.547286,23.972479,120.569714,23.990308],"focusBounds":[120.547286,23.972479,120.569714,23.990308],"color":"#df9f6a"}},{"type":"Feature","id":"10007130015","geometry":{"type":"Polygon","coordinates":[[[120.608791,23.990147],[120.609184,23.99005],[120.6106,23.990448],[120.610825,23.990599],[120.610819,23.990783],[120.610706,23.991147],[120.610285,23.991593],[120.610357,23.991921],[120.609983,23.991833],[120.609374,23.992164],[120.609119,23.99178],[120.608874,23.991779],[120.608763,23.992105],[120.608879,23.992767],[120.608487,23.993232],[120.608035,23.993471],[120.607987,23.993701],[120.608211,23.993777],[120.609954,23.993021],[120.61021,23.99367],[120.610639,23.993794],[120.610707,23.994347],[120.611358,23.994165],[120.611413,23.994274],[120.610455,23.995662],[120.610067,23.995738],[120.610225,23.995245],[120.610105,23.99487],[120.60929,23.995391],[120.609189,23.995962],[120.609618,23.996847],[120.609414,23.997246],[120.607553,23.995571],[120.6055,23.995911],[120.604385,23.995953],[120.60332,23.995539],[120.602542,23.99495],[120.601149,23.994278],[120.600008,23.994261],[120.598893,23.994669],[120.598597,23.994613],[120.598242,23.994368],[120.596667,23.992359],[120.595707,23.991452],[120.591828,23.98907],[120.591081,23.988149],[120.590567,23.987779],[120.588002,23.986558],[120.587587,23.986105],[120.58633,23.985844],[120.585358,23.988602],[120.585008,23.988928],[120.582906,23.987882],[120.574086,23.985574],[120.575106,23.984463],[120.575449,23.984281],[120.575442,23.983961],[120.57574,23.983404],[120.575396,23.981862],[120.575465,23.979856],[120.575298,23.979069],[120.575438,23.97869],[120.575841,23.978571],[120.580074,23.979081],[120.582519,23.979734],[120.584126,23.979973],[120.587995,23.980582],[120.588463,23.980404],[120.589185,23.979818],[120.589529,23.979811],[120.593381,23.98287],[120.595428,23.983673],[120.596738,23.984508],[120.597591,23.984541],[120.598315,23.984858],[120.600106,23.986303],[120.601018,23.986507],[120.601549,23.98678],[120.603888,23.988767],[120.604153,23.989595],[120.604772,23.990087],[120.606606,23.990399],[120.607731,23.990046],[120.608157,23.99034],[120.608791,23.990147]]]},"properties":{"code":"10007130015","name":"黃厝村","countyCode":"10007","countyName":"彰化縣","townCode":"10007130","townName":"大村鄉","level":"village","unassigned":false,"note":"","label":[120.59494586290079,23.987234009054],"bounds":[120.574086,23.978571,120.611413,23.997246],"focusBounds":[120.574086,23.978571,120.611413,23.997246],"color":"#98b69b"}},{"type":"Feature","id":"10007130016","geometry":{"type":"Polygon","coordinates":[[[120.60702,24.002446],[120.602712,24.002883],[120.600511,24.002822],[120.599054,24.003544],[120.5974,24.003707],[120.596152,24.004352],[120.595666,24.004418],[120.594718,24.004069],[120.593514,24.004122],[120.591581,24.003905],[120.590915,24.003199],[120.589854,24.002411],[120.589065,24.002141],[120.588665,24.001593],[120.588095,24.001301],[120.587627,23.999234],[120.586309,23.997887],[120.585161,23.99752],[120.58381,23.996813],[120.581805,23.995502],[120.57996,23.994025],[120.576926,23.992343],[120.573633,23.990601],[120.571749,23.989866],[120.571754,23.987989],[120.571952,23.987871],[120.57248,23.986749],[120.572573,23.986234],[120.573361,23.986236],[120.574086,23.985574],[120.582906,23.987882],[120.585008,23.988928],[120.585358,23.988602],[120.58633,23.985844],[120.587587,23.986105],[120.588002,23.986558],[120.590567,23.987779],[120.591081,23.988149],[120.591828,23.98907],[120.595707,23.991452],[120.596667,23.992359],[120.598242,23.994368],[120.598597,23.994613],[120.598893,23.994669],[120.600008,23.994261],[120.601149,23.994278],[120.602542,23.99495],[120.60332,23.995539],[120.604385,23.995953],[120.6055,23.995911],[120.607553,23.995571],[120.609414,23.997246],[120.608546,23.998145],[120.606565,23.998922],[120.606143,23.999288],[120.606335,23.9996],[120.607035,23.999286],[120.607855,23.999325],[120.608473,23.99907],[120.608895,23.998599],[120.609214,23.998567],[120.609335,23.998729],[120.609275,23.999292],[120.608545,24.000478],[120.607868,24.001413],[120.607733,24.001975],[120.60702,24.002446]]]},"properties":{"code":"10007130016","name":"福興村","countyCode":"10007","countyName":"彰化縣","townCode":"10007130","townName":"大村鄉","level":"village","unassigned":false,"note":"","label":[120.59294693804827,23.996907485939744],"bounds":[120.571749,23.985574,120.609414,24.004418],"focusBounds":[120.571749,23.985574,120.609414,24.004418],"color":"#dd8590"}}]}
