{"type":"FeatureCollection","features":[{"type":"Feature","id":"10008060001","geometry":{"type":"Polygon","coordinates":[[[120.704054,23.836415],[120.702722,23.838176],[120.701817,23.838022],[120.701377,23.835499],[120.70133,23.834012],[120.701175,23.833786],[120.700901,23.833679],[120.700033,23.834],[120.699474,23.833941],[120.698891,23.83381],[120.697166,23.833025],[120.69605,23.832267],[120.694716,23.832478],[120.695097,23.832265],[120.695185,23.831969],[120.69254,23.829727],[120.691701,23.828459],[120.69283,23.827978],[120.697509,23.82831],[120.698682,23.827798],[120.699508,23.827707],[120.705068,23.82579],[120.705146,23.829449],[120.702606,23.834096],[120.703662,23.834191],[120.703305,23.836522],[120.704054,23.836415]]]},"properties":{"code":"10008060001","name":"南雅村","countyCode":"10008","countyName":"南投縣","townCode":"10008060","townName":"名間鄉","level":"village","unassigned":false,"note":"","label":[120.69978416078638,23.830792626952523],"bounds":[120.691701,23.82579,120.705146,23.838176],"focusBounds":[120.691701,23.82579,120.705146,23.838176],"color":"#dd8590"}},{"type":"Feature","id":"10008060002","geometry":{"type":"Polygon","coordinates":[[[120.683042,23.835476],[120.684002,23.83394],[120.684948,23.833039],[120.685555,23.832893],[120.687298,23.83112],[120.687889,23.830864],[120.6889,23.831295],[120.689164,23.831316],[120.689659,23.831066],[120.690281,23.831214],[120.691854,23.831184],[120.69349,23.831806],[120.694716,23.832478],[120.69605,23.832267],[120.697166,23.833025],[120.698891,23.83381],[120.699474,23.833941],[120.700033,23.834],[120.700901,23.833679],[120.701175,23.833786],[120.70133,23.834012],[120.701377,23.835499],[120.701817,23.838022],[120.702722,23.838176],[120.704054,23.836415],[120.704614,23.836712],[120.705815,23.83678],[120.708304,23.839562],[120.710683,23.839325],[120.711353,23.840078],[120.712003,23.841912],[120.71393,23.843722],[120.715205,23.84437],[120.715889,23.845104],[120.716481,23.845406],[120.711994,23.845799],[120.710414,23.846171],[120.70942,23.84625],[120.708104,23.846115],[120.707396,23.845795],[120.706643,23.845681],[120.705912,23.845733],[120.704128,23.846186],[120.703094,23.846246],[120.702793,23.84664],[120.702251,23.846778],[120.702187,23.846614],[120.701769,23.84644],[120.701172,23.845782],[120.701231,23.844587],[120.70172,23.843349],[120.69953,23.842378],[120.698373,23.842339],[120.697852,23.8417],[120.697293,23.841393],[120.697085,23.840733],[120.696443,23.840376],[120.696487,23.8399],[120.695791,23.839713],[120.695711,23.839488],[120.693688,23.839216],[120.691495,23.837174],[120.690206,23.836799],[120.689249,23.836816],[120.688604,23.836588],[120.688167,23.83665],[120.687448,23.837015],[120.686108,23.837083],[120.684005,23.836515],[120.683042,23.835476]]]},"properties":{"code":"10008060002","name":"中正村","countyCode":"10008","countyName":"南投縣","townCode":"10008060","townName":"名間鄉","level":"village","unassigned":false,"note":"","label":[120.69534818239674,23.83590901764285],"bounds":[120.683042,23.830864,120.716481,23.846778],"focusBounds":[120.683042,23.830864,120.716481,23.846778],"color":"#a49ad4"}},{"type":"Feature","id":"10008060003","geometry":{"type":"Polygon","coordinates":[[[120.676149,23.838472],[120.677029,23.837181],[120.678055,23.837068],[120.678624,23.836459],[120.678989,23.835575],[120.679479,23.835242],[120.680348,23.835084],[120.682655,23.835978],[120.683042,23.835476],[120.684005,23.836515],[120.686108,23.837083],[120.687448,23.837015],[120.688167,23.83665],[120.688604,23.836588],[120.689249,23.836816],[120.690206,23.836799],[120.691495,23.837174],[120.693688,23.839216],[120.695711,23.839488],[120.695791,23.839713],[120.696487,23.8399],[120.696443,23.840376],[120.697085,23.840733],[120.697293,23.841393],[120.697852,23.8417],[120.698373,23.842339],[120.69953,23.842378],[120.70172,23.843349],[120.701231,23.844587],[120.701172,23.845782],[120.701769,23.84644],[120.702187,23.846614],[120.702251,23.846778],[120.702793,23.84664],[120.703094,23.846246],[120.704128,23.846186],[120.703365,23.847638],[120.703509,23.848607],[120.702565,23.852046],[120.702155,23.85218],[120.701984,23.852871],[120.701274,23.853847],[120.700894,23.854006],[120.700284,23.854023],[120.699374,23.853843],[120.698526,23.853868],[120.697738,23.854269],[120.696037,23.855857],[120.695626,23.856041],[120.695334,23.855932],[120.695043,23.855367],[120.694517,23.855149],[120.693262,23.854127],[120.692794,23.85399],[120.692268,23.854043],[120.690981,23.854445],[120.690338,23.8542],[120.689754,23.85377],[120.689186,23.853845],[120.688799,23.852156],[120.687322,23.8519],[120.686173,23.850654],[120.685611,23.848488],[120.682449,23.845926],[120.681803,23.845141],[120.68102,23.844778],[120.680588,23.844748],[120.679677,23.844243],[120.679146,23.844109],[120.678849,23.843776],[120.678717,23.842586],[120.678852,23.842079],[120.678617,23.841274],[120.678238,23.840754],[120.677255,23.84008],[120.677054,23.83954],[120.677258,23.839222],[120.677218,23.838888],[120.676149,23.838472]]]},"properties":{"code":"10008060003","name":"中山村","countyCode":"10008","countyName":"南投縣","townCode":"10008060","townName":"名間鄉","level":"village","unassigned":false,"note":"","label":[120.69195500160141,23.84587154711005],"bounds":[120.676149,23.835084,120.704128,23.856041],"focusBounds":[120.676149,23.835084,120.704128,23.856041],"color":"#68bec9"}},{"type":"Feature","id":"10008060004","geometry":{"type":"Polygon","coordinates":[[[120.727998,23.834023],[120.72866,23.834906],[120.728705,23.835431],[120.730273,23.836549],[120.731292,23.837929],[120.731861,23.838191],[120.731714,23.83921],[120.732439,23.840165],[120.732471,23.840439],[120.731736,23.841146],[120.731153,23.840924],[120.730884,23.841101],[120.729843,23.842249],[120.729662,23.842881],[120.729142,23.843301],[120.729258,23.843941],[120.728424,23.845022],[120.727582,23.845546],[120.72728,23.845479],[120.725644,23.844034],[120.724731,23.843552],[120.723163,23.843292],[120.72152,23.843632],[120.719147,23.844623],[120.716481,23.845406],[120.715889,23.845104],[120.715205,23.84437],[120.71393,23.843722],[120.712003,23.841912],[120.711353,23.840078],[120.710683,23.839325],[120.708304,23.839562],[120.705815,23.83678],[120.704614,23.836712],[120.704054,23.836415],[120.703305,23.836522],[120.703662,23.834191],[120.702606,23.834096],[120.705146,23.829449],[120.705068,23.82579],[120.704981,23.81927],[120.705104,23.818645],[120.705797,23.817752],[120.708182,23.82057],[120.708709,23.821616],[120.709834,23.823241],[120.71065,23.824007],[120.712719,23.825155],[120.715653,23.827173],[120.718623,23.828942],[120.722321,23.830175],[120.725571,23.831877],[120.72724,23.833058],[120.727998,23.834023]]]},"properties":{"code":"10008060004","name":"濁水村","countyCode":"10008","countyName":"南投縣","townCode":"10008060","townName":"名間鄉","level":"village","unassigned":false,"note":"","label":[120.71622385111976,23.835036577967546],"bounds":[120.702606,23.817752,120.732471,23.845546],"focusBounds":[120.702606,23.817752,120.732471,23.845546],"color":"#68bec9"}},{"type":"Feature","id":"10008060005","geometry":{"type":"Polygon","coordinates":[[[120.683042,23.835476],[120.682655,23.835978],[120.680348,23.835084],[120.679479,23.835242],[120.678989,23.835575],[120.678624,23.836459],[120.678055,23.837068],[120.677029,23.837181],[120.676149,23.838472],[120.67574,23.838268],[120.675335,23.838324],[120.674708,23.837688],[120.673584,23.837541],[120.672712,23.836955],[120.672237,23.836297],[120.672106,23.835543],[120.671657,23.835176],[120.670256,23.834832],[120.669596,23.833833],[120.667984,23.833001],[120.667853,23.83261],[120.667192,23.832074],[120.667061,23.83166],[120.667282,23.830889],[120.66631,23.830408],[120.664722,23.829242],[120.663521,23.829269],[120.662319,23.829982],[120.662273,23.829749],[120.661995,23.829534],[120.659849,23.82861],[120.659736,23.828084],[120.656679,23.826992],[120.655913,23.826547],[120.655533,23.826124],[120.653714,23.825574],[120.653312,23.825088],[120.652668,23.824922],[120.650175,23.823661],[120.650319,23.822571],[120.650574,23.822208],[120.650548,23.821377],[120.650804,23.820883],[120.651114,23.820911],[120.650834,23.820312],[120.650919,23.820026],[120.651372,23.819767],[120.651627,23.819328],[120.6527,23.819174],[120.65273,23.818551],[120.6518,23.817716],[120.652083,23.817613],[120.653776,23.817903],[120.653805,23.817617],[120.653325,23.817313],[120.653158,23.816681],[120.653244,23.816473],[120.652962,23.816344],[120.652962,23.816109],[120.654063,23.816164],[120.654148,23.816087],[120.653867,23.815644],[120.65398,23.815516],[120.654685,23.815621],[120.654858,23.815452],[120.653982,23.81489],[120.653954,23.814631],[120.654322,23.814476],[120.654745,23.814608],[120.654858,23.814477],[120.654944,23.814089],[120.655453,23.813492],[120.655151,23.81276],[120.655605,23.81281],[120.656183,23.813178],[120.657289,23.813615],[120.658654,23.814526],[120.660415,23.814625],[120.662445,23.815374],[120.663367,23.815289],[120.663715,23.8154],[120.66505,23.815036],[120.665132,23.815785],[120.664733,23.81631],[120.66565,23.816361],[120.66594,23.81613],[120.666331,23.816437],[120.667587,23.8166],[120.667983,23.817345],[120.669527,23.818055],[120.669936,23.818521],[120.670639,23.818723],[120.67137,23.818711],[120.671551,23.819114],[120.671889,23.819407],[120.672246,23.819399],[120.672589,23.81918],[120.673479,23.819784],[120.6744,23.820061],[120.675184,23.819821],[120.675956,23.821695],[120.676916,23.821997],[120.676675,23.822186],[120.676692,23.822486],[120.676966,23.822708],[120.677429,23.822756],[120.677377,23.823041],[120.67693,23.823135],[120.676775,23.823324],[120.677186,23.82367],[120.678336,23.823815],[120.678231,23.824383],[120.67914,23.824654],[120.6795,23.824892],[120.679773,23.825398],[120.680459,23.825557],[120.680784,23.826062],[120.68123,23.826157],[120.682069,23.826997],[120.682669,23.827108],[120.682841,23.827298],[120.682788,23.827646],[120.683045,23.827899],[120.683491,23.82779],[120.684297,23.828186],[120.68433,23.828769],[120.684979,23.829106],[120.685358,23.829672],[120.686524,23.829911],[120.687518,23.830435],[120.687889,23.830864],[120.687298,23.83112],[120.685555,23.832893],[120.684948,23.833039],[120.684002,23.83394],[120.683042,23.835476]]]},"properties":{"code":"10008060005","name":"炭寮村","countyCode":"10008","countyName":"南投縣","townCode":"10008060","townName":"名間鄉","level":"village","unassigned":false,"note":"","label":[120.66660529685647,23.823513380568976],"bounds":[120.650175,23.81276,120.687889,23.838472],"focusBounds":[120.650175,23.81276,120.687889,23.838472],"color":"#df9f6a"}},{"type":"Feature","id":"10008060006","geometry":{"type":"Polygon","coordinates":[[[120.705068,23.82579],[120.699508,23.827707],[120.698682,23.827798],[120.697509,23.82831],[120.69283,23.827978],[120.691701,23.828459],[120.69254,23.829727],[120.695185,23.831969],[120.695097,23.832265],[120.694716,23.832478],[120.69349,23.831806],[120.691854,23.831184],[120.690281,23.831214],[120.689659,23.831066],[120.689164,23.831316],[120.6889,23.831295],[120.687889,23.830864],[120.687518,23.830435],[120.686524,23.829911],[120.685358,23.829672],[120.684979,23.829106],[120.68433,23.828769],[120.684297,23.828186],[120.683491,23.82779],[120.683045,23.827899],[120.682788,23.827646],[120.682841,23.827298],[120.682669,23.827108],[120.682069,23.826997],[120.68123,23.826157],[120.680784,23.826062],[120.680459,23.825557],[120.679773,23.825398],[120.6795,23.824892],[120.67914,23.824654],[120.678231,23.824383],[120.678336,23.823815],[120.677186,23.82367],[120.676775,23.823324],[120.67693,23.823135],[120.677377,23.823041],[120.677429,23.822756],[120.676966,23.822708],[120.676692,23.822486],[120.676675,23.822186],[120.676916,23.821997],[120.675956,23.821695],[120.675184,23.819821],[120.676538,23.819136],[120.677796,23.817358],[120.678765,23.816549],[120.678819,23.816295],[120.67818,23.81496],[120.67798,23.814076],[120.6783,23.813052],[120.678207,23.812931],[120.678514,23.811148],[120.678415,23.808398],[120.678682,23.807013],[120.679079,23.806614],[120.678984,23.805943],[120.679179,23.805795],[120.679779,23.805751],[120.682461,23.806077],[120.683413,23.805418],[120.683605,23.804059],[120.683908,23.803357],[120.683953,23.801563],[120.683801,23.80134],[120.68455,23.80136],[120.686713,23.80199],[120.689957,23.803788],[120.692573,23.804645],[120.695207,23.806217],[120.696828,23.807293],[120.698485,23.808888],[120.703034,23.814173],[120.705274,23.817119],[120.70559,23.81751],[120.705797,23.817752],[120.705104,23.818645],[120.704981,23.81927],[120.705068,23.82579]]]},"properties":{"code":"10008060006","name":"新民村","countyCode":"10008","countyName":"南投縣","townCode":"10008060","townName":"名間鄉","level":"village","unassigned":false,"note":"","label":[120.6900507612411,23.81661446964808],"bounds":[120.675184,23.80134,120.705797,23.832478],"focusBounds":[120.675184,23.80134,120.705797,23.832478],"color":"#c38cb8"}},{"type":"Feature","id":"10008060007","geometry":{"type":"Polygon","coordinates":[[[120.704377,23.875763],[120.704121,23.8766],[120.704323,23.876977],[120.705406,23.878065],[120.705897,23.878218],[120.706342,23.878832],[120.706092,23.881223],[120.704759,23.882333],[120.703911,23.882552],[120.703426,23.882856],[120.703143,23.883404],[120.702979,23.884666],[120.702332,23.88522],[120.701364,23.885331],[120.70088,23.88507],[120.700551,23.884316],[120.700727,23.883264],[120.700486,23.882735],[120.699475,23.882695],[120.698605,23.882996],[120.698108,23.883674],[120.698281,23.88595],[120.697319,23.885768],[120.696288,23.884865],[120.69514,23.884691],[120.694425,23.884224],[120.693477,23.88393],[120.691918,23.883695],[120.690186,23.882946],[120.689057,23.882231],[120.687058,23.881616],[120.686111,23.881579],[120.683153,23.880409],[120.681863,23.880741],[120.681059,23.880705],[120.679886,23.881085],[120.678662,23.88125],[120.678915,23.877768],[120.679697,23.87808],[120.679889,23.876544],[120.679216,23.875646],[120.679565,23.873601],[120.678767,23.871731],[120.678866,23.871007],[120.679764,23.870583],[120.680687,23.870658],[120.681111,23.871257],[120.682482,23.871405],[120.682963,23.870326],[120.683405,23.869785],[120.684029,23.869636],[120.684627,23.869711],[120.685775,23.87011],[120.686498,23.870085],[120.687545,23.869711],[120.689042,23.868713],[120.690425,23.86649],[120.692864,23.866399],[120.693355,23.866825],[120.694583,23.866798],[120.696038,23.867807],[120.698225,23.868117],[120.699603,23.868672],[120.701236,23.870856],[120.702706,23.871493],[120.703119,23.87218],[120.70306,23.872921],[120.703289,23.873716],[120.704377,23.875763]]]},"properties":{"code":"10008060007","name":"新街村","countyCode":"10008","countyName":"南投縣","townCode":"10008060","townName":"名間鄉","level":"village","unassigned":false,"note":"","label":[120.69383666928309,23.875428001826737],"bounds":[120.678662,23.866399,120.706342,23.88595],"focusBounds":[120.678662,23.866399,120.706342,23.88595],"color":"#98b69b"}},{"type":"Feature","id":"10008060008","geometry":{"type":"Polygon","coordinates":[[[120.731005,23.864024],[120.730919,23.864329],[120.730193,23.864872],[120.729923,23.865314],[120.730306,23.865772],[120.73069,23.865755],[120.73065,23.866249],[120.729765,23.867553],[120.728804,23.868594],[120.727843,23.86912],[120.727114,23.869173],[120.726454,23.869048],[120.725848,23.868765],[120.724986,23.867844],[120.724066,23.867615],[120.723585,23.868266],[120.722989,23.868495],[120.722626,23.868],[120.722185,23.867717],[120.721801,23.867681],[120.721302,23.868032],[120.720898,23.868119],[120.719767,23.867889],[120.718238,23.86811],[120.717113,23.868112],[120.7163,23.868499],[120.715346,23.869402],[120.714918,23.869946],[120.714752,23.870609],[120.714358,23.871001],[120.713767,23.871029],[120.713015,23.869488],[120.712686,23.86979],[120.711829,23.87136],[120.711467,23.871569],[120.708483,23.870053],[120.707039,23.86966],[120.706825,23.868896],[120.706421,23.869383],[120.706339,23.869977],[120.705657,23.87042],[120.705205,23.871417],[120.704628,23.871605],[120.704835,23.871987],[120.70451,23.872973],[120.704348,23.873038],[120.704597,23.87463],[120.704377,23.875763],[120.703289,23.873716],[120.70306,23.872921],[120.703119,23.87218],[120.702706,23.871493],[120.701236,23.870856],[120.699603,23.868672],[120.698225,23.868117],[120.696038,23.867807],[120.694583,23.866798],[120.693355,23.866825],[120.692864,23.866399],[120.690425,23.86649],[120.68872,23.866204],[120.688246,23.865866],[120.687485,23.865808],[120.685298,23.865993],[120.684363,23.865567],[120.683641,23.865627],[120.683622,23.863367],[120.683411,23.862637],[120.683515,23.862163],[120.68397,23.861936],[120.685227,23.862262],[120.686553,23.861768],[120.686758,23.86152],[120.686757,23.860822],[120.686082,23.860239],[120.686037,23.85995],[120.686843,23.8594],[120.686948,23.858432],[120.688738,23.856592],[120.689142,23.855592],[120.689186,23.853845],[120.689754,23.85377],[120.690338,23.8542],[120.690981,23.854445],[120.692268,23.854043],[120.692794,23.85399],[120.693262,23.854127],[120.694517,23.855149],[120.695043,23.855367],[120.695334,23.855932],[120.695626,23.856041],[120.696037,23.855857],[120.697738,23.854269],[120.698526,23.853868],[120.699374,23.853843],[120.700284,23.854023],[120.700894,23.854006],[120.701274,23.853847],[120.701984,23.852871],[120.702155,23.85218],[120.702565,23.852046],[120.703441,23.852666],[120.7051,23.854292],[120.705368,23.854735],[120.705305,23.855311],[120.705491,23.855629],[120.705382,23.857153],[120.705664,23.86009],[120.70603,23.85987],[120.706841,23.858607],[120.709325,23.85928],[120.710871,23.860288],[120.712133,23.861829],[120.713194,23.861777],[120.713668,23.861954],[120.714074,23.86233],[120.714965,23.86253],[120.716157,23.863205],[120.716868,23.863145],[120.716801,23.863484],[120.715983,23.864774],[120.716134,23.865042],[120.716712,23.865159],[120.717859,23.865046],[120.719358,23.864238],[120.719576,23.864284],[120.72,23.865147],[120.720322,23.865233],[120.720607,23.865173],[120.721225,23.864241],[120.723206,23.863827],[120.725963,23.864024],[120.726561,23.863815],[120.727244,23.863277],[120.72786,23.863303],[120.728892,23.863795],[120.73056,23.863789],[120.731005,23.864024]]]},"properties":{"code":"10008060008","name":"東湖村","countyCode":"10008","countyName":"南投縣","townCode":"10008060","townName":"名間鄉","level":"village","unassigned":false,"note":"","label":[120.69932335703723,23.861202045247225],"bounds":[120.683411,23.852046,120.731005,23.875763],"focusBounds":[120.683411,23.852046,120.731005,23.875763],"color":"#58b99d"}},{"type":"Feature","id":"10008060009","geometry":{"type":"Polygon","coordinates":[[[120.727505,23.880846],[120.726584,23.880496],[120.725743,23.879418],[120.724619,23.878609],[120.723264,23.880287],[120.723113,23.880842],[120.721663,23.881433],[120.720417,23.88233],[120.719191,23.882958],[120.718372,23.884026],[120.718304,23.885289],[120.717488,23.886566],[120.717177,23.887348],[120.717212,23.887774],[120.716901,23.88812],[120.716781,23.888558],[120.716229,23.888877],[120.715998,23.889394],[120.715636,23.889689],[120.71523,23.889615],[120.715106,23.89],[120.714549,23.890291],[120.714082,23.890043],[120.713588,23.890127],[120.712735,23.889509],[120.711039,23.889051],[120.70918,23.88818],[120.708657,23.888978],[120.706221,23.889095],[120.705112,23.888674],[120.704563,23.887891],[120.704044,23.887732],[120.703864,23.888163],[120.703021,23.889042],[120.702753,23.888718],[120.700911,23.887727],[120.700556,23.886997],[120.700024,23.886639],[120.698966,23.886584],[120.698281,23.88595],[120.698108,23.883674],[120.698605,23.882996],[120.699475,23.882695],[120.700486,23.882735],[120.700727,23.883264],[120.700551,23.884316],[120.70088,23.88507],[120.701364,23.885331],[120.702332,23.88522],[120.702979,23.884666],[120.703143,23.883404],[120.703426,23.882856],[120.703911,23.882552],[120.704759,23.882333],[120.706092,23.881223],[120.706342,23.878832],[120.705897,23.878218],[120.705406,23.878065],[120.704323,23.876977],[120.704121,23.8766],[120.704377,23.875763],[120.704597,23.87463],[120.704348,23.873038],[120.70451,23.872973],[120.704835,23.871987],[120.704628,23.871605],[120.705205,23.871417],[120.705657,23.87042],[120.706339,23.869977],[120.706421,23.869383],[120.706825,23.868896],[120.707039,23.86966],[120.708483,23.870053],[120.711467,23.871569],[120.711829,23.87136],[120.712686,23.86979],[120.713015,23.869488],[120.713767,23.871029],[120.714358,23.871001],[120.714752,23.870609],[120.714918,23.869946],[120.715346,23.869402],[120.7163,23.868499],[120.717113,23.868112],[120.718238,23.86811],[120.719767,23.867889],[120.720898,23.868119],[120.721302,23.868032],[120.721801,23.867681],[120.722185,23.867717],[120.722626,23.868],[120.722989,23.868495],[120.723585,23.868266],[120.724066,23.867615],[120.724986,23.867844],[120.725848,23.868765],[120.726454,23.869048],[120.727114,23.869173],[120.727843,23.86912],[120.728804,23.868594],[120.729765,23.867553],[120.73065,23.866249],[120.73069,23.865755],[120.730306,23.865772],[120.729923,23.865314],[120.730193,23.864872],[120.730919,23.864329],[120.731005,23.864024],[120.731205,23.863485],[120.731885,23.863215],[120.732864,23.863129],[120.734634,23.863347],[120.734394,23.864266],[120.733754,23.864767],[120.733146,23.865815],[120.732674,23.867508],[120.732698,23.86808],[120.731331,23.869121],[120.731137,23.869424],[120.731554,23.871821],[120.731037,23.87312],[120.729198,23.875668],[120.728588,23.876084],[120.727239,23.876272],[120.726961,23.876822],[120.72668,23.878851],[120.727131,23.879619],[120.727231,23.880385],[120.727505,23.880846]]]},"properties":{"code":"10008060009","name":"萬丹村","countyCode":"10008","countyName":"南投縣","townCode":"10008060","townName":"名間鄉","level":"village","unassigned":false,"note":"","label":[120.71600772895496,23.8774135557414],"bounds":[120.698108,23.863129,120.734634,23.890291],"focusBounds":[120.698108,23.863129,120.734634,23.890291],"color":"#efb44f"}},{"type":"Feature","id":"10008060010","geometry":{"type":"Polygon","coordinates":[[[120.678915,23.877768],[120.677233,23.877313],[120.67541,23.877018],[120.67146,23.876861],[120.671414,23.876459],[120.670937,23.875652],[120.670457,23.874958],[120.670062,23.874664],[120.668821,23.874194],[120.667185,23.873912],[120.666565,23.873478],[120.666416,23.872906],[120.666508,23.871464],[120.662544,23.872351],[120.66248,23.871308],[120.662015,23.870632],[120.661615,23.870446],[120.661191,23.870673],[120.66049,23.871417],[120.659886,23.871445],[120.659712,23.871298],[120.659745,23.870873],[120.660811,23.870248],[120.660784,23.868246],[120.659026,23.86649],[120.658773,23.865846],[120.65817,23.865509],[120.656734,23.865961],[120.656389,23.866279],[120.65471,23.866878],[120.657147,23.862332],[120.657709,23.861851],[120.65877,23.861666],[120.659129,23.861271],[120.659359,23.860556],[120.659573,23.860439],[120.660214,23.86054],[120.660441,23.861096],[120.660827,23.861481],[120.661181,23.861517],[120.662657,23.861062],[120.664341,23.860989],[120.664799,23.86078],[120.667571,23.861351],[120.668066,23.861467],[120.668747,23.861222],[120.669263,23.861298],[120.669655,23.861109],[120.670398,23.861188],[120.671056,23.861776],[120.672602,23.862348],[120.673219,23.863223],[120.673731,23.863612],[120.674723,23.863815],[120.67464,23.864156],[120.674804,23.864245],[120.676641,23.864235],[120.678001,23.864714],[120.678497,23.864544],[120.679802,23.864591],[120.680373,23.865022],[120.681071,23.864933],[120.681383,23.865062],[120.681919,23.865481],[120.682991,23.865711],[120.683641,23.865627],[120.684363,23.865567],[120.685298,23.865993],[120.687485,23.865808],[120.688246,23.865866],[120.68872,23.866204],[120.690425,23.86649],[120.689042,23.868713],[120.687545,23.869711],[120.686498,23.870085],[120.685775,23.87011],[120.684627,23.869711],[120.684029,23.869636],[120.683405,23.869785],[120.682963,23.870326],[120.682482,23.871405],[120.681111,23.871257],[120.680687,23.870658],[120.679764,23.870583],[120.678866,23.871007],[120.678767,23.871731],[120.679565,23.873601],[120.679216,23.875646],[120.679889,23.876544],[120.679697,23.87808],[120.678915,23.877768]]]},"properties":{"code":"10008060010","name":"田仔村","countyCode":"10008","countyName":"南投縣","townCode":"10008060","townName":"名間鄉","level":"village","unassigned":false,"note":"","label":[120.6719176178875,23.869486935959234],"bounds":[120.65471,23.860439,120.690425,23.87808],"focusBounds":[120.65471,23.860439,120.690425,23.87808],"color":"#78a7e3"}},{"type":"Feature","id":"10008060011","geometry":{"type":"Polygon","coordinates":[[[120.653172,23.884427],[120.652809,23.884373],[120.651285,23.884769],[120.651127,23.884685],[120.650722,23.882388],[120.650696,23.88023],[120.651444,23.875354],[120.652902,23.873849],[120.653304,23.873639],[120.653267,23.873162],[120.653609,23.872276],[120.653453,23.871845],[120.65314,23.871725],[120.653117,23.871121],[120.65334,23.870121],[120.654493,23.867724],[120.65471,23.866878],[120.656389,23.866279],[120.656734,23.865961],[120.65817,23.865509],[120.658773,23.865846],[120.659026,23.86649],[120.660784,23.868246],[120.660811,23.870248],[120.659745,23.870873],[120.659712,23.871298],[120.659886,23.871445],[120.66049,23.871417],[120.661191,23.870673],[120.661615,23.870446],[120.662015,23.870632],[120.66248,23.871308],[120.662544,23.872351],[120.666508,23.871464],[120.666416,23.872906],[120.666565,23.873478],[120.667185,23.873912],[120.668821,23.874194],[120.670062,23.874664],[120.670457,23.874958],[120.670937,23.875652],[120.671414,23.876459],[120.67146,23.876861],[120.67541,23.877018],[120.677233,23.877313],[120.678915,23.877768],[120.678662,23.88125],[120.67652,23.881579],[120.674908,23.881587],[120.673983,23.881747],[120.672969,23.881453],[120.672161,23.881679],[120.671365,23.881561],[120.670769,23.88181],[120.669855,23.881955],[120.669742,23.882491],[120.668433,23.882874],[120.666941,23.883056],[120.665801,23.882949],[120.665213,23.882642],[120.6637,23.882326],[120.661676,23.882127],[120.660559,23.88261],[120.659,23.882834],[120.656531,23.883599],[120.654602,23.884343],[120.653226,23.884426],[120.653172,23.884427]]]},"properties":{"code":"10008060011","name":"大庄村","countyCode":"10008","countyName":"南投縣","townCode":"10008060","townName":"名間鄉","level":"village","unassigned":false,"note":"","label":[120.65848838670064,23.876905050347162],"bounds":[120.650696,23.865509,120.678915,23.884769],"focusBounds":[120.650696,23.865509,120.678915,23.884769],"color":"#dd8590"}},{"type":"Feature","id":"10008060012","geometry":{"type":"Polygon","coordinates":[[[120.653172,23.884427],[120.652051,23.884902],[120.651048,23.885716],[120.649585,23.886142],[120.648954,23.886601],[120.648096,23.886526],[120.647945,23.886398],[120.648042,23.886065],[120.647719,23.886079],[120.644835,23.887067],[120.644132,23.887418],[120.644111,23.88778],[120.643614,23.888256],[120.642561,23.888868],[120.641893,23.888665],[120.642034,23.888165],[120.641927,23.887751],[120.641751,23.888182],[120.641145,23.888623],[120.64076,23.88863],[120.640477,23.888827],[120.639983,23.888738],[120.639536,23.889015],[120.639139,23.888904],[120.639107,23.88818],[120.638349,23.88873],[120.637068,23.888852],[120.636937,23.888789],[120.636894,23.888394],[120.636341,23.888345],[120.636133,23.88863],[120.636163,23.889281],[120.635292,23.889595],[120.634895,23.889499],[120.634745,23.889031],[120.634214,23.889256],[120.633152,23.888512],[120.632237,23.888984],[120.631492,23.888884],[120.630792,23.889178],[120.630158,23.888922],[120.629422,23.8891],[120.629163,23.887905],[120.62957,23.886705],[120.629001,23.88603],[120.629026,23.885579],[120.629595,23.884809],[120.629587,23.884625],[120.628638,23.884193],[120.628197,23.883446],[120.627664,23.883583],[120.62746,23.883508],[120.627022,23.882343],[120.626758,23.880256],[120.626367,23.879979],[120.626727,23.87959],[120.626681,23.879418],[120.624825,23.877069],[120.624965,23.876156],[120.625307,23.876084],[120.625517,23.875495],[120.625767,23.875244],[120.625751,23.875007],[120.629291,23.874665],[120.631021,23.874694],[120.631282,23.875941],[120.632247,23.876332],[120.632543,23.876289],[120.632887,23.876046],[120.633215,23.875167],[120.633759,23.874888],[120.636597,23.874112],[120.63967,23.873496],[120.641271,23.873362],[120.642671,23.872986],[120.644528,23.872166],[120.6457,23.871833],[120.647064,23.871727],[120.650712,23.871858],[120.651957,23.872183],[120.652838,23.871662],[120.653117,23.871121],[120.65314,23.871725],[120.653453,23.871845],[120.653609,23.872276],[120.653267,23.873162],[120.653304,23.873639],[120.652902,23.873849],[120.651444,23.875354],[120.650696,23.88023],[120.650722,23.882388],[120.651127,23.884685],[120.651285,23.884769],[120.652809,23.884373],[120.653172,23.884427]]]},"properties":{"code":"10008060012","name":"廍下村","countyCode":"10008","countyName":"南投縣","townCode":"10008060","townName":"名間鄉","level":"village","unassigned":false,"note":"","label":[120.63979192162829,23.88117114173407],"bounds":[120.624825,23.871121,120.653609,23.889595],"focusBounds":[120.624825,23.871121,120.653609,23.889595],"color":"#a49ad4"}},{"type":"Feature","id":"10008060013","geometry":{"type":"Polygon","coordinates":[[[120.653117,23.871121],[120.652838,23.871662],[120.651957,23.872183],[120.650712,23.871858],[120.647064,23.871727],[120.6457,23.871833],[120.644528,23.872166],[120.643821,23.870332],[120.641349,23.87099],[120.641161,23.86921],[120.640215,23.868359],[120.639999,23.867293],[120.637276,23.866926],[120.636791,23.86673],[120.636516,23.865475],[120.637895,23.864058],[120.638897,23.863661],[120.641859,23.863045],[120.644027,23.862147],[120.645053,23.862043],[120.64527,23.861883],[120.645377,23.861638],[120.645186,23.86082],[120.64526,23.860211],[120.645723,23.859706],[120.64811,23.858199],[120.648298,23.855928],[120.648885,23.856244],[120.649269,23.856035],[120.649741,23.856031],[120.649905,23.856117],[120.649903,23.856655],[120.650987,23.856542],[120.651398,23.856692],[120.652168,23.857416],[120.652416,23.856974],[120.652717,23.856846],[120.653092,23.856811],[120.653627,23.857042],[120.655174,23.856894],[120.655764,23.856684],[120.656239,23.856344],[120.656693,23.855403],[120.657115,23.855517],[120.657624,23.855383],[120.658342,23.855759],[120.659595,23.855911],[120.660252,23.856141],[120.661146,23.856109],[120.662065,23.855666],[120.663772,23.855914],[120.664654,23.856861],[120.666259,23.858048],[120.666857,23.858011],[120.668154,23.859399],[120.668441,23.859854],[120.667571,23.861351],[120.664799,23.86078],[120.664341,23.860989],[120.662657,23.861062],[120.661181,23.861517],[120.660827,23.861481],[120.660441,23.861096],[120.660214,23.86054],[120.659573,23.860439],[120.659359,23.860556],[120.659129,23.861271],[120.65877,23.861666],[120.657709,23.861851],[120.657147,23.862332],[120.65471,23.866878],[120.654493,23.867724],[120.65334,23.870121],[120.653117,23.871121]]]},"properties":{"code":"10008060013","name":"大坑村","countyCode":"10008","countyName":"南投縣","townCode":"10008060","townName":"名間鄉","level":"village","unassigned":false,"note":"","label":[120.65016861695882,23.864232598745524],"bounds":[120.636516,23.855383,120.668441,23.872183],"focusBounds":[120.636516,23.855383,120.668441,23.872183],"color":"#a8bf62"}},{"type":"Feature","id":"10008060014","geometry":{"type":"Polygon","coordinates":[[[120.663772,23.855914],[120.662065,23.855666],[120.661146,23.856109],[120.660252,23.856141],[120.659595,23.855911],[120.658342,23.855759],[120.657624,23.855383],[120.657115,23.855517],[120.656693,23.855403],[120.656239,23.856344],[120.655764,23.856684],[120.655174,23.856894],[120.653627,23.857042],[120.653092,23.856811],[120.652717,23.856846],[120.652416,23.856974],[120.652168,23.857416],[120.651398,23.856692],[120.650987,23.856542],[120.649903,23.856655],[120.649905,23.856117],[120.649741,23.856031],[120.649269,23.856035],[120.648885,23.856244],[120.648298,23.855928],[120.64811,23.858199],[120.645723,23.859706],[120.64526,23.860211],[120.645186,23.86082],[120.645377,23.861638],[120.64527,23.861883],[120.645053,23.862043],[120.644027,23.862147],[120.641859,23.863045],[120.638897,23.863661],[120.637895,23.864058],[120.637248,23.863424],[120.63674,23.863229],[120.637089,23.861878],[120.636982,23.86165],[120.637065,23.859614],[120.634571,23.859644],[120.632971,23.858726],[120.631429,23.85725],[120.629687,23.856555],[120.627048,23.856544],[120.627142,23.856608],[120.627044,23.856543],[120.62676,23.856332],[120.626631,23.85619],[120.626308,23.856213],[120.626091,23.855824],[120.626479,23.855256],[120.626267,23.85475],[120.626049,23.854718],[120.625652,23.855088],[120.625248,23.855182],[120.626232,23.854233],[120.626089,23.853913],[120.62615,23.853627],[120.625877,23.853345],[120.625983,23.853167],[120.627291,23.853832],[120.629916,23.854772],[120.630902,23.854976],[120.631299,23.854923],[120.632942,23.853818],[120.633741,23.853447],[120.634568,23.853395],[120.635539,23.853772],[120.636408,23.854601],[120.636959,23.854789],[120.638018,23.854738],[120.638409,23.855192],[120.638391,23.856154],[120.639684,23.855877],[120.639831,23.855223],[120.642294,23.854012],[120.642824,23.853521],[120.644973,23.85314],[120.660984,23.84942],[120.661602,23.851791],[120.662354,23.853892],[120.663772,23.855914]]]},"properties":{"code":"10008060014","name":"竹圍村","countyCode":"10008","countyName":"南投縣","townCode":"10008060","townName":"名間鄉","level":"village","unassigned":false,"note":"","label":[120.64212945244385,23.85851263065064],"bounds":[120.625248,23.84942,120.663772,23.864058],"focusBounds":[120.625248,23.84942,120.663772,23.864058],"color":"#68bec9"}},{"type":"Feature","id":"10008060015","geometry":{"type":"Polygon","coordinates":[[[120.644528,23.872166],[120.642671,23.872986],[120.641271,23.873362],[120.63967,23.873496],[120.636597,23.874112],[120.633759,23.874888],[120.633215,23.875167],[120.632887,23.876046],[120.632543,23.876289],[120.632247,23.876332],[120.631282,23.875941],[120.631021,23.874694],[120.629291,23.874665],[120.625751,23.875007],[120.625778,23.874249],[120.625572,23.873793],[120.625807,23.873464],[120.625399,23.872535],[120.624608,23.871585],[120.624217,23.8714],[120.623783,23.871474],[120.624221,23.870588],[120.623827,23.870095],[120.624053,23.869558],[120.62396,23.868924],[120.623859,23.868866],[120.623624,23.869229],[120.623254,23.869414],[120.62155,23.869833],[120.621389,23.869554],[120.621435,23.868862],[120.621251,23.868597],[120.620395,23.868803],[120.619931,23.868414],[120.619914,23.868285],[120.620624,23.867846],[120.620382,23.867506],[120.620342,23.866563],[120.620653,23.866335],[120.620059,23.865509],[120.620308,23.865124],[120.620525,23.865089],[120.620662,23.863636],[120.622087,23.863501],[120.622229,23.863186],[120.622755,23.863029],[120.622494,23.86254],[120.622866,23.862251],[120.623041,23.862391],[120.623147,23.862151],[120.623347,23.862219],[120.623548,23.861968],[120.623228,23.861634],[120.62326,23.860971],[120.622823,23.860554],[120.622271,23.86029],[120.62224,23.860121],[120.622586,23.860085],[120.623077,23.860457],[120.623432,23.860249],[120.623492,23.859948],[120.624456,23.859763],[120.62424,23.859173],[120.624868,23.858469],[120.625743,23.858696],[120.626032,23.858472],[120.625447,23.857707],[120.626554,23.858576],[120.626699,23.858367],[120.626576,23.85814],[120.626731,23.857926],[120.626678,23.857501],[120.627504,23.857673],[120.627805,23.857491],[120.627142,23.856608],[120.627048,23.856544],[120.629687,23.856555],[120.631429,23.85725],[120.632971,23.858726],[120.634571,23.859644],[120.637065,23.859614],[120.636982,23.86165],[120.637089,23.861878],[120.63674,23.863229],[120.637248,23.863424],[120.637895,23.864058],[120.636516,23.865475],[120.636791,23.86673],[120.637276,23.866926],[120.639999,23.867293],[120.640215,23.868359],[120.641161,23.86921],[120.641349,23.87099],[120.643821,23.870332],[120.644528,23.872166]]]},"properties":{"code":"10008060015","name":"赤水村","countyCode":"10008","countyName":"南投縣","townCode":"10008060","townName":"名間鄉","level":"village","unassigned":false,"note":"","label":[120.63005116121093,23.866808186805716],"bounds":[120.619914,23.856544,120.644528,23.876332],"focusBounds":[120.619914,23.856544,120.644528,23.876332],"color":"#df9f6a"}},{"type":"Feature","id":"10008060016","geometry":{"type":"Polygon","coordinates":[[[120.660984,23.84942],[120.644973,23.85314],[120.642824,23.853521],[120.642294,23.854012],[120.639831,23.855223],[120.639684,23.855877],[120.638391,23.856154],[120.638409,23.855192],[120.638018,23.854738],[120.636959,23.854789],[120.636408,23.854601],[120.635539,23.853772],[120.634568,23.853395],[120.633741,23.853447],[120.632942,23.853818],[120.631299,23.854923],[120.630902,23.854976],[120.629916,23.854772],[120.627291,23.853832],[120.625983,23.853167],[120.625794,23.852732],[120.625988,23.852327],[120.625859,23.851989],[120.625622,23.851971],[120.625002,23.852275],[120.624495,23.852262],[120.624485,23.851806],[120.624869,23.850978],[120.623756,23.850294],[120.623444,23.848898],[120.622958,23.849861],[120.622945,23.849043],[120.622709,23.848704],[120.622055,23.849028],[120.621794,23.849592],[120.621387,23.84939],[120.619434,23.849618],[120.620675,23.849086],[120.619597,23.848671],[120.62085,23.848529],[120.622928,23.847992],[120.623287,23.848148],[120.623628,23.847524],[120.623599,23.847067],[120.622995,23.846547],[120.622739,23.846521],[120.622422,23.846823],[120.621601,23.846581],[120.621862,23.846028],[120.621251,23.845638],[120.621426,23.844995],[120.62124,23.844488],[120.62063,23.844468],[120.620226,23.844199],[120.61941,23.844162],[120.618615,23.844642],[120.618276,23.844515],[120.618739,23.844018],[120.619362,23.843852],[120.619649,23.843513],[120.61832,23.84306],[120.61829,23.842585],[120.619612,23.842643],[120.619803,23.842513],[120.61968,23.842324],[120.618321,23.841415],[120.617501,23.841232],[120.616035,23.84117],[120.615975,23.840844],[120.615557,23.840607],[120.615582,23.840265],[120.616037,23.840538],[120.616769,23.840144],[120.616789,23.839958],[120.61634,23.839419],[120.616761,23.839004],[120.617026,23.839081],[120.617438,23.838756],[120.617133,23.838187],[120.616778,23.83799],[120.617177,23.837625],[120.61833,23.838969],[120.618596,23.839475],[120.618621,23.839755],[120.618358,23.840155],[120.618453,23.840379],[120.621122,23.841746],[120.621748,23.841344],[120.622138,23.840852],[120.621908,23.840621],[120.620937,23.84021],[120.620938,23.839364],[120.621614,23.839498],[120.622413,23.83995],[120.623011,23.839971],[120.621908,23.838744],[120.622408,23.838689],[120.622821,23.839076],[120.623973,23.839678],[120.624448,23.840551],[120.623725,23.841911],[120.623922,23.842275],[120.625416,23.843005],[120.626233,23.843761],[120.628676,23.845196],[120.629645,23.845431],[120.629871,23.845352],[120.629841,23.844517],[120.630125,23.843355],[120.630085,23.842969],[120.63057,23.841586],[120.631134,23.840834],[120.633936,23.841926],[120.634275,23.84248],[120.635185,23.843367],[120.636426,23.844018],[120.638316,23.844593],[120.638683,23.84457],[120.640657,23.84564],[120.641842,23.845954],[120.642323,23.845772],[120.643814,23.842281],[120.644474,23.842542],[120.645717,23.842489],[120.646115,23.842257],[120.647075,23.840668],[120.647746,23.840633],[120.649807,23.841873],[120.650427,23.84208],[120.650752,23.842033],[120.652294,23.843562],[120.653818,23.845582],[120.653859,23.845941],[120.655127,23.846334],[120.655847,23.846952],[120.656655,23.847385],[120.65714,23.847987],[120.658027,23.847885],[120.658991,23.848158],[120.659469,23.847929],[120.660984,23.84942]]]},"properties":{"code":"10008060016","name":"三崙村","countyCode":"10008","countyName":"南投縣","townCode":"10008060","townName":"名間鄉","level":"village","unassigned":false,"note":"","label":[120.63811873060547,23.84969405653596],"bounds":[120.615557,23.837625,120.660984,23.856154],"focusBounds":[120.615557,23.837625,120.660984,23.856154],"color":"#c38cb8"}},{"type":"Feature","id":"10008060017","geometry":{"type":"Polygon","coordinates":[[[120.631134,23.840834],[120.63057,23.841586],[120.630085,23.842969],[120.630125,23.843355],[120.629841,23.844517],[120.629871,23.845352],[120.629645,23.845431],[120.628676,23.845196],[120.626233,23.843761],[120.625416,23.843005],[120.623922,23.842275],[120.623725,23.841911],[120.624448,23.840551],[120.624758,23.840469],[120.625241,23.841281],[120.626125,23.841918],[120.626247,23.841688],[120.626087,23.84114],[120.626778,23.84083],[120.626324,23.840521],[120.626506,23.839883],[120.627072,23.839736],[120.627263,23.839299],[120.627661,23.839082],[120.628116,23.838458],[120.628899,23.838849],[120.629048,23.838775],[120.628687,23.838176],[120.628229,23.837849],[120.627412,23.837627],[120.625562,23.837653],[120.625541,23.83718],[120.624874,23.836854],[120.624924,23.836594],[120.625692,23.836847],[120.626415,23.836835],[120.626885,23.83718],[120.627342,23.837011],[120.629978,23.837345],[120.630134,23.837102],[120.629961,23.83686],[120.628273,23.835822],[120.629845,23.83589],[120.631059,23.835644],[120.630586,23.835225],[120.629105,23.834402],[120.630771,23.834698],[120.631298,23.834541],[120.632193,23.834605],[120.632653,23.834416],[120.633492,23.83443],[120.633647,23.834089],[120.633346,23.833822],[120.631442,23.833117],[120.630518,23.832934],[120.628437,23.832047],[120.627782,23.831924],[120.626818,23.832067],[120.625987,23.831758],[120.624943,23.831893],[120.624244,23.831749],[120.623962,23.831487],[120.623914,23.830767],[120.622961,23.830364],[120.623741,23.82935],[120.624306,23.829427],[120.625215,23.830091],[120.625874,23.830347],[120.626281,23.830866],[120.626671,23.830812],[120.627593,23.831327],[120.628131,23.831206],[120.62876,23.831732],[120.629252,23.831802],[120.630513,23.832428],[120.630797,23.832405],[120.630878,23.832243],[120.63042,23.831195],[120.633393,23.832963],[120.634851,23.833218],[120.636109,23.833092],[120.636489,23.832823],[120.637054,23.83279],[120.637315,23.832048],[120.638424,23.831549],[120.63845,23.831412],[120.636743,23.831463],[120.636047,23.831645],[120.634613,23.831334],[120.634353,23.831113],[120.636259,23.830929],[120.6369,23.830549],[120.637196,23.830555],[120.637362,23.830277],[120.636783,23.829997],[120.637193,23.829738],[120.637289,23.829406],[120.638064,23.829174],[120.638185,23.828917],[120.637239,23.828437],[120.636771,23.828037],[120.636496,23.828073],[120.636018,23.828483],[120.636045,23.827916],[120.636791,23.827501],[120.63748,23.827322],[120.638827,23.827597],[120.639455,23.827417],[120.639142,23.827128],[120.639133,23.826667],[120.638302,23.826355],[120.637727,23.826382],[120.638673,23.825925],[120.639914,23.825752],[120.64001,23.825115],[120.643782,23.824402],[120.643686,23.826382],[120.641528,23.828251],[120.640391,23.829535],[120.643295,23.83097],[120.6435,23.832255],[120.638999,23.83336],[120.63693,23.832995],[120.636656,23.833092],[120.636402,23.833943],[120.634877,23.834797],[120.634536,23.835164],[120.633223,23.838884],[120.631134,23.840834]]]},"properties":{"code":"10008060017","name":"松山村","countyCode":"10008","countyName":"南投縣","townCode":"10008060","townName":"名間鄉","level":"village","unassigned":false,"note":"","label":[120.63257168608136,23.83602388863984],"bounds":[120.622961,23.824402,120.643782,23.845431],"focusBounds":[120.622961,23.824402,120.643782,23.845431],"color":"#98b69b"}},{"type":"Feature","id":"10008060018","geometry":{"type":"Polygon","coordinates":[[[120.631134,23.840834],[120.633223,23.838884],[120.634536,23.835164],[120.634877,23.834797],[120.636402,23.833943],[120.636656,23.833092],[120.63693,23.832995],[120.638999,23.83336],[120.6435,23.832255],[120.644681,23.832737],[120.645503,23.832572],[120.646623,23.833423],[120.646682,23.833791],[120.646882,23.833902],[120.647143,23.833738],[120.647443,23.833831],[120.647423,23.834088],[120.647722,23.834421],[120.648023,23.834404],[120.648204,23.834201],[120.648323,23.83444],[120.648222,23.834864],[120.648783,23.834719],[120.648963,23.835031],[120.649223,23.834977],[120.649403,23.835143],[120.650354,23.835079],[120.650784,23.835755],[120.652048,23.836848],[120.653404,23.837055],[120.654015,23.836823],[120.654236,23.838485],[120.653164,23.83916],[120.652627,23.839638],[120.65224,23.840312],[120.651889,23.840512],[120.651348,23.840644],[120.650639,23.840274],[120.650463,23.840904],[120.65085,23.841798],[120.650752,23.842033],[120.650427,23.84208],[120.649807,23.841873],[120.647746,23.840633],[120.647075,23.840668],[120.646115,23.842257],[120.645717,23.842489],[120.644474,23.842542],[120.643814,23.842281],[120.642323,23.845772],[120.641842,23.845954],[120.640657,23.84564],[120.638683,23.84457],[120.638316,23.844593],[120.636426,23.844018],[120.635185,23.843367],[120.634275,23.84248],[120.633936,23.841926],[120.631134,23.840834]]]},"properties":{"code":"10008060018","name":"松柏村","countyCode":"10008","countyName":"南投縣","townCode":"10008060","townName":"名間鄉","level":"village","unassigned":false,"note":"","label":[120.6392444102045,23.83908664200409],"bounds":[120.631134,23.832255,120.654236,23.845954],"focusBounds":[120.631134,23.832255,120.654236,23.845954],"color":"#58b99d"}},{"type":"Feature","id":"10008060019","geometry":{"type":"Polygon","coordinates":[[[120.654015,23.836823],[120.653404,23.837055],[120.652048,23.836848],[120.650784,23.835755],[120.650354,23.835079],[120.649403,23.835143],[120.649223,23.834977],[120.648963,23.835031],[120.648783,23.834719],[120.648222,23.834864],[120.648323,23.83444],[120.648204,23.834201],[120.648023,23.834404],[120.647722,23.834421],[120.647423,23.834088],[120.647443,23.833831],[120.647143,23.833738],[120.646882,23.833902],[120.646682,23.833791],[120.646623,23.833423],[120.645503,23.832572],[120.644681,23.832737],[120.6435,23.832255],[120.643295,23.83097],[120.640391,23.829535],[120.641528,23.828251],[120.643686,23.826382],[120.643782,23.824402],[120.64001,23.825115],[120.637954,23.825379],[120.637022,23.825854],[120.636759,23.825755],[120.633864,23.825841],[120.636352,23.825539],[120.636684,23.825309],[120.636602,23.824809],[120.639192,23.824563],[120.638589,23.82399],[120.637823,23.823702],[120.637817,23.823415],[120.638494,23.823271],[120.63874,23.822633],[120.638346,23.822321],[120.637785,23.822173],[120.637715,23.821835],[120.637888,23.821697],[120.638197,23.821712],[120.639493,23.822132],[120.639736,23.821749],[120.640446,23.821471],[120.640469,23.821311],[120.639955,23.821114],[120.640151,23.820757],[120.639931,23.820327],[120.640693,23.820223],[120.641689,23.819823],[120.64387,23.818189],[120.644588,23.817551],[120.646566,23.817253],[120.647976,23.816638],[120.648754,23.816054],[120.649586,23.814795],[120.650065,23.814362],[120.650684,23.812842],[120.650917,23.812505],[120.651559,23.81242],[120.653327,23.81279],[120.655151,23.81276],[120.655453,23.813492],[120.654944,23.814089],[120.654858,23.814477],[120.654745,23.814608],[120.654322,23.814476],[120.653954,23.814631],[120.653982,23.81489],[120.654858,23.815452],[120.654685,23.815621],[120.65398,23.815516],[120.653867,23.815644],[120.654148,23.816087],[120.654063,23.816164],[120.652962,23.816109],[120.652962,23.816344],[120.653244,23.816473],[120.653158,23.816681],[120.653325,23.817313],[120.653805,23.817617],[120.653776,23.817903],[120.652083,23.817613],[120.6518,23.817716],[120.65273,23.818551],[120.6527,23.819174],[120.651627,23.819328],[120.651372,23.819767],[120.650919,23.820026],[120.650834,23.820312],[120.651114,23.820911],[120.650804,23.820883],[120.650548,23.821377],[120.650574,23.822208],[120.650319,23.822571],[120.650175,23.823661],[120.652668,23.824922],[120.653312,23.825088],[120.653714,23.825574],[120.655533,23.826124],[120.655913,23.826547],[120.656679,23.826992],[120.659736,23.828084],[120.659849,23.82861],[120.661995,23.829534],[120.662273,23.829749],[120.662319,23.829982],[120.661788,23.830391],[120.659834,23.830037],[120.659629,23.830199],[120.659615,23.830549],[120.659812,23.830773],[120.660828,23.831242],[120.661053,23.831451],[120.660911,23.831685],[120.659556,23.831734],[120.658848,23.832231],[120.657538,23.832777],[120.656787,23.832455],[120.655407,23.831075],[120.65391,23.830877],[120.653186,23.830332],[120.651461,23.829933],[120.649681,23.828831],[120.648709,23.828606],[120.647403,23.827601],[120.647148,23.827654],[120.647919,23.828209],[120.649559,23.830078],[120.651959,23.831028],[120.65098,23.834602],[120.651989,23.834891],[120.653168,23.835907],[120.653636,23.835994],[120.654015,23.836823]]]},"properties":{"code":"10008060019","name":"埔中村","countyCode":"10008","countyName":"南投縣","townCode":"10008060","townName":"名間鄉","level":"village","unassigned":false,"note":"","label":[120.64647033880426,23.821406958753176],"bounds":[120.633864,23.81242,120.662319,23.837055],"focusBounds":[120.633864,23.81242,120.662319,23.837055],"color":"#78a7e3"}},{"type":"Feature","id":"10008060020","geometry":{"type":"Polygon","coordinates":[[[120.676355,23.843602],[120.676356,23.843116],[120.676074,23.842687],[120.674657,23.841939],[120.670599,23.841406],[120.670081,23.841078],[120.66875,23.840865],[120.667192,23.840981],[120.66664,23.840861],[120.665927,23.84038],[120.66505,23.840618],[120.66385,23.840198],[120.663398,23.83942],[120.662814,23.839328],[120.662555,23.838971],[120.662558,23.838605],[120.661781,23.837385],[120.660731,23.837498],[120.660369,23.837409],[120.65977,23.837012],[120.658544,23.836786],[120.658443,23.83638],[120.657397,23.835892],[120.657079,23.835842],[120.656685,23.836441],[120.65621,23.836519],[120.655797,23.836412],[120.655267,23.836689],[120.654015,23.836823],[120.653636,23.835994],[120.653168,23.835907],[120.651989,23.834891],[120.65098,23.834602],[120.651959,23.831028],[120.649559,23.830078],[120.647919,23.828209],[120.647148,23.827654],[120.647403,23.827601],[120.648709,23.828606],[120.649681,23.828831],[120.651461,23.829933],[120.653186,23.830332],[120.65391,23.830877],[120.655407,23.831075],[120.656787,23.832455],[120.657538,23.832777],[120.658848,23.832231],[120.659556,23.831734],[120.660911,23.831685],[120.661053,23.831451],[120.660828,23.831242],[120.659812,23.830773],[120.659615,23.830549],[120.659629,23.830199],[120.659834,23.830037],[120.661788,23.830391],[120.662319,23.829982],[120.663521,23.829269],[120.664722,23.829242],[120.66631,23.830408],[120.667282,23.830889],[120.667061,23.83166],[120.667192,23.832074],[120.667853,23.83261],[120.667984,23.833001],[120.669596,23.833833],[120.670256,23.834832],[120.671657,23.835176],[120.672106,23.835543],[120.672237,23.836297],[120.672712,23.836955],[120.673584,23.837541],[120.674708,23.837688],[120.675335,23.838324],[120.67574,23.838268],[120.676149,23.838472],[120.677218,23.838888],[120.677258,23.839222],[120.677054,23.83954],[120.677255,23.84008],[120.678238,23.840754],[120.678617,23.841274],[120.678852,23.842079],[120.678717,23.842586],[120.678849,23.843776],[120.679146,23.844109],[120.679677,23.844243],[120.680588,23.844748],[120.679761,23.84506],[120.679163,23.844984],[120.678622,23.844575],[120.677346,23.844518],[120.676355,23.843602]]]},"properties":{"code":"10008060020","name":"崁腳村","countyCode":"10008","countyName":"南投縣","townCode":"10008060","townName":"名間鄉","level":"village","unassigned":false,"note":"","label":[120.66454518068942,23.834843406206993],"bounds":[120.647148,23.827601,120.680588,23.84506],"focusBounds":[120.647148,23.827601,120.680588,23.84506],"color":"#dd8590"}},{"type":"Feature","id":"10008060021","geometry":{"type":"Polygon","coordinates":[[[120.676355,23.843602],[120.675251,23.844236],[120.674087,23.844123],[120.673203,23.844344],[120.6727,23.844327],[120.671587,23.846126],[120.668742,23.848897],[120.667282,23.848806],[120.666661,23.84896],[120.663793,23.850654],[120.663609,23.851211],[120.66439,23.854418],[120.664641,23.854906],[120.663772,23.855914],[120.662354,23.853892],[120.661602,23.851791],[120.660984,23.84942],[120.659469,23.847929],[120.658991,23.848158],[120.658027,23.847885],[120.65714,23.847987],[120.656655,23.847385],[120.655847,23.846952],[120.655127,23.846334],[120.653859,23.845941],[120.653818,23.845582],[120.652294,23.843562],[120.650752,23.842033],[120.65085,23.841798],[120.650463,23.840904],[120.650639,23.840274],[120.651348,23.840644],[120.651889,23.840512],[120.65224,23.840312],[120.652627,23.839638],[120.653164,23.83916],[120.654236,23.838485],[120.654015,23.836823],[120.655267,23.836689],[120.655797,23.836412],[120.65621,23.836519],[120.656685,23.836441],[120.657079,23.835842],[120.657397,23.835892],[120.658443,23.83638],[120.658544,23.836786],[120.65977,23.837012],[120.660369,23.837409],[120.660731,23.837498],[120.661781,23.837385],[120.662558,23.838605],[120.662555,23.838971],[120.662814,23.839328],[120.663398,23.83942],[120.66385,23.840198],[120.66505,23.840618],[120.665927,23.84038],[120.66664,23.840861],[120.667192,23.840981],[120.66875,23.840865],[120.670081,23.841078],[120.670599,23.841406],[120.674657,23.841939],[120.676074,23.842687],[120.676356,23.843116],[120.676355,23.843602]]]},"properties":{"code":"10008060021","name":"新厝村","countyCode":"10008","countyName":"南投縣","townCode":"10008060","townName":"名間鄉","level":"village","unassigned":false,"note":"","label":[120.66338899881424,23.8450393492228],"bounds":[120.650463,23.835842,120.676356,23.855914],"focusBounds":[120.650463,23.835842,120.676356,23.855914],"color":"#a8bf62"}},{"type":"Feature","id":"10008060022","geometry":{"type":"Polygon","coordinates":[[[120.683641,23.865627],[120.682991,23.865711],[120.681919,23.865481],[120.681383,23.865062],[120.681071,23.864933],[120.680373,23.865022],[120.679802,23.864591],[120.678497,23.864544],[120.678001,23.864714],[120.676641,23.864235],[120.674804,23.864245],[120.67464,23.864156],[120.674723,23.863815],[120.673731,23.863612],[120.673219,23.863223],[120.672602,23.862348],[120.671056,23.861776],[120.670398,23.861188],[120.669655,23.861109],[120.669263,23.861298],[120.668747,23.861222],[120.668066,23.861467],[120.667571,23.861351],[120.668441,23.859854],[120.668154,23.859399],[120.666857,23.858011],[120.666259,23.858048],[120.664654,23.856861],[120.663772,23.855914],[120.664641,23.854906],[120.66439,23.854418],[120.663609,23.851211],[120.663793,23.850654],[120.666661,23.84896],[120.667282,23.848806],[120.668742,23.848897],[120.671587,23.846126],[120.6727,23.844327],[120.673203,23.844344],[120.674087,23.844123],[120.675251,23.844236],[120.676355,23.843602],[120.677346,23.844518],[120.678622,23.844575],[120.679163,23.844984],[120.679761,23.84506],[120.680588,23.844748],[120.68102,23.844778],[120.681803,23.845141],[120.682449,23.845926],[120.685611,23.848488],[120.686173,23.850654],[120.687322,23.8519],[120.688799,23.852156],[120.689186,23.853845],[120.689142,23.855592],[120.688738,23.856592],[120.686948,23.858432],[120.686843,23.8594],[120.686037,23.85995],[120.686082,23.860239],[120.686757,23.860822],[120.686758,23.86152],[120.686553,23.861768],[120.685227,23.862262],[120.68397,23.861936],[120.683515,23.862163],[120.683411,23.862637],[120.683622,23.863367],[120.683641,23.865627]]]},"properties":{"code":"10008060022","name":"新光村","countyCode":"10008","countyName":"南投縣","townCode":"10008060","townName":"名間鄉","level":"village","unassigned":false,"note":"","label":[120.67681890275834,23.854164078702055],"bounds":[120.663609,23.843602,120.689186,23.865711],"focusBounds":[120.663609,23.843602,120.689186,23.865711],"color":"#a49ad4"}},{"type":"Feature","id":"10008060023","geometry":{"type":"Polygon","coordinates":[[[120.731005,23.864024],[120.73056,23.863789],[120.728892,23.863795],[120.72786,23.863303],[120.727244,23.863277],[120.726561,23.863815],[120.725963,23.864024],[120.723206,23.863827],[120.721225,23.864241],[120.720607,23.865173],[120.720322,23.865233],[120.72,23.865147],[120.719576,23.864284],[120.719358,23.864238],[120.717859,23.865046],[120.716712,23.865159],[120.716134,23.865042],[120.715983,23.864774],[120.716801,23.863484],[120.716868,23.863145],[120.716157,23.863205],[120.714965,23.86253],[120.714074,23.86233],[120.713668,23.861954],[120.713194,23.861777],[120.712133,23.861829],[120.710871,23.860288],[120.709325,23.85928],[120.706841,23.858607],[120.70603,23.85987],[120.705664,23.86009],[120.705382,23.857153],[120.705491,23.855629],[120.705305,23.855311],[120.705368,23.854735],[120.7051,23.854292],[120.703441,23.852666],[120.702565,23.852046],[120.703509,23.848607],[120.703365,23.847638],[120.704128,23.846186],[120.705912,23.845733],[120.706643,23.845681],[120.707396,23.845795],[120.708104,23.846115],[120.70942,23.84625],[120.710414,23.846171],[120.711994,23.845799],[120.716481,23.845406],[120.719147,23.844623],[120.72152,23.843632],[120.723163,23.843292],[120.724731,23.843552],[120.725644,23.844034],[120.72728,23.845479],[120.727059,23.845467],[120.726565,23.846061],[120.726638,23.846801],[120.725862,23.847942],[120.726006,23.848584],[120.725871,23.849693],[120.72542,23.850066],[120.725763,23.850298],[120.725913,23.85065],[120.726507,23.850656],[120.726942,23.850974],[120.727408,23.851101],[120.727786,23.850819],[120.728324,23.850826],[120.730445,23.85142],[120.730923,23.851313],[120.731562,23.851512],[120.731852,23.851449],[120.732678,23.851785],[120.733305,23.852076],[120.734504,23.853056],[120.734611,23.853375],[120.734368,23.854326],[120.734979,23.855275],[120.736167,23.855376],[120.736513,23.855523],[120.736479,23.856527],[120.736744,23.857402],[120.736741,23.858378],[120.737206,23.858754],[120.736736,23.859016],[120.736819,23.859702],[120.736712,23.859878],[120.736501,23.860007],[120.735897,23.860021],[120.735462,23.860334],[120.735025,23.860406],[120.733984,23.86098],[120.733786,23.861316],[120.733691,23.861855],[120.734513,23.862762],[120.734634,23.863347],[120.732864,23.863129],[120.731885,23.863215],[120.731205,23.863485],[120.731005,23.864024]]]},"properties":{"code":"10008060023","name":"仁和村","countyCode":"10008","countyName":"南投縣","townCode":"10008060","townName":"名間鄉","level":"village","unassigned":false,"note":"","label":[120.71744522082689,23.854114762768134],"bounds":[120.702565,23.843292,120.737206,23.865233],"focusBounds":[120.702565,23.843292,120.737206,23.865233],"color":"#a8bf62"}}]}
