{"type":"FeatureCollection","features":[{"type":"Feature","id":"10007120001","geometry":{"type":"Polygon","coordinates":[[[120.623628,23.847524],[120.61999,23.847548],[120.614847,23.847081],[120.61384,23.847068],[120.613418,23.84728],[120.609125,23.847297],[120.604362,23.849889],[120.604132,23.849603],[120.602736,23.849842],[120.600455,23.849437],[120.600549,23.848554],[120.598248,23.848061],[120.597899,23.847798],[120.597519,23.846866],[120.596594,23.846277],[120.599654,23.838782],[120.600443,23.837434],[120.601107,23.837055],[120.602252,23.837752],[120.602458,23.838186],[120.602836,23.838517],[120.602835,23.838142],[120.603121,23.837653],[120.604897,23.835265],[120.605536,23.834847],[120.606378,23.835454],[120.606387,23.836072],[120.608148,23.836985],[120.60896,23.837163],[120.610504,23.838576],[120.611603,23.8389],[120.612437,23.838902],[120.615557,23.840607],[120.615975,23.840844],[120.616035,23.84117],[120.617501,23.841232],[120.618321,23.841415],[120.61968,23.842324],[120.619803,23.842513],[120.619612,23.842643],[120.61829,23.842585],[120.61832,23.84306],[120.619649,23.843513],[120.619362,23.843852],[120.618739,23.844018],[120.618276,23.844515],[120.618615,23.844642],[120.61941,23.844162],[120.620226,23.844199],[120.62063,23.844468],[120.62124,23.844488],[120.621426,23.844995],[120.621251,23.845638],[120.621862,23.846028],[120.621601,23.846581],[120.622422,23.846823],[120.622739,23.846521],[120.622995,23.846547],[120.623599,23.847067],[120.623628,23.847524]]]},"properties":{"code":"10007120001","name":"香山里","countyCode":"10007","countyName":"彰化縣","townCode":"10007120","townName":"田中鎮","level":"village","unassigned":false,"note":"","label":[120.60673129897995,23.842425213371513],"bounds":[120.596594,23.834847,120.623628,23.849889],"focusBounds":[120.596594,23.834847,120.623628,23.849889],"color":"#78a7e3"}},{"type":"Feature","id":"10007120002","geometry":{"type":"Polygon","coordinates":[[[120.627142,23.856608],[120.627805,23.857491],[120.627504,23.857673],[120.626678,23.857501],[120.626003,23.857255],[120.62003,23.856561],[120.61643,23.856373],[120.615575,23.856176],[120.613874,23.854994],[120.613019,23.854821],[120.610516,23.855039],[120.609837,23.855567],[120.608049,23.855547],[120.606484,23.853825],[120.605839,23.854011],[120.605631,23.854485],[120.605028,23.854516],[120.605142,23.85403],[120.605536,23.853543],[120.604938,23.853589],[120.604634,23.853372],[120.604262,23.853703],[120.603909,23.853172],[120.60346,23.854036],[120.602752,23.853485],[120.602727,23.853307],[120.601852,23.853116],[120.60078,23.853267],[120.600296,23.851514],[120.599929,23.851174],[120.598872,23.850887],[120.599993,23.850669],[120.600264,23.849395],[120.600455,23.849437],[120.602736,23.849842],[120.604132,23.849603],[120.604362,23.849889],[120.609125,23.847297],[120.613418,23.84728],[120.61384,23.847068],[120.614847,23.847081],[120.61999,23.847548],[120.623628,23.847524],[120.623287,23.848148],[120.622928,23.847992],[120.62085,23.848529],[120.619597,23.848671],[120.620675,23.849086],[120.619434,23.849618],[120.621387,23.84939],[120.621794,23.849592],[120.622055,23.849028],[120.622709,23.848704],[120.622945,23.849043],[120.622958,23.849861],[120.623444,23.848898],[120.623756,23.850294],[120.624869,23.850978],[120.624485,23.851806],[120.624495,23.852262],[120.625002,23.852275],[120.625622,23.851971],[120.625859,23.851989],[120.625988,23.852327],[120.625794,23.852732],[120.625983,23.853167],[120.625877,23.853345],[120.62615,23.853627],[120.626089,23.853913],[120.626232,23.854233],[120.625248,23.855182],[120.625652,23.855088],[120.626049,23.854718],[120.626267,23.85475],[120.626479,23.855256],[120.626091,23.855824],[120.626308,23.856213],[120.626631,23.85619],[120.62676,23.856332],[120.627044,23.856543],[120.627142,23.856608]]]},"properties":{"code":"10007120002","name":"碧峰里","countyCode":"10007","countyName":"彰化縣","townCode":"10007120","townName":"田中鎮","level":"village","unassigned":false,"note":"","label":[120.61425281804158,23.851165460523283],"bounds":[120.598872,23.847068,120.627805,23.857673],"focusBounds":[120.598872,23.847068,120.627805,23.857673],"color":"#dd8590"}},{"type":"Feature","id":"10007120003","geometry":{"type":"Polygon","coordinates":[[[120.626678,23.857501],[120.626731,23.857926],[120.626576,23.85814],[120.626699,23.858367],[120.626554,23.858576],[120.625447,23.857707],[120.626032,23.858472],[120.625743,23.858696],[120.624868,23.858469],[120.62424,23.859173],[120.624456,23.859763],[120.623492,23.859948],[120.623432,23.860249],[120.623077,23.860457],[120.622586,23.860085],[120.62224,23.860121],[120.622271,23.86029],[120.622823,23.860554],[120.62326,23.860971],[120.623228,23.861634],[120.623548,23.861968],[120.623347,23.862219],[120.623147,23.862151],[120.623041,23.862391],[120.622866,23.862251],[120.622494,23.86254],[120.622755,23.863029],[120.622229,23.863186],[120.622087,23.863501],[120.620662,23.863636],[120.620525,23.865089],[120.619056,23.864532],[120.610856,23.860745],[120.609996,23.860694],[120.610538,23.860443],[120.610469,23.859879],[120.611293,23.859551],[120.611547,23.859221],[120.609934,23.858299],[120.608585,23.859656],[120.606661,23.859547],[120.604803,23.859091],[120.603495,23.859308],[120.602879,23.859277],[120.602193,23.85953],[120.601351,23.85947],[120.600953,23.859953],[120.600155,23.860363],[120.599921,23.860306],[120.600062,23.860003],[120.599884,23.85974],[120.599648,23.858412],[120.599781,23.857833],[120.599608,23.857525],[120.599837,23.857148],[120.60078,23.853267],[120.601852,23.853116],[120.602727,23.853307],[120.602752,23.853485],[120.60346,23.854036],[120.603909,23.853172],[120.604262,23.853703],[120.604634,23.853372],[120.604938,23.853589],[120.605536,23.853543],[120.605142,23.85403],[120.605028,23.854516],[120.605631,23.854485],[120.605839,23.854011],[120.606484,23.853825],[120.608049,23.855547],[120.609837,23.855567],[120.610516,23.855039],[120.613019,23.854821],[120.613874,23.854994],[120.615575,23.856176],[120.61643,23.856373],[120.62003,23.856561],[120.626003,23.857255],[120.626678,23.857501]]]},"properties":{"code":"10007120003","name":"東源里","countyCode":"10007","countyName":"彰化縣","townCode":"10007120","townName":"田中鎮","level":"village","unassigned":false,"note":"","label":[120.61508553005947,23.85926722548774],"bounds":[120.599608,23.853116,120.626731,23.865089],"focusBounds":[120.599608,23.853116,120.626731,23.865089],"color":"#a49ad4"}},{"type":"Feature","id":"10007120004","geometry":{"type":"Polygon","coordinates":[[[120.619931,23.868414],[120.61802,23.868975],[120.615914,23.869024],[120.613388,23.869845],[120.612185,23.870048],[120.611315,23.870545],[120.610612,23.870586],[120.610093,23.870386],[120.608444,23.869262],[120.607125,23.869615],[120.606447,23.869305],[120.605074,23.86933],[120.602763,23.871066],[120.601633,23.871522],[120.598184,23.871312],[120.596902,23.870973],[120.59488,23.870717],[120.596766,23.865771],[120.597614,23.863981],[120.594809,23.862729],[120.596041,23.859969],[120.596486,23.859156],[120.596933,23.85875],[120.59869,23.858133],[120.599608,23.857525],[120.599781,23.857833],[120.599648,23.858412],[120.599884,23.85974],[120.600062,23.860003],[120.599921,23.860306],[120.600155,23.860363],[120.600953,23.859953],[120.601351,23.85947],[120.602193,23.85953],[120.602879,23.859277],[120.603495,23.859308],[120.604803,23.859091],[120.606661,23.859547],[120.608585,23.859656],[120.609934,23.858299],[120.611547,23.859221],[120.611293,23.859551],[120.610469,23.859879],[120.610538,23.860443],[120.609996,23.860694],[120.610856,23.860745],[120.619056,23.864532],[120.620525,23.865089],[120.620308,23.865124],[120.620059,23.865509],[120.620653,23.866335],[120.620342,23.866563],[120.620382,23.867506],[120.620624,23.867846],[120.619914,23.868285],[120.619931,23.868414]]]},"properties":{"code":"10007120004","name":"復興里","countyCode":"10007","countyName":"彰化縣","townCode":"10007120","townName":"田中鎮","level":"village","unassigned":false,"note":"","label":[120.6064772461391,23.864410401346888],"bounds":[120.594809,23.857525,120.620653,23.871522],"focusBounds":[120.594809,23.857525,120.620653,23.871522],"color":"#68bec9"}},{"type":"Feature","id":"10007120005","geometry":{"type":"Polygon","coordinates":[[[120.624825,23.877069],[120.623928,23.877196],[120.622747,23.877698],[120.621164,23.877706],[120.618219,23.878711],[120.61737,23.879393],[120.615237,23.879714],[120.612561,23.880538],[120.611458,23.880554],[120.609108,23.880286],[120.608082,23.880473],[120.607163,23.880091],[120.605291,23.880061],[120.604778,23.881075],[120.601749,23.881344],[120.598088,23.881335],[120.596962,23.882339],[120.596733,23.883052],[120.596486,23.883222],[120.594118,23.882991],[120.592707,23.88261],[120.592922,23.88191],[120.592552,23.879913],[120.592917,23.877006],[120.593215,23.875074],[120.593933,23.87356],[120.59448,23.871603],[120.59488,23.870717],[120.596902,23.870973],[120.598184,23.871312],[120.601633,23.871522],[120.602763,23.871066],[120.605074,23.86933],[120.606447,23.869305],[120.607125,23.869615],[120.608444,23.869262],[120.610093,23.870386],[120.610612,23.870586],[120.611315,23.870545],[120.612185,23.870048],[120.613388,23.869845],[120.615914,23.869024],[120.61802,23.868975],[120.619931,23.868414],[120.620395,23.868803],[120.621251,23.868597],[120.621435,23.868862],[120.621389,23.869554],[120.62155,23.869833],[120.623254,23.869414],[120.623624,23.869229],[120.623859,23.868866],[120.62396,23.868924],[120.624053,23.869558],[120.623827,23.870095],[120.624221,23.870588],[120.623783,23.871474],[120.624217,23.8714],[120.624608,23.871585],[120.625399,23.872535],[120.625807,23.873464],[120.625572,23.873793],[120.625778,23.874249],[120.625751,23.875007],[120.625767,23.875244],[120.625517,23.875495],[120.625307,23.876084],[120.624965,23.876156],[120.624825,23.877069]]]},"properties":{"code":"10007120005","name":"平和里","countyCode":"10007","countyName":"彰化縣","townCode":"10007120","townName":"田中鎮","level":"village","unassigned":false,"note":"","label":[120.6070435244131,23.874833733446117],"bounds":[120.592552,23.868414,120.625807,23.883222],"focusBounds":[120.592552,23.868414,120.625807,23.883222],"color":"#c38cb8"}},{"type":"Feature","id":"10007120006","geometry":{"type":"Polygon","coordinates":[[[120.592917,23.877006],[120.589741,23.877085],[120.587351,23.876854],[120.585166,23.876839],[120.586103,23.872969],[120.587254,23.872518],[120.587648,23.87166],[120.588645,23.870975],[120.589388,23.869631],[120.590188,23.869259],[120.591733,23.867916],[120.592639,23.867839],[120.595024,23.866036],[120.594809,23.862729],[120.597614,23.863981],[120.596766,23.865771],[120.59488,23.870717],[120.59448,23.871603],[120.593933,23.87356],[120.593215,23.875074],[120.592917,23.877006]]]},"properties":{"code":"10007120006","name":"頂潭里","countyCode":"10007","countyName":"彰化縣","townCode":"10007120","townName":"田中鎮","level":"village","unassigned":false,"note":"","label":[120.59131953680357,23.872095094948428],"bounds":[120.585166,23.862729,120.597614,23.877085],"focusBounds":[120.585166,23.862729,120.597614,23.877085],"color":"#df9f6a"}},{"type":"Feature","id":"10007120007","geometry":{"type":"Polygon","coordinates":[[[120.585166,23.876839],[120.583296,23.876525],[120.583378,23.876124],[120.582748,23.87593],[120.582053,23.877145],[120.579353,23.875496],[120.579867,23.873961],[120.58195,23.872621],[120.582488,23.871643],[120.582591,23.870154],[120.582239,23.869028],[120.582496,23.86846],[120.582135,23.868603],[120.581877,23.868342],[120.582068,23.867945],[120.581693,23.867556],[120.581533,23.86762],[120.581348,23.86746],[120.581219,23.867155],[120.581332,23.866708],[120.58097,23.866713],[120.580814,23.866439],[120.580737,23.86543],[120.583958,23.863683],[120.584068,23.86522],[120.583625,23.866536],[120.584964,23.866909],[120.586155,23.865741],[120.587542,23.864983],[120.589889,23.865295],[120.590684,23.865098],[120.593307,23.865076],[120.59386,23.864595],[120.594809,23.862729],[120.595024,23.866036],[120.592639,23.867839],[120.591733,23.867916],[120.590188,23.869259],[120.589388,23.869631],[120.588645,23.870975],[120.587648,23.87166],[120.587254,23.872518],[120.586103,23.872969],[120.585166,23.876839]]]},"properties":{"code":"10007120007","name":"中潭里","countyCode":"10007","countyName":"彰化縣","townCode":"10007120","townName":"田中鎮","level":"village","unassigned":false,"note":"","label":[120.58549299116473,23.869870202044574],"bounds":[120.579353,23.862729,120.595024,23.877145],"focusBounds":[120.579353,23.862729,120.595024,23.877145],"color":"#c38cb8"}},{"type":"Feature","id":"10007120008","geometry":{"type":"Polygon","coordinates":[[[120.579353,23.875496],[120.578838,23.876021],[120.577026,23.876577],[120.57617,23.877095],[120.574383,23.876691],[120.57336,23.876105],[120.572984,23.876093],[120.572525,23.875857],[120.571907,23.875862],[120.571292,23.875609],[120.574736,23.870018],[120.572833,23.867906],[120.577665,23.864124],[120.578699,23.864042],[120.580224,23.863223],[120.580452,23.863941],[120.580487,23.865585],[120.580737,23.86543],[120.580814,23.866439],[120.58097,23.866713],[120.581332,23.866708],[120.581219,23.867155],[120.581348,23.86746],[120.581533,23.86762],[120.581693,23.867556],[120.582068,23.867945],[120.581877,23.868342],[120.582135,23.868603],[120.582496,23.86846],[120.582239,23.869028],[120.582591,23.870154],[120.582488,23.871643],[120.58195,23.872621],[120.579867,23.873961],[120.579353,23.875496]]]},"properties":{"code":"10007120008","name":"龍潭里","countyCode":"10007","countyName":"彰化縣","townCode":"10007120","townName":"田中鎮","level":"village","unassigned":false,"note":"","label":[120.57844959206955,23.870357810297175],"bounds":[120.571292,23.863223,120.582591,23.877095],"focusBounds":[120.571292,23.863223,120.582591,23.877095],"color":"#98b69b"}},{"type":"Feature","id":"10007120009","geometry":{"type":"Polygon","coordinates":[[[120.594809,23.862729],[120.59386,23.864595],[120.593307,23.865076],[120.590684,23.865098],[120.589889,23.865295],[120.587542,23.864983],[120.586155,23.865741],[120.584964,23.866909],[120.583625,23.866536],[120.584068,23.86522],[120.583958,23.863683],[120.58509,23.862802],[120.587652,23.860762],[120.586869,23.860589],[120.587674,23.859918],[120.588585,23.859643],[120.588999,23.859764],[120.589644,23.859255],[120.589698,23.860127],[120.590577,23.860567],[120.591321,23.858883],[120.592527,23.859363],[120.592727,23.858898],[120.596041,23.859969],[120.594809,23.862729]]]},"properties":{"code":"10007120009","name":"北路里","countyCode":"10007","countyName":"彰化縣","townCode":"10007120","townName":"田中鎮","level":"village","unassigned":false,"note":"","label":[120.58984184552075,23.86274416054874],"bounds":[120.583625,23.858883,120.596041,23.866909],"focusBounds":[120.583625,23.858883,120.596041,23.866909],"color":"#58b99d"}},{"type":"Feature","id":"10007120010","geometry":{"type":"Polygon","coordinates":[[[120.580737,23.86543],[120.580487,23.865585],[120.580452,23.863941],[120.580224,23.863223],[120.579712,23.861604],[120.581221,23.861085],[120.580925,23.859005],[120.582956,23.858902],[120.582963,23.860486],[120.584026,23.860155],[120.583399,23.859236],[120.583477,23.85856],[120.584105,23.858182],[120.584212,23.857632],[120.585779,23.85783],[120.585124,23.860224],[120.584926,23.86241],[120.58509,23.862802],[120.583958,23.863683],[120.580737,23.86543]]]},"properties":{"code":"10007120010","name":"西路里","countyCode":"10007","countyName":"彰化縣","townCode":"10007120","townName":"田中鎮","level":"village","unassigned":false,"note":"","label":[120.58271094723699,23.862326205441164],"bounds":[120.579712,23.857632,120.585779,23.865585],"focusBounds":[120.579712,23.857632,120.585779,23.865585],"color":"#efb44f"}},{"type":"Feature","id":"10007120011","geometry":{"type":"Polygon","coordinates":[[[120.587674,23.859918],[120.586869,23.860589],[120.587652,23.860762],[120.58509,23.862802],[120.584926,23.86241],[120.585124,23.860224],[120.585779,23.85783],[120.58743,23.858014],[120.587115,23.858506],[120.587672,23.859063],[120.58768,23.85933],[120.587828,23.859426],[120.587674,23.859918]]]},"properties":{"code":"10007120011","name":"東路里","countyCode":"10007","countyName":"彰化縣","townCode":"10007120","townName":"田中鎮","level":"village","unassigned":false,"note":"","label":[120.58640872273739,23.859577323041584],"bounds":[120.584926,23.85783,120.587828,23.862802],"focusBounds":[120.584926,23.85783,120.587828,23.862802],"color":"#78a7e3"}},{"type":"Feature","id":"10007120012","geometry":{"type":"Polygon","coordinates":[[[120.593518,23.853591],[120.590035,23.853182],[120.589215,23.856256],[120.588541,23.856186],[120.588818,23.857277],[120.589028,23.857368],[120.588902,23.858039],[120.587507,23.857893],[120.58743,23.858014],[120.585779,23.85783],[120.584212,23.857632],[120.584239,23.857329],[120.585373,23.856845],[120.585633,23.856173],[120.586361,23.855867],[120.586904,23.855107],[120.587017,23.854223],[120.58731,23.853465],[120.588092,23.852925],[120.588819,23.851879],[120.589756,23.851084],[120.589696,23.849191],[120.590177,23.84795],[120.591,23.847767],[120.592806,23.847854],[120.593097,23.847474],[120.59595,23.847579],[120.593518,23.853591]]]},"properties":{"code":"10007120012","name":"南路里","countyCode":"10007","countyName":"彰化縣","townCode":"10007120","townName":"田中鎮","level":"village","unassigned":false,"note":"","label":[120.59213828381631,23.850625315867568],"bounds":[120.584212,23.847474,120.59595,23.858039],"focusBounds":[120.584212,23.847474,120.59595,23.858039],"color":"#dd8590"}},{"type":"Feature","id":"10007120013","geometry":{"type":"Polygon","coordinates":[[[120.591321,23.858883],[120.590577,23.860567],[120.589698,23.860127],[120.589644,23.859255],[120.588999,23.859764],[120.588585,23.859643],[120.587674,23.859918],[120.587828,23.859426],[120.58768,23.85933],[120.587672,23.859063],[120.587115,23.858506],[120.58743,23.858014],[120.587507,23.857893],[120.588902,23.858039],[120.589028,23.857368],[120.588818,23.857277],[120.588541,23.856186],[120.589215,23.856256],[120.590035,23.853182],[120.593518,23.853591],[120.591321,23.858883]]]},"properties":{"code":"10007120013","name":"中路里","countyCode":"10007","countyName":"彰化縣","townCode":"10007120","townName":"田中鎮","level":"village","unassigned":false,"note":"","label":[120.59070033449726,23.85648317316921],"bounds":[120.587115,23.853182,120.593518,23.860567],"focusBounds":[120.587115,23.853182,120.593518,23.860567],"color":"#a49ad4"}},{"type":"Feature","id":"10007120014","geometry":{"type":"Polygon","coordinates":[[[120.599608,23.857525],[120.59869,23.858133],[120.596933,23.85875],[120.596486,23.859156],[120.596041,23.859969],[120.592727,23.858898],[120.592527,23.859363],[120.591321,23.858883],[120.593518,23.853591],[120.59595,23.847579],[120.596594,23.846277],[120.597519,23.846866],[120.597899,23.847798],[120.598248,23.848061],[120.600549,23.848554],[120.600455,23.849437],[120.600264,23.849395],[120.599993,23.850669],[120.598872,23.850887],[120.599929,23.851174],[120.600296,23.851514],[120.60078,23.853267],[120.599837,23.857148],[120.599608,23.857525]]]},"properties":{"code":"10007120014","name":"新庄里","countyCode":"10007","countyName":"彰化縣","townCode":"10007120","townName":"田中鎮","level":"village","unassigned":false,"note":"","label":[120.59695280166343,23.854343795161004],"bounds":[120.591321,23.846277,120.60078,23.859969],"focusBounds":[120.591321,23.846277,120.60078,23.859969],"color":"#a8bf62"}},{"type":"Feature","id":"10007120015","geometry":{"type":"Polygon","coordinates":[[[120.590177,23.84795],[120.588597,23.848],[120.588303,23.848195],[120.586481,23.848207],[120.585778,23.847862],[120.585093,23.84708],[120.583564,23.843764],[120.582514,23.842378],[120.58025,23.839997],[120.585045,23.834748],[120.586668,23.833232],[120.592321,23.83663],[120.593998,23.836888],[120.596397,23.837031],[120.595517,23.838491],[120.595318,23.83922],[120.595637,23.83913],[120.596347,23.838191],[120.596947,23.837666],[120.59783,23.838075],[120.59826,23.838064],[120.599056,23.837646],[120.599839,23.837643],[120.600407,23.837448],[120.600443,23.837434],[120.599654,23.838782],[120.596594,23.846277],[120.59595,23.847579],[120.593097,23.847474],[120.592806,23.847854],[120.591,23.847767],[120.590177,23.84795]]]},"properties":{"code":"10007120015","name":"三安里","countyCode":"10007","countyName":"彰化縣","townCode":"10007120","townName":"田中鎮","level":"village","unassigned":false,"note":"","label":[120.58979087009139,23.842112594507782],"bounds":[120.58025,23.833232,120.600443,23.848207],"focusBounds":[120.58025,23.833232,120.600443,23.848207],"color":"#68bec9"}},{"type":"Feature","id":"10007120016","geometry":{"type":"Polygon","coordinates":[[[120.596397,23.837031],[120.593998,23.836888],[120.592321,23.83663],[120.586668,23.833232],[120.585045,23.834748],[120.58025,23.839997],[120.580491,23.837297],[120.579908,23.836891],[120.579272,23.836866],[120.579231,23.836614],[120.574492,23.833067],[120.580718,23.826143],[120.583142,23.828078],[120.587743,23.82324],[120.59172,23.82019],[120.593628,23.819631],[120.595995,23.81928],[120.601831,23.820577],[120.602805,23.819899],[120.603833,23.818782],[120.604344,23.819428],[120.604065,23.819569],[120.603928,23.820118],[120.603027,23.821996],[120.601907,23.823273],[120.601487,23.82583],[120.601165,23.826053],[120.600283,23.825884],[120.599768,23.828162],[120.600078,23.830023],[120.59939,23.830943],[120.59829,23.830902],[120.598035,23.831038],[120.597924,23.831958],[120.5982,23.832775],[120.59832,23.834828],[120.597958,23.835394],[120.597227,23.835844],[120.596397,23.837031]]]},"properties":{"code":"10007120016","name":"大崙里","countyCode":"10007","countyName":"彰化縣","townCode":"10007120","townName":"田中鎮","level":"village","unassigned":false,"note":"","label":[120.59167401919075,23.828911442988797],"bounds":[120.574492,23.818782,120.604344,23.839997],"focusBounds":[120.574492,23.818782,120.604344,23.839997],"color":"#98b69b"}},{"type":"Feature","id":"10007120017","geometry":{"type":"Polygon","coordinates":[[[120.585778,23.847862],[120.584461,23.849733],[120.584075,23.849685],[120.582663,23.852078],[120.581995,23.852589],[120.580584,23.85618],[120.580529,23.856749],[120.578767,23.856366],[120.575397,23.854251],[120.573176,23.851764],[120.569107,23.847205],[120.568442,23.846467],[120.566701,23.847229],[120.565434,23.847595],[120.561535,23.848134],[120.560044,23.84818],[120.558373,23.848849],[120.559097,23.847323],[120.56277,23.843269],[120.567047,23.838689],[120.57224,23.833024],[120.57249,23.835228],[120.574492,23.833067],[120.579231,23.836614],[120.579272,23.836866],[120.579908,23.836891],[120.580491,23.837297],[120.58025,23.839997],[120.582514,23.842378],[120.583564,23.843764],[120.585093,23.84708],[120.585778,23.847862]]]},"properties":{"code":"10007120017","name":"沙崙里","countyCode":"10007","countyName":"彰化縣","townCode":"10007120","townName":"田中鎮","level":"village","unassigned":false,"note":"","label":[120.57448771539583,23.84315187522278],"bounds":[120.558373,23.833024,120.585778,23.856749],"focusBounds":[120.558373,23.833024,120.585778,23.856749],"color":"#c38cb8"}},{"type":"Feature","id":"10007120018","geometry":{"type":"Polygon","coordinates":[[[120.584239,23.857329],[120.58412,23.857209],[120.583332,23.857172],[120.58317,23.857452],[120.580529,23.856749],[120.580584,23.85618],[120.581995,23.852589],[120.582663,23.852078],[120.584075,23.849685],[120.584461,23.849733],[120.585778,23.847862],[120.586481,23.848207],[120.588303,23.848195],[120.588597,23.848],[120.590177,23.84795],[120.589696,23.849191],[120.589756,23.851084],[120.588819,23.851879],[120.588092,23.852925],[120.58731,23.853465],[120.587017,23.854223],[120.586904,23.855107],[120.586361,23.855867],[120.585633,23.856173],[120.585373,23.856845],[120.584239,23.857329]]]},"properties":{"code":"10007120018","name":"新民里","countyCode":"10007","countyName":"彰化縣","townCode":"10007120","townName":"田中鎮","level":"village","unassigned":false,"note":"","label":[120.58523854689157,23.852326768899843],"bounds":[120.580529,23.847862,120.590177,23.857452],"focusBounds":[120.580529,23.847862,120.590177,23.857452],"color":"#98b69b"}},{"type":"Feature","id":"10007120019","geometry":{"type":"Polygon","coordinates":[[[120.580224,23.863223],[120.578699,23.864042],[120.577665,23.864124],[120.572833,23.867906],[120.572464,23.866865],[120.573122,23.864496],[120.573707,23.863438],[120.573969,23.862046],[120.572586,23.862048],[120.572136,23.861673],[120.572101,23.861423],[120.570879,23.861416],[120.570854,23.859339],[120.571356,23.858764],[120.571817,23.858538],[120.572056,23.858164],[120.572195,23.857483],[120.57178,23.856892],[120.573646,23.856334],[120.575397,23.854251],[120.578767,23.856366],[120.580529,23.856749],[120.58317,23.857452],[120.583332,23.857172],[120.58412,23.857209],[120.584239,23.857329],[120.584212,23.857632],[120.584105,23.858182],[120.583477,23.85856],[120.583399,23.859236],[120.584026,23.860155],[120.582963,23.860486],[120.582956,23.858902],[120.580925,23.859005],[120.581221,23.861085],[120.579712,23.861604],[120.580224,23.863223]]]},"properties":{"code":"10007120019","name":"梅州里","countyCode":"10007","countyName":"彰化縣","townCode":"10007120","townName":"田中鎮","level":"village","unassigned":false,"note":"","label":[120.57661482951791,23.859372232985287],"bounds":[120.570854,23.854251,120.584239,23.867906],"focusBounds":[120.570854,23.854251,120.584239,23.867906],"color":"#58b99d"}},{"type":"Feature","id":"10007120020","geometry":{"type":"Polygon","coordinates":[[[120.556437,23.874387],[120.556392,23.874295],[120.555925,23.874508],[120.555951,23.874838],[120.554863,23.875331],[120.554689,23.875],[120.553306,23.875767],[120.552814,23.87642],[120.552111,23.876536],[120.552035,23.875379],[120.551725,23.87436],[120.551749,23.873242],[120.553071,23.871275],[120.553682,23.871371],[120.554739,23.87094],[120.555431,23.869938],[120.554987,23.869931],[120.55475,23.864912],[120.55629,23.864486],[120.561803,23.860452],[120.56307,23.857895],[120.567369,23.854555],[120.570986,23.851964],[120.571982,23.851262],[120.573176,23.851764],[120.575397,23.854251],[120.573646,23.856334],[120.57178,23.856892],[120.572195,23.857483],[120.572056,23.858164],[120.571817,23.858538],[120.571356,23.858764],[120.570854,23.859339],[120.570879,23.861416],[120.572101,23.861423],[120.572136,23.861673],[120.572586,23.862048],[120.573969,23.862046],[120.573707,23.863438],[120.573122,23.864496],[120.572464,23.866865],[120.572833,23.867906],[120.571265,23.868664],[120.569952,23.869062],[120.569895,23.869429],[120.569286,23.869438],[120.567927,23.868647],[120.565876,23.871651],[120.566139,23.872235],[120.55665,23.873524],[120.556437,23.874387]]]},"properties":{"code":"10007120020","name":"三民里","countyCode":"10007","countyName":"彰化縣","townCode":"10007120","townName":"田中鎮","level":"village","unassigned":false,"note":"","label":[120.56451554297406,23.86461360902795],"bounds":[120.551725,23.851262,120.575397,23.876536],"focusBounds":[120.551725,23.851262,120.575397,23.876536],"color":"#dd8590"}},{"type":"Feature","id":"10007120021","geometry":{"type":"Polygon","coordinates":[[[120.571292,23.875609],[120.57025,23.875606],[120.569145,23.877474],[120.567332,23.877058],[120.567156,23.877433],[120.566403,23.877975],[120.563487,23.879267],[120.562145,23.880369],[120.562698,23.881434],[120.560636,23.88252],[120.559513,23.882234],[120.559434,23.882022],[120.558767,23.882149],[120.558357,23.881512],[120.557867,23.881209],[120.557027,23.876597],[120.556554,23.875243],[120.556437,23.874387],[120.55665,23.873524],[120.566139,23.872235],[120.565876,23.871651],[120.567927,23.868647],[120.569286,23.869438],[120.569895,23.869429],[120.569952,23.869062],[120.571265,23.868664],[120.572833,23.867906],[120.574736,23.870018],[120.571292,23.875609]]]},"properties":{"code":"10007120021","name":"三光里","countyCode":"10007","countyName":"彰化縣","townCode":"10007120","townName":"田中鎮","level":"village","unassigned":false,"note":"","label":[120.56477468103746,23.87555847491828],"bounds":[120.556437,23.867906,120.574736,23.88252],"focusBounds":[120.556437,23.867906,120.574736,23.88252],"color":"#a49ad4"}},{"type":"Feature","id":"10007120022","geometry":{"type":"Polygon","coordinates":[[[120.574519,23.888393],[120.574335,23.88999],[120.575418,23.89105],[120.575306,23.891968],[120.574344,23.893174],[120.574349,23.89429],[120.574888,23.895386],[120.574706,23.895478],[120.574211,23.895159],[120.571814,23.892563],[120.570835,23.891741],[120.568775,23.889242],[120.568089,23.888738],[120.568804,23.886742],[120.569883,23.885151],[120.570639,23.884748],[120.570563,23.884562],[120.567146,23.885643],[120.566113,23.886179],[120.562799,23.885945],[120.559994,23.885933],[120.559958,23.885207],[120.559581,23.883937],[120.560768,23.883376],[120.560636,23.88252],[120.562698,23.881434],[120.562145,23.880369],[120.563487,23.879267],[120.566403,23.877975],[120.567156,23.877433],[120.567332,23.877058],[120.569145,23.877474],[120.57025,23.875606],[120.571292,23.875609],[120.571907,23.875862],[120.572525,23.875857],[120.572984,23.876093],[120.57336,23.876105],[120.574383,23.876691],[120.57617,23.877095],[120.575491,23.877978],[120.574785,23.879961],[120.574885,23.88034],[120.575981,23.881948],[120.575189,23.884186],[120.574519,23.888393]]]},"properties":{"code":"10007120022","name":"大社里","countyCode":"10007","countyName":"彰化縣","townCode":"10007120","townName":"田中鎮","level":"village","unassigned":false,"note":"","label":[120.56836136976715,23.881276273508206],"bounds":[120.559581,23.875606,120.57617,23.895478],"focusBounds":[120.559581,23.875606,120.57617,23.895478],"color":"#dd8590"}}]}
