{"type":"FeatureCollection","features":[{"type":"Feature","id":"10004090001","geometry":{"type":"Polygon","coordinates":[[[121.060809,24.699746],[121.059756,24.701715],[121.058889,24.702618],[121.05703,24.703918],[121.056189,24.702231],[121.056096,24.700848],[121.055002,24.700762],[121.054795,24.70058],[121.056425,24.699825],[121.060809,24.699746]]]},"properties":{"code":"10004090001","name":"北埔村","countyCode":"10004","countyName":"新竹縣","townCode":"10004090","townName":"北埔鄉","level":"village","unassigned":false,"note":"","label":[121.05785538381355,24.701433124503037],"bounds":[121.054795,24.699746,121.060809,24.703918],"focusBounds":[121.054795,24.699746,121.060809,24.703918],"color":"#68bec9"}},{"type":"Feature","id":"10004090002","geometry":{"type":"Polygon","coordinates":[[[121.060809,24.699746],[121.056425,24.699825],[121.054795,24.70058],[121.054339,24.699587],[121.054131,24.698648],[121.05379,24.698232],[121.053954,24.696931],[121.053835,24.696688],[121.053996,24.696433],[121.054181,24.69642],[121.054697,24.69707],[121.054935,24.697155],[121.05525,24.697039],[121.055986,24.696283],[121.056956,24.696459],[121.057235,24.696391],[121.056905,24.695654],[121.057135,24.695305],[121.05806,24.695524],[121.058453,24.695479],[121.058944,24.695689],[121.059724,24.695609],[121.059869,24.695968],[121.060248,24.696106],[121.061036,24.696048],[121.061353,24.698636],[121.061664,24.699659],[121.060809,24.699746]]]},"properties":{"code":"10004090002","name":"南興村","countyCode":"10004","countyName":"新竹縣","townCode":"10004090","townName":"北埔鄉","level":"village","unassigned":false,"note":"","label":[121.05768147679508,24.698068026440325],"bounds":[121.05379,24.695305,121.061664,24.70058],"focusBounds":[121.05379,24.695305,121.061664,24.70058],"color":"#df9f6a"}},{"type":"Feature","id":"10004090003","geometry":{"type":"Polygon","coordinates":[[[121.045827,24.716822],[121.045283,24.71757],[121.044347,24.717199],[121.043265,24.717584],[121.042727,24.717597],[121.042246,24.716796],[121.041271,24.716833],[121.041096,24.716152],[121.041033,24.715799],[121.040168,24.715125],[121.039372,24.713963],[121.039431,24.713039],[121.039282,24.71218],[121.037932,24.712161],[121.036938,24.71167],[121.036776,24.711335],[121.037052,24.710679],[121.037928,24.709195],[121.037911,24.708794],[121.037412,24.707995],[121.037291,24.707236],[121.038637,24.707082],[121.039141,24.706306],[121.040236,24.705327],[121.040704,24.704314],[121.042022,24.704165],[121.041808,24.70348],[121.041361,24.70285],[121.040976,24.702631],[121.040328,24.702615],[121.040171,24.702475],[121.040084,24.701009],[121.043129,24.700882],[121.044202,24.700372],[121.045322,24.700359],[121.046078,24.700584],[121.048669,24.701909],[121.049662,24.70182],[121.049963,24.701415],[121.05086,24.700833],[121.051432,24.699446],[121.051624,24.699319],[121.051934,24.699358],[121.052623,24.700033],[121.052929,24.69999],[121.053236,24.698099],[121.052765,24.696931],[121.05304,24.696743],[121.053647,24.696839],[121.053835,24.696688],[121.053954,24.696931],[121.05379,24.698232],[121.054131,24.698648],[121.054339,24.699587],[121.054795,24.70058],[121.055002,24.700762],[121.056096,24.700848],[121.056189,24.702231],[121.05703,24.703918],[121.056565,24.704399],[121.055558,24.704928],[121.055592,24.705125],[121.056086,24.705197],[121.056115,24.705579],[121.055554,24.705814],[121.055005,24.706609],[121.054668,24.706601],[121.054005,24.706297],[121.053635,24.705807],[121.053048,24.705834],[121.052673,24.706115],[121.051659,24.706123],[121.051919,24.706589],[121.05174,24.706752],[121.051275,24.706756],[121.050871,24.706418],[121.050302,24.707375],[121.049221,24.707564],[121.046543,24.709195],[121.046206,24.709881],[121.045734,24.712344],[121.04486,24.713235],[121.044708,24.713734],[121.04548,24.715035],[121.045556,24.716043],[121.045827,24.716822]]]},"properties":{"code":"10004090003","name":"埔尾村","countyCode":"10004","countyName":"新竹縣","townCode":"10004090","townName":"北埔鄉","level":"village","unassigned":false,"note":"","label":[121.04598585657914,24.70487192373776],"bounds":[121.036776,24.696688,121.05703,24.717597],"focusBounds":[121.036776,24.696688,121.05703,24.717597],"color":"#c38cb8"}},{"type":"Feature","id":"10004090004","geometry":{"type":"Polygon","coordinates":[[[121.074227,24.730427],[121.074093,24.730704],[121.073536,24.730684],[121.072805,24.730228],[121.072206,24.730124],[121.071899,24.729833],[121.07102,24.730319],[121.07041,24.731287],[121.070073,24.731254],[121.069568,24.730807],[121.069521,24.730531],[121.069234,24.73033],[121.06775,24.730237],[121.067271,24.72964],[121.066894,24.729451],[121.06653,24.729833],[121.065878,24.729944],[121.065221,24.729837],[121.064418,24.730223],[121.063149,24.730108],[121.061986,24.730852],[121.061294,24.730267],[121.060252,24.730102],[121.058684,24.730173],[121.058445,24.729098],[121.057645,24.728193],[121.056406,24.727461],[121.055867,24.725943],[121.055111,24.725144],[121.054481,24.724983],[121.053823,24.724341],[121.053803,24.723408],[121.052735,24.723322],[121.052463,24.722847],[121.051664,24.722372],[121.051373,24.72165],[121.050768,24.721499],[121.050362,24.721107],[121.050608,24.719864],[121.049203,24.719676],[121.04914,24.718841],[121.047648,24.716575],[121.04621,24.716513],[121.045827,24.716822],[121.045556,24.716043],[121.04548,24.715035],[121.044708,24.713734],[121.04486,24.713235],[121.045734,24.712344],[121.046206,24.709881],[121.046543,24.709195],[121.049221,24.707564],[121.050302,24.707375],[121.050871,24.706418],[121.051275,24.706756],[121.05174,24.706752],[121.051919,24.706589],[121.051659,24.706123],[121.052673,24.706115],[121.053048,24.705834],[121.053635,24.705807],[121.054005,24.706297],[121.054668,24.706601],[121.055005,24.706609],[121.055554,24.705814],[121.056115,24.705579],[121.056086,24.705197],[121.055592,24.705125],[121.055558,24.704928],[121.056565,24.704399],[121.05703,24.703918],[121.058889,24.702618],[121.059756,24.701715],[121.060809,24.699746],[121.061664,24.699659],[121.063612,24.699236],[121.065288,24.700264],[121.066748,24.700729],[121.068773,24.700507],[121.070199,24.701377],[121.072924,24.70242],[121.073575,24.703847],[121.074115,24.70462],[121.075274,24.704696],[121.075622,24.705436],[121.076683,24.706054],[121.077139,24.707861],[121.077861,24.7097],[121.077278,24.711486],[121.077789,24.713695],[121.076475,24.71413],[121.076019,24.714527],[121.075669,24.714449],[121.075308,24.713887],[121.075063,24.713807],[121.073858,24.714709],[121.072894,24.714672],[121.072271,24.715396],[121.071606,24.715786],[121.071307,24.716218],[121.070801,24.716362],[121.07056,24.71836],[121.070124,24.718781],[121.069654,24.720378],[121.069327,24.720841],[121.06927,24.721665],[121.068994,24.722082],[121.070249,24.722686],[121.071709,24.723884],[121.072141,24.724797],[121.072515,24.725204],[121.072735,24.725946],[121.072527,24.726265],[121.071848,24.726298],[121.07194,24.72704],[121.072164,24.72729],[121.07278,24.727454],[121.073717,24.728127],[121.074258,24.7301],[121.074227,24.730427]]]},"properties":{"code":"10004090004","name":"水磜村","countyCode":"10004","countyName":"新竹縣","townCode":"10004090","townName":"北埔鄉","level":"village","unassigned":false,"note":"","label":[121.06058827586355,24.715157020348265],"bounds":[121.044708,24.699236,121.077861,24.731287],"focusBounds":[121.044708,24.699236,121.077861,24.731287],"color":"#98b69b"}},{"type":"Feature","id":"10004090005","geometry":{"type":"Polygon","coordinates":[[[121.049963,24.701415],[121.049662,24.70182],[121.048669,24.701909],[121.046078,24.700584],[121.045322,24.700359],[121.044202,24.700372],[121.043129,24.700882],[121.040084,24.701009],[121.039579,24.699561],[121.039324,24.699244],[121.037357,24.69761],[121.036592,24.697464],[121.03649,24.697187],[121.036564,24.696495],[121.036988,24.69567],[121.03903,24.694428],[121.03936,24.694047],[121.039204,24.691493],[121.039023,24.690832],[121.038588,24.69018],[121.036606,24.690323],[121.035997,24.690183],[121.035599,24.689569],[121.035474,24.688867],[121.03524,24.688697],[121.034977,24.687735],[121.03414,24.687285],[121.033915,24.686847],[121.034137,24.686578],[121.034184,24.685749],[121.034489,24.685641],[121.035708,24.685671],[121.036245,24.685451],[121.03781,24.683816],[121.038503,24.682795],[121.038674,24.682214],[121.038638,24.681603],[121.038473,24.681381],[121.037933,24.681193],[121.03785,24.679476],[121.037911,24.677641],[121.037117,24.676847],[121.037461,24.675931],[121.036825,24.675147],[121.03691,24.674271],[121.036792,24.673624],[121.036125,24.673082],[121.035361,24.672836],[121.034714,24.671961],[121.035213,24.670811],[121.035636,24.670422],[121.036024,24.669532],[121.03631,24.669251],[121.036898,24.669137],[121.037457,24.668574],[121.037754,24.66754],[121.037981,24.667391],[121.038838,24.66736],[121.039949,24.668142],[121.040268,24.668637],[121.040726,24.668803],[121.041206,24.668846],[121.04167,24.668503],[121.043315,24.668149],[121.043641,24.66826],[121.044336,24.669057],[121.045293,24.66883],[121.045857,24.669291],[121.047377,24.67008],[121.047551,24.6703],[121.047719,24.671285],[121.048268,24.672036],[121.049279,24.673143],[121.050042,24.673591],[121.050676,24.674527],[121.050548,24.675856],[121.04981,24.677042],[121.049585,24.677696],[121.049954,24.679892],[121.050338,24.680564],[121.049118,24.682224],[121.048991,24.682712],[121.049707,24.684459],[121.049888,24.686722],[121.050588,24.687741],[121.050543,24.688538],[121.050198,24.689708],[121.050131,24.690855],[121.049476,24.691944],[121.049355,24.692439],[121.049739,24.692871],[121.052458,24.6934],[121.053015,24.694606],[121.052451,24.695444],[121.051639,24.695629],[121.050804,24.695472],[121.049923,24.69568],[121.049705,24.695858],[121.049533,24.697674],[121.049849,24.69951],[121.049963,24.701415]]]},"properties":{"code":"10004090005","name":"南埔村","countyCode":"10004","countyName":"新竹縣","townCode":"10004090","townName":"北埔鄉","level":"village","unassigned":false,"note":"","label":[121.0436371512501,24.686086927511877],"bounds":[121.033915,24.66736,121.053015,24.701909],"focusBounds":[121.033915,24.66736,121.053015,24.701909],"color":"#58b99d"}},{"type":"Feature","id":"10004090006","geometry":{"type":"Polygon","coordinates":[[[121.053835,24.696688],[121.053647,24.696839],[121.05304,24.696743],[121.052765,24.696931],[121.053236,24.698099],[121.052929,24.69999],[121.052623,24.700033],[121.051934,24.699358],[121.051624,24.699319],[121.051432,24.699446],[121.05086,24.700833],[121.049963,24.701415],[121.049849,24.69951],[121.049533,24.697674],[121.049705,24.695858],[121.049923,24.69568],[121.050804,24.695472],[121.051639,24.695629],[121.052451,24.695444],[121.053015,24.694606],[121.052458,24.6934],[121.049739,24.692871],[121.049355,24.692439],[121.049476,24.691944],[121.050131,24.690855],[121.050198,24.689708],[121.050543,24.688538],[121.050588,24.687741],[121.049888,24.686722],[121.049707,24.684459],[121.048991,24.682712],[121.049118,24.682224],[121.050338,24.680564],[121.052056,24.680973],[121.055136,24.68328],[121.055705,24.683567],[121.056496,24.683602],[121.056896,24.684394],[121.056846,24.684775],[121.056667,24.684945],[121.057135,24.685372],[121.058062,24.685884],[121.058591,24.686089],[121.059535,24.686151],[121.060998,24.685713],[121.061304,24.68548],[121.061286,24.683289],[121.060477,24.679528],[121.061038,24.677731],[121.061481,24.677138],[121.06222,24.676726],[121.064328,24.676438],[121.066499,24.676592],[121.067094,24.676825],[121.068907,24.678005],[121.069502,24.678253],[121.07051,24.678393],[121.071997,24.67764],[121.072532,24.676933],[121.073016,24.676894],[121.073819,24.677306],[121.074517,24.678578],[121.073846,24.679054],[121.072648,24.679427],[121.070867,24.680782],[121.069414,24.681481],[121.06865,24.682187],[121.067851,24.683509],[121.067135,24.684196],[121.066617,24.685112],[121.065785,24.687948],[121.064302,24.69117],[121.063771,24.69158],[121.060967,24.692442],[121.059744,24.69351],[121.059662,24.694006],[121.060709,24.695018],[121.061036,24.696048],[121.060248,24.696106],[121.059869,24.695968],[121.059724,24.695609],[121.058944,24.695689],[121.058453,24.695479],[121.05806,24.695524],[121.057135,24.695305],[121.056905,24.695654],[121.057235,24.696391],[121.056956,24.696459],[121.055986,24.696283],[121.05525,24.697039],[121.054935,24.697155],[121.054697,24.69707],[121.054181,24.69642],[121.053996,24.696433],[121.053835,24.696688]]]},"properties":{"code":"10004090006","name":"大林村","countyCode":"10004","countyName":"新竹縣","townCode":"10004090","townName":"北埔鄉","level":"village","unassigned":false,"note":"","label":[121.05582079005958,24.690012411435248],"bounds":[121.048991,24.676438,121.074517,24.701415],"focusBounds":[121.048991,24.676438,121.074517,24.701415],"color":"#efb44f"}},{"type":"Feature","id":"10004090007","geometry":{"type":"Polygon","coordinates":[[[121.082521,24.712968],[121.082343,24.713518],[121.082052,24.713713],[121.0815,24.713664],[121.080203,24.712957],[121.079731,24.71324],[121.079276,24.713303],[121.078877,24.713642],[121.077789,24.713695],[121.077278,24.711486],[121.077861,24.7097],[121.077139,24.707861],[121.076683,24.706054],[121.075622,24.705436],[121.075274,24.704696],[121.074115,24.70462],[121.073575,24.703847],[121.072924,24.70242],[121.070199,24.701377],[121.068773,24.700507],[121.066748,24.700729],[121.065288,24.700264],[121.063612,24.699236],[121.061664,24.699659],[121.061353,24.698636],[121.061036,24.696048],[121.060709,24.695018],[121.059662,24.694006],[121.059744,24.69351],[121.060967,24.692442],[121.063771,24.69158],[121.064302,24.69117],[121.065785,24.687948],[121.066617,24.685112],[121.067135,24.684196],[121.067851,24.683509],[121.06865,24.682187],[121.069414,24.681481],[121.070867,24.680782],[121.072648,24.679427],[121.073846,24.679054],[121.074517,24.678578],[121.076456,24.679585],[121.076968,24.679637],[121.079287,24.679125],[121.08016,24.67915],[121.081136,24.678925],[121.082021,24.67791],[121.083604,24.67745],[121.085146,24.676715],[121.086072,24.677936],[121.08634,24.678629],[121.086432,24.679546],[121.086801,24.679752],[121.087928,24.679964],[121.088748,24.680813],[121.089207,24.681075],[121.08948,24.682389],[121.089343,24.683119],[121.08952,24.683687],[121.091266,24.685111],[121.092967,24.686104],[121.09361,24.686858],[121.094078,24.687166],[121.09387,24.687517],[121.093535,24.689737],[121.093633,24.690751],[121.093324,24.691207],[121.092222,24.691802],[121.091619,24.692563],[121.091083,24.693508],[121.090838,24.69498],[121.090051,24.695624],[121.089634,24.697077],[121.089785,24.697463],[121.09023,24.697866],[121.090298,24.698321],[121.090141,24.698981],[121.089484,24.699569],[121.089324,24.700182],[121.088676,24.70056],[121.087726,24.700453],[121.087448,24.700566],[121.087379,24.701822],[121.087567,24.703006],[121.085647,24.703043],[121.083854,24.703925],[121.083953,24.704933],[121.085799,24.706232],[121.085888,24.706457],[121.08567,24.706693],[121.084841,24.706613],[121.084248,24.707202],[121.084784,24.708637],[121.084664,24.709551],[121.083205,24.71088],[121.08261,24.71169],[121.082521,24.712968]]]},"properties":{"code":"10004090007","name":"大湖村","countyCode":"10004","countyName":"新竹縣","townCode":"10004090","townName":"北埔鄉","level":"village","unassigned":false,"note":"","label":[121.07843976642641,24.691794466614425],"bounds":[121.059662,24.676715,121.094078,24.713713],"focusBounds":[121.059662,24.676715,121.094078,24.713713],"color":"#78a7e3"}},{"type":"Feature","id":"10004090008","geometry":{"type":"Polygon","coordinates":[[[121.049143,24.640621],[121.049995,24.641081],[121.053163,24.643594],[121.053528,24.643656],[121.054344,24.643314],[121.055474,24.643244],[121.056714,24.642568],[121.057139,24.643499],[121.058004,24.644161],[121.057793,24.644839],[121.058422,24.646034],[121.060217,24.647132],[121.061263,24.648234],[121.061374,24.649153],[121.060898,24.649736],[121.060805,24.650263],[121.061741,24.652556],[121.061411,24.653679],[121.061419,24.654175],[121.063087,24.655691],[121.063343,24.65731],[121.063071,24.658024],[121.062578,24.658475],[121.061447,24.660078],[121.061159,24.661339],[121.061253,24.66175],[121.062751,24.663616],[121.062946,24.664431],[121.062762,24.665343],[121.063766,24.666314],[121.064582,24.667626],[121.06489,24.66974],[121.066821,24.671357],[121.067145,24.672021],[121.067018,24.672308],[121.065964,24.672495],[121.06529,24.673816],[121.064763,24.674127],[121.064253,24.674119],[121.063146,24.67328],[121.061887,24.673078],[121.061454,24.672752],[121.060228,24.672293],[121.060033,24.671921],[121.059047,24.671657],[121.058333,24.671758],[121.057776,24.672379],[121.057011,24.672387],[121.056075,24.672918],[121.055965,24.673361],[121.056169,24.674486],[121.055854,24.67498],[121.055412,24.67526],[121.055225,24.675881],[121.055531,24.676253],[121.056194,24.676439],[121.056619,24.676734],[121.056526,24.677231],[121.055991,24.677966],[121.055787,24.678517],[121.055813,24.679763],[121.05612,24.680477],[121.055975,24.681121],[121.055654,24.681621],[121.056496,24.683602],[121.055705,24.683567],[121.055136,24.68328],[121.052056,24.680973],[121.050338,24.680564],[121.049954,24.679892],[121.049585,24.677696],[121.04981,24.677042],[121.050548,24.675856],[121.050676,24.674527],[121.050042,24.673591],[121.049279,24.673143],[121.048268,24.672036],[121.047719,24.671285],[121.047551,24.6703],[121.047377,24.67008],[121.045857,24.669291],[121.045293,24.66883],[121.045524,24.668024],[121.045976,24.667478],[121.046329,24.667358],[121.046453,24.667053],[121.045886,24.666075],[121.045917,24.665515],[121.045459,24.665121],[121.045249,24.664441],[121.044726,24.663737],[121.044429,24.661618],[121.043644,24.661277],[121.043096,24.660453],[121.042876,24.659505],[121.043291,24.65903],[121.042761,24.657983],[121.042499,24.656442],[121.042077,24.655192],[121.041325,24.654558],[121.041418,24.654025],[121.04122,24.653025],[121.040805,24.652309],[121.03944,24.651392],[121.038811,24.649897],[121.038759,24.649268],[121.039925,24.647661],[121.039854,24.646406],[121.040239,24.645929],[121.041595,24.644862],[121.042943,24.644518],[121.04371,24.64407],[121.044766,24.644047],[121.046028,24.643352],[121.046784,24.643326],[121.047541,24.642089],[121.049143,24.640621]]]},"properties":{"code":"10004090008","name":"南坑村","countyCode":"10004","countyName":"新竹縣","townCode":"10004090","townName":"北埔鄉","level":"village","unassigned":false,"note":"","label":[121.0526850327108,24.657191744820672],"bounds":[121.038759,24.640621,121.067145,24.683602],"focusBounds":[121.038759,24.640621,121.067145,24.683602],"color":"#dd8590"}},{"type":"Feature","id":"10004090009","geometry":{"type":"Polygon","coordinates":[[[121.074517,24.678578],[121.073819,24.677306],[121.073016,24.676894],[121.072532,24.676933],[121.071997,24.67764],[121.07051,24.678393],[121.069502,24.678253],[121.068907,24.678005],[121.067094,24.676825],[121.066499,24.676592],[121.064328,24.676438],[121.06222,24.676726],[121.061481,24.677138],[121.061038,24.677731],[121.060477,24.679528],[121.061286,24.683289],[121.061304,24.68548],[121.060998,24.685713],[121.059535,24.686151],[121.058591,24.686089],[121.058062,24.685884],[121.057135,24.685372],[121.056667,24.684945],[121.056846,24.684775],[121.056896,24.684394],[121.056496,24.683602],[121.055654,24.681621],[121.055975,24.681121],[121.05612,24.680477],[121.055813,24.679763],[121.055787,24.678517],[121.055991,24.677966],[121.056526,24.677231],[121.056619,24.676734],[121.056194,24.676439],[121.055531,24.676253],[121.055225,24.675881],[121.055412,24.67526],[121.055854,24.67498],[121.056169,24.674486],[121.055965,24.673361],[121.056075,24.672918],[121.057011,24.672387],[121.057776,24.672379],[121.058333,24.671758],[121.059047,24.671657],[121.060033,24.671921],[121.060228,24.672293],[121.061454,24.672752],[121.061887,24.673078],[121.063146,24.67328],[121.064253,24.674119],[121.064763,24.674127],[121.06529,24.673816],[121.065964,24.672495],[121.067018,24.672308],[121.067145,24.672021],[121.066821,24.671357],[121.06489,24.66974],[121.064582,24.667626],[121.063766,24.666314],[121.062762,24.665343],[121.062946,24.664431],[121.062751,24.663616],[121.061253,24.66175],[121.061159,24.661339],[121.061447,24.660078],[121.062578,24.658475],[121.063071,24.658024],[121.063343,24.65731],[121.063087,24.655691],[121.061419,24.654175],[121.061411,24.653679],[121.061741,24.652556],[121.060805,24.650263],[121.060898,24.649736],[121.061374,24.649153],[121.061263,24.648234],[121.060217,24.647132],[121.058422,24.646034],[121.057793,24.644839],[121.058004,24.644161],[121.057139,24.643499],[121.056714,24.642568],[121.055474,24.643244],[121.054344,24.643314],[121.053528,24.643656],[121.053163,24.643594],[121.049995,24.641081],[121.049143,24.640621],[121.048232,24.638894],[121.048866,24.637825],[121.048597,24.636092],[121.048791,24.635005],[121.046786,24.633525],[121.046567,24.63246],[121.045962,24.631298],[121.045609,24.629673],[121.044358,24.628578],[121.043653,24.628486],[121.04318,24.627767],[121.04314,24.62725],[121.044075,24.626416],[121.044267,24.625645],[121.044656,24.624939],[121.0456,24.624499],[121.045926,24.624092],[121.046457,24.623009],[121.046442,24.622347],[121.046929,24.621841],[121.048257,24.619833],[121.049028,24.619169],[121.049402,24.618592],[121.050306,24.618441],[121.051239,24.617846],[121.051688,24.617356],[121.051882,24.616335],[121.05154,24.615158],[121.053321,24.615451],[121.054752,24.61665],[121.055354,24.617889],[121.056844,24.618282],[121.058454,24.619955],[121.05951,24.620583],[121.060303,24.6208],[121.061422,24.62173],[121.062338,24.621828],[121.062603,24.621707],[121.062784,24.621024],[121.063886,24.61956],[121.064756,24.619449],[121.065903,24.618247],[121.066533,24.617196],[121.066928,24.616149],[121.067849,24.615055],[121.069834,24.614232],[121.071529,24.613964],[121.072148,24.616984],[121.073293,24.62032],[121.073694,24.620891],[121.075051,24.621995],[121.076864,24.622882],[121.077526,24.62368],[121.0778,24.624299],[121.0785,24.624882],[121.078719,24.625616],[121.079228,24.626147],[121.079645,24.626894],[121.080537,24.627258],[121.081233,24.627779],[121.081895,24.62854],[121.082202,24.629445],[121.082909,24.630301],[121.084324,24.630895],[121.085273,24.630864],[121.085379,24.631011],[121.085307,24.631634],[121.086138,24.631781],[121.086742,24.632476],[121.087381,24.63234],[121.088668,24.632561],[121.089357,24.634421],[121.090845,24.635863],[121.091072,24.63685],[121.090671,24.637432],[121.091981,24.638176],[121.092981,24.639295],[121.093878,24.639369],[121.094245,24.639533],[121.094928,24.639981],[121.095804,24.641099],[121.09673,24.641328],[121.096027,24.641574],[121.095919,24.641746],[121.095982,24.642997],[121.095766,24.643665],[121.095868,24.644601],[121.095763,24.645006],[121.094994,24.645802],[121.093501,24.646584],[121.091901,24.6478],[121.091752,24.648232],[121.091811,24.650329],[121.092182,24.651778],[121.091377,24.652333],[121.090737,24.652455],[121.09027,24.653068],[121.090116,24.653784],[121.08873,24.654531],[121.089379,24.655478],[121.089353,24.655732],[121.087774,24.659394],[121.087708,24.66043],[121.087418,24.661119],[121.08738,24.662853],[121.08669,24.663267],[121.085885,24.664972],[121.086453,24.666501],[121.087233,24.667253],[121.086068,24.668857],[121.08632,24.669706],[121.08611,24.670592],[121.086138,24.671269],[121.086624,24.671766],[121.086563,24.672772],[121.08649,24.673045],[121.086119,24.673232],[121.085614,24.675105],[121.084997,24.675837],[121.084978,24.676406],[121.085146,24.676715],[121.083604,24.67745],[121.082021,24.67791],[121.081136,24.678925],[121.08016,24.67915],[121.079287,24.679125],[121.076968,24.679637],[121.076456,24.679585],[121.074517,24.678578]]]},"properties":{"code":"10004090009","name":"外坪村","countyCode":"10004","countyName":"新竹縣","townCode":"10004090","townName":"北埔鄉","level":"village","unassigned":false,"note":"","label":[121.07554718210517,24.643367914646333],"bounds":[121.04314,24.613964,121.09673,24.686151],"focusBounds":[121.04314,24.613964,121.09673,24.686151],"color":"#a49ad4"}}]}
