{"type":"FeatureCollection","features":[{"type":"Feature","id":"10004070001","geometry":{"type":"Polygon","coordinates":[[[121.126833,24.752073],[121.126224,24.751995],[121.124701,24.752267],[121.123856,24.751503],[121.12221,24.750865],[121.121722,24.750107],[121.121132,24.749986],[121.120312,24.750135],[121.117476,24.74886],[121.116917,24.748297],[121.116459,24.74747],[121.116466,24.746138],[121.116049,24.744519],[121.115377,24.742405],[121.114528,24.740915],[121.11372,24.738759],[121.112723,24.738818],[121.11143,24.738559],[121.112991,24.738386],[121.115454,24.737081],[121.117203,24.737055],[121.120277,24.735497],[121.121058,24.734496],[121.122343,24.732308],[121.122908,24.731842],[121.124424,24.731092],[121.125344,24.730787],[121.126532,24.730016],[121.127399,24.729818],[121.127212,24.730539],[121.12727,24.73094],[121.127583,24.730959],[121.128071,24.730749],[121.128563,24.730884],[121.129717,24.730309],[121.131176,24.730857],[121.131614,24.730731],[121.132736,24.731055],[121.133937,24.731623],[121.134758,24.732394],[121.134313,24.733564],[121.133727,24.734038],[121.133253,24.734953],[121.132382,24.735682],[121.132202,24.736238],[121.130382,24.737698],[121.129744,24.738748],[121.129141,24.739307],[121.128639,24.740078],[121.127908,24.742167],[121.128298,24.74729],[121.127854,24.749259],[121.126833,24.752073]]]},"properties":{"code":"10004070001","name":"五龍村","countyCode":"10004","countyName":"新竹縣","townCode":"10004070","townName":"芎林鄉","level":"village","unassigned":false,"note":"","label":[121.12175819927403,24.741733642378954],"bounds":[121.11143,24.729818,121.134758,24.752267],"focusBounds":[121.11143,24.729818,121.134758,24.752267],"color":"#dd8590"}},{"type":"Feature","id":"10004070002","geometry":{"type":"Polygon","coordinates":[[[121.142504,24.76553],[121.141974,24.764937],[121.140958,24.765414],[121.140289,24.765245],[121.139625,24.765918],[121.138996,24.765884],[121.137973,24.765411],[121.137589,24.7655],[121.135693,24.760656],[121.135874,24.759659],[121.135584,24.7567],[121.135736,24.755261],[121.135413,24.754233],[121.135686,24.753371],[121.135552,24.752931],[121.133802,24.752051],[121.132226,24.751777],[121.131563,24.75179],[121.129198,24.752269],[121.126833,24.752073],[121.127854,24.749259],[121.128298,24.74729],[121.127908,24.742167],[121.128639,24.740078],[121.129141,24.739307],[121.129744,24.738748],[121.130382,24.737698],[121.132202,24.736238],[121.132382,24.735682],[121.133253,24.734953],[121.133727,24.734038],[121.134313,24.733564],[121.134758,24.732394],[121.135958,24.731886],[121.137187,24.730848],[121.138001,24.731702],[121.138387,24.731695],[121.139126,24.731397],[121.139582,24.731649],[121.14177,24.731804],[121.14188,24.732201],[121.142146,24.732824],[121.142419,24.732794],[121.143105,24.732272],[121.143642,24.73283],[121.143604,24.73312],[121.143278,24.733537],[121.143534,24.734641],[121.143486,24.735264],[121.145112,24.734508],[121.145609,24.734626],[121.146054,24.735219],[121.146429,24.736227],[121.147292,24.737195],[121.147349,24.737881],[121.14791,24.738419],[121.147669,24.738898],[121.147003,24.739039],[121.146837,24.739227],[121.146534,24.740643],[121.146847,24.741619],[121.147249,24.74191],[121.147449,24.742392],[121.148598,24.743083],[121.149093,24.743045],[121.148847,24.743408],[121.148926,24.743752],[121.149389,24.744148],[121.15083,24.746169],[121.150837,24.746604],[121.150203,24.748226],[121.149427,24.748943],[121.150086,24.749496],[121.149973,24.750676],[121.15084,24.751229],[121.151207,24.751793],[121.151757,24.752253],[121.151506,24.75296],[121.152081,24.753917],[121.152109,24.756095],[121.152487,24.757116],[121.153017,24.757903],[121.152422,24.75861],[121.151779,24.758598],[121.151363,24.758149],[121.150987,24.759187],[121.150581,24.759571],[121.150502,24.760007],[121.149908,24.760487],[121.148516,24.759774],[121.147903,24.760196],[121.147624,24.761171],[121.147251,24.761206],[121.14671,24.760811],[121.14564,24.763234],[121.14512,24.763897],[121.143477,24.765096],[121.142732,24.765536],[121.142504,24.76553]]]},"properties":{"code":"10004070002","name":"華龍村","countyCode":"10004","countyName":"新竹縣","townCode":"10004070","townName":"芎林鄉","level":"village","unassigned":false,"note":"","label":[121.13778709158821,24.74397724711683],"bounds":[121.126833,24.730848,121.153017,24.765918],"focusBounds":[121.126833,24.730848,121.153017,24.765918],"color":"#a49ad4"}},{"type":"Feature","id":"10004070003","geometry":{"type":"Polygon","coordinates":[[[121.11143,24.738559],[121.110501,24.738292],[121.110115,24.738302],[121.109422,24.738592],[121.108137,24.739526],[121.107287,24.740746],[121.106626,24.741144],[121.106178,24.741114],[121.105281,24.74073],[121.105713,24.738535],[121.105752,24.736316],[121.106378,24.733325],[121.10681,24.732197],[121.107642,24.730974],[121.109746,24.729268],[121.110936,24.728829],[121.113475,24.727106],[121.116677,24.725582],[121.120646,24.725173],[121.121291,24.724963],[121.122369,24.72452],[121.12412,24.723017],[121.125993,24.726195],[121.121467,24.729081],[121.123151,24.731316],[121.124424,24.731092],[121.122908,24.731842],[121.122343,24.732308],[121.121058,24.734496],[121.120277,24.735497],[121.117203,24.737055],[121.115454,24.737081],[121.112991,24.738386],[121.11143,24.738559]]]},"properties":{"code":"10004070003","name":"秀湖村","countyCode":"10004","countyName":"新竹縣","townCode":"10004070","townName":"芎林鄉","level":"village","unassigned":false,"note":"","label":[121.11508259448951,24.73228008604601],"bounds":[121.105281,24.723017,121.125993,24.741144],"focusBounds":[121.105281,24.723017,121.125993,24.741144],"color":"#df9f6a"}},{"type":"Feature","id":"10004070004","geometry":{"type":"Polygon","coordinates":[[[121.135874,24.766623],[121.135244,24.766627],[121.134367,24.766012],[121.133596,24.765845],[121.133301,24.765498],[121.132929,24.765378],[121.132135,24.765619],[121.131464,24.765469],[121.130851,24.766199],[121.129853,24.766612],[121.129268,24.766015],[121.127501,24.765889],[121.127069,24.765671],[121.126257,24.766615],[121.125609,24.767039],[121.123602,24.766664],[121.122632,24.767108],[121.121906,24.767188],[121.121338,24.766718],[121.120405,24.76644],[121.118903,24.766553],[121.118037,24.765564],[121.117307,24.763977],[121.117035,24.76368],[121.116778,24.763631],[121.116131,24.759545],[121.115589,24.758254],[121.114706,24.757783],[121.111099,24.757144],[121.109963,24.756712],[121.109813,24.755892],[121.108037,24.752814],[121.107652,24.751733],[121.107501,24.750343],[121.106755,24.747695],[121.10542,24.745987],[121.104056,24.744758],[121.104519,24.744097],[121.104612,24.742115],[121.105257,24.7408],[121.105281,24.74073],[121.106178,24.741114],[121.106626,24.741144],[121.107287,24.740746],[121.108137,24.739526],[121.109422,24.738592],[121.110115,24.738302],[121.110501,24.738292],[121.11143,24.738559],[121.112723,24.738818],[121.11372,24.738759],[121.114528,24.740915],[121.115377,24.742405],[121.116049,24.744519],[121.116466,24.746138],[121.116459,24.74747],[121.116917,24.748297],[121.117476,24.74886],[121.120312,24.750135],[121.121132,24.749986],[121.121722,24.750107],[121.12221,24.750865],[121.123856,24.751503],[121.124701,24.752267],[121.126224,24.751995],[121.126833,24.752073],[121.129198,24.752269],[121.131563,24.75179],[121.132226,24.751777],[121.133802,24.752051],[121.135552,24.752931],[121.135686,24.753371],[121.135413,24.754233],[121.135736,24.755261],[121.135584,24.7567],[121.135874,24.759659],[121.135693,24.760656],[121.137589,24.7655],[121.135874,24.766623]]]},"properties":{"code":"10004070004","name":"永興村","countyCode":"10004","countyName":"新竹縣","townCode":"10004070","townName":"芎林鄉","level":"village","unassigned":false,"note":"","label":[121.12314985269214,24.759050057195108],"bounds":[121.104056,24.738292,121.137589,24.767188],"focusBounds":[121.104056,24.738292,121.137589,24.767188],"color":"#68bec9"}},{"type":"Feature","id":"10004070005","geometry":{"type":"Polygon","coordinates":[[[121.109963,24.756712],[121.109604,24.75704],[121.107906,24.757358],[121.107202,24.758763],[121.106772,24.759232],[121.105294,24.759651],[121.103348,24.76191],[121.102462,24.762417],[121.100995,24.762261],[121.099626,24.761844],[121.097581,24.761502],[121.096049,24.761837],[121.0952,24.761694],[121.094311,24.760597],[121.094003,24.759727],[121.092061,24.758792],[121.093584,24.7553],[121.096873,24.749945],[121.094441,24.748347],[121.100601,24.746659],[121.101426,24.746323],[121.104056,24.744758],[121.10542,24.745987],[121.106755,24.747695],[121.107501,24.750343],[121.107652,24.751733],[121.108037,24.752814],[121.109813,24.755892],[121.109963,24.756712]]]},"properties":{"code":"10004070005","name":"石潭村","countyCode":"10004","countyName":"新竹縣","townCode":"10004070","townName":"芎林鄉","level":"village","unassigned":false,"note":"","label":[121.1013018494063,24.75484531832946],"bounds":[121.092061,24.744758,121.109963,24.762417],"focusBounds":[121.092061,24.744758,121.109963,24.762417],"color":"#df9f6a"}},{"type":"Feature","id":"10004070006","geometry":{"type":"Polygon","coordinates":[[[121.116778,24.763631],[121.115588,24.763989],[121.114345,24.764718],[121.113297,24.76514],[121.112464,24.765319],[121.111469,24.765985],[121.110566,24.767248],[121.109247,24.767666],[121.108946,24.768184],[121.108722,24.769681],[121.108166,24.770752],[121.107758,24.771291],[121.107095,24.771709],[121.105674,24.771343],[121.102717,24.771619],[121.102451,24.771517],[121.102005,24.770826],[121.101704,24.770702],[121.100579,24.770795],[121.099046,24.77063],[121.089821,24.77232],[121.088318,24.772338],[121.088003,24.775065],[121.087672,24.77396],[121.086215,24.774002],[121.086058,24.773835],[121.086007,24.773361],[121.085717,24.773055],[121.085133,24.772847],[121.083513,24.77282],[121.083248,24.772699],[121.083044,24.77234],[121.083822,24.771166],[121.084714,24.770395],[121.085034,24.770567],[121.088006,24.767415],[121.088334,24.766698],[121.08825,24.765909],[121.08844,24.764728],[121.089027,24.763377],[121.089927,24.762341],[121.092061,24.758792],[121.094003,24.759727],[121.094311,24.760597],[121.0952,24.761694],[121.096049,24.761837],[121.097581,24.761502],[121.099626,24.761844],[121.100995,24.762261],[121.102462,24.762417],[121.103348,24.76191],[121.105294,24.759651],[121.106772,24.759232],[121.107202,24.758763],[121.107906,24.757358],[121.109604,24.75704],[121.109963,24.756712],[121.111099,24.757144],[121.114706,24.757783],[121.115589,24.758254],[121.116131,24.759545],[121.116778,24.763631]]]},"properties":{"code":"10004070006","name":"新鳳村","countyCode":"10004","countyName":"新竹縣","townCode":"10004070","townName":"芎林鄉","level":"village","unassigned":false,"note":"","label":[121.09819829763197,24.766195254220396],"bounds":[121.083044,24.756712,121.116778,24.775065],"focusBounds":[121.083044,24.756712,121.116778,24.775065],"color":"#c38cb8"}},{"type":"Feature","id":"10004070007","geometry":{"type":"Polygon","coordinates":[[[121.112,24.784321],[121.107464,24.785622],[121.10664,24.785655],[121.105768,24.785338],[121.104341,24.784629],[121.103025,24.784284],[121.101739,24.783756],[121.100507,24.782558],[121.09945,24.781783],[121.097336,24.781548],[121.097212,24.781269],[121.097371,24.781113],[121.099102,24.781144],[121.098611,24.779289],[121.097466,24.778972],[121.095857,24.778844],[121.094233,24.777691],[121.0895,24.775419],[121.089233,24.775362],[121.088746,24.775596],[121.087992,24.775424],[121.088003,24.775065],[121.088318,24.772338],[121.089821,24.77232],[121.099046,24.77063],[121.100579,24.770795],[121.101704,24.770702],[121.102005,24.770826],[121.102451,24.771517],[121.102717,24.771619],[121.105674,24.771343],[121.107095,24.771709],[121.107758,24.771291],[121.108166,24.770752],[121.108722,24.769681],[121.108946,24.768184],[121.109247,24.767666],[121.110566,24.767248],[121.111469,24.765985],[121.112464,24.765319],[121.113297,24.76514],[121.114345,24.764718],[121.115588,24.763989],[121.116778,24.763631],[121.117035,24.76368],[121.117307,24.763977],[121.118037,24.765564],[121.118903,24.766553],[121.118565,24.766752],[121.118451,24.767101],[121.118503,24.770068],[121.117992,24.771903],[121.117632,24.772441],[121.117509,24.773277],[121.117703,24.773999],[121.117668,24.775554],[121.117185,24.776323],[121.116058,24.777233],[121.115459,24.776847],[121.114429,24.777213],[121.114402,24.777763],[121.11488,24.779255],[121.115544,24.780441],[121.115139,24.780746],[121.114887,24.781384],[121.113489,24.781944],[121.113513,24.78313],[121.1132,24.783652],[121.113035,24.783812],[121.112552,24.783816],[121.112,24.784321]]]},"properties":{"code":"10004070007","name":"中坑村","countyCode":"10004","countyName":"新竹縣","townCode":"10004070","townName":"芎林鄉","level":"village","unassigned":false,"note":"","label":[121.10754459339127,24.778512396254023],"bounds":[121.087992,24.763631,121.118903,24.785655],"focusBounds":[121.087992,24.763631,121.118903,24.785655],"color":"#98b69b"}},{"type":"Feature","id":"10004070008","geometry":{"type":"Polygon","coordinates":[[[121.108916,24.792414],[121.107689,24.792266],[121.106342,24.792968],[121.105586,24.793077],[121.103688,24.793085],[121.102674,24.79279],[121.101945,24.793421],[121.101056,24.793775],[121.10045,24.79384],[121.100066,24.794117],[121.099465,24.794103],[121.098549,24.793812],[121.098313,24.794064],[121.097055,24.794679],[121.096658,24.795088],[121.096143,24.794972],[121.095807,24.794594],[121.095231,24.794419],[121.094871,24.794128],[121.093118,24.794222],[121.092705,24.793297],[121.092193,24.793067],[121.09177,24.792424],[121.091312,24.792332],[121.091251,24.79169],[121.09087,24.791398],[121.089684,24.791538],[121.089085,24.791895],[121.088754,24.792302],[121.088329,24.79237],[121.087657,24.792281],[121.087256,24.791624],[121.086091,24.791659],[121.08547,24.791261],[121.085648,24.787925],[121.085247,24.787476],[121.084587,24.787217],[121.08366,24.786395],[121.083301,24.785885],[121.083066,24.784921],[121.082608,24.784492],[121.084273,24.784181],[121.085821,24.783359],[121.086008,24.783072],[121.086068,24.782915],[121.085322,24.781464],[121.084395,24.780326],[121.084385,24.779192],[121.085113,24.778398],[121.086643,24.777759],[121.087761,24.777029],[121.088045,24.776564],[121.087992,24.775424],[121.088746,24.775596],[121.089233,24.775362],[121.0895,24.775419],[121.094233,24.777691],[121.095857,24.778844],[121.097466,24.778972],[121.098611,24.779289],[121.099102,24.781144],[121.097371,24.781113],[121.097212,24.781269],[121.097336,24.781548],[121.09945,24.781783],[121.100507,24.782558],[121.101739,24.783756],[121.103025,24.784284],[121.104341,24.784629],[121.105768,24.785338],[121.10664,24.785655],[121.107464,24.785622],[121.112,24.784321],[121.111932,24.785072],[121.11219,24.786609],[121.111188,24.787403],[121.110783,24.787932],[121.110105,24.788385],[121.109086,24.790735],[121.108916,24.792414]]]},"properties":{"code":"10004070008","name":"水坑村","countyCode":"10004","countyName":"新竹縣","townCode":"10004070","townName":"芎林鄉","level":"village","unassigned":false,"note":"","label":[121.0960251046787,24.787520510616414],"bounds":[121.082608,24.775362,121.11219,24.795088],"focusBounds":[121.082608,24.775362,121.11219,24.795088],"color":"#78a7e3"}},{"type":"Feature","id":"10004070009","geometry":{"type":"Polygon","coordinates":[[[121.087992,24.775424],[121.088045,24.776564],[121.087761,24.777029],[121.086643,24.777759],[121.085113,24.778398],[121.084385,24.779192],[121.084395,24.780326],[121.085322,24.781464],[121.086068,24.782915],[121.086008,24.783072],[121.085821,24.783359],[121.084273,24.784181],[121.082608,24.784492],[121.081135,24.783029],[121.081268,24.781285],[121.080629,24.779288],[121.081354,24.775823],[121.080331,24.773957],[121.080223,24.773509],[121.078463,24.773902],[121.078435,24.772839],[121.079307,24.771314],[121.07963,24.770256],[121.079164,24.769625],[121.078672,24.767434],[121.078573,24.766262],[121.079869,24.765108],[121.080887,24.764681],[121.081245,24.76359],[121.081739,24.762914],[121.081855,24.762216],[121.082615,24.760464],[121.082664,24.759925],[121.084069,24.758637],[121.084536,24.757248],[121.083938,24.756861],[121.082735,24.757411],[121.082669,24.756927],[121.084777,24.755179],[121.085756,24.754141],[121.089309,24.75144],[121.091604,24.749899],[121.092706,24.748976],[121.094441,24.748347],[121.096873,24.749945],[121.093584,24.7553],[121.092061,24.758792],[121.089927,24.762341],[121.089027,24.763377],[121.08844,24.764728],[121.08825,24.765909],[121.088334,24.766698],[121.088006,24.767415],[121.085034,24.770567],[121.084714,24.770395],[121.083822,24.771166],[121.083044,24.77234],[121.083248,24.772699],[121.083513,24.77282],[121.085133,24.772847],[121.085717,24.773055],[121.086007,24.773361],[121.086058,24.773835],[121.086215,24.774002],[121.087672,24.77396],[121.088003,24.775065],[121.087992,24.775424]]]},"properties":{"code":"10004070009","name":"文林村","countyCode":"10004","countyName":"新竹縣","townCode":"10004070","townName":"芎林鄉","level":"village","unassigned":false,"note":"","label":[121.08449696097249,24.765649712655367],"bounds":[121.078435,24.748347,121.096873,24.784492],"focusBounds":[121.078435,24.748347,121.096873,24.784492],"color":"#efb44f"}},{"type":"Feature","id":"10004070010","geometry":{"type":"Polygon","coordinates":[[[121.078463,24.773902],[121.080223,24.773509],[121.080331,24.773957],[121.081354,24.775823],[121.080629,24.779288],[121.079118,24.778923],[121.078758,24.778275],[121.075201,24.775769],[121.076096,24.775453],[121.078463,24.773902]]]},"properties":{"code":"10004070010","name":"芎林村","countyCode":"10004","countyName":"新竹縣","townCode":"10004070","townName":"芎林鄉","level":"village","unassigned":false,"note":"","label":[121.07901726056394,24.775980404724052],"bounds":[121.075201,24.773509,121.081354,24.779288],"focusBounds":[121.075201,24.773509,121.081354,24.779288],"color":"#78a7e3"}},{"type":"Feature","id":"10004070011","geometry":{"type":"Polygon","coordinates":[[[121.08547,24.791261],[121.084624,24.791283],[121.084348,24.791492],[121.084186,24.791824],[121.084334,24.792975],[121.083113,24.793171],[121.082726,24.793647],[121.082406,24.795421],[121.081735,24.795492],[121.081353,24.795845],[121.080604,24.795813],[121.080144,24.797304],[121.080159,24.797723],[121.080356,24.798042],[121.08106,24.798335],[121.081115,24.799136],[121.080418,24.80029],[121.078233,24.80178],[121.077577,24.801775],[121.07792,24.801427],[121.078046,24.800441],[121.078088,24.799787],[121.077855,24.79895],[121.077982,24.79835],[121.077791,24.797456],[121.07739,24.797119],[121.077105,24.796568],[121.07702,24.794923],[121.076766,24.79424],[121.074442,24.793363],[121.072808,24.793527],[121.071716,24.793363],[121.070714,24.792911],[121.069417,24.791757],[121.069142,24.7917],[121.06675,24.792259],[121.066507,24.792095],[121.06614,24.791344],[121.065654,24.790767],[121.065349,24.790603],[121.064695,24.790613],[121.063029,24.791008],[121.06083,24.790841],[121.062593,24.790167],[121.063436,24.789675],[121.06551,24.787636],[121.066631,24.785824],[121.066241,24.785157],[121.066481,24.78456],[121.065375,24.783901],[121.064801,24.784319],[121.063062,24.786128],[121.061997,24.786598],[121.061472,24.786483],[121.061896,24.785453],[121.062041,24.782576],[121.062285,24.781645],[121.06229,24.780638],[121.062491,24.780279],[121.063688,24.779345],[121.067432,24.778341],[121.067801,24.778119],[121.069367,24.776488],[121.070208,24.775965],[121.070627,24.774578],[121.071943,24.774095],[121.073365,24.774159],[121.073914,24.773917],[121.074341,24.773508],[121.075265,24.772046],[121.075616,24.770587],[121.076639,24.769639],[121.077115,24.768578],[121.078091,24.76729],[121.078066,24.766737],[121.078573,24.766262],[121.078672,24.767434],[121.079164,24.769625],[121.07963,24.770256],[121.079307,24.771314],[121.078435,24.772839],[121.078463,24.773902],[121.076096,24.775453],[121.075201,24.775769],[121.078758,24.778275],[121.079118,24.778923],[121.080629,24.779288],[121.081268,24.781285],[121.081135,24.783029],[121.082608,24.784492],[121.083066,24.784921],[121.083301,24.785885],[121.08366,24.786395],[121.084587,24.787217],[121.085247,24.787476],[121.085648,24.787925],[121.08547,24.791261]]]},"properties":{"code":"10004070011","name":"上山村","countyCode":"10004","countyName":"新竹縣","townCode":"10004070","townName":"芎林鄉","level":"village","unassigned":false,"note":"","label":[121.0741275416129,24.78580957222129],"bounds":[121.06083,24.766262,121.085648,24.80178],"focusBounds":[121.06083,24.766262,121.085648,24.80178],"color":"#dd8590"}},{"type":"Feature","id":"10004070012","geometry":{"type":"Polygon","coordinates":[[[121.05866,24.814769],[121.056694,24.81493],[121.054015,24.814394],[121.05236,24.8145],[121.052178,24.814107],[121.052241,24.813735],[121.052529,24.813783],[121.052701,24.81362],[121.052726,24.812965],[121.052996,24.812346],[121.054625,24.810611],[121.055795,24.809044],[121.057727,24.807466],[121.058497,24.80744],[121.059902,24.806792],[121.060688,24.806056],[121.061812,24.804237],[121.062061,24.803009],[121.062,24.802515],[121.061587,24.801917],[121.061215,24.800953],[121.060798,24.80081],[121.060501,24.800012],[121.059359,24.799637],[121.059375,24.799202],[121.058653,24.798153],[121.058284,24.796443],[121.058432,24.79577],[121.059931,24.794935],[121.060504,24.793922],[121.060172,24.792748],[121.060248,24.791347],[121.059567,24.790717],[121.06083,24.790841],[121.063029,24.791008],[121.064695,24.790613],[121.065349,24.790603],[121.065654,24.790767],[121.06614,24.791344],[121.066507,24.792095],[121.06675,24.792259],[121.069142,24.7917],[121.069417,24.791757],[121.070714,24.792911],[121.071716,24.793363],[121.072808,24.793527],[121.074442,24.793363],[121.076766,24.79424],[121.07702,24.794923],[121.077105,24.796568],[121.07739,24.797119],[121.077791,24.797456],[121.077982,24.79835],[121.077855,24.79895],[121.078088,24.799787],[121.078046,24.800441],[121.07792,24.801427],[121.077577,24.801775],[121.075801,24.801877],[121.074637,24.802249],[121.073981,24.803105],[121.073954,24.804321],[121.073465,24.804917],[121.073413,24.806142],[121.07291,24.807798],[121.072568,24.808264],[121.072751,24.809379],[121.071743,24.810041],[121.069773,24.810731],[121.06865,24.811574],[121.068101,24.811512],[121.066963,24.81232],[121.065913,24.812616],[121.065497,24.813634],[121.064452,24.813581],[121.063866,24.813917],[121.063738,24.81434],[121.062591,24.814342],[121.061988,24.81476],[121.060919,24.814838],[121.060275,24.814537],[121.059413,24.814448],[121.058993,24.814554],[121.05877,24.814451],[121.05866,24.814769]]]},"properties":{"code":"10004070012","name":"下山村","countyCode":"10004","countyName":"新竹縣","townCode":"10004070","townName":"芎林鄉","level":"village","unassigned":false,"note":"","label":[121.06823462758435,24.799364148764912],"bounds":[121.052178,24.790603,121.078088,24.81493],"focusBounds":[121.052178,24.790603,121.078088,24.81493],"color":"#a8bf62"}}]}
