{"type":"FeatureCollection","features":[{"type":"Feature","id":"10002100001","geometry":{"type":"Polygon","coordinates":[[[121.608542,24.659003],[121.606911,24.661385],[121.605453,24.664137],[121.604479,24.666602],[121.603653,24.669641],[121.601799,24.668248],[121.598827,24.666931],[121.59659,24.666378],[121.594427,24.665564],[121.592632,24.66408],[121.591059,24.663577],[121.590497,24.663245],[121.588096,24.661024],[121.58807,24.659841],[121.587042,24.65827],[121.586559,24.657246],[121.583674,24.65504],[121.582335,24.655424],[121.581928,24.655337],[121.581432,24.654991],[121.580943,24.654513],[121.579767,24.652522],[121.578115,24.651531],[121.577044,24.650627],[121.576852,24.649985],[121.576393,24.649762],[121.576027,24.648825],[121.573882,24.648071],[121.568745,24.64811],[121.568083,24.647878],[121.566453,24.646889],[121.565995,24.646369],[121.565775,24.644984],[121.564711,24.643327],[121.564553,24.64191],[121.56486,24.641568],[121.565696,24.640757],[121.566561,24.64047],[121.567409,24.640716],[121.568416,24.641405],[121.569212,24.64168],[121.56973,24.641275],[121.569726,24.640846],[121.56933,24.640405],[121.569324,24.64018],[121.569671,24.639101],[121.569897,24.638862],[121.570478,24.638827],[121.5714,24.639055],[121.574147,24.639364],[121.575988,24.638641],[121.577173,24.637963],[121.578009,24.637099],[121.58104,24.638227],[121.586641,24.63831],[121.587753,24.638782],[121.588276,24.639311],[121.58928,24.639563],[121.591517,24.637361],[121.592481,24.635864],[121.593886,24.634503],[121.594251,24.633923],[121.594757,24.633564],[121.594993,24.632802],[121.595455,24.632551],[121.595643,24.632147],[121.596076,24.631915],[121.596873,24.631886],[121.598257,24.631499],[121.601273,24.631546],[121.601442,24.63184],[121.601351,24.632616],[121.601483,24.632943],[121.602033,24.633288],[121.603022,24.633217],[121.603436,24.633384],[121.603675,24.633667],[121.603607,24.63435],[121.603822,24.634807],[121.604417,24.63516],[121.605672,24.635582],[121.606788,24.636236],[121.607646,24.636545],[121.608203,24.636549],[121.61087,24.635536],[121.612705,24.634507],[121.615993,24.632077],[121.619453,24.629261],[121.622611,24.626105],[121.624004,24.62516],[121.624914,24.624965],[121.625531,24.625064],[121.625762,24.625281],[121.625455,24.627147],[121.624935,24.628592],[121.625154,24.631311],[121.62471,24.633512],[121.626037,24.635708],[121.627298,24.636857],[121.628585,24.638721],[121.629254,24.639283],[121.629524,24.639277],[121.629933,24.63827],[121.630333,24.638017],[121.63347,24.63797],[121.635199,24.637488],[121.636458,24.637571],[121.638017,24.638848],[121.639117,24.639455],[121.639718,24.639256],[121.642475,24.639122],[121.643374,24.638755],[121.645263,24.639001],[121.6458,24.638686],[121.646487,24.63762],[121.647063,24.636274],[121.647351,24.636082],[121.648547,24.635825],[121.649667,24.636038],[121.651878,24.635936],[121.653194,24.636598],[121.653868,24.636563],[121.655116,24.636163],[121.655988,24.636251],[121.657502,24.636953],[121.657201,24.637893],[121.656635,24.638847],[121.655852,24.639663],[121.654844,24.640308],[121.654237,24.640422],[121.652007,24.642116],[121.650987,24.642359],[121.650492,24.642737],[121.650427,24.643239],[121.649908,24.643546],[121.649753,24.643843],[121.649849,24.644679],[121.649704,24.646048],[121.649208,24.647757],[121.649042,24.647475],[121.649078,24.646955],[121.649698,24.645283],[121.649696,24.644871],[121.648844,24.643349],[121.64888,24.642757],[121.649327,24.641911],[121.649345,24.641552],[121.649207,24.641191],[121.648704,24.640932],[121.646439,24.641341],[121.645638,24.640815],[121.643293,24.639957],[121.641785,24.640135],[121.641182,24.641135],[121.640755,24.64153],[121.64151,24.642377],[121.640617,24.642708],[121.640255,24.641908],[121.639807,24.641632],[121.639269,24.641536],[121.638769,24.641718],[121.638396,24.64221],[121.638039,24.642343],[121.637357,24.64231],[121.637195,24.642792],[121.635962,24.642169],[121.635212,24.642423],[121.635462,24.642751],[121.636076,24.642827],[121.636256,24.643049],[121.636036,24.643172],[121.63577,24.643095],[121.635039,24.643439],[121.635805,24.643493],[121.636077,24.643712],[121.636566,24.644507],[121.63635,24.64448],[121.635831,24.643999],[121.635618,24.64399],[121.635949,24.644322],[121.636145,24.644804],[121.633528,24.646049],[121.631944,24.646275],[121.630206,24.64578],[121.627828,24.644439],[121.626289,24.644467],[121.625483,24.644694],[121.622852,24.646336],[121.621778,24.646675],[121.620017,24.646526],[121.613835,24.644056],[121.613121,24.643355],[121.61265,24.643142],[121.612062,24.643055],[121.610573,24.643257],[121.609934,24.642786],[121.60815,24.643046],[121.607348,24.642185],[121.606983,24.642141],[121.606368,24.643382],[121.605554,24.644265],[121.600873,24.647222],[121.600083,24.648295],[121.59961,24.648693],[121.598617,24.64917],[121.597507,24.649369],[121.597261,24.649566],[121.597163,24.649912],[121.597462,24.651172],[121.598542,24.652201],[121.600282,24.653405],[121.602292,24.654318],[121.604185,24.656493],[121.604841,24.656688],[121.605667,24.656528],[121.606037,24.656624],[121.606126,24.656746],[121.605866,24.657188],[121.606059,24.657538],[121.606384,24.657587],[121.608073,24.658813],[121.608542,24.659003]]]},"properties":{"code":"10002100001","name":"員山村","countyCode":"10002","countyName":"宜蘭縣","townCode":"10002100","townName":"三星鄉","level":"village","unassigned":false,"note":"","label":[121.59824534369311,24.640431070653342],"bounds":[121.564553,24.624965,121.657502,24.669641],"focusBounds":[121.564553,24.624965,121.657502,24.669641],"color":"#a49ad4"}},{"type":"Feature","id":"10002100002","geometry":{"type":"Polygon","coordinates":[[[121.631057,24.661127],[121.630384,24.661068],[121.629732,24.660791],[121.629058,24.659874],[121.627616,24.659418],[121.627083,24.659387],[121.625414,24.659623],[121.62529,24.659535],[121.624008,24.660453],[121.623,24.660589],[121.622941,24.661851],[121.619819,24.661667],[121.619154,24.66201],[121.61782,24.661905],[121.616935,24.662023],[121.616019,24.661686],[121.613853,24.660452],[121.613621,24.660442],[121.61318,24.660752],[121.612846,24.660685],[121.608542,24.659003],[121.608073,24.658813],[121.606384,24.657587],[121.606059,24.657538],[121.605866,24.657188],[121.606126,24.656746],[121.606037,24.656624],[121.605667,24.656528],[121.604841,24.656688],[121.604185,24.656493],[121.602292,24.654318],[121.600282,24.653405],[121.598542,24.652201],[121.597462,24.651172],[121.597163,24.649912],[121.597261,24.649566],[121.597507,24.649369],[121.598617,24.64917],[121.59961,24.648693],[121.600083,24.648295],[121.600873,24.647222],[121.605554,24.644265],[121.606368,24.643382],[121.606983,24.642141],[121.607348,24.642185],[121.60815,24.643046],[121.609934,24.642786],[121.610573,24.643257],[121.612062,24.643055],[121.61265,24.643142],[121.613121,24.643355],[121.613835,24.644056],[121.620017,24.646526],[121.621778,24.646675],[121.622852,24.646336],[121.625483,24.644694],[121.626289,24.644467],[121.627828,24.644439],[121.630206,24.64578],[121.631944,24.646275],[121.633528,24.646049],[121.636145,24.644804],[121.636275,24.64495],[121.636304,24.64574],[121.636848,24.645965],[121.637019,24.646195],[121.637134,24.645873],[121.63747,24.6458],[121.637303,24.645963],[121.637274,24.64644],[121.637542,24.646144],[121.637914,24.646063],[121.63782,24.646342],[121.637967,24.646812],[121.637528,24.647228],[121.63706,24.647299],[121.636296,24.647097],[121.636206,24.647194],[121.63635,24.647551],[121.635901,24.647359],[121.635533,24.64765],[121.635247,24.64766],[121.635287,24.647987],[121.635583,24.648338],[121.636062,24.648555],[121.636613,24.648468],[121.636954,24.649315],[121.636289,24.650656],[121.63614,24.652462],[121.635689,24.653984],[121.632696,24.657301],[121.631197,24.659354],[121.631057,24.661127]]]},"properties":{"code":"10002100002","name":"天山村","countyCode":"10002","countyName":"宜蘭縣","townCode":"10002100","townName":"三星鄉","level":"village","unassigned":false,"note":"","label":[121.61764243427017,24.65375288967799],"bounds":[121.597163,24.642141,121.637967,24.662023],"focusBounds":[121.597163,24.642141,121.637967,24.662023],"color":"#a8bf62"}},{"type":"Feature","id":"10002100003","geometry":{"type":"Polygon","coordinates":[[[121.622824,24.681627],[121.622132,24.681637],[121.62151,24.681336],[121.620658,24.680187],[121.619938,24.679552],[121.618125,24.678633],[121.616601,24.677662],[121.615161,24.675915],[121.613581,24.675385],[121.611586,24.674084],[121.61056,24.673215],[121.609712,24.673104],[121.608216,24.672464],[121.606065,24.672015],[121.605055,24.671304],[121.604033,24.670091],[121.603653,24.669641],[121.604479,24.666602],[121.605453,24.664137],[121.606911,24.661385],[121.608542,24.659003],[121.612846,24.660685],[121.61318,24.660752],[121.613621,24.660442],[121.613853,24.660452],[121.616019,24.661686],[121.616935,24.662023],[121.61782,24.661905],[121.619154,24.66201],[121.619819,24.661667],[121.622941,24.661851],[121.623,24.660589],[121.624008,24.660453],[121.62529,24.659535],[121.625414,24.659623],[121.627083,24.659387],[121.627616,24.659418],[121.629058,24.659874],[121.629732,24.660791],[121.630384,24.661068],[121.631057,24.661127],[121.631649,24.666172],[121.629314,24.666801],[121.627459,24.666503],[121.627723,24.667505],[121.627672,24.667676],[121.6274,24.667678],[121.62745,24.66781],[121.627604,24.667996],[121.628426,24.667981],[121.628514,24.668287],[121.628209,24.668415],[121.628029,24.669066],[121.62771,24.66913],[121.628009,24.669723],[121.627538,24.66982],[121.627375,24.670312],[121.627613,24.670686],[121.627506,24.671336],[121.627862,24.671392],[121.627792,24.671616],[121.627147,24.672653],[121.62699,24.672499],[121.626834,24.672633],[121.627597,24.673674],[121.627914,24.674418],[121.62735,24.675557],[121.62777,24.67584],[121.628069,24.676596],[121.625843,24.679954],[121.6274,24.680818],[121.625755,24.680869],[121.62497,24.680693],[121.624088,24.680948],[121.622824,24.681627]]]},"properties":{"code":"10002100003","name":"天福村","countyCode":"10002","countyName":"宜蘭縣","townCode":"10002100","townName":"三星鄉","level":"village","unassigned":false,"note":"","label":[121.618533844565,24.669600678891207],"bounds":[121.603653,24.659003,121.631649,24.681637],"focusBounds":[121.603653,24.659003,121.631649,24.681637],"color":"#68bec9"}},{"type":"Feature","id":"10002100004","geometry":{"type":"Polygon","coordinates":[[[121.648018,24.668556],[121.647396,24.668817],[121.642561,24.668275],[121.642496,24.668635],[121.641978,24.668557],[121.641997,24.668251],[121.635398,24.66766],[121.635601,24.66687],[121.631649,24.666172],[121.631057,24.661127],[121.631197,24.659354],[121.632696,24.657301],[121.635689,24.653984],[121.63614,24.652462],[121.636289,24.650656],[121.636954,24.649315],[121.637096,24.649625],[121.637008,24.650347],[121.637286,24.650766],[121.637598,24.650698],[121.638053,24.649974],[121.638914,24.649416],[121.639101,24.649986],[121.639467,24.649682],[121.639669,24.649681],[121.640344,24.651465],[121.640998,24.651827],[121.642198,24.652079],[121.643455,24.653108],[121.642896,24.653399],[121.642342,24.653401],[121.641787,24.653298],[121.641231,24.652984],[121.640195,24.653685],[121.639202,24.653873],[121.639974,24.654707],[121.640184,24.654578],[121.640589,24.654784],[121.640731,24.655201],[121.641487,24.655454],[121.642364,24.65529],[121.642643,24.654824],[121.643505,24.655301],[121.644208,24.65492],[121.644171,24.655895],[121.644537,24.655919],[121.644636,24.65606],[121.645421,24.65589],[121.645586,24.655286],[121.64581,24.655144],[121.646077,24.655104],[121.64664,24.655333],[121.646461,24.656052],[121.64701,24.656997],[121.646766,24.657458],[121.64669,24.658297],[121.647361,24.659273],[121.647371,24.659591],[121.647879,24.659883],[121.647877,24.661992],[121.647395,24.664796],[121.64791,24.66488],[121.647573,24.665778],[121.647686,24.666343],[121.648768,24.666443],[121.648656,24.667153],[121.649318,24.667251],[121.649614,24.667906],[121.648018,24.668556]]]},"properties":{"code":"10002100004","name":"雙賢村","countyCode":"10002","countyName":"宜蘭縣","townCode":"10002100","townName":"三星鄉","level":"village","unassigned":false,"note":"","label":[121.63964038449102,24.66172341934018],"bounds":[121.631057,24.649315,121.649614,24.668817],"focusBounds":[121.631057,24.649315,121.649614,24.668817],"color":"#df9f6a"}},{"type":"Feature","id":"10002100005","geometry":{"type":"Polygon","coordinates":[[[121.649894,24.672749],[121.650265,24.673551],[121.650582,24.677044],[121.648598,24.677081],[121.648601,24.677607],[121.644154,24.67765],[121.644171,24.679418],[121.640427,24.67946],[121.640441,24.681107],[121.641151,24.681404],[121.640444,24.682577],[121.640546,24.683383],[121.640121,24.684633],[121.639543,24.685192],[121.637803,24.683537],[121.637085,24.683099],[121.635271,24.682653],[121.633882,24.682557],[121.633168,24.682286],[121.631273,24.680357],[121.630924,24.680319],[121.629684,24.680698],[121.6274,24.680818],[121.625843,24.679954],[121.628069,24.676596],[121.62777,24.67584],[121.62735,24.675557],[121.627914,24.674418],[121.627597,24.673674],[121.626834,24.672633],[121.62699,24.672499],[121.627147,24.672653],[121.627792,24.671616],[121.627862,24.671392],[121.627506,24.671336],[121.627613,24.670686],[121.627375,24.670312],[121.627538,24.66982],[121.628009,24.669723],[121.62771,24.66913],[121.628029,24.669066],[121.628209,24.668415],[121.628514,24.668287],[121.628426,24.667981],[121.627604,24.667996],[121.62745,24.66781],[121.6274,24.667678],[121.627672,24.667676],[121.627723,24.667505],[121.627459,24.666503],[121.629314,24.666801],[121.631649,24.666172],[121.635601,24.66687],[121.635398,24.66766],[121.641997,24.668251],[121.641978,24.668557],[121.642496,24.668635],[121.642561,24.668275],[121.647396,24.668817],[121.648018,24.668556],[121.648866,24.669309],[121.649557,24.669399],[121.650176,24.669696],[121.649607,24.671974],[121.649894,24.672749]]]},"properties":{"code":"10002100005","name":"人和村","countyCode":"10002","countyName":"宜蘭縣","townCode":"10002100","townName":"三星鄉","level":"village","unassigned":false,"note":"","label":[121.63535436980706,24.674749897331612],"bounds":[121.625843,24.666172,121.650582,24.685192],"focusBounds":[121.625843,24.666172,121.650582,24.685192],"color":"#c38cb8"}},{"type":"Feature","id":"10002100006","geometry":{"type":"Polygon","coordinates":[[[121.649894,24.672749],[121.649607,24.671974],[121.650176,24.669696],[121.649557,24.669399],[121.648866,24.669309],[121.648018,24.668556],[121.649614,24.667906],[121.649318,24.667251],[121.648656,24.667153],[121.648768,24.666443],[121.647686,24.666343],[121.647573,24.665778],[121.64791,24.66488],[121.647395,24.664796],[121.647877,24.661992],[121.647879,24.659883],[121.647371,24.659591],[121.647361,24.659273],[121.64669,24.658297],[121.646766,24.657458],[121.64701,24.656997],[121.646461,24.656052],[121.64664,24.655333],[121.646077,24.655104],[121.64581,24.655144],[121.645586,24.655286],[121.645421,24.65589],[121.644636,24.65606],[121.644537,24.655919],[121.644171,24.655895],[121.644208,24.65492],[121.643505,24.655301],[121.642643,24.654824],[121.642364,24.65529],[121.641487,24.655454],[121.640731,24.655201],[121.640589,24.654784],[121.640184,24.654578],[121.639974,24.654707],[121.639202,24.653873],[121.640195,24.653685],[121.641231,24.652984],[121.641787,24.653298],[121.642342,24.653401],[121.642896,24.653399],[121.643455,24.653108],[121.642198,24.652079],[121.640998,24.651827],[121.640344,24.651465],[121.639669,24.649681],[121.639467,24.649682],[121.639101,24.649986],[121.638914,24.649416],[121.638053,24.649974],[121.637598,24.650698],[121.637286,24.650766],[121.637008,24.650347],[121.637096,24.649625],[121.636954,24.649315],[121.636613,24.648468],[121.636062,24.648555],[121.635583,24.648338],[121.635287,24.647987],[121.635247,24.64766],[121.635533,24.64765],[121.635901,24.647359],[121.63635,24.647551],[121.636206,24.647194],[121.636296,24.647097],[121.63706,24.647299],[121.637528,24.647228],[121.637967,24.646812],[121.63782,24.646342],[121.637914,24.646063],[121.637542,24.646144],[121.637274,24.64644],[121.637303,24.645963],[121.63747,24.6458],[121.637134,24.645873],[121.637019,24.646195],[121.636848,24.645965],[121.636304,24.64574],[121.636275,24.64495],[121.636145,24.644804],[121.635949,24.644322],[121.635618,24.64399],[121.635831,24.643999],[121.63635,24.64448],[121.636566,24.644507],[121.636077,24.643712],[121.635805,24.643493],[121.635039,24.643439],[121.63577,24.643095],[121.636036,24.643172],[121.636256,24.643049],[121.636076,24.642827],[121.635462,24.642751],[121.635212,24.642423],[121.635962,24.642169],[121.637195,24.642792],[121.637357,24.64231],[121.638039,24.642343],[121.638396,24.64221],[121.638769,24.641718],[121.639269,24.641536],[121.639807,24.641632],[121.640255,24.641908],[121.640617,24.642708],[121.64151,24.642377],[121.640755,24.64153],[121.641182,24.641135],[121.641785,24.640135],[121.643293,24.639957],[121.645638,24.640815],[121.646439,24.641341],[121.648704,24.640932],[121.649207,24.641191],[121.649345,24.641552],[121.649327,24.641911],[121.64888,24.642757],[121.648844,24.643349],[121.649696,24.644871],[121.649698,24.645283],[121.649078,24.646955],[121.649042,24.647475],[121.649208,24.647757],[121.64947,24.648554],[121.648777,24.649971],[121.648387,24.651463],[121.647184,24.65417],[121.647648,24.654517],[121.647789,24.655097],[121.648402,24.656231],[121.652371,24.665588],[121.652384,24.666465],[121.652479,24.668339],[121.652778,24.669532],[121.653127,24.672288],[121.651041,24.672341],[121.649894,24.672749]]]},"properties":{"code":"10002100006","name":"義德村","countyCode":"10002","countyName":"宜蘭縣","townCode":"10002100","townName":"三星鄉","level":"village","unassigned":false,"note":"","label":[121.64412267993806,24.64761346685502],"bounds":[121.635039,24.639957,121.653127,24.672749],"focusBounds":[121.635039,24.639957,121.653127,24.672749],"color":"#98b69b"}},{"type":"Feature","id":"10002100007","geometry":{"type":"Polygon","coordinates":[[[121.66524,24.668293],[121.662395,24.668418],[121.654775,24.666884],[121.65378,24.666564],[121.652384,24.666465],[121.652371,24.665588],[121.648402,24.656231],[121.647789,24.655097],[121.647648,24.654517],[121.647184,24.65417],[121.648387,24.651463],[121.648777,24.649971],[121.64947,24.648554],[121.649208,24.647757],[121.649704,24.646048],[121.649849,24.644679],[121.649753,24.643843],[121.649908,24.643546],[121.650427,24.643239],[121.650492,24.642737],[121.650987,24.642359],[121.652007,24.642116],[121.654237,24.640422],[121.654844,24.640308],[121.65524,24.642856],[121.655631,24.64375],[121.657336,24.645507],[121.659092,24.648192],[121.661266,24.649906],[121.662431,24.651085],[121.663473,24.652429],[121.664192,24.653847],[121.664251,24.654341],[121.663379,24.656117],[121.662963,24.656728],[121.661006,24.658509],[121.659717,24.660424],[121.659887,24.661797],[121.660488,24.664001],[121.661424,24.66537],[121.661739,24.665667],[121.663071,24.666073],[121.664274,24.667386],[121.664497,24.667829],[121.66524,24.668293]]]},"properties":{"code":"10002100007","name":"集慶村","countyCode":"10002","countyName":"宜蘭縣","townCode":"10002100","townName":"三星鄉","level":"village","unassigned":false,"note":"","label":[121.65536223859232,24.654248650535603],"bounds":[121.647184,24.640308,121.66524,24.668418],"focusBounds":[121.647184,24.640308,121.66524,24.668418],"color":"#58b99d"}},{"type":"Feature","id":"10002100008","geometry":{"type":"Polygon","coordinates":[[[121.661607,24.674134],[121.66082,24.674395],[121.65952,24.674429],[121.659476,24.673228],[121.656755,24.672716],[121.653127,24.672288],[121.652778,24.669532],[121.652479,24.668339],[121.652384,24.666465],[121.65378,24.666564],[121.654775,24.666884],[121.662395,24.668418],[121.66524,24.668293],[121.665832,24.668611],[121.667034,24.668462],[121.667846,24.668662],[121.669302,24.669977],[121.669682,24.670326],[121.670347,24.671898],[121.670023,24.671969],[121.67005,24.672208],[121.670445,24.672152],[121.670903,24.673241],[121.66917,24.673657],[121.66262,24.673822],[121.661591,24.67394],[121.661607,24.674134]]]},"properties":{"code":"10002100008","name":"月眉村","countyCode":"10002","countyName":"宜蘭縣","townCode":"10002100","townName":"三星鄉","level":"village","unassigned":false,"note":"","label":[121.66182132463742,24.671108071664662],"bounds":[121.652384,24.666465,121.670903,24.674429],"focusBounds":[121.652384,24.666465,121.670903,24.674429],"color":"#efb44f"}},{"type":"Feature","id":"10002100009","geometry":{"type":"Polygon","coordinates":[[[121.686901,24.670239],[121.681392,24.669558],[121.671455,24.670708],[121.670094,24.670408],[121.669302,24.669977],[121.667846,24.668662],[121.667034,24.668462],[121.665832,24.668611],[121.66524,24.668293],[121.664497,24.667829],[121.664274,24.667386],[121.663071,24.666073],[121.661739,24.665667],[121.661424,24.66537],[121.660488,24.664001],[121.659887,24.661797],[121.659717,24.660424],[121.661006,24.658509],[121.662963,24.656728],[121.663379,24.656117],[121.664251,24.654341],[121.664192,24.653847],[121.663473,24.652429],[121.662431,24.651085],[121.661266,24.649906],[121.659092,24.648192],[121.657336,24.645507],[121.655631,24.64375],[121.65524,24.642856],[121.654844,24.640308],[121.655852,24.639663],[121.656635,24.638847],[121.657201,24.637893],[121.657502,24.636953],[121.658336,24.637121],[121.659606,24.638216],[121.661021,24.637111],[121.663072,24.636312],[121.664743,24.636111],[121.665551,24.636304],[121.666535,24.636846],[121.667226,24.636918],[121.667832,24.636749],[121.668716,24.636118],[121.66928,24.635921],[121.670616,24.635952],[121.67241,24.63574],[121.674858,24.636925],[121.676037,24.637802],[121.676456,24.637677],[121.676978,24.637074],[121.677879,24.636821],[121.678704,24.637004],[121.679868,24.637576],[121.681374,24.637629],[121.681993,24.63813],[121.682564,24.638274],[121.685487,24.638434],[121.685844,24.638651],[121.686441,24.639607],[121.687794,24.640522],[121.689447,24.64083],[121.69084,24.641516],[121.689104,24.644305],[121.687928,24.645561],[121.687723,24.646273],[121.687985,24.6475],[121.688558,24.648883],[121.689249,24.650102],[121.689822,24.650539],[121.689851,24.650716],[121.689482,24.651577],[121.689605,24.652055],[121.689525,24.652681],[121.688974,24.653305],[121.6895,24.654063],[121.689196,24.654742],[121.68981,24.656522],[121.689494,24.657819],[121.689614,24.65832],[121.690234,24.659404],[121.691301,24.660773],[121.691487,24.661357],[121.691221,24.661789],[121.690403,24.662164],[121.688983,24.662408],[121.687679,24.662844],[121.687315,24.66324],[121.687077,24.66514],[121.687809,24.667585],[121.686901,24.670239]]]},"properties":{"code":"10002100009","name":"拱照村","countyCode":"10002","countyName":"宜蘭縣","townCode":"10002100","townName":"三星鄉","level":"village","unassigned":false,"note":"","label":[121.67643110002462,24.65286157229469],"bounds":[121.654844,24.63574,121.691487,24.670708],"focusBounds":[121.654844,24.63574,121.691487,24.670708],"color":"#dd8590"}},{"type":"Feature","id":"10002100010","geometry":{"type":"Polygon","coordinates":[[[121.733586,24.669499],[121.725384,24.670031],[121.722625,24.67003],[121.72226,24.670435],[121.722139,24.671231],[121.721925,24.671222],[121.721856,24.671623],[121.722988,24.671752],[121.722513,24.673195],[121.722511,24.67384],[121.72391,24.674802],[121.724019,24.676475],[121.724799,24.676839],[121.724748,24.677016],[121.725168,24.677509],[121.724676,24.678087],[121.724773,24.678977],[121.724334,24.680034],[121.724364,24.681024],[121.724074,24.681135],[121.723854,24.681722],[121.72561,24.683291],[121.72453,24.684765],[121.721458,24.68337],[121.718427,24.681993],[121.715388,24.680825],[121.712593,24.678783],[121.707747,24.674193],[121.705647,24.671704],[121.702852,24.670205],[121.700909,24.668436],[121.699681,24.667866],[121.698722,24.667594],[121.697149,24.667805],[121.696035,24.668464],[121.694723,24.669963],[121.694189,24.670331],[121.692833,24.670709],[121.690133,24.67026],[121.686901,24.670239],[121.687809,24.667585],[121.687077,24.66514],[121.687315,24.66324],[121.687679,24.662844],[121.688983,24.662408],[121.690403,24.662164],[121.691221,24.661789],[121.691487,24.661357],[121.691301,24.660773],[121.690234,24.659404],[121.689614,24.65832],[121.689494,24.657819],[121.68981,24.656522],[121.689196,24.654742],[121.6895,24.654063],[121.688974,24.653305],[121.689525,24.652681],[121.689605,24.652055],[121.689482,24.651577],[121.689851,24.650716],[121.689822,24.650539],[121.689249,24.650102],[121.688558,24.648883],[121.687985,24.6475],[121.687723,24.646273],[121.687928,24.645561],[121.689104,24.644305],[121.69084,24.641516],[121.691443,24.641912],[121.69251,24.641551],[121.692789,24.641576],[121.692754,24.64219],[121.692917,24.642337],[121.693252,24.641994],[121.694263,24.641579],[121.695096,24.642147],[121.695611,24.642264],[121.696861,24.642031],[121.699612,24.641875],[121.700336,24.641503],[121.700857,24.641541],[121.701361,24.641394],[121.701987,24.642473],[121.702494,24.643904],[121.703591,24.645321],[121.706019,24.649878],[121.705293,24.650257],[121.704694,24.64964],[121.70267,24.64907],[121.701726,24.648342],[121.699499,24.6484],[121.699368,24.648752],[121.699388,24.649783],[121.702574,24.650343],[121.703163,24.650787],[121.703167,24.651303],[121.701705,24.65265],[121.700771,24.653015],[121.700341,24.652872],[121.698344,24.654232],[121.695877,24.65432],[121.695336,24.655095],[121.694892,24.656272],[121.694412,24.656894],[121.69461,24.657848],[121.695302,24.658471],[121.695661,24.658457],[121.697018,24.657754],[121.697511,24.658047],[121.697499,24.658565],[121.698037,24.658623],[121.698869,24.658061],[121.69946,24.657318],[121.700231,24.657079],[121.700538,24.657208],[121.700717,24.657842],[121.701004,24.658235],[121.703639,24.657819],[121.704824,24.657757],[121.705475,24.657916],[121.706665,24.657698],[121.706773,24.657226],[121.706645,24.655861],[121.707476,24.654856],[121.707623,24.653441],[121.70801,24.652906],[121.708595,24.652507],[121.708777,24.652061],[121.709837,24.651632],[121.710463,24.651174],[121.710633,24.650852],[121.712196,24.651539],[121.713728,24.651986],[121.71473,24.652096],[121.714963,24.653179],[121.715756,24.653826],[121.715771,24.653974],[121.722346,24.651706],[121.722522,24.651682],[121.722787,24.652152],[121.723169,24.652163],[121.723698,24.652051],[121.726637,24.658243],[121.72816,24.662075],[121.728842,24.663413],[121.730662,24.665656],[121.731839,24.667471],[121.733547,24.669171],[121.733586,24.669499]]]},"properties":{"code":"10002100010","name":"大隱村","countyCode":"10002","countyName":"宜蘭縣","townCode":"10002100","townName":"三星鄉","level":"village","unassigned":false,"note":"","label":[121.71443979666464,24.6639762831317],"bounds":[121.686901,24.641394,121.733586,24.684765],"focusBounds":[121.686901,24.641394,121.733586,24.684765],"color":"#a49ad4"}},{"type":"Feature","id":"10002100011","geometry":{"type":"Polygon","coordinates":[[[121.712593,24.678783],[121.711967,24.679209],[121.710263,24.679275],[121.709598,24.679767],[121.709455,24.681562],[121.708091,24.681511],[121.70826,24.680742],[121.707249,24.680623],[121.701644,24.680616],[121.701654,24.679649],[121.701961,24.679654],[121.701996,24.678611],[121.701616,24.678597],[121.7016,24.679163],[121.700981,24.679155],[121.70098,24.679646],[121.701555,24.679649],[121.701547,24.680621],[121.700293,24.680608],[121.699722,24.680472],[121.699391,24.680593],[121.69826,24.680575],[121.69826,24.679625],[121.697254,24.67961],[121.697275,24.678543],[121.689401,24.678477],[121.689406,24.677374],[121.688937,24.67746],[121.688362,24.677267],[121.688355,24.676785],[121.684373,24.676856],[121.684378,24.675974],[121.679289,24.676357],[121.678584,24.676281],[121.670903,24.673241],[121.670445,24.672152],[121.67005,24.672208],[121.670023,24.671969],[121.670347,24.671898],[121.669682,24.670326],[121.669302,24.669977],[121.670094,24.670408],[121.671455,24.670708],[121.681392,24.669558],[121.686901,24.670239],[121.690133,24.67026],[121.692833,24.670709],[121.694189,24.670331],[121.694723,24.669963],[121.696035,24.668464],[121.697149,24.667805],[121.698722,24.667594],[121.699681,24.667866],[121.700909,24.668436],[121.702852,24.670205],[121.705647,24.671704],[121.707747,24.674193],[121.712593,24.678783]]]},"properties":{"code":"10002100011","name":"行健村","countyCode":"10002","countyName":"宜蘭縣","townCode":"10002100","townName":"三星鄉","level":"village","unassigned":false,"note":"","label":[121.69815307055677,24.673646833687947],"bounds":[121.669302,24.667594,121.712593,24.681562],"focusBounds":[121.669302,24.667594,121.712593,24.681562],"color":"#a8bf62"}},{"type":"Feature","id":"10002100012","geometry":{"type":"Polygon","coordinates":[[[121.666115,24.683198],[121.663465,24.683424],[121.661648,24.683124],[121.661569,24.685228],[121.657149,24.685102],[121.657181,24.684127],[121.652903,24.683998],[121.652783,24.682738],[121.651102,24.682071],[121.650963,24.682859],[121.650518,24.68278],[121.650536,24.682561],[121.65038,24.682484],[121.648638,24.682379],[121.648615,24.684509],[121.646298,24.684235],[121.644181,24.682791],[121.643115,24.68226],[121.641008,24.686423],[121.639543,24.685192],[121.640121,24.684633],[121.640546,24.683383],[121.640444,24.682577],[121.641151,24.681404],[121.640441,24.681107],[121.640427,24.67946],[121.644171,24.679418],[121.644154,24.67765],[121.648601,24.677607],[121.648598,24.677081],[121.650582,24.677044],[121.650265,24.673551],[121.649894,24.672749],[121.651041,24.672341],[121.653127,24.672288],[121.656755,24.672716],[121.659476,24.673228],[121.65952,24.674429],[121.66082,24.674395],[121.661607,24.674134],[121.661719,24.675223],[121.66357,24.674805],[121.663617,24.676189],[121.663077,24.676233],[121.663063,24.676669],[121.666384,24.676671],[121.666115,24.683198]]]},"properties":{"code":"10002100012","name":"萬德村","countyCode":"10002","countyName":"宜蘭縣","townCode":"10002100","townName":"三星鄉","level":"village","unassigned":false,"note":"","label":[121.65590773561564,24.678352477600345],"bounds":[121.639543,24.672288,121.666384,24.686423],"focusBounds":[121.639543,24.672288,121.666384,24.686423],"color":"#a8bf62"}},{"type":"Feature","id":"10002100013","geometry":{"type":"Polygon","coordinates":[[[121.678463,24.702644],[121.676181,24.70197],[121.671711,24.704563],[121.662914,24.703945],[121.662598,24.703811],[121.659397,24.702189],[121.658297,24.701429],[121.654264,24.699714],[121.653213,24.698967],[121.651764,24.698206],[121.649306,24.693605],[121.648507,24.693143],[121.646854,24.69254],[121.644003,24.690585],[121.643559,24.689956],[121.643148,24.688446],[121.642597,24.687601],[121.641008,24.686423],[121.643115,24.68226],[121.644181,24.682791],[121.646298,24.684235],[121.648615,24.684509],[121.648638,24.682379],[121.65038,24.682484],[121.650536,24.682561],[121.650518,24.68278],[121.650963,24.682859],[121.651102,24.682071],[121.652783,24.682738],[121.652903,24.683998],[121.657181,24.684127],[121.657149,24.685102],[121.661569,24.685228],[121.661648,24.683124],[121.663465,24.683424],[121.666115,24.683198],[121.666062,24.684474],[121.67049,24.684632],[121.672041,24.683941],[121.672287,24.685339],[121.676909,24.686365],[121.677222,24.685349],[121.67763,24.685389],[121.677538,24.685782],[121.678349,24.686141],[121.682622,24.686897],[121.682423,24.687772],[121.684651,24.688296],[121.684918,24.687157],[121.688476,24.687746],[121.687714,24.690847],[121.687508,24.690805],[121.686602,24.692386],[121.685899,24.692399],[121.685769,24.69263],[121.683699,24.692091],[121.686197,24.696275],[121.684349,24.696633],[121.683446,24.696438],[121.68329,24.699001],[121.686587,24.699236],[121.686532,24.70011],[121.685356,24.700115],[121.685344,24.700811],[121.681203,24.700856],[121.678649,24.700571],[121.678463,24.702644]]]},"properties":{"code":"10002100013","name":"貴林村","countyCode":"10002","countyName":"宜蘭縣","townCode":"10002100","townName":"三星鄉","level":"village","unassigned":false,"note":"","label":[121.66743402400549,24.694392562585122],"bounds":[121.641008,24.682071,121.688476,24.704563],"focusBounds":[121.641008,24.682071,121.688476,24.704563],"color":"#68bec9"}},{"type":"Feature","id":"10002100014","geometry":{"type":"Polygon","coordinates":[[[121.688476,24.687746],[121.684918,24.687157],[121.684651,24.688296],[121.682423,24.687772],[121.682622,24.686897],[121.678349,24.686141],[121.677538,24.685782],[121.67763,24.685389],[121.677222,24.685349],[121.676909,24.686365],[121.672287,24.685339],[121.672041,24.683941],[121.67049,24.684632],[121.666062,24.684474],[121.666115,24.683198],[121.666384,24.676671],[121.663063,24.676669],[121.663077,24.676233],[121.663617,24.676189],[121.66357,24.674805],[121.661719,24.675223],[121.661607,24.674134],[121.661591,24.67394],[121.66262,24.673822],[121.66917,24.673657],[121.670903,24.673241],[121.678584,24.676281],[121.679289,24.676357],[121.684378,24.675974],[121.684373,24.676856],[121.688355,24.676785],[121.688362,24.677267],[121.688937,24.67746],[121.689406,24.677374],[121.689401,24.678477],[121.688997,24.678472],[121.688956,24.682558],[121.688074,24.682642],[121.688314,24.68297],[121.688952,24.683063],[121.68895,24.685842],[121.688722,24.686757],[121.688476,24.687746]]]},"properties":{"code":"10002100014","name":"萬富村","countyCode":"10002","countyName":"宜蘭縣","townCode":"10002100","townName":"三星鄉","level":"village","unassigned":false,"note":"","label":[121.67588955034373,24.680676419805074],"bounds":[121.661591,24.673241,121.689406,24.688296],"focusBounds":[121.661591,24.673241,121.689406,24.688296],"color":"#df9f6a"}},{"type":"Feature","id":"10002100015","geometry":{"type":"Polygon","coordinates":[[[121.718055,24.692985],[121.717772,24.693668],[121.717519,24.693597],[121.717421,24.693725],[121.716601,24.69339],[121.716338,24.693978],[121.706681,24.691184],[121.707027,24.690159],[121.70627,24.68993],[121.70591,24.690962],[121.70519,24.690756],[121.705315,24.690365],[121.704164,24.69004],[121.704365,24.689382],[121.700441,24.688257],[121.699439,24.691181],[121.694388,24.689729],[121.691408,24.689135],[121.691852,24.6873],[121.688722,24.686757],[121.68895,24.685842],[121.688952,24.683063],[121.688314,24.68297],[121.688074,24.682642],[121.688956,24.682558],[121.688997,24.678472],[121.689401,24.678477],[121.697275,24.678543],[121.697254,24.67961],[121.69826,24.679625],[121.69826,24.680575],[121.699391,24.680593],[121.699722,24.680472],[121.700293,24.680608],[121.701547,24.680621],[121.701555,24.679649],[121.70098,24.679646],[121.700981,24.679155],[121.7016,24.679163],[121.701616,24.678597],[121.701996,24.678611],[121.701961,24.679654],[121.701654,24.679649],[121.701644,24.680616],[121.707249,24.680623],[121.70826,24.680742],[121.708091,24.681511],[121.709455,24.681562],[121.709598,24.679767],[121.710263,24.679275],[121.711967,24.679209],[121.712593,24.678783],[121.715388,24.680825],[121.718427,24.681993],[121.721458,24.68337],[121.719332,24.687539],[121.718919,24.687339],[121.71804,24.689418],[121.716905,24.692646],[121.718055,24.692985]]]},"properties":{"code":"10002100015","name":"大義村","countyCode":"10002","countyName":"宜蘭縣","townCode":"10002100","townName":"三星鄉","level":"village","unassigned":false,"note":"","label":[121.70512245005028,24.685465324512666],"bounds":[121.688074,24.678472,121.721458,24.693978],"focusBounds":[121.688074,24.678472,121.721458,24.693978],"color":"#c38cb8"}},{"type":"Feature","id":"10002100016","geometry":{"type":"Polygon","coordinates":[[[121.718055,24.692985],[121.719764,24.693489],[121.719334,24.694823],[121.721717,24.695506],[121.721211,24.696963],[121.722636,24.697415],[121.722511,24.697805],[121.721064,24.69739],[121.720455,24.699079],[121.725208,24.700523],[121.724381,24.702823],[121.716215,24.700567],[121.71499,24.699823],[121.714134,24.699499],[121.712736,24.700111],[121.711471,24.700112],[121.70997,24.700559],[121.708334,24.700542],[121.704387,24.701228],[121.702209,24.701935],[121.700384,24.702035],[121.698327,24.701854],[121.696902,24.701304],[121.695714,24.701147],[121.685344,24.700811],[121.685356,24.700115],[121.686532,24.70011],[121.686587,24.699236],[121.68329,24.699001],[121.683446,24.696438],[121.684349,24.696633],[121.686197,24.696275],[121.683699,24.692091],[121.685769,24.69263],[121.685899,24.692399],[121.686602,24.692386],[121.687508,24.690805],[121.687714,24.690847],[121.688476,24.687746],[121.688722,24.686757],[121.691852,24.6873],[121.691408,24.689135],[121.694388,24.689729],[121.699439,24.691181],[121.700441,24.688257],[121.704365,24.689382],[121.704164,24.69004],[121.705315,24.690365],[121.70519,24.690756],[121.70591,24.690962],[121.70627,24.68993],[121.707027,24.690159],[121.706681,24.691184],[121.716338,24.693978],[121.716601,24.69339],[121.717421,24.693725],[121.717519,24.693597],[121.717772,24.693668],[121.718055,24.692985]]]},"properties":{"code":"10002100016","name":"尚武村","countyCode":"10002","countyName":"宜蘭縣","townCode":"10002100","townName":"三星鄉","level":"village","unassigned":false,"note":"","label":[121.70145986696969,24.696215347753167],"bounds":[121.68329,24.686757,121.725208,24.702823],"focusBounds":[121.68329,24.686757,121.725208,24.702823],"color":"#98b69b"}},{"type":"Feature","id":"10002100017","geometry":{"type":"Polygon","coordinates":[[[121.738392,24.691169],[121.735986,24.694908],[121.737035,24.695862],[121.736155,24.697148],[121.736454,24.698274],[121.735899,24.697822],[121.735559,24.69814],[121.738116,24.700479],[121.737478,24.701183],[121.739086,24.702735],[121.739269,24.702317],[121.740057,24.702782],[121.740377,24.702448],[121.740885,24.702896],[121.740139,24.703573],[121.740876,24.704305],[121.740151,24.705009],[121.741599,24.706323],[121.738953,24.708847],[121.736305,24.708323],[121.73526,24.707943],[121.73276,24.706879],[121.730947,24.705772],[121.728563,24.704966],[121.72732,24.703807],[121.726156,24.703228],[121.724381,24.702823],[121.725208,24.700523],[121.720455,24.699079],[121.721064,24.69739],[121.722511,24.697805],[121.722636,24.697415],[121.721211,24.696963],[121.721717,24.695506],[121.719334,24.694823],[121.719764,24.693489],[121.718055,24.692985],[121.716905,24.692646],[121.71804,24.689418],[121.718919,24.687339],[121.719332,24.687539],[121.721458,24.68337],[121.72453,24.684765],[121.724747,24.685177],[121.726279,24.686329],[121.726781,24.687276],[121.727741,24.687372],[121.728397,24.687671],[121.729705,24.688679],[121.731074,24.689341],[121.73148,24.689852],[121.732665,24.690328],[121.733218,24.690772],[121.734358,24.69016],[121.735774,24.691249],[121.737063,24.690902],[121.738392,24.691169]]]},"properties":{"code":"10002100017","name":"大洲村","countyCode":"10002","countyName":"宜蘭縣","townCode":"10002100","townName":"三星鄉","level":"village","unassigned":false,"note":"","label":[121.72930232235471,24.69566987485723],"bounds":[121.716905,24.68337,121.741599,24.708847],"focusBounds":[121.716905,24.68337,121.741599,24.708847],"color":"#efb44f"}},{"type":"Feature","id":"10002100018","geometry":{"type":"Polygon","coordinates":[[[121.757418,24.706793],[121.758163,24.707629],[121.759727,24.70897],[121.761632,24.710309],[121.76153,24.710595],[121.760526,24.710964],[121.759244,24.711106],[121.757741,24.710697],[121.756586,24.709882],[121.756217,24.709989],[121.754821,24.709842],[121.754183,24.709981],[121.751218,24.709949],[121.750464,24.710121],[121.749591,24.710897],[121.749374,24.710868],[121.747514,24.712069],[121.7476,24.712521],[121.747472,24.71265],[121.745929,24.712064],[121.742338,24.710145],[121.740739,24.709523],[121.738953,24.708847],[121.741599,24.706323],[121.740151,24.705009],[121.740876,24.704305],[121.740139,24.703573],[121.740885,24.702896],[121.740377,24.702448],[121.740057,24.702782],[121.739269,24.702317],[121.739086,24.702735],[121.737478,24.701183],[121.738116,24.700479],[121.735559,24.69814],[121.735899,24.697822],[121.736454,24.698274],[121.736155,24.697148],[121.737035,24.695862],[121.735986,24.694908],[121.738392,24.691169],[121.739113,24.691445],[121.740619,24.692426],[121.741016,24.692523],[121.743658,24.69175],[121.745049,24.690961],[121.746138,24.691853],[121.747737,24.692135],[121.748486,24.693162],[121.748993,24.693201],[121.749603,24.693495],[121.750286,24.693421],[121.751131,24.693856],[121.75244,24.693704],[121.753745,24.693891],[121.754605,24.69776],[121.754693,24.700991],[121.754883,24.702256],[121.755789,24.704456],[121.756576,24.705806],[121.757418,24.706793]]]},"properties":{"code":"10002100018","name":"尾塹村","countyCode":"10002","countyName":"宜蘭縣","townCode":"10002100","townName":"三星鄉","level":"village","unassigned":false,"note":"","label":[121.747887839891,24.70208493562872],"bounds":[121.735559,24.690961,121.761632,24.71265],"focusBounds":[121.735559,24.690961,121.761632,24.71265],"color":"#78a7e3"}}]}
