{"type":"FeatureCollection","features":[{"type":"Feature","id":"10004100001","geometry":{"type":"Polygon","coordinates":[[[121.010059,24.773483],[121.009707,24.773791],[121.008211,24.774444],[121.007452,24.774518],[121.006738,24.774286],[121.005446,24.774784],[121.003768,24.7756],[120.99955,24.778334],[120.99789,24.778927],[120.995985,24.779984],[120.993581,24.780536],[120.992943,24.780547],[120.99168,24.779031],[120.9906,24.777155],[120.990284,24.776891],[120.989201,24.77693],[120.988242,24.777418],[120.986613,24.777071],[120.98584,24.776907],[120.985567,24.776085],[120.984759,24.775897],[120.985429,24.775026],[120.986077,24.773818],[120.9864,24.773535],[120.986387,24.772252],[120.986542,24.771634],[120.986871,24.771236],[120.986998,24.77026],[120.987471,24.769373],[120.988363,24.768335],[120.98838,24.768066],[120.987777,24.768147],[120.988537,24.765436],[120.989492,24.76405],[120.989165,24.762892],[120.989584,24.762581],[120.990656,24.762784],[120.990447,24.761996],[120.990761,24.761697],[120.991376,24.7619],[120.992409,24.761136],[120.992593,24.759894],[120.994934,24.759488],[120.995614,24.758425],[120.996098,24.758401],[120.996608,24.757231],[120.996556,24.755176],[120.995366,24.75397],[120.995784,24.753647],[120.995497,24.75231],[120.997119,24.751474],[120.996438,24.751151],[120.995779,24.74995],[120.996,24.749541],[120.995915,24.747491],[120.99646,24.744743],[120.996689,24.744573],[120.99719,24.744519],[120.997759,24.744867],[120.998158,24.744868],[120.99862,24.744084],[120.998934,24.743882],[120.999495,24.743797],[120.999996,24.74382],[121.001283,24.744364],[121.000365,24.746057],[121.000125,24.746803],[121.000077,24.747822],[120.999274,24.750422],[120.998454,24.752419],[120.998759,24.754696],[120.999112,24.755654],[120.998988,24.757016],[120.999159,24.761684],[120.99892,24.763683],[120.998338,24.764998],[120.997975,24.766536],[120.998232,24.768896],[120.99933,24.77195],[121.000259,24.773635],[121.000621,24.774026],[121.003267,24.772649],[121.004603,24.772292],[121.008941,24.77223],[121.010059,24.773483]]]},"properties":{"code":"10004100001","name":"雙溪村","countyCode":"10004","countyName":"新竹縣","townCode":"10004100","townName":"寶山鄉","level":"village","unassigned":false,"note":"","label":[120.99296795159466,24.771337652082334],"bounds":[120.984759,24.743797,121.010059,24.780547],"focusBounds":[120.984759,24.743797,121.010059,24.780547],"color":"#a8bf62"}},{"type":"Feature","id":"10004100002","geometry":{"type":"Polygon","coordinates":[[[121.010059,24.773483],[121.008941,24.77223],[121.004603,24.772292],[121.003267,24.772649],[121.000621,24.774026],[121.000259,24.773635],[120.99933,24.77195],[120.998232,24.768896],[120.997975,24.766536],[120.998338,24.764998],[120.99892,24.763683],[120.999159,24.761684],[120.998988,24.757016],[120.999112,24.755654],[120.998759,24.754696],[120.998454,24.752419],[120.999274,24.750422],[121.000077,24.747822],[121.000125,24.746803],[121.000365,24.746057],[121.001283,24.744364],[121.002665,24.743262],[121.002932,24.743349],[121.004393,24.744726],[121.005258,24.745292],[121.006141,24.747165],[121.006995,24.747977],[121.009451,24.749176],[121.010885,24.749529],[121.013206,24.749814],[121.014748,24.750267],[121.015289,24.750662],[121.017892,24.754167],[121.019804,24.755484],[121.019931,24.757404],[121.019567,24.758472],[121.019026,24.760156],[121.018747,24.762551],[121.018338,24.7638],[121.017974,24.764259],[121.017409,24.764382],[121.016949,24.764865],[121.017114,24.765346],[121.017018,24.765811],[121.015799,24.767307],[121.013655,24.770822],[121.010327,24.773151],[121.010059,24.773483]]]},"properties":{"code":"10004100002","name":"大崎村","countyCode":"10004","countyName":"新竹縣","townCode":"10004100","townName":"寶山鄉","level":"village","unassigned":false,"note":"","label":[121.00877208967523,24.759283835834072],"bounds":[120.997975,24.743262,121.019931,24.774026],"focusBounds":[120.997975,24.743262,121.019931,24.774026],"color":"#98b69b"}},{"type":"Feature","id":"10004100003","geometry":{"type":"Polygon","coordinates":[[[120.995779,24.74995],[120.994776,24.750389],[120.993992,24.752569],[120.992989,24.752453],[120.991025,24.752725],[120.990367,24.752576],[120.988804,24.751909],[120.98798,24.750645],[120.987581,24.750467],[120.986112,24.75087],[120.98493,24.750755],[120.985285,24.750252],[120.984219,24.748874],[120.983892,24.747688],[120.984333,24.746317],[120.984353,24.745301],[120.983297,24.744609],[120.982451,24.742799],[120.98222,24.741815],[120.982502,24.741159],[120.982829,24.740972],[120.983231,24.740827],[120.98405,24.740889],[120.984293,24.740758],[120.984833,24.739633],[120.98579,24.738338],[120.986375,24.73787],[120.986724,24.737925],[120.986807,24.737822],[120.986861,24.73675],[120.987409,24.735461],[120.987109,24.733723],[120.987301,24.733037],[120.988303,24.732358],[120.988507,24.731699],[120.988345,24.731069],[120.987067,24.729148],[120.986323,24.728693],[120.985595,24.72856],[120.985343,24.728341],[120.985513,24.725869],[120.983608,24.723666],[120.983194,24.722266],[120.983379,24.721224],[120.983978,24.720173],[120.98596,24.71867],[120.987433,24.718194],[120.987786,24.717801],[120.988601,24.716074],[120.988948,24.714626],[120.989828,24.715081],[120.990359,24.715699],[120.990511,24.716175],[120.991338,24.716355],[120.991934,24.716783],[120.992649,24.71704],[120.993125,24.717921],[120.993298,24.717809],[120.993664,24.716491],[120.994356,24.71602],[120.994613,24.71559],[120.995485,24.715272],[120.995962,24.714936],[120.996173,24.714954],[120.99642,24.715226],[120.997206,24.715472],[120.998102,24.715533],[120.999035,24.718516],[120.999454,24.719144],[120.999325,24.719763],[121.000121,24.720735],[121.002769,24.721171],[121.004339,24.722182],[121.004534,24.72345],[121.005169,24.72507],[121.004631,24.725374],[121.004394,24.726972],[121.004792,24.728022],[121.005348,24.728813],[121.005174,24.729503],[121.005748,24.729938],[121.005348,24.730956],[121.005446,24.731294],[121.006066,24.731308],[121.00621,24.733436],[121.006535,24.734437],[121.007035,24.734902],[121.0074,24.736023],[121.007649,24.736244],[121.008126,24.736354],[121.008262,24.736603],[121.008111,24.737669],[121.008308,24.738366],[121.008436,24.740152],[121.008119,24.741166],[121.008489,24.742111],[121.008323,24.7428],[121.008662,24.7445],[121.008469,24.745303],[121.007585,24.745154],[121.005875,24.74539],[121.005258,24.745292],[121.004393,24.744726],[121.002932,24.743349],[121.002665,24.743262],[121.001283,24.744364],[120.999996,24.74382],[120.999495,24.743797],[120.998934,24.743882],[120.99862,24.744084],[120.998158,24.744868],[120.997759,24.744867],[120.99719,24.744519],[120.996689,24.744573],[120.99646,24.744743],[120.995915,24.747491],[120.996,24.749541],[120.995779,24.74995]]]},"properties":{"code":"10004100003","name":"三峰村","countyCode":"10004","countyName":"新竹縣","townCode":"10004100","townName":"寶山鄉","level":"village","unassigned":false,"note":"","label":[120.9972466655839,24.734546986874197],"bounds":[120.98222,24.714626,121.008662,24.752725],"focusBounds":[120.98222,24.714626,121.008662,24.752725],"color":"#df9f6a"}},{"type":"Feature","id":"10004100004","geometry":{"type":"Polygon","coordinates":[[[120.98493,24.750755],[120.98338,24.751939],[120.982938,24.752097],[120.98015,24.75163],[120.978178,24.750628],[120.977506,24.75076],[120.977141,24.751233],[120.976642,24.751434],[120.976181,24.751171],[120.9755,24.749655],[120.974788,24.748952],[120.973944,24.748715],[120.972892,24.749091],[120.971942,24.74817],[120.970992,24.748932],[120.970348,24.748862],[120.967455,24.747054],[120.966301,24.74592],[120.966455,24.744667],[120.966013,24.74255],[120.964333,24.741383],[120.963122,24.739671],[120.962391,24.738135],[120.961211,24.736319],[120.959994,24.735205],[120.960359,24.734692],[120.960436,24.734254],[120.959027,24.73223],[120.958088,24.730335],[120.959221,24.727223],[120.959154,24.72676],[120.958809,24.726366],[120.958742,24.726051],[120.958906,24.725375],[120.960305,24.724946],[120.961767,24.724123],[120.963776,24.723448],[120.964076,24.723473],[120.966561,24.724682],[120.967038,24.724608],[120.968033,24.723936],[120.969197,24.722721],[120.96996,24.72236],[120.970519,24.721788],[120.971392,24.719648],[120.972143,24.718598],[120.972347,24.718436],[120.973983,24.718039],[120.975747,24.716676],[120.976848,24.716271],[120.976881,24.716434],[120.977408,24.716644],[120.977804,24.717321],[120.978241,24.71654],[120.978612,24.7144],[120.979144,24.71418],[120.981467,24.713952],[120.982772,24.712571],[120.983136,24.711984],[120.984083,24.711818],[120.984726,24.710934],[120.985117,24.710825],[120.986077,24.710941],[120.986931,24.711562],[120.987254,24.71239],[120.987056,24.713257],[120.988071,24.713551],[120.988376,24.714317],[120.988948,24.714626],[120.988601,24.716074],[120.987786,24.717801],[120.987433,24.718194],[120.98596,24.71867],[120.983978,24.720173],[120.983379,24.721224],[120.983194,24.722266],[120.983608,24.723666],[120.985513,24.725869],[120.985343,24.728341],[120.985595,24.72856],[120.986323,24.728693],[120.987067,24.729148],[120.988345,24.731069],[120.988507,24.731699],[120.988303,24.732358],[120.987301,24.733037],[120.987109,24.733723],[120.987409,24.735461],[120.986861,24.73675],[120.986807,24.737822],[120.986724,24.737925],[120.986375,24.73787],[120.98579,24.738338],[120.984833,24.739633],[120.984293,24.740758],[120.98405,24.740889],[120.983231,24.740827],[120.982829,24.740972],[120.982502,24.741159],[120.98222,24.741815],[120.982451,24.742799],[120.983297,24.744609],[120.984353,24.745301],[120.984333,24.746317],[120.983892,24.747688],[120.984219,24.748874],[120.985285,24.750252],[120.98493,24.750755]]]},"properties":{"code":"10004100004","name":"新城村","countyCode":"10004","countyName":"新竹縣","townCode":"10004100","townName":"寶山鄉","level":"village","unassigned":false,"note":"","label":[120.97530617426389,24.732538806643475],"bounds":[120.958088,24.710825,120.988948,24.752097],"focusBounds":[120.958088,24.710825,120.988948,24.752097],"color":"#58b99d"}},{"type":"Feature","id":"10004100005","geometry":{"type":"Polygon","coordinates":[[[120.966301,24.74592],[120.964874,24.745845],[120.963852,24.74659],[120.962132,24.749519],[120.960783,24.750882],[120.960239,24.750197],[120.958563,24.749214],[120.957475,24.749634],[120.95722,24.749208],[120.957175,24.748289],[120.957605,24.747565],[120.95753,24.746862],[120.957789,24.746191],[120.957734,24.745502],[120.957486,24.745278],[120.956386,24.745153],[120.955786,24.744424],[120.954998,24.744391],[120.954606,24.743748],[120.954184,24.743434],[120.953901,24.743419],[120.952625,24.74414],[120.952245,24.743817],[120.951957,24.74379],[120.95148,24.744343],[120.95113,24.744513],[120.948931,24.74445],[120.94855,24.745068],[120.948109,24.74523],[120.946824,24.744792],[120.946516,24.744862],[120.94615,24.745279],[120.945881,24.745305],[120.945431,24.74513],[120.944904,24.744504],[120.944306,24.744427],[120.943827,24.743739],[120.943658,24.741322],[120.943052,24.739846],[120.943209,24.739043],[120.943077,24.738738],[120.942604,24.738443],[120.942477,24.737952],[120.941735,24.737169],[120.941919,24.736015],[120.941714,24.735061],[120.940704,24.734033],[120.94043,24.733356],[120.940086,24.733139],[120.939861,24.732744],[120.939899,24.732485],[120.941125,24.731914],[120.94233,24.730442],[120.941841,24.72929],[120.941822,24.728557],[120.941098,24.728361],[120.940618,24.728434],[120.940356,24.728989],[120.939112,24.729723],[120.938453,24.729817],[120.938031,24.729492],[120.938576,24.72892],[120.938953,24.727815],[120.938887,24.727634],[120.938139,24.727511],[120.93783,24.727243],[120.938699,24.726699],[120.939274,24.725418],[120.939184,24.725211],[120.938647,24.724875],[120.938866,24.723303],[120.939098,24.722751],[120.938442,24.72207],[120.93828,24.721464],[120.938842,24.720416],[120.938573,24.719862],[120.938717,24.7191],[120.938163,24.718322],[120.938627,24.716611],[120.936753,24.714991],[120.936033,24.714687],[120.936173,24.714251],[120.936074,24.713844],[120.935428,24.712594],[120.9363,24.711004],[120.936492,24.710825],[120.937523,24.710772],[120.93746,24.710442],[120.937678,24.709963],[120.938538,24.709081],[120.939834,24.708335],[120.940587,24.708341],[120.941632,24.707479],[120.942213,24.707308],[120.943315,24.707609],[120.94407,24.707583],[120.944611,24.707852],[120.945122,24.707894],[120.945415,24.708414],[120.945261,24.70891],[120.945497,24.709827],[120.946647,24.709888],[120.947205,24.710442],[120.947849,24.710824],[120.94809,24.711185],[120.948502,24.711217],[120.950552,24.712176],[120.950841,24.712987],[120.950308,24.715076],[120.949739,24.715492],[120.948811,24.717312],[120.948262,24.719889],[120.948201,24.72133],[120.9478,24.722061],[120.947374,24.723385],[120.948211,24.724549],[120.948564,24.725473],[120.949487,24.726197],[120.949717,24.727017],[120.949159,24.727593],[120.947107,24.727792],[120.945937,24.728128],[120.944382,24.729579],[120.944528,24.730555],[120.944978,24.730979],[120.94837,24.731628],[120.949573,24.732213],[120.951101,24.734289],[120.9514,24.735385],[120.95187,24.735876],[120.952427,24.735947],[120.953483,24.735526],[120.953858,24.735588],[120.954937,24.736176],[120.95535,24.736185],[120.955839,24.735852],[120.957926,24.735615],[120.958349,24.735273],[120.958906,24.735124],[120.959424,24.735054],[120.959994,24.735205],[120.961211,24.736319],[120.962391,24.738135],[120.963122,24.739671],[120.964333,24.741383],[120.966013,24.74255],[120.966455,24.744667],[120.966301,24.74592]]]},"properties":{"code":"10004100005","name":"深井村","countyCode":"10004","countyName":"新竹縣","townCode":"10004100","townName":"寶山鄉","level":"village","unassigned":false,"note":"","label":[120.94361913545823,24.715246723747278],"bounds":[120.935428,24.707308,120.966455,24.750882],"focusBounds":[120.935428,24.707308,120.966455,24.750882],"color":"#98b69b"}},{"type":"Feature","id":"10004100006","geometry":{"type":"Polygon","coordinates":[[[120.959994,24.735205],[120.959424,24.735054],[120.958906,24.735124],[120.958349,24.735273],[120.957926,24.735615],[120.955839,24.735852],[120.95535,24.736185],[120.954937,24.736176],[120.953858,24.735588],[120.953483,24.735526],[120.952427,24.735947],[120.95187,24.735876],[120.9514,24.735385],[120.951101,24.734289],[120.949573,24.732213],[120.94837,24.731628],[120.944978,24.730979],[120.944528,24.730555],[120.944382,24.729579],[120.945937,24.728128],[120.947107,24.727792],[120.949159,24.727593],[120.949717,24.727017],[120.949487,24.726197],[120.948564,24.725473],[120.948211,24.724549],[120.947374,24.723385],[120.9478,24.722061],[120.948201,24.72133],[120.948262,24.719889],[120.948811,24.717312],[120.949739,24.715492],[120.950308,24.715076],[120.950841,24.712987],[120.950552,24.712176],[120.948502,24.711217],[120.949889,24.711132],[120.950834,24.709527],[120.95098,24.708623],[120.950917,24.707742],[120.951903,24.707573],[120.952464,24.706395],[120.953301,24.706068],[120.953356,24.705658],[120.952927,24.705101],[120.952823,24.704681],[120.952843,24.70432],[120.953074,24.704071],[120.954081,24.704133],[120.954788,24.704349],[120.955444,24.704879],[120.956791,24.706571],[120.957722,24.706523],[120.958438,24.70677],[120.95935,24.706656],[120.960234,24.70827],[120.960514,24.70846],[120.960638,24.709056],[120.961235,24.709383],[120.96198,24.70943],[120.962234,24.709585],[120.962293,24.710881],[120.963375,24.711475],[120.963914,24.711554],[120.964552,24.710646],[120.965272,24.71033],[120.965898,24.709707],[120.96622,24.709643],[120.967149,24.71014],[120.967982,24.710889],[120.968586,24.711209],[120.969145,24.710891],[120.969772,24.710982],[120.970385,24.710888],[120.970796,24.711262],[120.97068,24.711972],[120.971554,24.712435],[120.971767,24.712426],[120.972347,24.711931],[120.972597,24.711959],[120.972862,24.712247],[120.973186,24.711971],[120.973792,24.711875],[120.975203,24.712569],[120.97617,24.712728],[120.976479,24.713044],[120.976492,24.713442],[120.976118,24.713887],[120.976645,24.714107],[120.976895,24.714385],[120.977161,24.715636],[120.976848,24.716271],[120.975747,24.716676],[120.973983,24.718039],[120.972347,24.718436],[120.972143,24.718598],[120.971392,24.719648],[120.970519,24.721788],[120.96996,24.72236],[120.969197,24.722721],[120.968033,24.723936],[120.967038,24.724608],[120.966561,24.724682],[120.964076,24.723473],[120.963776,24.723448],[120.961767,24.724123],[120.960305,24.724946],[120.958906,24.725375],[120.958742,24.726051],[120.958809,24.726366],[120.959154,24.72676],[120.959221,24.727223],[120.958088,24.730335],[120.959027,24.73223],[120.960436,24.734254],[120.960359,24.734692],[120.959994,24.735205]]]},"properties":{"code":"10004100006","name":"寶斗村","countyCode":"10004","countyName":"新竹縣","townCode":"10004100","townName":"寶山鄉","level":"village","unassigned":false,"note":"","label":[120.95759827757355,24.717365734787737],"bounds":[120.944382,24.704071,120.977161,24.736185],"focusBounds":[120.944382,24.704071,120.977161,24.736185],"color":"#efb44f"}},{"type":"Feature","id":"10004100007","geometry":{"type":"Polygon","coordinates":[[[121.050256,24.754527],[121.049981,24.754645],[121.049851,24.755033],[121.049621,24.755133],[121.04922,24.755122],[121.049129,24.754728],[121.049123,24.754317],[121.0487,24.754122],[121.048343,24.753641],[121.047652,24.753296],[121.047207,24.753304],[121.04664,24.752687],[121.046156,24.752568],[121.045605,24.752856],[121.044977,24.752804],[121.044449,24.752999],[121.043822,24.752622],[121.043148,24.752792],[121.041956,24.752123],[121.041249,24.751411],[121.040225,24.751857],[121.04002,24.752318],[121.03958,24.752625],[121.039181,24.752669],[121.038239,24.751778],[121.038265,24.751314],[121.037999,24.750793],[121.037218,24.75038],[121.036969,24.749824],[121.036903,24.748702],[121.036485,24.748281],[121.037674,24.746678],[121.037531,24.744459],[121.037873,24.743494],[121.038759,24.742498],[121.038969,24.741855],[121.039426,24.741533],[121.039473,24.740656],[121.038778,24.738732],[121.039054,24.737572],[121.039034,24.736069],[121.039424,24.735404],[121.039415,24.735065],[121.038386,24.733395],[121.037479,24.732394],[121.037177,24.730917],[121.036907,24.730361],[121.036148,24.72978],[121.032314,24.728701],[121.030918,24.728037],[121.030435,24.727659],[121.030032,24.726837],[121.030734,24.726761],[121.031533,24.726314],[121.032449,24.726202],[121.033535,24.725713],[121.034471,24.724561],[121.034926,24.722828],[121.036102,24.722008],[121.037092,24.720755],[121.037243,24.719895],[121.03787,24.71839],[121.037952,24.717047],[121.03842,24.716627],[121.040391,24.716467],[121.041096,24.716152],[121.041271,24.716833],[121.042246,24.716796],[121.042727,24.717597],[121.043265,24.717584],[121.044347,24.717199],[121.045283,24.71757],[121.045827,24.716822],[121.04621,24.716513],[121.047648,24.716575],[121.04914,24.718841],[121.049203,24.719676],[121.050608,24.719864],[121.050362,24.721107],[121.050768,24.721499],[121.051373,24.72165],[121.051664,24.722372],[121.052463,24.722847],[121.052735,24.723322],[121.053803,24.723408],[121.053823,24.724341],[121.054481,24.724983],[121.055111,24.725144],[121.055867,24.725943],[121.056406,24.727461],[121.057645,24.728193],[121.058445,24.729098],[121.058684,24.730173],[121.060252,24.730102],[121.061294,24.730267],[121.061986,24.730852],[121.063149,24.730108],[121.064418,24.730223],[121.065221,24.729837],[121.065878,24.729944],[121.06653,24.729833],[121.066894,24.729451],[121.067271,24.72964],[121.06775,24.730237],[121.069234,24.73033],[121.069521,24.730531],[121.069568,24.730807],[121.069782,24.731259],[121.069362,24.73239],[121.069514,24.733775],[121.068383,24.735485],[121.068154,24.737205],[121.067784,24.738078],[121.067164,24.738297],[121.066633,24.738786],[121.06636,24.738712],[121.065929,24.738246],[121.065316,24.739207],[121.064677,24.73944],[121.064401,24.739702],[121.064262,24.740201],[121.064349,24.741142],[121.063316,24.741813],[121.063149,24.742205],[121.063385,24.742892],[121.062728,24.744191],[121.0632,24.74479],[121.062869,24.745692],[121.061309,24.746839],[121.059281,24.746896],[121.05847,24.7474],[121.05722,24.747857],[121.055254,24.749271],[121.05425,24.749365],[121.053622,24.749708],[121.053342,24.750119],[121.053267,24.750556],[121.052996,24.750758],[121.053072,24.751278],[121.052373,24.751643],[121.052312,24.752633],[121.051487,24.752658],[121.051179,24.75282],[121.051199,24.753669],[121.050778,24.754272],[121.050256,24.754527]]]},"properties":{"code":"10004100007","name":"山湖村","countyCode":"10004","countyName":"新竹縣","townCode":"10004100","townName":"寶山鄉","level":"village","unassigned":false,"note":"","label":[121.0505818134515,24.73784372074646],"bounds":[121.030032,24.716152,121.069782,24.755133],"focusBounds":[121.030032,24.716152,121.069782,24.755133],"color":"#efb44f"}},{"type":"Feature","id":"10004100008","geometry":{"type":"Polygon","coordinates":[[[121.036485,24.748281],[121.03564,24.747805],[121.035168,24.74811],[121.03456,24.748238],[121.03381,24.749557],[121.033208,24.749854],[121.032637,24.750399],[121.032165,24.751446],[121.031083,24.752297],[121.030898,24.752953],[121.030106,24.753882],[121.029746,24.754185],[121.029156,24.754282],[121.029072,24.755389],[121.028684,24.756174],[121.027377,24.757455],[121.026316,24.757655],[121.024535,24.757241],[121.023657,24.756794],[121.022575,24.756931],[121.020877,24.756557],[121.020283,24.75679],[121.019931,24.757404],[121.019804,24.755484],[121.017892,24.754167],[121.015289,24.750662],[121.014748,24.750267],[121.013206,24.749814],[121.010885,24.749529],[121.009451,24.749176],[121.006995,24.747977],[121.006141,24.747165],[121.005258,24.745292],[121.005875,24.74539],[121.007585,24.745154],[121.008469,24.745303],[121.00976,24.745467],[121.010461,24.745202],[121.012217,24.743383],[121.012915,24.741017],[121.014721,24.740457],[121.015399,24.740074],[121.016324,24.739978],[121.016658,24.739613],[121.017135,24.738216],[121.017202,24.737214],[121.017068,24.736892],[121.016334,24.736222],[121.016447,24.735739],[121.016819,24.735243],[121.016275,24.734616],[121.016189,24.734251],[121.016303,24.733584],[121.016837,24.733244],[121.017019,24.732913],[121.017051,24.73119],[121.016974,24.73101],[121.016532,24.730792],[121.01689,24.730117],[121.017803,24.730564],[121.018827,24.730748],[121.019861,24.731372],[121.020181,24.731358],[121.02139,24.730695],[121.021842,24.730075],[121.023157,24.729646],[121.02364,24.729274],[121.024246,24.728362],[121.024631,24.727278],[121.025204,24.726596],[121.027205,24.727189],[121.027673,24.727106],[121.028272,24.726624],[121.029343,24.726328],[121.030032,24.726837],[121.030435,24.727659],[121.030918,24.728037],[121.032314,24.728701],[121.036148,24.72978],[121.036907,24.730361],[121.037177,24.730917],[121.037479,24.732394],[121.038386,24.733395],[121.039415,24.735065],[121.039424,24.735404],[121.039034,24.736069],[121.039054,24.737572],[121.038778,24.738732],[121.039473,24.740656],[121.039426,24.741533],[121.038969,24.741855],[121.038759,24.742498],[121.037873,24.743494],[121.037531,24.744459],[121.037674,24.746678],[121.036485,24.748281]]]},"properties":{"code":"10004100008","name":"寶山村","countyCode":"10004","countyName":"新竹縣","townCode":"10004100","townName":"寶山鄉","level":"village","unassigned":false,"note":"","label":[121.02653223969028,24.742301921132068],"bounds":[121.005258,24.726328,121.039473,24.757655],"focusBounds":[121.005258,24.726328,121.039473,24.757655],"color":"#78a7e3"}},{"type":"Feature","id":"10004100009","geometry":{"type":"Polygon","coordinates":[[[121.030032,24.726837],[121.029343,24.726328],[121.028272,24.726624],[121.027673,24.727106],[121.027205,24.727189],[121.025204,24.726596],[121.024631,24.727278],[121.024246,24.728362],[121.02364,24.729274],[121.023157,24.729646],[121.021842,24.730075],[121.02139,24.730695],[121.020181,24.731358],[121.019861,24.731372],[121.018827,24.730748],[121.017803,24.730564],[121.01689,24.730117],[121.016532,24.730792],[121.016974,24.73101],[121.017051,24.73119],[121.017019,24.732913],[121.016837,24.733244],[121.016303,24.733584],[121.016189,24.734251],[121.016275,24.734616],[121.016819,24.735243],[121.016447,24.735739],[121.016334,24.736222],[121.017068,24.736892],[121.017202,24.737214],[121.017135,24.738216],[121.016658,24.739613],[121.016324,24.739978],[121.015399,24.740074],[121.014721,24.740457],[121.012915,24.741017],[121.012217,24.743383],[121.010461,24.745202],[121.00976,24.745467],[121.008469,24.745303],[121.008662,24.7445],[121.008323,24.7428],[121.008489,24.742111],[121.008119,24.741166],[121.008436,24.740152],[121.008308,24.738366],[121.008111,24.737669],[121.008262,24.736603],[121.008126,24.736354],[121.007649,24.736244],[121.0074,24.736023],[121.007035,24.734902],[121.006535,24.734437],[121.00621,24.733436],[121.006066,24.731308],[121.005446,24.731294],[121.005348,24.730956],[121.005748,24.729938],[121.005174,24.729503],[121.005348,24.728813],[121.004792,24.728022],[121.004394,24.726972],[121.004631,24.725374],[121.005169,24.72507],[121.004534,24.72345],[121.004339,24.722182],[121.002769,24.721171],[121.000121,24.720735],[120.999325,24.719763],[120.999454,24.719144],[120.999035,24.718516],[120.998102,24.715533],[120.998247,24.715016],[120.998743,24.714726],[120.999648,24.714603],[121.000078,24.714813],[121.000903,24.714789],[121.00265,24.714477],[121.004749,24.713158],[121.00514,24.712314],[121.005983,24.711879],[121.006367,24.71061],[121.006694,24.710381],[121.008377,24.710442],[121.008913,24.71062],[121.009476,24.711034],[121.009818,24.710012],[121.010178,24.70962],[121.009931,24.708415],[121.010035,24.707897],[121.011085,24.707103],[121.011548,24.706028],[121.012877,24.706897],[121.013661,24.708032],[121.014994,24.707902],[121.015489,24.709166],[121.015834,24.709574],[121.016498,24.709352],[121.017256,24.709573],[121.017688,24.709977],[121.017991,24.71088],[121.018652,24.711173],[121.019185,24.711108],[121.019885,24.710597],[121.02055,24.711065],[121.020968,24.711173],[121.021781,24.710373],[121.023059,24.710512],[121.02359,24.710249],[121.024939,24.710541],[121.025467,24.710215],[121.02715,24.708428],[121.027939,24.707807],[121.028291,24.70752],[121.028747,24.707542],[121.029535,24.708373],[121.030554,24.708867],[121.032037,24.709029],[121.032664,24.70933],[121.03294,24.709299],[121.033206,24.709063],[121.033478,24.709552],[121.033791,24.709699],[121.034488,24.709942],[121.035815,24.710026],[121.036727,24.710255],[121.037052,24.710679],[121.036776,24.711335],[121.036938,24.71167],[121.037932,24.712161],[121.039282,24.71218],[121.039431,24.713039],[121.039372,24.713963],[121.040168,24.715125],[121.041033,24.715799],[121.041096,24.716152],[121.040391,24.716467],[121.03842,24.716627],[121.037952,24.717047],[121.03787,24.71839],[121.037243,24.719895],[121.037092,24.720755],[121.036102,24.722008],[121.034926,24.722828],[121.034471,24.724561],[121.033535,24.725713],[121.032449,24.726202],[121.031533,24.726314],[121.030734,24.726761],[121.030032,24.726837]]]},"properties":{"code":"10004100009","name":"油田村","countyCode":"10004","countyName":"新竹縣","townCode":"10004100","townName":"寶山鄉","level":"village","unassigned":false,"note":"","label":[121.01779815508092,24.720433384940897],"bounds":[120.998102,24.706028,121.041096,24.745467],"focusBounds":[120.998102,24.706028,121.041096,24.745467],"color":"#dd8590"}},{"type":"Feature","id":"10004100010","geometry":{"type":"Polygon","coordinates":[[[120.987777,24.768147],[120.986845,24.768422],[120.985165,24.768122],[120.984471,24.768147],[120.984041,24.768017],[120.983218,24.767409],[120.982171,24.767515],[120.981703,24.767105],[120.980635,24.76546],[120.980471,24.764127],[120.979416,24.763292],[120.978732,24.763313],[120.978674,24.763538],[120.977129,24.76311],[120.976827,24.763483],[120.976904,24.764036],[120.976565,24.764411],[120.975734,24.764057],[120.974952,24.764027],[120.974423,24.764999],[120.973885,24.764888],[120.97333,24.764235],[120.973107,24.764197],[120.972356,24.764622],[120.97162,24.764682],[120.971305,24.765046],[120.971108,24.765706],[120.970751,24.765572],[120.969729,24.765045],[120.96941,24.764272],[120.969017,24.763777],[120.968652,24.762222],[120.968108,24.761082],[120.967549,24.760595],[120.967461,24.758534],[120.967227,24.758165],[120.967694,24.7575],[120.967412,24.756463],[120.966326,24.75577],[120.96573,24.756152],[120.965327,24.756201],[120.964415,24.755209],[120.963566,24.755544],[120.96288,24.755063],[120.962681,24.754765],[120.962853,24.754342],[120.961887,24.752814],[120.961506,24.751272],[120.960956,24.751163],[120.960783,24.750882],[120.962132,24.749519],[120.963852,24.74659],[120.964874,24.745845],[120.966301,24.74592],[120.967455,24.747054],[120.970348,24.748862],[120.970992,24.748932],[120.971942,24.74817],[120.972892,24.749091],[120.973944,24.748715],[120.974788,24.748952],[120.9755,24.749655],[120.976181,24.751171],[120.976642,24.751434],[120.977141,24.751233],[120.977506,24.75076],[120.978178,24.750628],[120.98015,24.75163],[120.982938,24.752097],[120.98338,24.751939],[120.98493,24.750755],[120.986112,24.75087],[120.987581,24.750467],[120.98798,24.750645],[120.988804,24.751909],[120.990367,24.752576],[120.991025,24.752725],[120.992989,24.752453],[120.993992,24.752569],[120.994776,24.750389],[120.995779,24.74995],[120.996438,24.751151],[120.997119,24.751474],[120.995497,24.75231],[120.995784,24.753647],[120.995366,24.75397],[120.996556,24.755176],[120.996608,24.757231],[120.996098,24.758401],[120.995614,24.758425],[120.994934,24.759488],[120.992593,24.759894],[120.992409,24.761136],[120.991376,24.7619],[120.990761,24.761697],[120.990447,24.761996],[120.990656,24.762784],[120.989584,24.762581],[120.989165,24.762892],[120.989492,24.76405],[120.988537,24.765436],[120.987777,24.768147]]]},"properties":{"code":"10004100010","name":"雙新村","countyCode":"10004","countyName":"新竹縣","townCode":"10004100","townName":"寶山鄉","level":"village","unassigned":false,"note":"","label":[120.97864538371579,24.757197842493845],"bounds":[120.960783,24.745845,120.997119,24.768422],"focusBounds":[120.960783,24.745845,120.997119,24.768422],"color":"#a49ad4"}}]}
