{"type":"FeatureCollection","features":[{"type":"Feature","id":"10009120001","geometry":{"type":"Polygon","coordinates":[[[120.364901,23.771265],[120.363572,23.771844],[120.361294,23.772086],[120.357577,23.773075],[120.356974,23.771023],[120.356668,23.770665],[120.354651,23.765232],[120.354614,23.763751],[120.354081,23.761923],[120.353446,23.761807],[120.353137,23.761502],[120.352733,23.762023],[120.351895,23.761461],[120.351733,23.760909],[120.352741,23.760619],[120.353854,23.76068],[120.354873,23.760976],[120.357328,23.76013],[120.35768,23.761222],[120.36251,23.761249],[120.363009,23.761262],[120.364778,23.764897],[120.363356,23.765361],[120.363101,23.765482],[120.363059,23.765689],[120.363711,23.768125],[120.364901,23.771265]]]},"properties":{"code":"10009120001","name":"東明村","countyCode":"10009","countyName":"雲林縣","townCode":"10009120","townName":"崙背鄉","level":"village","unassigned":false,"note":"","label":[120.35923468664873,23.76633379635222],"bounds":[120.351733,23.76013,120.364901,23.773075],"focusBounds":[120.351733,23.76013,120.364901,23.773075],"color":"#a8bf62"}},{"type":"Feature","id":"10009120002","geometry":{"type":"Polygon","coordinates":[[[120.357537,23.773129],[120.354607,23.772839],[120.35225,23.772899],[120.351758,23.773012],[120.351986,23.77437],[120.341457,23.776145],[120.340036,23.769073],[120.339002,23.766622],[120.342121,23.765152],[120.34632,23.763149],[120.348226,23.761524],[120.351733,23.760909],[120.351895,23.761461],[120.352733,23.762023],[120.353137,23.761502],[120.353446,23.761807],[120.354081,23.761923],[120.354614,23.763751],[120.354651,23.765232],[120.356668,23.770665],[120.356974,23.771023],[120.357577,23.773075],[120.357537,23.773129]]]},"properties":{"code":"10009120002","name":"西榮村","countyCode":"10009","countyName":"雲林縣","townCode":"10009120","townName":"崙背鄉","level":"village","unassigned":false,"note":"","label":[120.34793849639617,23.768940267874253],"bounds":[120.339002,23.760909,120.357577,23.776145],"focusBounds":[120.339002,23.760909,120.357577,23.776145],"color":"#68bec9"}},{"type":"Feature","id":"10009120003","geometry":{"type":"Polygon","coordinates":[[[120.351733,23.760909],[120.348226,23.761524],[120.34632,23.763149],[120.342121,23.765152],[120.34104,23.762457],[120.34288,23.761893],[120.343261,23.761446],[120.344092,23.761043],[120.346567,23.761024],[120.34484,23.760051],[120.344139,23.759366],[120.343539,23.759014],[120.342873,23.757726],[120.342893,23.755395],[120.345737,23.75607],[120.348187,23.75539],[120.348716,23.756338],[120.352037,23.758271],[120.353513,23.757647],[120.355009,23.757369],[120.356659,23.756863],[120.35798,23.757546],[120.359606,23.757298],[120.359831,23.757653],[120.361109,23.758609],[120.36251,23.761249],[120.35768,23.761222],[120.357328,23.76013],[120.354873,23.760976],[120.353854,23.76068],[120.352741,23.760619],[120.351733,23.760909]]]},"properties":{"code":"10009120003","name":"南陽村","countyCode":"10009","countyName":"雲林縣","townCode":"10009120","townName":"崙背鄉","level":"village","unassigned":false,"note":"","label":[120.34770037606414,23.758748555853273],"bounds":[120.34104,23.75539,120.36251,23.765152],"focusBounds":[120.34104,23.75539,120.36251,23.765152],"color":"#df9f6a"}},{"type":"Feature","id":"10009120004","geometry":{"type":"Polygon","coordinates":[[[120.359606,23.757298],[120.35798,23.757546],[120.356659,23.756863],[120.355009,23.757369],[120.353513,23.757647],[120.352037,23.758271],[120.348716,23.756338],[120.348187,23.75539],[120.345737,23.75607],[120.342893,23.755395],[120.342779,23.755186],[120.340678,23.754207],[120.338107,23.754823],[120.336548,23.75467],[120.336202,23.754246],[120.33595,23.753031],[120.334613,23.752237],[120.333253,23.750206],[120.333191,23.74792],[120.33677,23.748277],[120.339385,23.748322],[120.339568,23.747896],[120.340441,23.747563],[120.342011,23.74758],[120.342653,23.747425],[120.344438,23.746676],[120.345882,23.7463],[120.347574,23.745196],[120.348213,23.745138],[120.348795,23.74485],[120.349178,23.744494],[120.349192,23.743293],[120.350686,23.742694],[120.352936,23.743184],[120.355088,23.743973],[120.356462,23.74384],[120.356957,23.74357],[120.35739,23.743004],[120.358657,23.742563],[120.361052,23.742669],[120.364155,23.743065],[120.364479,23.747033],[120.36519,23.749169],[120.365873,23.749712],[120.366489,23.751175],[120.364887,23.751288],[120.361177,23.752031],[120.360483,23.752832],[120.360515,23.757078],[120.359606,23.757298]]]},"properties":{"code":"10009120004","name":"崙前村","countyCode":"10009","countyName":"雲林縣","townCode":"10009120","townName":"崙背鄉","level":"village","unassigned":false,"note":"","label":[120.35291697620114,23.750539142002687],"bounds":[120.333191,23.742563,120.366489,23.758271],"focusBounds":[120.333191,23.742563,120.366489,23.758271],"color":"#c38cb8"}},{"type":"Feature","id":"10009120005","geometry":{"type":"Polygon","coordinates":[[[120.377992,23.76748],[120.377033,23.768155],[120.374986,23.768796],[120.371372,23.769544],[120.367241,23.770819],[120.364901,23.771265],[120.363711,23.768125],[120.363059,23.765689],[120.363101,23.765482],[120.363356,23.765361],[120.364778,23.764897],[120.363009,23.761262],[120.36251,23.761249],[120.361109,23.758609],[120.359831,23.757653],[120.359606,23.757298],[120.360515,23.757078],[120.360483,23.752832],[120.361177,23.752031],[120.364887,23.751288],[120.366489,23.751175],[120.36711,23.752128],[120.367865,23.752752],[120.369658,23.752689],[120.370345,23.752369],[120.370856,23.752305],[120.370235,23.753389],[120.371795,23.754623],[120.373187,23.756114],[120.374595,23.76126],[120.374839,23.761697],[120.375425,23.764338],[120.37612,23.76609],[120.376383,23.766188],[120.377299,23.765948],[120.37744,23.76603],[120.377992,23.76748]]]},"properties":{"code":"10009120005","name":"羅厝村","countyCode":"10009","countyName":"雲林縣","townCode":"10009120","townName":"崙背鄉","level":"village","unassigned":false,"note":"","label":[120.36893149706295,23.760980228353112],"bounds":[120.359606,23.751175,120.377992,23.771265],"focusBounds":[120.359606,23.751175,120.377992,23.771265],"color":"#98b69b"}},{"type":"Feature","id":"10009120006","geometry":{"type":"Polygon","coordinates":[[[120.382753,23.766303],[120.381056,23.766519],[120.377992,23.76748],[120.37744,23.76603],[120.377299,23.765948],[120.376383,23.766188],[120.37612,23.76609],[120.375425,23.764338],[120.374839,23.761697],[120.374595,23.76126],[120.373187,23.756114],[120.371795,23.754623],[120.370235,23.753389],[120.370856,23.752305],[120.370345,23.752369],[120.369658,23.752689],[120.367865,23.752752],[120.36711,23.752128],[120.366489,23.751175],[120.365873,23.749712],[120.36519,23.749169],[120.364479,23.747033],[120.364155,23.743065],[120.367469,23.744234],[120.370493,23.744714],[120.372999,23.746198],[120.375195,23.74643],[120.377276,23.746698],[120.378313,23.746978],[120.379335,23.746877],[120.381309,23.746362],[120.383791,23.746857],[120.384503,23.746741],[120.385865,23.746127],[120.387374,23.746055],[120.387855,23.74893],[120.388652,23.751764],[120.388513,23.754612],[120.388895,23.756175],[120.389308,23.757132],[120.389096,23.758724],[120.389292,23.759962],[120.389766,23.762985],[120.38971,23.763439],[120.389452,23.763518],[120.388908,23.763312],[120.387205,23.763632],[120.385822,23.763419],[120.385343,23.763634],[120.384299,23.763778],[120.383731,23.7642],[120.383883,23.765079],[120.383628,23.765613],[120.383182,23.766214],[120.382753,23.766303]]]},"properties":{"code":"10009120006","name":"港尾村","countyCode":"10009","countyName":"雲林縣","townCode":"10009120","townName":"崙背鄉","level":"village","unassigned":false,"note":"","label":[120.38065502795006,23.75484208085799],"bounds":[120.364155,23.743065,120.389766,23.76748],"focusBounds":[120.364155,23.743065,120.389766,23.76748],"color":"#58b99d"}},{"type":"Feature","id":"10009120007","geometry":{"type":"Polygon","coordinates":[[[120.339002,23.766622],[120.336964,23.767539],[120.336509,23.767618],[120.322709,23.767037],[120.320385,23.766828],[120.319443,23.766372],[120.312707,23.762105],[120.313863,23.760907],[120.31399,23.759869],[120.313194,23.759103],[120.312858,23.757765],[120.311325,23.754411],[120.308485,23.747052],[120.308064,23.746814],[120.306894,23.746513],[120.306758,23.745289],[120.306202,23.744925],[120.305642,23.744146],[120.305595,23.74362],[120.305873,23.742294],[120.306614,23.742448],[120.309179,23.742251],[120.310199,23.742357],[120.310657,23.742854],[120.311228,23.744274],[120.311617,23.744631],[120.312702,23.745209],[120.314575,23.745533],[120.31568,23.746057],[120.320477,23.746646],[120.321106,23.746672],[120.321587,23.746615],[120.321917,23.746596],[120.322092,23.746569],[120.322696,23.746334],[120.32346,23.745525],[120.324634,23.745071],[120.327301,23.745458],[120.329266,23.745532],[120.329658,23.74543],[120.329909,23.745938],[120.330438,23.746132],[120.330721,23.747425],[120.331175,23.748028],[120.333191,23.74792],[120.333253,23.750206],[120.334613,23.752237],[120.33595,23.753031],[120.336202,23.754246],[120.336548,23.75467],[120.338107,23.754823],[120.340678,23.754207],[120.342779,23.755186],[120.342893,23.755395],[120.342873,23.757726],[120.343539,23.759014],[120.344139,23.759366],[120.34484,23.760051],[120.346567,23.761024],[120.344092,23.761043],[120.343261,23.761446],[120.34288,23.761893],[120.34104,23.762457],[120.342121,23.765152],[120.339002,23.766622]]]},"properties":{"code":"10009120007","name":"阿勸村","countyCode":"10009","countyName":"雲林縣","townCode":"10009120","townName":"崙背鄉","level":"village","unassigned":false,"note":"","label":[120.32504197913964,23.756132411511786],"bounds":[120.305595,23.742251,120.346567,23.767618],"focusBounds":[120.305595,23.742251,120.346567,23.767618],"color":"#efb44f"}},{"type":"Feature","id":"10009120008","geometry":{"type":"Polygon","coordinates":[[[120.341457,23.776145],[120.335096,23.777255],[120.333305,23.777302],[120.333117,23.777757],[120.331475,23.780048],[120.330044,23.780326],[120.328302,23.780969],[120.327993,23.7812],[120.327791,23.781648],[120.327914,23.782333],[120.328848,23.78382],[120.325133,23.784438],[120.324321,23.783883],[120.324497,23.784918],[120.324348,23.785601],[120.324057,23.78595],[120.317671,23.78752],[120.31662,23.783443],[120.319017,23.779336],[120.318625,23.779409],[120.313723,23.778904],[120.313403,23.778763],[120.312832,23.778862],[120.316454,23.771325],[120.320385,23.766828],[120.322709,23.767037],[120.336509,23.767618],[120.336964,23.767539],[120.339002,23.766622],[120.340036,23.769073],[120.341457,23.776145]]]},"properties":{"code":"10009120008","name":"五魁村","countyCode":"10009","countyName":"雲林縣","townCode":"10009120","townName":"崙背鄉","level":"village","unassigned":false,"note":"","label":[120.32621381432635,23.77408536902081],"bounds":[120.312832,23.766622,120.341457,23.78752],"focusBounds":[120.312832,23.766622,120.341457,23.78752],"color":"#78a7e3"}},{"type":"Feature","id":"10009120009","geometry":{"type":"Polygon","coordinates":[[[120.312832,23.778862],[120.311592,23.779066],[120.31049,23.779518],[120.309448,23.780136],[120.309134,23.780539],[120.308532,23.780692],[120.308252,23.781336],[120.308043,23.781416],[120.307091,23.781042],[120.306,23.781075],[120.305173,23.780756],[120.303183,23.781056],[120.301841,23.780032],[120.300835,23.779571],[120.300202,23.778767],[120.300412,23.778242],[120.300405,23.778226],[120.300367,23.778221],[120.300327,23.778178],[120.300281,23.778077],[120.300367,23.778221],[120.300937,23.77827],[120.301962,23.778487],[120.303091,23.778534],[120.303268,23.778209],[120.303252,23.777409],[120.304582,23.777316],[120.305912,23.776483],[120.305984,23.774715],[120.305809,23.770398],[120.306361,23.76573],[120.30681,23.764233],[120.3068,23.763074],[120.304699,23.763436],[120.303354,23.763502],[120.301985,23.763406],[120.294297,23.76363],[120.294275,23.763437],[120.294967,23.762331],[120.293924,23.76241],[120.293314,23.760535],[120.297759,23.759841],[120.297185,23.758004],[120.298007,23.757619],[120.297758,23.756577],[120.298773,23.75622],[120.298624,23.755273],[120.298723,23.755041],[120.300687,23.753943],[120.299718,23.752887],[120.299469,23.752288],[120.298997,23.750994],[120.298779,23.749399],[120.298874,23.749229],[120.298438,23.7482],[120.29852,23.74771],[120.2989,23.747462],[120.298986,23.747126],[120.298987,23.740928],[120.302557,23.741191],[120.304426,23.741671],[120.305873,23.742294],[120.305595,23.74362],[120.305642,23.744146],[120.306202,23.744925],[120.306758,23.745289],[120.306894,23.746513],[120.308064,23.746814],[120.308485,23.747052],[120.311325,23.754411],[120.312858,23.757765],[120.313194,23.759103],[120.31399,23.759869],[120.313863,23.760907],[120.312707,23.762105],[120.319443,23.766372],[120.320385,23.766828],[120.316454,23.771325],[120.312832,23.778862]]]},"properties":{"code":"10009120009","name":"大有村","countyCode":"10009","countyName":"雲林縣","townCode":"10009120","townName":"崙背鄉","level":"village","unassigned":false,"note":"","label":[120.30596000029628,23.756979667842806],"bounds":[120.293314,23.740928,120.320385,23.781416],"focusBounds":[120.293314,23.740928,120.320385,23.781416],"color":"#dd8590"}},{"type":"Feature","id":"10009120010","geometry":{"type":"Polygon","coordinates":[[[120.3088,23.820326],[120.308126,23.820302],[120.302061,23.82188],[120.301901,23.806337],[120.301004,23.804832],[120.300619,23.804668],[120.29923,23.804773],[120.298671,23.804647],[120.29703,23.804848],[120.295267,23.799412],[120.294973,23.799056],[120.294924,23.798747],[120.294666,23.798016],[120.293967,23.796939],[120.293287,23.792746],[120.293815,23.791169],[120.294956,23.790785],[120.29558,23.790008],[120.295322,23.787986],[120.295624,23.787516],[120.296153,23.787296],[120.295891,23.785645],[120.294769,23.781637],[120.294961,23.781458],[120.294663,23.78013],[120.296516,23.778483],[120.297009,23.777604],[120.297335,23.777334],[120.298442,23.777127],[120.299825,23.777319],[120.300281,23.778077],[120.300327,23.778178],[120.300367,23.778221],[120.300405,23.778226],[120.300412,23.778242],[120.300202,23.778767],[120.300835,23.779571],[120.301841,23.780032],[120.303183,23.781056],[120.305173,23.780756],[120.306,23.781075],[120.307091,23.781042],[120.308043,23.781416],[120.308252,23.781336],[120.308532,23.780692],[120.309134,23.780539],[120.309448,23.780136],[120.31049,23.779518],[120.311592,23.779066],[120.312832,23.778862],[120.313403,23.778763],[120.313723,23.778904],[120.318625,23.779409],[120.319017,23.779336],[120.31662,23.783443],[120.317671,23.78752],[120.31862,23.791321],[120.318571,23.791824],[120.317298,23.792983],[120.325134,23.79565],[120.328837,23.796912],[120.327963,23.799572],[120.328978,23.804719],[120.329439,23.805554],[120.329276,23.806045],[120.327827,23.806459],[120.327467,23.806854],[120.327101,23.807733],[120.32603,23.814724],[120.325343,23.817482],[120.324664,23.821151],[120.316402,23.820058],[120.3088,23.820326]]]},"properties":{"code":"10009120010","name":"豐榮村","countyCode":"10009","countyName":"雲林縣","townCode":"10009120","townName":"崙背鄉","level":"village","unassigned":false,"note":"","label":[120.31406730604961,23.804701286773053],"bounds":[120.293287,23.777127,120.329439,23.82188],"focusBounds":[120.293287,23.777127,120.329439,23.82188],"color":"#a49ad4"}},{"type":"Feature","id":"10009120011","geometry":{"type":"Polygon","coordinates":[[[120.342524,23.822229],[120.333145,23.822286],[120.324664,23.821151],[120.325343,23.817482],[120.32603,23.814724],[120.327101,23.807733],[120.327467,23.806854],[120.327827,23.806459],[120.329276,23.806045],[120.329439,23.805554],[120.328978,23.804719],[120.327963,23.799572],[120.328837,23.796912],[120.325134,23.79565],[120.326781,23.795176],[120.326009,23.792263],[120.325938,23.791663],[120.326078,23.791489],[120.335839,23.789703],[120.33619,23.789888],[120.336594,23.790955],[120.337466,23.790816],[120.338245,23.790341],[120.338486,23.790356],[120.338639,23.790614],[120.341156,23.790139],[120.341932,23.793786],[120.343971,23.796596],[120.344381,23.799033],[120.344764,23.800024],[120.344833,23.800871],[120.344691,23.801635],[120.344295,23.802345],[120.343849,23.80279],[120.344524,23.803016],[120.344673,23.804267],[120.347271,23.808211],[120.341466,23.807048],[120.340223,23.806973],[120.338519,23.807234],[120.338557,23.807814],[120.339347,23.810703],[120.341411,23.814188],[120.342218,23.814794],[120.344557,23.817359],[120.345819,23.819349],[120.345887,23.822265],[120.342524,23.822229]]]},"properties":{"code":"10009120011","name":"草湖村","countyCode":"10009","countyName":"雲林縣","townCode":"10009120","townName":"崙背鄉","level":"village","unassigned":false,"note":"","label":[120.33726918360423,23.80009492941506],"bounds":[120.324664,23.789703,120.347271,23.822286],"focusBounds":[120.324664,23.789703,120.347271,23.822286],"color":"#a8bf62"}},{"type":"Feature","id":"10009120012","geometry":{"type":"Polygon","coordinates":[[[120.341156,23.790139],[120.338639,23.790614],[120.338486,23.790356],[120.338245,23.790341],[120.337466,23.790816],[120.336594,23.790955],[120.33619,23.789888],[120.335839,23.789703],[120.326078,23.791489],[120.325938,23.791663],[120.326009,23.792263],[120.326781,23.795176],[120.325134,23.79565],[120.317298,23.792983],[120.318571,23.791824],[120.31862,23.791321],[120.317671,23.78752],[120.324057,23.78595],[120.324348,23.785601],[120.324497,23.784918],[120.324321,23.783883],[120.325133,23.784438],[120.328848,23.78382],[120.327914,23.782333],[120.327791,23.781648],[120.327993,23.7812],[120.328302,23.780969],[120.330044,23.780326],[120.331475,23.780048],[120.333117,23.777757],[120.333305,23.777302],[120.335096,23.777255],[120.341457,23.776145],[120.342855,23.783085],[120.343603,23.786847],[120.340566,23.787407],[120.341156,23.790139]]]},"properties":{"code":"10009120012","name":"舊庄村","countyCode":"10009","countyName":"雲林縣","townCode":"10009120","townName":"崙背鄉","level":"village","unassigned":false,"note":"","label":[120.33390164361319,23.784882167674322],"bounds":[120.317298,23.776145,120.343603,23.79565],"focusBounds":[120.317298,23.776145,120.343603,23.79565],"color":"#68bec9"}},{"type":"Feature","id":"10009120013","geometry":{"type":"Polygon","coordinates":[[[120.357035,23.789761],[120.35329,23.790749],[120.351056,23.791785],[120.352321,23.798249],[120.353159,23.803653],[120.353098,23.803948],[120.352549,23.804449],[120.350766,23.805913],[120.349349,23.80673],[120.349012,23.807276],[120.349144,23.8083],[120.35003,23.80985],[120.351349,23.814256],[120.351016,23.815673],[120.350577,23.822285],[120.345887,23.822265],[120.345819,23.819349],[120.344557,23.817359],[120.342218,23.814794],[120.341411,23.814188],[120.339347,23.810703],[120.338557,23.807814],[120.338519,23.807234],[120.340223,23.806973],[120.341466,23.807048],[120.347271,23.808211],[120.344673,23.804267],[120.344524,23.803016],[120.343849,23.80279],[120.344295,23.802345],[120.344691,23.801635],[120.344833,23.800871],[120.344764,23.800024],[120.344381,23.799033],[120.343971,23.796596],[120.341932,23.793786],[120.341156,23.790139],[120.340566,23.787407],[120.343603,23.786847],[120.342855,23.783085],[120.348772,23.779961],[120.349028,23.782283],[120.352682,23.782152],[120.35308,23.786181],[120.35806,23.785973],[120.357035,23.789761]]]},"properties":{"code":"10009120013","name":"水尾村","countyCode":"10009","countyName":"雲林縣","townCode":"10009120","townName":"崙背鄉","level":"village","unassigned":false,"note":"","label":[120.34849141227137,23.79897220180178],"bounds":[120.338519,23.779961,120.35806,23.822285],"focusBounds":[120.338519,23.779961,120.35806,23.822285],"color":"#df9f6a"}},{"type":"Feature","id":"10009120014","geometry":{"type":"Polygon","coordinates":[[[120.359655,23.789794],[120.358723,23.789893],[120.357611,23.789672],[120.357035,23.789761],[120.35806,23.785973],[120.35308,23.786181],[120.352682,23.782152],[120.349028,23.782283],[120.348772,23.779961],[120.342855,23.783085],[120.341457,23.776145],[120.351986,23.77437],[120.351758,23.773012],[120.35225,23.772899],[120.354607,23.772839],[120.357537,23.773129],[120.357951,23.775993],[120.358545,23.777958],[120.358726,23.779711],[120.35961,23.78208],[120.359825,23.782122],[120.362089,23.781366],[120.362527,23.780856],[120.364986,23.779203],[120.367485,23.783614],[120.367391,23.783746],[120.366481,23.784863],[120.365938,23.786096],[120.362862,23.788784],[120.361923,23.78941],[120.361315,23.789635],[120.360576,23.789806],[120.359655,23.789794]]]},"properties":{"code":"10009120014","name":"枋南村","countyCode":"10009","countyName":"雲林縣","townCode":"10009120","townName":"崙背鄉","level":"village","unassigned":false,"note":"","label":[120.35399375026455,23.778319889216483],"bounds":[120.341457,23.772839,120.367485,23.789893],"focusBounds":[120.341457,23.772839,120.367485,23.789893],"color":"#c38cb8"}}]}
