{"type":"FeatureCollection","features":[{"type":"Feature","id":"10002010001","geometry":{"type":"Polygon","coordinates":[[[121.757245,24.751926],[121.755615,24.75231],[121.756682,24.754994],[121.755636,24.755227],[121.753961,24.754471],[121.753101,24.754346],[121.751989,24.754512],[121.751564,24.753113],[121.752824,24.752854],[121.756222,24.743547],[121.756642,24.74398],[121.757178,24.744137],[121.758622,24.743363],[121.759248,24.743471],[121.757499,24.746536],[121.756853,24.748113],[121.756623,24.749283],[121.756703,24.750155],[121.757245,24.751926]]]},"properties":{"code":"10002010001","name":"神農里","countyCode":"10002","countyName":"宜蘭縣","townCode":"10002010","townName":"宜蘭市","level":"village","unassigned":false,"note":"","label":[121.75519380481441,24.750695065704235],"bounds":[121.751564,24.743363,121.759248,24.755227],"focusBounds":[121.751564,24.743363,121.759248,24.755227],"color":"#78a7e3"}},{"type":"Feature","id":"10002010002","geometry":{"type":"Polygon","coordinates":[[[121.751564,24.753113],[121.75152,24.753124],[121.750638,24.75016],[121.752797,24.749703],[121.753622,24.747571],[121.752641,24.747263],[121.753298,24.745609],[121.7542,24.745901],[121.755165,24.743515],[121.755589,24.743225],[121.756043,24.743151],[121.756222,24.743547],[121.752824,24.752854],[121.751564,24.753113]]]},"properties":{"code":"10002010002","name":"民權里","countyCode":"10002","countyName":"宜蘭縣","townCode":"10002010","townName":"宜蘭市","level":"village","unassigned":false,"note":"","label":[121.75220129440925,24.75102496669463],"bounds":[121.750638,24.743151,121.756222,24.753124],"focusBounds":[121.750638,24.743151,121.756222,24.753124],"color":"#dd8590"}},{"type":"Feature","id":"10002010008","geometry":{"type":"Polygon","coordinates":[[[121.748349,24.744786],[121.745004,24.744971],[121.742332,24.745581],[121.742004,24.744569],[121.742115,24.744571],[121.739894,24.742516],[121.740712,24.74178],[121.738993,24.740249],[121.737984,24.74118],[121.737054,24.74038],[121.737324,24.740012],[121.740821,24.737006],[121.741149,24.737303],[121.741457,24.736954],[121.740569,24.735952],[121.740915,24.735754],[121.741335,24.735122],[121.741375,24.732667],[121.742075,24.731802],[121.747346,24.734135],[121.749125,24.73488],[121.748956,24.737378],[121.749514,24.737632],[121.749832,24.738275],[121.75194,24.739311],[121.752169,24.740317],[121.753483,24.740568],[121.754014,24.740883],[121.754482,24.741705],[121.755081,24.741858],[121.755632,24.742322],[121.756043,24.743151],[121.755201,24.742832],[121.753021,24.742434],[121.748201,24.741941],[121.747005,24.742015],[121.748349,24.744786]]]},"properties":{"code":"10002010008","name":"進士里","countyCode":"10002","countyName":"宜蘭縣","townCode":"10002010","townName":"宜蘭市","level":"village","unassigned":false,"note":"","label":[121.74512365402744,24.73862630927619],"bounds":[121.737054,24.731802,121.756043,24.745581],"focusBounds":[121.737054,24.731802,121.756043,24.745581],"color":"#a49ad4"}},{"type":"Feature","id":"10002010009","geometry":{"type":"Polygon","coordinates":[[[121.747346,24.734135],[121.742075,24.731802],[121.741375,24.732667],[121.741335,24.735122],[121.740915,24.735754],[121.740569,24.735952],[121.741457,24.736954],[121.741149,24.737303],[121.740821,24.737006],[121.737324,24.740012],[121.735878,24.738472],[121.736865,24.737893],[121.733703,24.734803],[121.736486,24.732336],[121.734653,24.73136],[121.733299,24.730157],[121.733381,24.728584],[121.734793,24.724329],[121.735437,24.724471],[121.73607,24.724805],[121.736609,24.725905],[121.737973,24.726532],[121.738522,24.726319],[121.739905,24.725271],[121.74028,24.72515],[121.740634,24.725288],[121.741096,24.725171],[121.742774,24.724247],[121.743684,24.723919],[121.744891,24.723931],[121.74534,24.723587],[121.746805,24.723538],[121.746784,24.722584],[121.750526,24.722176],[121.750306,24.727249],[121.749413,24.729544],[121.749334,24.730123],[121.747346,24.734135]]]},"properties":{"code":"10002010009","name":"南橋里","countyCode":"10002","countyName":"宜蘭縣","townCode":"10002010","townName":"宜蘭市","level":"village","unassigned":false,"note":"","label":[121.74381976251475,24.72824718547772],"bounds":[121.733299,24.722176,121.750526,24.740012],"focusBounds":[121.733299,24.722176,121.750526,24.740012],"color":"#a8bf62"}},{"type":"Feature","id":"10002010010","geometry":{"type":"Polygon","coordinates":[[[121.759248,24.743471],[121.758622,24.743363],[121.757178,24.744137],[121.756642,24.74398],[121.756222,24.743547],[121.756043,24.743151],[121.755632,24.742322],[121.755081,24.741858],[121.754482,24.741705],[121.754014,24.740883],[121.753483,24.740568],[121.752169,24.740317],[121.75194,24.739311],[121.749832,24.738275],[121.749514,24.737632],[121.748956,24.737378],[121.749125,24.73488],[121.747346,24.734135],[121.749334,24.730123],[121.749413,24.729544],[121.750306,24.727249],[121.750526,24.722176],[121.751026,24.722128],[121.752918,24.722427],[121.756113,24.723657],[121.758219,24.723166],[121.758916,24.722638],[121.759373,24.724572],[121.759958,24.725661],[121.760233,24.726579],[121.762311,24.72696],[121.761692,24.728355],[121.761402,24.729606],[121.758932,24.736221],[121.759552,24.736577],[121.759057,24.739304],[121.759314,24.739993],[121.759877,24.741119],[121.760307,24.741406],[121.759857,24.742278],[121.759248,24.743471]]]},"properties":{"code":"10002010010","name":"建業里","countyCode":"10002","countyName":"宜蘭縣","townCode":"10002010","townName":"宜蘭市","level":"village","unassigned":false,"note":"","label":[121.75439032266861,24.73226873798453],"bounds":[121.747346,24.722128,121.762311,24.744137],"focusBounds":[121.747346,24.722128,121.762311,24.744137],"color":"#68bec9"}},{"type":"Feature","id":"10002010011","geometry":{"type":"Polygon","coordinates":[[[121.772239,24.713737],[121.770768,24.719627],[121.767619,24.725897],[121.760467,24.739084],[121.759314,24.739993],[121.759057,24.739304],[121.759552,24.736577],[121.758932,24.736221],[121.761402,24.729606],[121.761692,24.728355],[121.762311,24.72696],[121.760233,24.726579],[121.759958,24.725661],[121.759373,24.724572],[121.758916,24.722638],[121.759514,24.72183],[121.760085,24.719874],[121.761008,24.719199],[121.761446,24.718453],[121.762013,24.718042],[121.76167,24.717225],[121.760809,24.716608],[121.762245,24.716108],[121.763118,24.715603],[121.764558,24.7139],[121.765161,24.713539],[121.768736,24.713255],[121.772153,24.713724],[121.772239,24.713737]]]},"properties":{"code":"10002010011","name":"南津里","countyCode":"10002","countyName":"宜蘭縣","townCode":"10002010","townName":"宜蘭市","level":"village","unassigned":false,"note":"","label":[121.76414611907711,24.722738632781954],"bounds":[121.758916,24.713255,121.772239,24.739993],"focusBounds":[121.758916,24.713255,121.772239,24.739993],"color":"#df9f6a"}},{"type":"Feature","id":"10002010012","geometry":{"type":"Polygon","coordinates":[[[121.77577,24.735644],[121.773679,24.736644],[121.772546,24.736268],[121.772221,24.735888],[121.771485,24.735685],[121.769934,24.735911],[121.766881,24.737268],[121.766322,24.737362],[121.763723,24.739285],[121.761375,24.741493],[121.760725,24.742334],[121.759857,24.742278],[121.760307,24.741406],[121.759877,24.741119],[121.759314,24.739993],[121.760467,24.739084],[121.767619,24.725897],[121.770768,24.719627],[121.772239,24.713737],[121.776098,24.714702],[121.774145,24.715785],[121.773458,24.719264],[121.77492,24.725081],[121.775564,24.728917],[121.775446,24.732557],[121.77577,24.735644]]]},"properties":{"code":"10002010012","name":"凱旋里","countyCode":"10002","countyName":"宜蘭縣","townCode":"10002010","townName":"宜蘭市","level":"village","unassigned":false,"note":"","label":[121.77052696956267,24.730635959173146],"bounds":[121.759314,24.713737,121.776098,24.742334],"focusBounds":[121.759314,24.713737,121.776098,24.742334],"color":"#c38cb8"}},{"type":"Feature","id":"10002010013","geometry":{"type":"Polygon","coordinates":[[[121.782581,24.747729],[121.779559,24.748961],[121.767775,24.751437],[121.767933,24.749293],[121.768265,24.745607],[121.768805,24.744549],[121.768949,24.742904],[121.760725,24.742334],[121.761375,24.741493],[121.763723,24.739285],[121.766322,24.737362],[121.766881,24.737268],[121.769934,24.735911],[121.771485,24.735685],[121.772221,24.735888],[121.772546,24.736268],[121.773679,24.736644],[121.77577,24.735644],[121.777062,24.737344],[121.776852,24.738176],[121.776982,24.738277],[121.778137,24.738323],[121.778298,24.73869],[121.779125,24.738442],[121.779054,24.739002],[121.78029,24.739044],[121.780319,24.738495],[121.785307,24.738792],[121.785278,24.73918],[121.785001,24.742501],[121.783764,24.742427],[121.783398,24.746884],[121.7824,24.747264],[121.782581,24.747729]]]},"properties":{"code":"10002010013","name":"黎明里","countyCode":"10002","countyName":"宜蘭縣","townCode":"10002010","townName":"宜蘭市","level":"village","unassigned":false,"note":"","label":[121.77521069660443,24.744010442199038],"bounds":[121.760725,24.735644,121.785307,24.751437],"focusBounds":[121.760725,24.735644,121.785307,24.751437],"color":"#98b69b"}},{"type":"Feature","id":"10002010014","geometry":{"type":"Polygon","coordinates":[[[121.767933,24.749293],[121.764679,24.748288],[121.762726,24.751634],[121.757428,24.750105],[121.756703,24.750155],[121.756623,24.749283],[121.756853,24.748113],[121.757499,24.746536],[121.759248,24.743471],[121.759857,24.742278],[121.760725,24.742334],[121.768949,24.742904],[121.768805,24.744549],[121.768265,24.745607],[121.767933,24.749293]]]},"properties":{"code":"10002010014","name":"東村里","countyCode":"10002","countyName":"宜蘭縣","townCode":"10002010","townName":"宜蘭市","level":"village","unassigned":false,"note":"","label":[121.7621936377107,24.745901761962124],"bounds":[121.756623,24.742278,121.768949,24.751634],"focusBounds":[121.756623,24.742278,121.768949,24.751634],"color":"#58b99d"}},{"type":"Feature","id":"10002010015","geometry":{"type":"Polygon","coordinates":[[[121.786588,24.751266],[121.785324,24.751107],[121.784525,24.75122],[121.783247,24.75213],[121.782363,24.753142],[121.782049,24.753838],[121.782069,24.756217],[121.781906,24.756606],[121.780907,24.757228],[121.780215,24.757452],[121.779408,24.758658],[121.778771,24.759168],[121.777219,24.759571],[121.77416,24.757284],[121.766185,24.755613],[121.766311,24.754179],[121.766831,24.752029],[121.766728,24.751654],[121.767775,24.751437],[121.779559,24.748961],[121.782581,24.747729],[121.782792,24.747851],[121.78283,24.74824],[121.783221,24.748807],[121.785199,24.748637],[121.785253,24.750296],[121.7858,24.750404],[121.785995,24.750793],[121.786588,24.751266]]]},"properties":{"code":"10002010015","name":"延平里","countyCode":"10002","countyName":"宜蘭縣","townCode":"10002010","townName":"宜蘭市","level":"village","unassigned":false,"note":"","label":[121.77713429526328,24.754025232910365],"bounds":[121.766185,24.747729,121.786588,24.759571],"focusBounds":[121.766185,24.747729,121.786588,24.759571],"color":"#dd8590"}},{"type":"Feature","id":"10002010016","geometry":{"type":"Polygon","coordinates":[[[121.788627,24.752739],[121.787506,24.753385],[121.786671,24.754126],[121.785776,24.75549],[121.788536,24.756356],[121.788429,24.757005],[121.788093,24.75768],[121.789067,24.75808],[121.789155,24.758251],[121.788777,24.758927],[121.788385,24.758804],[121.787091,24.761862],[121.786747,24.761905],[121.785729,24.763893],[121.782006,24.762798],[121.781551,24.76399],[121.781088,24.763859],[121.780686,24.764956],[121.780299,24.764872],[121.780681,24.76611],[121.779585,24.765792],[121.779211,24.766887],[121.778216,24.766614],[121.777856,24.767648],[121.777138,24.767427],[121.776777,24.768645],[121.776092,24.768331],[121.774398,24.767917],[121.773707,24.767492],[121.772596,24.766611],[121.768466,24.765613],[121.767361,24.765589],[121.766551,24.764876],[121.765342,24.761867],[121.767802,24.761863],[121.768501,24.761651],[121.770798,24.761412],[121.77304,24.761644],[121.774372,24.761189],[121.775868,24.760147],[121.777219,24.759571],[121.778771,24.759168],[121.779408,24.758658],[121.780215,24.757452],[121.780907,24.757228],[121.781906,24.756606],[121.782069,24.756217],[121.782049,24.753838],[121.782363,24.753142],[121.783247,24.75213],[121.784525,24.75122],[121.785324,24.751107],[121.786588,24.751266],[121.787849,24.751616],[121.78826,24.751773],[121.788627,24.752739]]]},"properties":{"code":"10002010016","name":"七張里","countyCode":"10002","countyName":"宜蘭縣","townCode":"10002010","townName":"宜蘭市","level":"village","unassigned":false,"note":"","label":[121.77729897118554,24.763513187089526],"bounds":[121.765342,24.751107,121.789155,24.768645],"focusBounds":[121.765342,24.751107,121.789155,24.768645],"color":"#78a7e3"}},{"type":"Feature","id":"10002010017","geometry":{"type":"Polygon","coordinates":[[[121.765342,24.761867],[121.763882,24.761986],[121.76253,24.762977],[121.761129,24.763769],[121.758886,24.758044],[121.75952,24.757958],[121.760384,24.75758],[121.762777,24.759579],[121.764127,24.760081],[121.765172,24.761464],[121.765342,24.761867]]]},"properties":{"code":"10002010017","name":"慈安里","countyCode":"10002","countyName":"宜蘭縣","townCode":"10002010","townName":"宜蘭市","level":"village","unassigned":false,"note":"","label":[121.76199806205814,24.7611030846783],"bounds":[121.758886,24.75758,121.765342,24.763769],"focusBounds":[121.758886,24.75758,121.765342,24.763769],"color":"#dd8590"}},{"type":"Feature","id":"10002010018","geometry":{"type":"Polygon","coordinates":[[[121.756222,24.757013],[121.752763,24.757824],[121.751989,24.754512],[121.753101,24.754346],[121.753961,24.754471],[121.755636,24.755227],[121.756222,24.757013]]]},"properties":{"code":"10002010018","name":"新民里","countyCode":"10002","countyName":"宜蘭縣","townCode":"10002010","townName":"宜蘭市","level":"village","unassigned":false,"note":"","label":[121.75391628434106,24.75600916096046],"bounds":[121.751989,24.754346,121.756222,24.757824],"focusBounds":[121.751989,24.754346,121.756222,24.757824],"color":"#a49ad4"}},{"type":"Feature","id":"10002010019","geometry":{"type":"Polygon","coordinates":[[[121.754796,24.759799],[121.75334,24.76048],[121.752763,24.757824],[121.756222,24.757013],[121.756725,24.758407],[121.757067,24.758358],[121.756771,24.758583],[121.754796,24.759799]]]},"properties":{"code":"10002010019","name":"東門里","countyCode":"10002","countyName":"宜蘭縣","townCode":"10002010","townName":"宜蘭市","level":"village","unassigned":false,"note":"","label":[121.7546292016824,24.75853398502158],"bounds":[121.752763,24.757013,121.757067,24.76048],"focusBounds":[121.752763,24.757013,121.757067,24.76048],"color":"#a8bf62"}},{"type":"Feature","id":"10002010021","geometry":{"type":"Polygon","coordinates":[[[121.761129,24.763769],[121.759652,24.764632],[121.758319,24.761282],[121.757058,24.761622],[121.757555,24.7608],[121.756771,24.758583],[121.757067,24.758358],[121.758886,24.758044],[121.761129,24.763769]]]},"properties":{"code":"10002010021","name":"小東里","countyCode":"10002","countyName":"宜蘭縣","townCode":"10002010","townName":"宜蘭市","level":"village","unassigned":false,"note":"","label":[121.75855736713628,24.76018863522922],"bounds":[121.756771,24.758044,121.761129,24.764632],"focusBounds":[121.756771,24.758044,121.761129,24.764632],"color":"#68bec9"}},{"type":"Feature","id":"10002010022","geometry":{"type":"Polygon","coordinates":[[[121.759652,24.764632],[121.758109,24.765645],[121.757055,24.763031],[121.756477,24.763207],[121.755684,24.76112],[121.755252,24.760556],[121.755078,24.760608],[121.754796,24.759799],[121.756771,24.758583],[121.757555,24.7608],[121.757058,24.761622],[121.758319,24.761282],[121.759652,24.764632]]]},"properties":{"code":"10002010022","name":"菜園里","countyCode":"10002","countyName":"宜蘭縣","townCode":"10002010","townName":"宜蘭市","level":"village","unassigned":false,"note":"","label":[121.75773499269695,24.762415987566886],"bounds":[121.754796,24.758583,121.759652,24.765645],"focusBounds":[121.754796,24.758583,121.759652,24.765645],"color":"#df9f6a"}},{"type":"Feature","id":"10002010023","geometry":{"type":"Polygon","coordinates":[[[121.758109,24.765645],[121.756811,24.76603],[121.755361,24.765993],[121.753551,24.761088],[121.75334,24.76048],[121.754796,24.759799],[121.755078,24.760608],[121.755252,24.760556],[121.755684,24.76112],[121.756477,24.763207],[121.757055,24.763031],[121.758109,24.765645]]]},"properties":{"code":"10002010023","name":"孝廉里","countyCode":"10002","countyName":"宜蘭縣","townCode":"10002010","townName":"宜蘭市","level":"village","unassigned":false,"note":"","label":[121.7562430300981,24.76452074430441],"bounds":[121.75334,24.759799,121.758109,24.76603],"focusBounds":[121.75334,24.759799,121.758109,24.76603],"color":"#c38cb8"}},{"type":"Feature","id":"10002010024","geometry":{"type":"Polygon","coordinates":[[[121.761682,24.782519],[121.760992,24.782935],[121.760662,24.782858],[121.756372,24.768778],[121.755361,24.765993],[121.756811,24.76603],[121.758109,24.765645],[121.759652,24.764632],[121.761129,24.763769],[121.76253,24.762977],[121.763882,24.761986],[121.765342,24.761867],[121.766551,24.764876],[121.767361,24.765589],[121.768466,24.765613],[121.772596,24.766611],[121.772327,24.766678],[121.770722,24.769972],[121.771211,24.770376],[121.771233,24.770619],[121.771825,24.770896],[121.772002,24.771524],[121.770406,24.771872],[121.769708,24.771573],[121.76897,24.771643],[121.768319,24.771099],[121.767956,24.771035],[121.768043,24.771746],[121.76827,24.772031],[121.767986,24.772206],[121.767425,24.772143],[121.767057,24.772515],[121.767502,24.773193],[121.767037,24.773407],[121.767076,24.773802],[121.766801,24.774669],[121.766642,24.774846],[121.766112,24.774975],[121.765987,24.775454],[121.765477,24.775292],[121.765205,24.775409],[121.764714,24.776235],[121.764984,24.776477],[121.764981,24.776653],[121.764362,24.777097],[121.764001,24.777732],[121.764141,24.778247],[121.763829,24.778357],[121.763585,24.778163],[121.763365,24.778183],[121.763023,24.778692],[121.763173,24.77903],[121.762216,24.779687],[121.762438,24.779851],[121.76206,24.780595],[121.762505,24.780923],[121.762355,24.781514],[121.762462,24.781617],[121.762749,24.781514],[121.762817,24.781673],[121.762342,24.782262],[121.761682,24.782519]]]},"properties":{"code":"10002010024","name":"新生里","countyCode":"10002","countyName":"宜蘭縣","townCode":"10002010","townName":"宜蘭市","level":"village","unassigned":false,"note":"","label":[121.76243941242527,24.76971439981135],"bounds":[121.755361,24.761867,121.772596,24.782935],"focusBounds":[121.755361,24.761867,121.772596,24.782935],"color":"#98b69b"}},{"type":"Feature","id":"10002010025","geometry":{"type":"Polygon","coordinates":[[[121.760662,24.782858],[121.760275,24.782918],[121.759485,24.782656],[121.758904,24.782614],[121.759188,24.782045],[121.75806,24.781003],[121.75787,24.780627],[121.75767,24.7806],[121.757401,24.780853],[121.756526,24.780237],[121.756171,24.780235],[121.754873,24.781025],[121.753663,24.780822],[121.753022,24.781068],[121.752505,24.780785],[121.751825,24.780691],[121.751707,24.780431],[121.751271,24.780389],[121.751017,24.780163],[121.750624,24.780602],[121.750215,24.780669],[121.749737,24.781041],[121.749537,24.780949],[121.749499,24.780705],[121.749199,24.780569],[121.748588,24.780674],[121.74747,24.780123],[121.746396,24.780335],[121.745788,24.779848],[121.745577,24.779045],[121.745194,24.77888],[121.744961,24.778592],[121.744568,24.778677],[121.744317,24.777908],[121.743756,24.777825],[121.743523,24.777376],[121.745274,24.775969],[121.749083,24.773422],[121.752589,24.771065],[121.756372,24.768778],[121.760662,24.782858]]]},"properties":{"code":"10002010025","name":"茭白里","countyCode":"10002","countyName":"宜蘭縣","townCode":"10002010","townName":"宜蘭市","level":"village","unassigned":false,"note":"","label":[121.75343789194739,24.77611933391953],"bounds":[121.743523,24.768778,121.760662,24.782918],"focusBounds":[121.743523,24.768778,121.760662,24.782918],"color":"#58b99d"}},{"type":"Feature","id":"10002010026","geometry":{"type":"Polygon","coordinates":[[[121.756372,24.768778],[121.752589,24.771065],[121.749083,24.773422],[121.74532,24.769532],[121.744983,24.769026],[121.744929,24.768614],[121.745317,24.767977],[121.7503,24.763831],[121.751697,24.765101],[121.752399,24.76554],[121.753243,24.765838],[121.755361,24.765993],[121.756372,24.768778]]]},"properties":{"code":"10002010026","name":"北津里","countyCode":"10002","countyName":"宜蘭縣","townCode":"10002010","townName":"宜蘭市","level":"village","unassigned":false,"note":"","label":[121.75038393963587,24.768487511850672],"bounds":[121.744929,24.763831,121.756372,24.773422],"focusBounds":[121.744929,24.763831,121.756372,24.773422],"color":"#efb44f"}},{"type":"Feature","id":"10002010027","geometry":{"type":"Polygon","coordinates":[[[121.734376,24.783065],[121.73208,24.784449],[121.730304,24.784394],[121.730447,24.779902],[121.731855,24.777398],[121.733496,24.775722],[121.733866,24.774196],[121.734697,24.772645],[121.73445,24.769872],[121.73369,24.768514],[121.732508,24.767042],[121.732119,24.765752],[121.732136,24.765195],[121.732491,24.764277],[121.731848,24.764191],[121.73152,24.763096],[121.731507,24.762006],[121.730831,24.760978],[121.731125,24.760041],[121.730931,24.759846],[121.730471,24.759866],[121.729969,24.759421],[121.729684,24.758397],[121.729084,24.75827],[121.728487,24.757878],[121.729128,24.757572],[121.72931,24.757113],[121.729227,24.756876],[121.728009,24.756287],[121.727074,24.755042],[121.729481,24.752963],[121.728502,24.751932],[121.728008,24.751441],[121.728125,24.751344],[121.728186,24.751293],[121.729092,24.751261],[121.730116,24.751438],[121.730811,24.751732],[121.731315,24.75222],[121.731623,24.753065],[121.731257,24.755226],[121.731542,24.756833],[121.732054,24.757816],[121.732657,24.758537],[121.733565,24.759315],[121.734243,24.759605],[121.735353,24.759937],[121.736634,24.758956],[121.737741,24.758511],[121.739425,24.758436],[121.741899,24.757401],[121.742644,24.757307],[121.743594,24.757482],[121.743985,24.758118],[121.744013,24.758178],[121.744136,24.758491],[121.745767,24.760008],[121.748879,24.762655],[121.7503,24.763831],[121.745317,24.767977],[121.744929,24.768614],[121.744983,24.769026],[121.74532,24.769532],[121.749083,24.773422],[121.745274,24.775969],[121.743523,24.777376],[121.743241,24.777273],[121.74134,24.778844],[121.738153,24.782136],[121.737283,24.781729],[121.736617,24.78243],[121.736063,24.782099],[121.735215,24.78298],[121.734376,24.783065]]]},"properties":{"code":"10002010027","name":"梅洲里","countyCode":"10002","countyName":"宜蘭縣","townCode":"10002010","townName":"宜蘭市","level":"village","unassigned":false,"note":"","label":[121.73936583126847,24.765437785937962],"bounds":[121.727074,24.751261,121.7503,24.784449],"focusBounds":[121.727074,24.751261,121.7503,24.784449],"color":"#78a7e3"}},{"type":"Feature","id":"10002010028","geometry":{"type":"Polygon","coordinates":[[[121.753551,24.761088],[121.755361,24.765993],[121.753243,24.765838],[121.752399,24.76554],[121.751697,24.765101],[121.7503,24.763831],[121.748879,24.762655],[121.749651,24.761957],[121.753551,24.761088]]]},"properties":{"code":"10002010028","name":"北門里","countyCode":"10002","countyName":"宜蘭縣","townCode":"10002010","townName":"宜蘭市","level":"village","unassigned":false,"note":"","label":[121.75236714895988,24.763288516653617],"bounds":[121.748879,24.761088,121.755361,24.765993],"focusBounds":[121.748879,24.761088,121.755361,24.765993],"color":"#dd8590"}},{"type":"Feature","id":"10002010031","geometry":{"type":"Polygon","coordinates":[[[121.75334,24.76048],[121.751536,24.760435],[121.750647,24.760058],[121.750037,24.759447],[121.749614,24.758281],[121.752763,24.757824],[121.75334,24.76048]]]},"properties":{"code":"10002010031","name":"中山里","countyCode":"10002","countyName":"宜蘭縣","townCode":"10002010","townName":"宜蘭市","level":"village","unassigned":false,"note":"","label":[121.75177741218481,24.75920426845746],"bounds":[121.749614,24.757824,121.75334,24.76048],"focusBounds":[121.749614,24.757824,121.75334,24.76048],"color":"#a49ad4"}},{"type":"Feature","id":"10002010032","geometry":{"type":"Polygon","coordinates":[[[121.753551,24.761088],[121.749651,24.761957],[121.748879,24.762655],[121.745767,24.760008],[121.744136,24.758491],[121.744013,24.758178],[121.749614,24.758281],[121.750037,24.759447],[121.750647,24.760058],[121.751536,24.760435],[121.75334,24.76048],[121.753551,24.761088]]]},"properties":{"code":"10002010032","name":"西門里","countyCode":"10002","countyName":"宜蘭縣","townCode":"10002010","townName":"宜蘭市","level":"village","unassigned":false,"note":"","label":[121.74846263539536,24.760063327479997],"bounds":[121.744013,24.758178,121.753551,24.762655],"focusBounds":[121.744013,24.758178,121.753551,24.762655],"color":"#a8bf62"}},{"type":"Feature","id":"10002010034","geometry":{"type":"Polygon","coordinates":[[[121.749614,24.758281],[121.744013,24.758178],[121.743985,24.758118],[121.747608,24.756265],[121.748116,24.754714],[121.749679,24.753734],[121.75152,24.753124],[121.751564,24.753113],[121.751989,24.754512],[121.752763,24.757824],[121.749614,24.758281]]]},"properties":{"code":"10002010034","name":"南門里","countyCode":"10002","countyName":"宜蘭縣","townCode":"10002010","townName":"宜蘭市","level":"village","unassigned":false,"note":"","label":[121.74983670588325,24.756164720699207],"bounds":[121.743985,24.753113,121.752763,24.758281],"focusBounds":[121.743985,24.753113,121.752763,24.758281],"color":"#68bec9"}},{"type":"Feature","id":"10002010035","geometry":{"type":"Polygon","coordinates":[[[121.748116,24.754714],[121.747608,24.756265],[121.743985,24.758118],[121.743594,24.757482],[121.742644,24.757307],[121.74314,24.756397],[121.740844,24.754755],[121.741808,24.753141],[121.744421,24.752429],[121.746133,24.75199],[121.746894,24.754347],[121.747516,24.754398],[121.748116,24.754714]]]},"properties":{"code":"10002010035","name":"負郭里","countyCode":"10002","countyName":"宜蘭縣","townCode":"10002010","townName":"宜蘭市","level":"village","unassigned":false,"note":"","label":[121.74462553524995,24.754752645064062],"bounds":[121.740844,24.75199,121.748116,24.758118],"focusBounds":[121.740844,24.75199,121.748116,24.758118],"color":"#df9f6a"}},{"type":"Feature","id":"10002010036","geometry":{"type":"Polygon","coordinates":[[[121.75152,24.753124],[121.749679,24.753734],[121.748116,24.754714],[121.747516,24.754398],[121.746894,24.754347],[121.746133,24.75199],[121.746833,24.751802],[121.74871,24.750781],[121.750638,24.75016],[121.75152,24.753124]]]},"properties":{"code":"10002010036","name":"民族里","countyCode":"10002","countyName":"宜蘭縣","townCode":"10002010","townName":"宜蘭市","level":"village","unassigned":false,"note":"","label":[121.74886794099892,24.752486203645],"bounds":[121.746133,24.75016,121.75152,24.754714],"focusBounds":[121.746133,24.75016,121.75152,24.754714],"color":"#c38cb8"}},{"type":"Feature","id":"10002010037","geometry":{"type":"Polygon","coordinates":[[[121.744421,24.752429],[121.741808,24.753141],[121.73835,24.751574],[121.737031,24.750647],[121.741734,24.749396],[121.74196,24.749064],[121.742081,24.748868],[121.743222,24.748587],[121.744421,24.752429]]]},"properties":{"code":"10002010037","name":"建軍里","countyCode":"10002","countyName":"宜蘭縣","townCode":"10002010","townName":"宜蘭市","level":"village","unassigned":false,"note":"","label":[121.7417716239356,24.751232714775483],"bounds":[121.737031,24.748587,121.744421,24.753141],"focusBounds":[121.737031,24.748587,121.744421,24.753141],"color":"#98b69b"}},{"type":"Feature","id":"10002010038","geometry":{"type":"Polygon","coordinates":[[[121.743222,24.748587],[121.742081,24.748868],[121.74196,24.749064],[121.737668,24.746838],[121.732396,24.74836],[121.732017,24.748187],[121.734209,24.74649],[121.735793,24.745827],[121.738679,24.745036],[121.740635,24.74487],[121.742004,24.744569],[121.742332,24.745581],[121.745004,24.744971],[121.748349,24.744786],[121.749396,24.746927],[121.743222,24.748587]]]},"properties":{"code":"10002010038","name":"思源里","countyCode":"10002","countyName":"宜蘭縣","townCode":"10002010","townName":"宜蘭市","level":"village","unassigned":false,"note":"","label":[121.74103422530996,24.74668303896601],"bounds":[121.732017,24.744569,121.749396,24.749064],"focusBounds":[121.732017,24.744569,121.749396,24.749064],"color":"#58b99d"}},{"type":"Feature","id":"10002010039","geometry":{"type":"Polygon","coordinates":[[[121.746133,24.75199],[121.744421,24.752429],[121.743222,24.748587],[121.749396,24.746927],[121.750638,24.75016],[121.74871,24.750781],[121.746833,24.751802],[121.746133,24.75199]]]},"properties":{"code":"10002010039","name":"文化里","countyCode":"10002","countyName":"宜蘭縣","townCode":"10002010","townName":"宜蘭市","level":"village","unassigned":false,"note":"","label":[121.74675743668482,24.749729643608767],"bounds":[121.743222,24.746927,121.750638,24.752429],"focusBounds":[121.743222,24.746927,121.750638,24.752429],"color":"#efb44f"}},{"type":"Feature","id":"10002010040","geometry":{"type":"Polygon","coordinates":[[[121.753298,24.745609],[121.752641,24.747263],[121.753622,24.747571],[121.752797,24.749703],[121.750638,24.75016],[121.749396,24.746927],[121.748349,24.744786],[121.750637,24.744743],[121.753298,24.745609]]]},"properties":{"code":"10002010040","name":"復興里","countyCode":"10002","countyName":"宜蘭縣","townCode":"10002010","townName":"宜蘭市","level":"village","unassigned":false,"note":"","label":[121.75113805399322,24.74717893948084],"bounds":[121.748349,24.744743,121.753622,24.75016],"focusBounds":[121.748349,24.744743,121.753622,24.75016],"color":"#78a7e3"}},{"type":"Feature","id":"10002010041","geometry":{"type":"Polygon","coordinates":[[[121.777219,24.759571],[121.775868,24.760147],[121.774372,24.761189],[121.77304,24.761644],[121.770798,24.761412],[121.768501,24.761651],[121.767802,24.761863],[121.765342,24.761867],[121.765172,24.761464],[121.765369,24.761031],[121.765523,24.759789],[121.76542,24.758444],[121.765223,24.75788],[121.763758,24.756405],[121.763248,24.755698],[121.762201,24.755478],[121.765136,24.752071],[121.766728,24.751654],[121.766831,24.752029],[121.766311,24.754179],[121.766185,24.755613],[121.77416,24.757284],[121.777219,24.759571]]]},"properties":{"code":"10002010041","name":"成功里","countyCode":"10002","countyName":"宜蘭縣","townCode":"10002010","townName":"宜蘭市","level":"village","unassigned":false,"note":"","label":[121.76830575826767,24.758883816727153],"bounds":[121.762201,24.751654,121.777219,24.761867],"focusBounds":[121.762201,24.751654,121.777219,24.761867],"color":"#a8bf62"}},{"type":"Feature","id":"10002010042","geometry":{"type":"Polygon","coordinates":[[[121.760384,24.75758],[121.75952,24.757958],[121.757245,24.751926],[121.756703,24.750155],[121.757428,24.750105],[121.762726,24.751634],[121.764679,24.748288],[121.767933,24.749293],[121.767775,24.751437],[121.766728,24.751654],[121.765136,24.752071],[121.762201,24.755478],[121.760384,24.75758]]]},"properties":{"code":"10002010042","name":"新東里","countyCode":"10002","countyName":"宜蘭縣","townCode":"10002010","townName":"宜蘭市","level":"village","unassigned":false,"note":"","label":[121.76041930208112,24.753487930697858],"bounds":[121.756703,24.748288,121.767933,24.757958],"focusBounds":[121.756703,24.748288,121.767933,24.757958],"color":"#a49ad4"}},{"type":"Feature","id":"10002010043","geometry":{"type":"Polygon","coordinates":[[[121.74196,24.749064],[121.741734,24.749396],[121.737031,24.750647],[121.732396,24.74836],[121.737668,24.746838],[121.74196,24.749064]]]},"properties":{"code":"10002010043","name":"七結里","countyCode":"10002","countyName":"宜蘭縣","townCode":"10002010","townName":"宜蘭市","level":"village","unassigned":false,"note":"","label":[121.7373347524545,24.748750066857],"bounds":[121.732396,24.746838,121.74196,24.750647],"focusBounds":[121.732396,24.746838,121.74196,24.750647],"color":"#a8bf62"}},{"type":"Feature","id":"10002010044","geometry":{"type":"Polygon","coordinates":[[[121.742644,24.757307],[121.741899,24.757401],[121.739425,24.758436],[121.737741,24.758511],[121.736634,24.758956],[121.735353,24.759937],[121.734243,24.759605],[121.733565,24.759315],[121.732657,24.758537],[121.732054,24.757816],[121.731542,24.756833],[121.731257,24.755226],[121.731623,24.753065],[121.731315,24.75222],[121.730811,24.751732],[121.730116,24.751438],[121.729092,24.751261],[121.728186,24.751293],[121.732017,24.748187],[121.732396,24.74836],[121.737031,24.750647],[121.73835,24.751574],[121.741808,24.753141],[121.740844,24.754755],[121.74314,24.756397],[121.742644,24.757307]]]},"properties":{"code":"10002010044","name":"泰山里","countyCode":"10002","countyName":"宜蘭縣","townCode":"10002010","townName":"宜蘭市","level":"village","unassigned":false,"note":"","label":[121.73559480784816,24.754845151607803],"bounds":[121.728186,24.748187,121.74314,24.759937],"focusBounds":[121.728186,24.748187,121.74314,24.759937],"color":"#68bec9"}},{"type":"Feature","id":"10002010045","geometry":{"type":"Polygon","coordinates":[[[121.757067,24.758358],[121.756725,24.758407],[121.756222,24.757013],[121.755636,24.755227],[121.756682,24.754994],[121.755615,24.75231],[121.757245,24.751926],[121.75952,24.757958],[121.758886,24.758044],[121.757067,24.758358]]]},"properties":{"code":"10002010045","name":"大新里","countyCode":"10002","countyName":"宜蘭縣","townCode":"10002010","townName":"宜蘭市","level":"village","unassigned":false,"note":"","label":[121.75737625758374,24.756176492450404],"bounds":[121.755615,24.751926,121.75952,24.758407],"focusBounds":[121.755615,24.751926,121.75952,24.758407],"color":"#df9f6a"}},{"type":"Feature","id":"10002010046","geometry":{"type":"Polygon","coordinates":[[[121.762201,24.755478],[121.763248,24.755698],[121.763758,24.756405],[121.765223,24.75788],[121.76542,24.758444],[121.765523,24.759789],[121.765369,24.761031],[121.765172,24.761464],[121.764127,24.760081],[121.762777,24.759579],[121.760384,24.75758],[121.762201,24.755478]]]},"properties":{"code":"10002010046","name":"中興里","countyCode":"10002","countyName":"宜蘭縣","townCode":"10002010","townName":"宜蘭市","level":"village","unassigned":false,"note":"","label":[121.76325765456816,24.758085098666264],"bounds":[121.760384,24.755478,121.765523,24.761464],"focusBounds":[121.760384,24.755478,121.765523,24.761464],"color":"#c38cb8"}},{"type":"Feature","id":"10002010047","geometry":{"type":"Polygon","coordinates":[[[121.756043,24.743151],[121.755589,24.743225],[121.755165,24.743515],[121.7542,24.745901],[121.753298,24.745609],[121.750637,24.744743],[121.748349,24.744786],[121.747005,24.742015],[121.748201,24.741941],[121.753021,24.742434],[121.755201,24.742832],[121.756043,24.743151]]]},"properties":{"code":"10002010047","name":"擺厘里","countyCode":"10002","countyName":"宜蘭縣","townCode":"10002010","townName":"宜蘭市","level":"village","unassigned":false,"note":"","label":[121.75139576200291,24.74362875475142],"bounds":[121.747005,24.741941,121.756043,24.745901],"focusBounds":[121.747005,24.741941,121.756043,24.745901],"color":"#98b69b"}}]}
