{"type":"FeatureCollection","features":[{"type":"Feature","id":"10004130001","geometry":{"type":"Polygon","coordinates":[[[121.123945,24.645189],[121.123095,24.645022],[121.121802,24.645247],[121.121444,24.645835],[121.119694,24.646317],[121.117669,24.647402],[121.116998,24.648039],[121.116597,24.648033],[121.11612,24.648283],[121.115181,24.648916],[121.114825,24.649806],[121.114327,24.650272],[121.114025,24.651201],[121.113025,24.650666],[121.112015,24.650468],[121.111448,24.649845],[121.11055,24.64948],[121.109986,24.648443],[121.109287,24.647575],[121.109228,24.646327],[121.108781,24.645639],[121.106911,24.644498],[121.105107,24.643939],[121.104404,24.642796],[121.10409,24.642553],[121.102894,24.64249],[121.101586,24.641318],[121.100998,24.641399],[121.100165,24.641862],[121.099786,24.641879],[121.099174,24.640567],[121.098382,24.64],[121.097587,24.64041],[121.096972,24.641295],[121.09673,24.641328],[121.095804,24.641099],[121.094928,24.639981],[121.094245,24.639533],[121.093878,24.639369],[121.092981,24.639295],[121.091981,24.638176],[121.090671,24.637432],[121.091072,24.63685],[121.090845,24.635863],[121.089357,24.634421],[121.088668,24.632561],[121.087381,24.63234],[121.086742,24.632476],[121.086138,24.631781],[121.085307,24.631634],[121.085379,24.631011],[121.085273,24.630864],[121.084324,24.630895],[121.082909,24.630301],[121.082202,24.629445],[121.081895,24.62854],[121.081233,24.627779],[121.080537,24.627258],[121.079645,24.626894],[121.079228,24.626147],[121.078719,24.625616],[121.0785,24.624882],[121.0778,24.624299],[121.077526,24.62368],[121.076864,24.622882],[121.075051,24.621995],[121.073694,24.620891],[121.073293,24.62032],[121.072148,24.616984],[121.071529,24.613964],[121.072871,24.613587],[121.073973,24.613088],[121.074929,24.612303],[121.075325,24.611623],[121.075645,24.610079],[121.076083,24.609067],[121.076041,24.608377],[121.0754,24.606723],[121.075266,24.60585],[121.07537,24.604449],[121.075684,24.603703],[121.07649,24.602988],[121.077925,24.602279],[121.080032,24.601496],[121.080774,24.601066],[121.081278,24.60057],[121.081463,24.5992],[121.081841,24.598414],[121.081911,24.597689],[121.082222,24.596813],[121.082334,24.595696],[121.082804,24.594829],[121.082532,24.593052],[121.082986,24.59056],[121.083701,24.590371],[121.084628,24.590398],[121.089678,24.592085],[121.090713,24.592878],[121.091896,24.592788],[121.093539,24.593345],[121.094192,24.593425],[121.095061,24.594351],[121.096778,24.594734],[121.097042,24.594912],[121.097624,24.595941],[121.098327,24.596654],[121.099667,24.59768],[121.102871,24.599446],[121.104022,24.599819],[121.107831,24.600639],[121.113236,24.603599],[121.114329,24.603999],[121.11529,24.604795],[121.114847,24.605342],[121.114115,24.605431],[121.111336,24.604808],[121.109974,24.604664],[121.109622,24.604961],[121.109133,24.60604],[121.108594,24.6068],[121.108511,24.60774],[121.108664,24.609366],[121.109009,24.610277],[121.110004,24.611884],[121.110093,24.6126],[121.109664,24.614098],[121.108779,24.615191],[121.107785,24.615625],[121.106151,24.615707],[121.105577,24.616252],[121.105356,24.616858],[121.105002,24.617882],[121.10497,24.619561],[121.10598,24.62433],[121.107417,24.625671],[121.108814,24.626321],[121.110344,24.627755],[121.110664,24.627885],[121.111183,24.627794],[121.111823,24.627108],[121.112232,24.627027],[121.113661,24.627194],[121.116411,24.626839],[121.117109,24.625747],[121.117451,24.625454],[121.118777,24.6251],[121.120245,24.624958],[121.121096,24.62525],[121.121495,24.626198],[121.120991,24.627505],[121.121025,24.628322],[121.122235,24.632003],[121.122269,24.632659],[121.122192,24.633467],[121.121045,24.635147],[121.121266,24.63542],[121.122172,24.635722],[121.123425,24.635873],[121.124033,24.63565],[121.1258,24.635831],[121.126552,24.636093],[121.127448,24.636778],[121.12821,24.638218],[121.128247,24.639002],[121.127838,24.640299],[121.126481,24.641995],[121.124603,24.643435],[121.124184,24.644091],[121.123945,24.645189]]]},"properties":{"code":"10004130001","name":"大隘村","countyCode":"10004","countyName":"新竹縣","townCode":"10004130","townName":"五峰鄉","level":"village","unassigned":false,"note":"","label":[121.09032800285908,24.615261506984098],"bounds":[121.071529,24.590371,121.128247,24.651201],"focusBounds":[121.071529,24.590371,121.128247,24.651201],"color":"#c38cb8"}},{"type":"Feature","id":"10004130002","geometry":{"type":"Polygon","coordinates":[[[121.151894,24.671915],[121.15095,24.671786],[121.149818,24.670937],[121.149457,24.6703],[121.148628,24.669785],[121.147481,24.66873],[121.146682,24.668654],[121.145722,24.667351],[121.144413,24.667151],[121.143595,24.666365],[121.143128,24.665168],[121.142394,24.665156],[121.141696,24.66573],[121.14138,24.665815],[121.139983,24.665454],[121.138966,24.665696],[121.137422,24.664261],[121.135734,24.664018],[121.135329,24.663801],[121.134658,24.662394],[121.133291,24.661421],[121.132202,24.659306],[121.131723,24.659205],[121.131481,24.658978],[121.130541,24.65723],[121.130382,24.65647],[121.130191,24.656337],[121.129182,24.65628],[121.128585,24.656015],[121.128304,24.655051],[121.127085,24.65374],[121.128414,24.65226],[121.128655,24.651274],[121.127394,24.649703],[121.126948,24.649514],[121.125518,24.64823],[121.124938,24.64724],[121.124189,24.645354],[121.123945,24.645189],[121.124184,24.644091],[121.124603,24.643435],[121.126481,24.641995],[121.127838,24.640299],[121.128247,24.639002],[121.12821,24.638218],[121.129042,24.638035],[121.130485,24.638134],[121.131088,24.637916],[121.131466,24.637682],[121.133832,24.634777],[121.134261,24.634626],[121.135693,24.634606],[121.136335,24.633938],[121.137235,24.633534],[121.13939,24.633094],[121.140961,24.63238],[121.144792,24.631431],[121.14562,24.631448],[121.146731,24.631687],[121.14715,24.631465],[121.147597,24.630868],[121.148467,24.630135],[121.149538,24.629698],[121.150983,24.629384],[121.153042,24.629523],[121.15461,24.62913],[121.155468,24.629146],[121.157236,24.629893],[121.159569,24.631869],[121.160602,24.632351],[121.161784,24.632541],[121.163706,24.632415],[121.166902,24.631815],[121.16918,24.63116],[121.17128,24.63084],[121.173927,24.630083],[121.176853,24.629763],[121.180339,24.629827],[121.180967,24.629961],[121.185351,24.632379],[121.18566,24.633043],[121.185684,24.634078],[121.185435,24.635179],[121.185357,24.636775],[121.185593,24.638039],[121.187307,24.641057],[121.189263,24.643685],[121.189717,24.644734],[121.189848,24.645509],[121.189866,24.646233],[121.189537,24.648037],[121.188136,24.651],[121.187719,24.652572],[121.185551,24.654831],[121.183927,24.656126],[121.182774,24.658348],[121.182732,24.659504],[121.182186,24.660101],[121.179666,24.660994],[121.178934,24.661095],[121.17654,24.660403],[121.175668,24.660365],[121.173276,24.660981],[121.17226,24.661482],[121.170252,24.662132],[121.169928,24.662648],[121.169741,24.664144],[121.16966,24.66788],[121.169361,24.668606],[121.168943,24.668732],[121.163054,24.667839],[121.160371,24.667912],[121.158665,24.668299],[121.158203,24.668165],[121.156858,24.667268],[121.156205,24.667157],[121.155952,24.666887],[121.155807,24.667155],[121.154682,24.667601],[121.154713,24.669562],[121.153865,24.66977],[121.15309,24.670681],[121.152251,24.671023],[121.151894,24.671915]]]},"properties":{"code":"10004130002","name":"花園村","countyCode":"10004","countyName":"新竹縣","townCode":"10004130","townName":"五峰鄉","level":"village","unassigned":false,"note":"","label":[121.15811050818684,24.64936851410661],"bounds":[121.123945,24.62913,121.189866,24.671915],"focusBounds":[121.123945,24.62913,121.189866,24.671915],"color":"#98b69b"}},{"type":"Feature","id":"10004130003","geometry":{"type":"Polygon","coordinates":[[[121.185684,24.634078],[121.18566,24.633043],[121.185351,24.632379],[121.180967,24.629961],[121.180339,24.629827],[121.176853,24.629763],[121.173927,24.630083],[121.17128,24.63084],[121.16918,24.63116],[121.166902,24.631815],[121.163706,24.632415],[121.161784,24.632541],[121.160602,24.632351],[121.159569,24.631869],[121.157236,24.629893],[121.155468,24.629146],[121.15461,24.62913],[121.153042,24.629523],[121.150983,24.629384],[121.149538,24.629698],[121.148467,24.630135],[121.147597,24.630868],[121.14715,24.631465],[121.146731,24.631687],[121.14562,24.631448],[121.144792,24.631431],[121.140961,24.63238],[121.13939,24.633094],[121.137235,24.633534],[121.136335,24.633938],[121.135693,24.634606],[121.134261,24.634626],[121.133832,24.634777],[121.131466,24.637682],[121.131088,24.637916],[121.130485,24.638134],[121.129042,24.638035],[121.12821,24.638218],[121.127448,24.636778],[121.126552,24.636093],[121.1258,24.635831],[121.124033,24.63565],[121.123425,24.635873],[121.122172,24.635722],[121.121266,24.63542],[121.121045,24.635147],[121.122192,24.633467],[121.122269,24.632659],[121.122235,24.632003],[121.121025,24.628322],[121.120991,24.627505],[121.121495,24.626198],[121.121096,24.62525],[121.120245,24.624958],[121.118777,24.6251],[121.117451,24.625454],[121.117109,24.625747],[121.116411,24.626839],[121.113661,24.627194],[121.112232,24.627027],[121.111823,24.627108],[121.111183,24.627794],[121.110664,24.627885],[121.110344,24.627755],[121.108814,24.626321],[121.107417,24.625671],[121.10598,24.62433],[121.10497,24.619561],[121.105002,24.617882],[121.105356,24.616858],[121.105577,24.616252],[121.106151,24.615707],[121.107785,24.615625],[121.108779,24.615191],[121.109664,24.614098],[121.110093,24.6126],[121.110004,24.611884],[121.109009,24.610277],[121.108664,24.609366],[121.108511,24.60774],[121.108594,24.6068],[121.109133,24.60604],[121.109622,24.604961],[121.109974,24.604664],[121.111336,24.604808],[121.114115,24.605431],[121.114847,24.605342],[121.11529,24.604795],[121.115157,24.603762],[121.113802,24.601785],[121.114465,24.60035],[121.114872,24.600015],[121.115266,24.599996],[121.115867,24.600576],[121.116061,24.600696],[121.116268,24.60062],[121.116589,24.599791],[121.117789,24.597952],[121.118529,24.596415],[121.119702,24.593051],[121.120343,24.591864],[121.121167,24.591352],[121.127462,24.589066],[121.129137,24.587954],[121.129947,24.587161],[121.131329,24.583769],[121.131691,24.580928],[121.132394,24.577766],[121.132435,24.574852],[121.133074,24.573014],[121.133404,24.571251],[121.135546,24.567711],[121.135899,24.567529],[121.138431,24.567212],[121.14415,24.566134],[121.145001,24.566092],[121.14595,24.565607],[121.146673,24.564502],[121.14707,24.56426],[121.148473,24.563976],[121.149644,24.563964],[121.151536,24.564206],[121.154976,24.565376],[121.155638,24.565345],[121.156891,24.565687],[121.159608,24.56521],[121.163313,24.564285],[121.165455,24.563023],[121.166635,24.563215],[121.17018,24.564845],[121.171546,24.56514],[121.172157,24.564964],[121.174712,24.563093],[121.177641,24.56196],[121.179141,24.56215],[121.180294,24.563145],[121.181814,24.565027],[121.183428,24.566178],[121.184057,24.566376],[121.184601,24.566376],[121.187503,24.565761],[121.188187,24.565987],[121.188874,24.566026],[121.190431,24.56565],[121.191933,24.564507],[121.193365,24.563247],[121.194516,24.561479],[121.194691,24.562194],[121.196294,24.564901],[121.197549,24.56624],[121.197608,24.566515],[121.197264,24.567766],[121.197323,24.568745],[121.196098,24.570372],[121.19638,24.572097],[121.197365,24.574414],[121.197888,24.576236],[121.19756,24.577681],[121.197514,24.579474],[121.198268,24.581324],[121.199763,24.583559],[121.2007,24.585852],[121.201475,24.586258],[121.204569,24.586135],[121.206138,24.5863],[121.207177,24.586622],[121.207886,24.587292],[121.209477,24.58964],[121.209879,24.590602],[121.210021,24.591624],[121.211037,24.592295],[121.21179,24.593407],[121.212094,24.593689],[121.214281,24.593763],[121.215593,24.593961],[121.216548,24.594578],[121.217778,24.594964],[121.219609,24.597906],[121.220449,24.599659],[121.220201,24.600113],[121.218969,24.600679],[121.218339,24.601625],[121.217462,24.602405],[121.216589,24.602891],[121.216286,24.603722],[121.215839,24.604354],[121.214645,24.605495],[121.213043,24.606721],[121.21251,24.607547],[121.212238,24.60843],[121.212361,24.613402],[121.212152,24.613757],[121.210534,24.614402],[121.209073,24.615381],[121.208204,24.61756],[121.206785,24.618678],[121.205887,24.619189],[121.202146,24.620394],[121.199875,24.621898],[121.199218,24.622473],[121.1985,24.623745],[121.197482,24.624692],[121.19654,24.625291],[121.194997,24.627148],[121.18791,24.632881],[121.186177,24.633582],[121.185684,24.634078]]]},"properties":{"code":"10004130003","name":"竹林村","countyCode":"10004","countyName":"新竹縣","townCode":"10004130","townName":"五峰鄉","level":"village","unassigned":false,"note":"","label":[121.16324335360515,24.598374033834183],"bounds":[121.10497,24.561479,121.220449,24.638218],"focusBounds":[121.10497,24.561479,121.220449,24.638218],"color":"#58b99d"}},{"type":"Feature","id":"10004130004","geometry":{"type":"Polygon","coordinates":[[[121.194516,24.561479],[121.193365,24.563247],[121.191933,24.564507],[121.190431,24.56565],[121.188874,24.566026],[121.188187,24.565987],[121.187503,24.565761],[121.184601,24.566376],[121.184057,24.566376],[121.183428,24.566178],[121.181814,24.565027],[121.180294,24.563145],[121.179141,24.56215],[121.177641,24.56196],[121.174712,24.563093],[121.172157,24.564964],[121.171546,24.56514],[121.17018,24.564845],[121.166635,24.563215],[121.165455,24.563023],[121.163313,24.564285],[121.159608,24.56521],[121.156891,24.565687],[121.155638,24.565345],[121.154976,24.565376],[121.151536,24.564206],[121.149644,24.563964],[121.148473,24.563976],[121.14707,24.56426],[121.146673,24.564502],[121.14595,24.565607],[121.145001,24.566092],[121.14415,24.566134],[121.138431,24.567212],[121.135899,24.567529],[121.135546,24.567711],[121.133404,24.571251],[121.133074,24.573014],[121.132435,24.574852],[121.132394,24.577766],[121.131691,24.580928],[121.131329,24.583769],[121.129947,24.587161],[121.129137,24.587954],[121.127462,24.589066],[121.121167,24.591352],[121.120343,24.591864],[121.119702,24.593051],[121.118529,24.596415],[121.117789,24.597952],[121.116589,24.599791],[121.116268,24.60062],[121.116061,24.600696],[121.115867,24.600576],[121.115266,24.599996],[121.114872,24.600015],[121.114465,24.60035],[121.113802,24.601785],[121.115157,24.603762],[121.11529,24.604795],[121.114329,24.603999],[121.113236,24.603599],[121.107831,24.600639],[121.104022,24.599819],[121.102871,24.599446],[121.099667,24.59768],[121.098327,24.596654],[121.097624,24.595941],[121.097042,24.594912],[121.096778,24.594734],[121.095061,24.594351],[121.094192,24.593425],[121.093539,24.593345],[121.091896,24.592788],[121.090713,24.592878],[121.089678,24.592085],[121.084628,24.590398],[121.083701,24.590371],[121.082986,24.59056],[121.083034,24.589759],[121.082193,24.589016],[121.081049,24.588462],[121.079654,24.588227],[121.079504,24.588099],[121.078956,24.584244],[121.078743,24.583754],[121.077486,24.582408],[121.075463,24.581031],[121.07526,24.580667],[121.075158,24.578849],[121.07473,24.576725],[121.074346,24.57546],[121.072678,24.572583],[121.072408,24.569935],[121.072006,24.567894],[121.071583,24.566321],[121.070754,24.564682],[121.070591,24.563357],[121.069961,24.562976],[121.06874,24.562601],[121.067977,24.562129],[121.062734,24.557456],[121.062536,24.55742],[121.062435,24.557583],[121.061772,24.559521],[121.061404,24.560002],[121.059281,24.560572],[121.058426,24.560634],[121.058205,24.55791],[121.058627,24.557399],[121.059213,24.556974],[121.061407,24.556466],[121.062191,24.556154],[121.063023,24.55489],[121.064066,24.554559],[121.065339,24.553742],[121.066409,24.553265],[121.069992,24.550582],[121.070979,24.55016],[121.072952,24.549711],[121.073466,24.54942],[121.074519,24.548331],[121.074252,24.547141],[121.076232,24.543796],[121.079043,24.542307],[121.080243,24.541444],[121.080541,24.540961],[121.080288,24.539378],[121.080022,24.538693],[121.080045,24.537692],[121.079531,24.537021],[121.079159,24.535875],[121.077803,24.534237],[121.077964,24.533687],[121.07867,24.532505],[121.078462,24.531404],[121.078534,24.530127],[121.078303,24.528902],[121.077435,24.528208],[121.075593,24.527767],[121.074784,24.527286],[121.073662,24.527013],[121.073111,24.526586],[121.072178,24.526353],[121.067027,24.522982],[121.06693,24.522549],[121.066689,24.520778],[121.066944,24.52007],[121.067659,24.519066],[121.068487,24.516586],[121.068554,24.51245],[121.069317,24.509332],[121.069201,24.508657],[121.068104,24.507002],[121.068426,24.506741],[121.070323,24.50608],[121.071002,24.504404],[121.072113,24.503371],[121.072144,24.501448],[121.07165,24.500178],[121.071933,24.499135],[121.071888,24.498381],[121.072891,24.498784],[121.075438,24.499452],[121.07794,24.499042],[121.07892,24.499068],[121.079771,24.499566],[121.081026,24.499898],[121.08367,24.501134],[121.085556,24.501308],[121.086686,24.500771],[121.087752,24.499399],[121.089073,24.49884],[121.090813,24.497708],[121.09246,24.497424],[121.094113,24.496706],[121.094886,24.496523],[121.096696,24.496359],[121.098323,24.496478],[121.099599,24.497826],[121.100338,24.498228],[121.101198,24.498418],[121.10246,24.498252],[121.103063,24.499122],[121.104635,24.499809],[121.105328,24.500607],[121.108045,24.500676],[121.108934,24.500971],[121.109996,24.502484],[121.110705,24.50295],[121.113335,24.506465],[121.114335,24.5071],[121.117147,24.508442],[121.120962,24.50842],[121.122042,24.509041],[121.123238,24.510239],[121.123874,24.509935],[121.125379,24.508503],[121.125971,24.508289],[121.12686,24.508358],[121.127666,24.50817],[121.129657,24.506695],[121.133263,24.506797],[121.136995,24.506655],[121.139769,24.508235],[121.141646,24.509612],[121.142531,24.510005],[121.143682,24.511115],[121.145025,24.51192],[121.145539,24.51046],[121.146088,24.509694],[121.147121,24.508725],[121.150586,24.506092],[121.154494,24.506823],[121.155021,24.506799],[121.156669,24.506316],[121.158135,24.505122],[121.159154,24.504783],[121.161418,24.503581],[121.164937,24.50351],[121.169138,24.502588],[121.169346,24.50262],[121.169933,24.503546],[121.17058,24.504117],[121.171402,24.504132],[121.172173,24.504602],[121.172701,24.504711],[121.174689,24.504841],[121.176127,24.505855],[121.177399,24.507437],[121.179417,24.507984],[121.183189,24.507933],[121.184363,24.506527],[121.186072,24.505895],[121.18671,24.505361],[121.188886,24.506348],[121.189855,24.50661],[121.191622,24.507469],[121.194436,24.507027],[121.195555,24.507119],[121.196459,24.507617],[121.19807,24.508837],[121.200249,24.51129],[121.200688,24.511501],[121.202409,24.511739],[121.203168,24.512494],[121.203046,24.512998],[121.202014,24.514224],[121.2018,24.516435],[121.20209,24.517849],[121.204019,24.521077],[121.204144,24.521758],[121.20363,24.522851],[121.202151,24.524624],[121.200962,24.524571],[121.200508,24.524675],[121.200268,24.524908],[121.200146,24.525328],[121.200232,24.526259],[121.201338,24.527131],[121.201709,24.527928],[121.201705,24.528875],[121.201238,24.529684],[121.201219,24.530207],[121.201457,24.532369],[121.202121,24.533869],[121.201982,24.534544],[121.201461,24.535369],[121.200109,24.535566],[121.198034,24.537091],[121.195981,24.539244],[121.195843,24.540015],[121.196192,24.540977],[121.198261,24.543347],[121.198878,24.543482],[121.199741,24.543289],[121.200293,24.543478],[121.200628,24.543766],[121.201077,24.544682],[121.201084,24.545982],[121.200248,24.547682],[121.197329,24.550654],[121.196983,24.552692],[121.196301,24.553702],[121.195281,24.55454],[121.193549,24.555165],[121.193072,24.555798],[121.193056,24.556558],[121.194242,24.560072],[121.194516,24.561479]]]},"properties":{"code":"10004130004","name":"桃山村","countyCode":"10004","countyName":"新竹縣","townCode":"10004130","townName":"五峰鄉","level":"village","unassigned":false,"note":"","label":[121.12824779951465,24.539809086518854],"bounds":[121.058205,24.496359,121.204144,24.604795],"focusBounds":[121.058205,24.496359,121.204144,24.604795],"color":"#efb44f"}}]}
