{"type":"FeatureCollection","features":[{"type":"Feature","id":"10008010001","geometry":{"type":"Polygon","coordinates":[[[120.690708,23.907274],[120.690232,23.908178],[120.689232,23.90854],[120.688372,23.910375],[120.688315,23.910637],[120.688522,23.911089],[120.687943,23.912036],[120.68812,23.913106],[120.68758,23.913446],[120.687332,23.914193],[120.687481,23.91508],[120.687689,23.915248],[120.687339,23.915247],[120.686904,23.914896],[120.686322,23.914877],[120.686444,23.91255],[120.686329,23.912407],[120.686998,23.910587],[120.687115,23.910626],[120.687451,23.909854],[120.687764,23.909013],[120.688164,23.90742],[120.688457,23.905872],[120.690708,23.907274]]]},"properties":{"code":"10008010001","name":"龍泉里","countyCode":"10008","countyName":"南投縣","townCode":"10008010","townName":"南投市","level":"village","unassigned":false,"note":"","label":[120.68902428519479,23.90760427170899],"bounds":[120.686322,23.905872,120.690708,23.915248],"focusBounds":[120.686322,23.905872,120.690708,23.915248],"color":"#58b99d"}},{"type":"Feature","id":"10008010002","geometry":{"type":"Polygon","coordinates":[[[120.686998,23.910587],[120.686329,23.912407],[120.686444,23.91255],[120.686322,23.914877],[120.683045,23.913967],[120.680953,23.912825],[120.681388,23.91221],[120.685356,23.910069],[120.686998,23.910587]]]},"properties":{"code":"10008010002","name":"康壽里","countyCode":"10008","countyName":"南投縣","townCode":"10008010","townName":"南投市","level":"village","unassigned":false,"note":"","label":[120.6844904914897,23.91245238323897],"bounds":[120.680953,23.910069,120.686998,23.914877],"focusBounds":[120.680953,23.910069,120.686998,23.914877],"color":"#efb44f"}},{"type":"Feature","id":"10008010003","geometry":{"type":"Polygon","coordinates":[[[120.685356,23.910069],[120.681388,23.91221],[120.680953,23.912825],[120.680531,23.912691],[120.679228,23.91121],[120.678888,23.911056],[120.679559,23.908213],[120.682148,23.908868],[120.682348,23.908115],[120.683747,23.908589],[120.683448,23.90946],[120.685356,23.910069]]]},"properties":{"code":"10008010003","name":"三民里","countyCode":"10008","countyName":"南投縣","townCode":"10008010","townName":"南投市","level":"village","unassigned":false,"note":"","label":[120.68094308412532,23.910398613814223],"bounds":[120.678888,23.908115,120.685356,23.912825],"focusBounds":[120.678888,23.908115,120.685356,23.912825],"color":"#78a7e3"}},{"type":"Feature","id":"10008010004","geometry":{"type":"Polygon","coordinates":[[[120.687451,23.909854],[120.687115,23.910626],[120.686998,23.910587],[120.685356,23.910069],[120.683448,23.90946],[120.683747,23.908589],[120.687451,23.909854]]]},"properties":{"code":"10008010004","name":"仁和里","countyCode":"10008","countyName":"南投縣","townCode":"10008010","townName":"南投市","level":"village","unassigned":false,"note":"","label":[120.68541108787682,23.909622050966348],"bounds":[120.683448,23.908589,120.687451,23.910626],"focusBounds":[120.683448,23.908589,120.687451,23.910626],"color":"#dd8590"}},{"type":"Feature","id":"10008010005","geometry":{"type":"Polygon","coordinates":[[[120.687764,23.909013],[120.687451,23.909854],[120.683747,23.908589],[120.682348,23.908115],[120.682625,23.907251],[120.685079,23.90808],[120.687764,23.909013]]]},"properties":{"code":"10008010005","name":"南投里","countyCode":"10008","countyName":"南投縣","townCode":"10008010","townName":"南投市","level":"village","unassigned":false,"note":"","label":[120.68504404080326,23.908550206269283],"bounds":[120.682348,23.907251,120.687764,23.909854],"focusBounds":[120.682348,23.907251,120.687764,23.909854],"color":"#a8bf62"}},{"type":"Feature","id":"10008010006","geometry":{"type":"Polygon","coordinates":[[[120.688164,23.90742],[120.687764,23.909013],[120.685079,23.90808],[120.685284,23.907218],[120.688164,23.90742]]]},"properties":{"code":"10008010006","name":"彰仁里","countyCode":"10008","countyName":"南投縣","townCode":"10008010","townName":"南投市","level":"village","unassigned":false,"note":"","label":[120.68671138671672,23.907982684220293],"bounds":[120.685079,23.907218,120.688164,23.909013],"focusBounds":[120.685079,23.907218,120.688164,23.909013],"color":"#df9f6a"}},{"type":"Feature","id":"10008010007","geometry":{"type":"Polygon","coordinates":[[[120.682625,23.907251],[120.682742,23.906809],[120.683894,23.904907],[120.68527,23.905344],[120.686282,23.905477],[120.686619,23.905412],[120.686666,23.905182],[120.688457,23.905872],[120.688164,23.90742],[120.685284,23.907218],[120.685079,23.90808],[120.682625,23.907251]]]},"properties":{"code":"10008010007","name":"崇文里","countyCode":"10008","countyName":"南投縣","townCode":"10008010","townName":"南投市","level":"village","unassigned":false,"note":"","label":[120.68548523523884,23.906302250186336],"bounds":[120.682625,23.904907,120.688457,23.90808],"focusBounds":[120.682625,23.904907,120.688457,23.90808],"color":"#68bec9"}},{"type":"Feature","id":"10008010008","geometry":{"type":"Polygon","coordinates":[[[120.688765,23.922458],[120.687533,23.923354],[120.686742,23.923641],[120.686618,23.922905],[120.685975,23.921556],[120.686042,23.920565],[120.685757,23.920154],[120.685904,23.91989],[120.684029,23.918886],[120.683184,23.918963],[120.682742,23.918721],[120.681979,23.918575],[120.68172,23.917353],[120.681074,23.917074],[120.680556,23.916617],[120.680067,23.916519],[120.680483,23.915368],[120.679773,23.915116],[120.680528,23.91394],[120.680953,23.912825],[120.683045,23.913967],[120.686322,23.914877],[120.686904,23.914896],[120.687339,23.915247],[120.687689,23.915248],[120.688132,23.915935],[120.687667,23.916318],[120.68743,23.916769],[120.688959,23.918363],[120.689837,23.920889],[120.688765,23.922458]]]},"properties":{"code":"10008010008","name":"漳興里","countyCode":"10008","countyName":"南投縣","townCode":"10008010","townName":"南投市","level":"village","unassigned":false,"note":"","label":[120.68524839411528,23.917058929431516],"bounds":[120.679773,23.912825,120.689837,23.923641],"focusBounds":[120.679773,23.912825,120.689837,23.923641],"color":"#df9f6a"}},{"type":"Feature","id":"10008010009","geometry":{"type":"Polygon","coordinates":[[[120.686742,23.923641],[120.685561,23.924029],[120.684857,23.924457],[120.683691,23.923262],[120.682051,23.922469],[120.68113,23.92153],[120.680596,23.920531],[120.679899,23.920275],[120.679192,23.919779],[120.678055,23.919368],[120.678207,23.918199],[120.677777,23.918094],[120.677301,23.91756],[120.676582,23.91725],[120.676478,23.917705],[120.673401,23.9172],[120.672178,23.916561],[120.669927,23.916621],[120.667526,23.915517],[120.665708,23.915023],[120.663731,23.913188],[120.663211,23.912907],[120.661126,23.910717],[120.66001,23.909787],[120.657462,23.908472],[120.654953,23.90753],[120.654349,23.907483],[120.653787,23.906963],[120.652691,23.906287],[120.653016,23.906119],[120.653286,23.904781],[120.65197,23.904214],[120.65026,23.9037],[120.65048,23.902314],[120.650659,23.902023],[120.650886,23.901863],[120.651338,23.90184],[120.653104,23.902534],[120.65494,23.902925],[120.655872,23.902658],[120.656174,23.901419],[120.656926,23.902008],[120.658185,23.902598],[120.660248,23.902754],[120.661966,23.903328],[120.664619,23.903515],[120.667907,23.904698],[120.670147,23.906254],[120.670456,23.906961],[120.672157,23.908019],[120.674285,23.908159],[120.675251,23.908477],[120.678888,23.911056],[120.679228,23.91121],[120.680531,23.912691],[120.680953,23.912825],[120.680528,23.91394],[120.679773,23.915116],[120.680483,23.915368],[120.680067,23.916519],[120.680556,23.916617],[120.681074,23.917074],[120.68172,23.917353],[120.681979,23.918575],[120.682742,23.918721],[120.683184,23.918963],[120.684029,23.918886],[120.685904,23.91989],[120.685757,23.920154],[120.686042,23.920565],[120.685975,23.921556],[120.686618,23.922905],[120.686742,23.923641]]]},"properties":{"code":"10008010009","name":"漳和里","countyCode":"10008","countyName":"南投縣","townCode":"10008010","townName":"南投市","level":"village","unassigned":false,"note":"","label":[120.66768124951527,23.91093161819344],"bounds":[120.65026,23.901419,120.686742,23.924457],"focusBounds":[120.65026,23.901419,120.686742,23.924457],"color":"#58b99d"}},{"type":"Feature","id":"10008010010","geometry":{"type":"Polygon","coordinates":[[[120.70648,23.917759],[120.706184,23.918107],[120.706299,23.921464],[120.706503,23.922845],[120.706083,23.924421],[120.706018,23.925883],[120.702844,23.923398],[120.702125,23.923053],[120.700875,23.922917],[120.69846,23.923208],[120.696759,23.922738],[120.695938,23.922815],[120.694701,23.923166],[120.692407,23.922989],[120.688765,23.922458],[120.689837,23.920889],[120.692108,23.91772],[120.694747,23.914528],[120.695213,23.914103],[120.695904,23.913838],[120.698138,23.913878],[120.698822,23.913767],[120.69972,23.9135],[120.701078,23.912798],[120.702254,23.913297],[120.703838,23.913634],[120.705213,23.914617],[120.706408,23.915145],[120.706744,23.915647],[120.706761,23.916274],[120.706453,23.9167],[120.70648,23.917759]]]},"properties":{"code":"10008010010","name":"軍功里","countyCode":"10008","countyName":"南投縣","townCode":"10008010","townName":"南投市","level":"village","unassigned":false,"note":"","label":[120.69902821600391,23.91842251500028],"bounds":[120.688765,23.912798,120.706761,23.925883],"focusBounds":[120.688765,23.912798,120.706761,23.925883],"color":"#58b99d"}},{"type":"Feature","id":"10008010011","geometry":{"type":"Polygon","coordinates":[[[120.734473,23.949258],[120.733619,23.949863],[120.73336,23.950439],[120.732444,23.951444],[120.732038,23.95127],[120.730798,23.952088],[120.730125,23.952072],[120.729951,23.952368],[120.730074,23.952783],[120.72989,23.953057],[120.729097,23.953773],[120.72877,23.953765],[120.728078,23.954843],[120.726934,23.955552],[120.726241,23.955518],[120.72617,23.954838],[120.725519,23.954211],[120.725037,23.954096],[120.724488,23.953727],[120.724055,23.951959],[120.723081,23.951645],[120.721515,23.947138],[120.721413,23.946136],[120.721519,23.945633],[120.722276,23.943772],[120.722382,23.943151],[120.722097,23.942457],[120.721708,23.942265],[120.718616,23.941591],[120.717395,23.941135],[120.716799,23.940416],[120.716569,23.938648],[120.716862,23.93547],[120.716577,23.935088],[120.715824,23.934728],[120.714412,23.934371],[120.713954,23.934081],[120.713695,23.933482],[120.713775,23.932647],[120.714247,23.931023],[120.713858,23.930376],[120.71269,23.929825],[120.711055,23.928603],[120.710433,23.927742],[120.709816,23.927554],[120.709592,23.927962],[120.708111,23.928169],[120.706182,23.926963],[120.706018,23.925883],[120.706083,23.924421],[120.706503,23.922845],[120.706299,23.921464],[120.706184,23.918107],[120.70648,23.917759],[120.708634,23.918741],[120.709103,23.919175],[120.710727,23.919727],[120.711355,23.920653],[120.711263,23.920866],[120.712433,23.921557],[120.712887,23.921621],[120.713224,23.922003],[120.714154,23.921339],[120.715515,23.921301],[120.715776,23.921024],[120.716119,23.920999],[120.717496,23.922104],[120.718817,23.922499],[120.719185,23.922782],[120.719492,23.923973],[120.721707,23.923832],[120.722114,23.923937],[120.722203,23.924812],[120.722885,23.925934],[120.723385,23.927635],[120.724357,23.928331],[120.724792,23.929325],[120.725394,23.929612],[120.725585,23.929852],[120.725644,23.930434],[120.725888,23.930659],[120.726426,23.930583],[120.726885,23.930043],[120.727306,23.929919],[120.72757,23.929631],[120.728738,23.929464],[120.72916,23.928495],[120.729482,23.928337],[120.730299,23.92843],[120.73152,23.928841],[120.732494,23.928918],[120.733567,23.929473],[120.734631,23.929503],[120.7348,23.929756],[120.734868,23.930736],[120.734322,23.932689],[120.734018,23.934287],[120.734192,23.935602],[120.733946,23.935902],[120.732973,23.936259],[120.732856,23.93683],[120.732961,23.937385],[120.73236,23.938691],[120.732369,23.939047],[120.7326,23.939143],[120.733025,23.939789],[120.732807,23.941427],[120.732521,23.942299],[120.731938,23.942628],[120.731787,23.942869],[120.731859,23.943053],[120.732491,23.943468],[120.732868,23.944638],[120.73309,23.944712],[120.733733,23.945429],[120.733772,23.946202],[120.733532,23.947237],[120.733939,23.948243],[120.733904,23.949023],[120.734473,23.949258]]]},"properties":{"code":"10008010011","name":"東山里","countyCode":"10008","countyName":"南投縣","townCode":"10008010","townName":"南投市","level":"village","unassigned":false,"note":"","label":[120.72275095201623,23.93623708083931],"bounds":[120.706018,23.917759,120.734868,23.955552],"focusBounds":[120.706018,23.917759,120.734868,23.955552],"color":"#efb44f"}},{"type":"Feature","id":"10008010012","geometry":{"type":"Polygon","coordinates":[[[120.695904,23.913838],[120.695213,23.914103],[120.694747,23.914528],[120.692108,23.91772],[120.689837,23.920889],[120.688959,23.918363],[120.68743,23.916769],[120.687667,23.916318],[120.688132,23.915935],[120.687689,23.915248],[120.687481,23.91508],[120.687332,23.914193],[120.68758,23.913446],[120.68812,23.913106],[120.687943,23.912036],[120.688522,23.911089],[120.688315,23.910637],[120.688372,23.910375],[120.689232,23.90854],[120.690232,23.908178],[120.690708,23.907274],[120.693229,23.909855],[120.693983,23.91117],[120.695904,23.913838]]]},"properties":{"code":"10008010012","name":"平和里","countyCode":"10008","countyName":"南投縣","townCode":"10008010","townName":"南投市","level":"village","unassigned":false,"note":"","label":[120.69139407988706,23.91334636487388],"bounds":[120.687332,23.907274,120.695904,23.920889],"focusBounds":[120.687332,23.907274,120.695904,23.920889],"color":"#efb44f"}},{"type":"Feature","id":"10008010013","geometry":{"type":"Polygon","coordinates":[[[120.717201,23.907298],[120.717459,23.908175],[120.717433,23.908746],[120.717153,23.910393],[120.716742,23.911543],[120.717803,23.912069],[120.719379,23.913911],[120.720448,23.914166],[120.719909,23.914367],[120.719154,23.915103],[120.718268,23.915077],[120.718222,23.91614],[120.716933,23.916198],[120.71727,23.917728],[120.717631,23.917547],[120.71782,23.917749],[120.717819,23.917988],[120.717104,23.919267],[120.716672,23.919256],[120.715751,23.920021],[120.715078,23.919445],[120.714688,23.919429],[120.714118,23.920327],[120.713722,23.920413],[120.71326,23.920247],[120.713281,23.920844],[120.713032,23.92114],[120.712645,23.921079],[120.71227,23.920661],[120.712275,23.920059],[120.711355,23.920653],[120.710727,23.919727],[120.709103,23.919175],[120.708634,23.918741],[120.70648,23.917759],[120.706453,23.9167],[120.706761,23.916274],[120.706744,23.915647],[120.706408,23.915145],[120.705213,23.914617],[120.703838,23.913634],[120.702254,23.913297],[120.701078,23.912798],[120.69972,23.9135],[120.698822,23.913767],[120.698138,23.913878],[120.695904,23.913838],[120.693983,23.91117],[120.693229,23.909855],[120.690708,23.907274],[120.691361,23.904957],[120.691647,23.904549],[120.691591,23.904003],[120.692562,23.900666],[120.694522,23.901155],[120.69557,23.901148],[120.695742,23.901474],[120.696073,23.901483],[120.695982,23.902632],[120.697011,23.901512],[120.698244,23.901108],[120.699593,23.901032],[120.699976,23.900439],[120.700301,23.89909],[120.703632,23.896674],[120.706361,23.895722],[120.707121,23.89571],[120.707126,23.896034],[120.707614,23.897141],[120.707975,23.897583],[120.709031,23.898158],[120.709449,23.898241],[120.709864,23.898588],[120.711824,23.899285],[120.71211,23.899511],[120.712675,23.901084],[120.713167,23.90127],[120.713886,23.902731],[120.714332,23.903984],[120.714166,23.904586],[120.715015,23.906086],[120.715804,23.906208],[120.716125,23.906885],[120.71706,23.907098],[120.717201,23.907298]]]},"properties":{"code":"10008010013","name":"振興里","countyCode":"10008","countyName":"南投縣","townCode":"10008010","townName":"南投市","level":"village","unassigned":false,"note":"","label":[120.70688637849726,23.90682902524354],"bounds":[120.690708,23.89571,120.720448,23.92114],"focusBounds":[120.690708,23.89571,120.720448,23.92114],"color":"#78a7e3"}},{"type":"Feature","id":"10008010014","geometry":{"type":"Polygon","coordinates":[[[120.707121,23.89571],[120.706361,23.895722],[120.703632,23.896674],[120.700301,23.89909],[120.699976,23.900439],[120.699593,23.901032],[120.698244,23.901108],[120.697011,23.901512],[120.695982,23.902632],[120.696073,23.901483],[120.695742,23.901474],[120.69557,23.901148],[120.695508,23.899539],[120.697043,23.899178],[120.697661,23.898732],[120.698209,23.897483],[120.698318,23.896673],[120.696672,23.8935],[120.69616,23.893199],[120.694333,23.892663],[120.69409,23.892317],[120.694021,23.89191],[120.694369,23.890261],[120.694898,23.889697],[120.699033,23.889882],[120.700522,23.889532],[120.700581,23.889142],[120.700273,23.887882],[120.700298,23.887333],[120.700556,23.886997],[120.700911,23.887727],[120.702753,23.888718],[120.703021,23.889042],[120.703864,23.888163],[120.704044,23.887732],[120.704563,23.887891],[120.705112,23.888674],[120.706221,23.889095],[120.708657,23.888978],[120.70918,23.88818],[120.711039,23.889051],[120.712735,23.889509],[120.713588,23.890127],[120.714082,23.890043],[120.714549,23.890291],[120.715106,23.89],[120.71523,23.889615],[120.715636,23.889689],[120.715998,23.889394],[120.716229,23.888877],[120.716781,23.888558],[120.716901,23.88812],[120.717212,23.887774],[120.717177,23.887348],[120.717488,23.886566],[120.718304,23.885289],[120.718372,23.884026],[120.719191,23.882958],[120.720417,23.88233],[120.721663,23.881433],[120.723113,23.880842],[120.723264,23.880287],[120.724619,23.878609],[120.725743,23.879418],[120.726584,23.880496],[120.727505,23.880846],[120.727725,23.880981],[120.726237,23.881465],[120.725453,23.882314],[120.724358,23.882993],[120.724287,23.883428],[120.724725,23.884927],[120.724583,23.885614],[120.724533,23.886084],[120.724712,23.886733],[120.724281,23.888622],[120.724469,23.889457],[120.724264,23.890509],[120.721869,23.891058],[120.71953,23.892799],[120.717544,23.893672],[120.716015,23.893949],[120.714448,23.89397],[120.71284,23.893809],[120.710559,23.894146],[120.70799,23.895108],[120.707121,23.89571]]]},"properties":{"code":"10008010014","name":"千秋里","countyCode":"10008","countyName":"南投縣","townCode":"10008010","townName":"南投市","level":"village","unassigned":false,"note":"","label":[120.70565382950949,23.892424300676417],"bounds":[120.694021,23.878609,120.727725,23.902632],"focusBounds":[120.694021,23.878609,120.727725,23.902632],"color":"#dd8590"}},{"type":"Feature","id":"10008010015","geometry":{"type":"Polygon","coordinates":[[[120.678888,23.911056],[120.675251,23.908477],[120.674285,23.908159],[120.672157,23.908019],[120.670456,23.906961],[120.670147,23.906254],[120.667907,23.904698],[120.664619,23.903515],[120.661966,23.903328],[120.660248,23.902754],[120.658185,23.902598],[120.656926,23.902008],[120.656174,23.901419],[120.657683,23.897906],[120.657924,23.895112],[120.658682,23.893179],[120.659378,23.890555],[120.660034,23.890588],[120.660345,23.890814],[120.660993,23.890974],[120.662113,23.891044],[120.662685,23.891436],[120.663699,23.891831],[120.664469,23.891756],[120.664812,23.892133],[120.665907,23.892811],[120.666511,23.893614],[120.666986,23.893524],[120.667755,23.893871],[120.668065,23.894188],[120.669341,23.894629],[120.669717,23.895095],[120.672953,23.897316],[120.673494,23.897317],[120.674328,23.89756],[120.675539,23.89815],[120.675662,23.89706],[120.676976,23.89734],[120.679385,23.898221],[120.681833,23.899685],[120.682712,23.900361],[120.683974,23.900583],[120.68564,23.899975],[120.686109,23.902321],[120.686107,23.903152],[120.68527,23.905344],[120.683894,23.904907],[120.682742,23.906809],[120.682625,23.907251],[120.682348,23.908115],[120.682148,23.908868],[120.679559,23.908213],[120.678888,23.911056]]]},"properties":{"code":"10008010015","name":"三興里","countyCode":"10008","countyName":"南投縣","townCode":"10008010","townName":"南投市","level":"village","unassigned":false,"note":"","label":[120.66966112277804,23.900471030445757],"bounds":[120.656174,23.890555,120.686109,23.911056],"focusBounds":[120.656174,23.890555,120.686109,23.911056],"color":"#a49ad4"}},{"type":"Feature","id":"10008010016","geometry":{"type":"Polygon","coordinates":[[[120.692562,23.900666],[120.691591,23.904003],[120.691647,23.904549],[120.691361,23.904957],[120.690708,23.907274],[120.688457,23.905872],[120.686666,23.905182],[120.686619,23.905412],[120.686282,23.905477],[120.68527,23.905344],[120.686107,23.903152],[120.686109,23.902321],[120.68564,23.899975],[120.685778,23.899318],[120.687249,23.899804],[120.687393,23.899707],[120.689404,23.899917],[120.689942,23.900487],[120.690665,23.9005],[120.691361,23.900413],[120.692562,23.900666]]]},"properties":{"code":"10008010016","name":"三和里","countyCode":"10008","countyName":"南投縣","townCode":"10008010","townName":"南投市","level":"village","unassigned":false,"note":"","label":[120.68885416587031,23.902989563967502],"bounds":[120.68527,23.899318,120.692562,23.907274],"focusBounds":[120.68527,23.899318,120.692562,23.907274],"color":"#a8bf62"}},{"type":"Feature","id":"10008010017","geometry":{"type":"Polygon","coordinates":[[[120.69557,23.901148],[120.694522,23.901155],[120.692562,23.900666],[120.691361,23.900413],[120.690665,23.9005],[120.691783,23.895811],[120.690161,23.896364],[120.688796,23.89644],[120.688517,23.895881],[120.687667,23.895417],[120.686615,23.895439],[120.685681,23.895668],[120.685843,23.893867],[120.68541,23.893732],[120.683228,23.893631],[120.682005,23.893725],[120.681719,23.892553],[120.676666,23.893324],[120.674648,23.892358],[120.674058,23.891752],[120.670814,23.890704],[120.666689,23.889733],[120.663551,23.888731],[120.660856,23.888894],[120.656416,23.887869],[120.654852,23.887782],[120.653813,23.887996],[120.65247,23.888828],[120.651423,23.888792],[120.6514,23.888528],[120.651691,23.888343],[120.652266,23.88743],[120.653405,23.887056],[120.654464,23.886494],[120.654047,23.885588],[120.653226,23.884426],[120.654602,23.884343],[120.656531,23.883599],[120.659,23.882834],[120.660559,23.88261],[120.661676,23.882127],[120.6637,23.882326],[120.665213,23.882642],[120.665801,23.882949],[120.666941,23.883056],[120.668433,23.882874],[120.669742,23.882491],[120.669855,23.881955],[120.670769,23.88181],[120.671365,23.881561],[120.672161,23.881679],[120.672969,23.881453],[120.673983,23.881747],[120.674908,23.881587],[120.67652,23.881579],[120.678662,23.88125],[120.679886,23.881085],[120.681059,23.880705],[120.681863,23.880741],[120.683153,23.880409],[120.686111,23.881579],[120.687058,23.881616],[120.689057,23.882231],[120.690186,23.882946],[120.691918,23.883695],[120.693477,23.88393],[120.694425,23.884224],[120.69514,23.884691],[120.696288,23.884865],[120.697319,23.885768],[120.698281,23.88595],[120.698966,23.886584],[120.700024,23.886639],[120.700556,23.886997],[120.700298,23.887333],[120.700273,23.887882],[120.700581,23.889142],[120.700522,23.889532],[120.699033,23.889882],[120.694898,23.889697],[120.694369,23.890261],[120.694021,23.89191],[120.69409,23.892317],[120.694333,23.892663],[120.69616,23.893199],[120.696672,23.8935],[120.698318,23.896673],[120.698209,23.897483],[120.697661,23.898732],[120.697043,23.899178],[120.695508,23.899539],[120.69557,23.901148]]]},"properties":{"code":"10008010017","name":"嘉興里","countyCode":"10008","countyName":"南投縣","townCode":"10008010","townName":"南投市","level":"village","unassigned":false,"note":"","label":[120.67983448617491,23.88696616074064],"bounds":[120.6514,23.880409,120.700581,23.901155],"focusBounds":[120.6514,23.880409,120.700581,23.901155],"color":"#68bec9"}},{"type":"Feature","id":"10008010018","geometry":{"type":"Polygon","coordinates":[[[120.651423,23.888792],[120.65247,23.888828],[120.653813,23.887996],[120.654852,23.887782],[120.656416,23.887869],[120.660856,23.888894],[120.663551,23.888731],[120.666689,23.889733],[120.670814,23.890704],[120.674058,23.891752],[120.674648,23.892358],[120.676666,23.893324],[120.681719,23.892553],[120.682005,23.893725],[120.683228,23.893631],[120.68541,23.893732],[120.685843,23.893867],[120.685681,23.895668],[120.686615,23.895439],[120.687667,23.895417],[120.688517,23.895881],[120.688796,23.89644],[120.690161,23.896364],[120.691783,23.895811],[120.690665,23.9005],[120.689942,23.900487],[120.689404,23.899917],[120.687393,23.899707],[120.687249,23.899804],[120.685778,23.899318],[120.68564,23.899975],[120.683974,23.900583],[120.682712,23.900361],[120.681833,23.899685],[120.679385,23.898221],[120.676976,23.89734],[120.675662,23.89706],[120.675539,23.89815],[120.674328,23.89756],[120.673494,23.897317],[120.672953,23.897316],[120.669717,23.895095],[120.669341,23.894629],[120.668065,23.894188],[120.667755,23.893871],[120.666986,23.893524],[120.666511,23.893614],[120.665907,23.892811],[120.664812,23.892133],[120.664469,23.891756],[120.663699,23.891831],[120.662685,23.891436],[120.662113,23.891044],[120.660993,23.890974],[120.660345,23.890814],[120.660034,23.890588],[120.659378,23.890555],[120.658808,23.890407],[120.657898,23.890524],[120.657533,23.890977],[120.65618,23.891548],[120.655737,23.892025],[120.655166,23.891904],[120.654412,23.892095],[120.652272,23.89169],[120.651933,23.891297],[120.651184,23.890925],[120.651176,23.890753],[120.650579,23.890634],[120.651,23.889981],[120.651461,23.889871],[120.651423,23.888792]]]},"properties":{"code":"10008010018","name":"嘉和里","countyCode":"10008","countyName":"南投縣","townCode":"10008010","townName":"南投市","level":"village","unassigned":false,"note":"","label":[120.67326351656254,23.894405814732945],"bounds":[120.650579,23.887782,120.691783,23.900583],"focusBounds":[120.650579,23.887782,120.691783,23.900583],"color":"#df9f6a"}},{"type":"Feature","id":"10008010019","geometry":{"type":"Polygon","coordinates":[[[120.647297,23.920984],[120.646912,23.920965],[120.645401,23.9214],[120.639236,23.921607],[120.638203,23.922051],[120.637225,23.922831],[120.637248,23.921896],[120.637104,23.921742],[120.636447,23.921779],[120.635947,23.921554],[120.635322,23.921655],[120.636241,23.920286],[120.636554,23.920092],[120.636456,23.919369],[120.636055,23.919432],[120.635527,23.919924],[120.634971,23.920094],[120.634817,23.919928],[120.63491,23.919453],[120.634771,23.919249],[120.633863,23.91967],[120.633533,23.91954],[120.633943,23.919029],[120.6347,23.918857],[120.634523,23.918578],[120.635092,23.9179],[120.634896,23.917754],[120.634368,23.917873],[120.633896,23.91781],[120.634383,23.916947],[120.634142,23.916674],[120.634154,23.916201],[120.634012,23.916122],[120.633591,23.916316],[120.633271,23.915996],[120.633417,23.915744],[120.634048,23.915581],[120.633978,23.915341],[120.633339,23.915176],[120.634188,23.914432],[120.634714,23.913117],[120.634305,23.91325],[120.633364,23.914165],[120.633059,23.914201],[120.633077,23.913853],[120.632971,23.913318],[120.633464,23.913002],[120.633562,23.91243],[120.632538,23.912507],[120.633368,23.911762],[120.633219,23.911558],[120.632603,23.911506],[120.632745,23.911082],[120.632601,23.910879],[120.632011,23.910683],[120.629813,23.911179],[120.629403,23.910813],[120.629949,23.910344],[120.630975,23.910596],[120.631772,23.910446],[120.632066,23.910043],[120.632588,23.909916],[120.63301,23.9096],[120.632771,23.909259],[120.631694,23.909277],[120.631784,23.908836],[120.631553,23.908662],[120.63056,23.908654],[120.630514,23.908518],[120.630665,23.908213],[120.631847,23.90841],[120.632667,23.908109],[120.633586,23.908035],[120.634222,23.907669],[120.634113,23.907332],[120.633287,23.907235],[120.633549,23.906626],[120.633284,23.906175],[120.632981,23.906236],[120.632731,23.906693],[120.632337,23.906853],[120.632126,23.906751],[120.632647,23.905788],[120.632167,23.905341],[120.632587,23.904832],[120.632211,23.904598],[120.632198,23.904353],[120.632618,23.904526],[120.632868,23.904457],[120.633032,23.904212],[120.632806,23.903782],[120.632369,23.903702],[120.632163,23.903383],[120.631549,23.903529],[120.631369,23.903431],[120.631571,23.902823],[120.632397,23.903075],[120.633079,23.902901],[120.633491,23.902637],[120.633595,23.902159],[120.633934,23.901948],[120.634034,23.901643],[120.634977,23.901386],[120.634669,23.900804],[120.633741,23.900419],[120.633805,23.899897],[120.633806,23.89964],[120.634236,23.899682],[120.634497,23.899466],[120.637573,23.899198],[120.639554,23.898374],[120.642131,23.897572],[120.644411,23.897544],[120.644998,23.897301],[120.645405,23.897298],[120.646307,23.897623],[120.647549,23.897537],[120.648981,23.897771],[120.650217,23.898616],[120.653232,23.899907],[120.654145,23.899952],[120.65449,23.900097],[120.656174,23.901419],[120.655872,23.902658],[120.65494,23.902925],[120.653104,23.902534],[120.651338,23.90184],[120.650886,23.901863],[120.650659,23.902023],[120.65048,23.902314],[120.65026,23.9037],[120.65197,23.904214],[120.653286,23.904781],[120.653016,23.906119],[120.652691,23.906287],[120.652078,23.906277],[120.650661,23.905782],[120.650159,23.905754],[120.649374,23.907567],[120.649372,23.908452],[120.649625,23.908712],[120.65452,23.910933],[120.654744,23.911234],[120.65479,23.911728],[120.654381,23.912102],[120.652702,23.912055],[120.652342,23.912996],[120.651328,23.915646],[120.652998,23.917975],[120.651551,23.921324],[120.651252,23.921188],[120.647297,23.920984]]]},"properties":{"code":"10008010019","name":"福山里","countyCode":"10008","countyName":"南投縣","townCode":"10008010","townName":"南投市","level":"village","unassigned":false,"note":"","label":[120.6418818840318,23.9103487166944],"bounds":[120.629403,23.897298,120.656174,23.922831],"focusBounds":[120.629403,23.897298,120.656174,23.922831],"color":"#c38cb8"}},{"type":"Feature","id":"10008010020","geometry":{"type":"Polygon","coordinates":[[[120.659378,23.890555],[120.658682,23.893179],[120.657924,23.895112],[120.657683,23.897906],[120.656174,23.901419],[120.65449,23.900097],[120.654145,23.899952],[120.653232,23.899907],[120.650217,23.898616],[120.648981,23.897771],[120.647549,23.897537],[120.646307,23.897623],[120.645405,23.897298],[120.644998,23.897301],[120.644411,23.897544],[120.642131,23.897572],[120.639554,23.898374],[120.637573,23.899198],[120.634497,23.899466],[120.63464,23.898894],[120.635065,23.898599],[120.634808,23.898219],[120.634859,23.897823],[120.634047,23.897702],[120.634058,23.897475],[120.634411,23.897299],[120.63425,23.897028],[120.634362,23.896748],[120.633674,23.896837],[120.63324,23.896671],[120.632941,23.896722],[120.632756,23.896167],[120.633142,23.895575],[120.63418,23.895239],[120.634227,23.894377],[120.63376,23.894091],[120.634395,23.893472],[120.633141,23.893196],[120.632552,23.892751],[120.632211,23.89228],[120.632353,23.892046],[120.634102,23.891832],[120.633715,23.891441],[120.63326,23.891339],[120.633095,23.890988],[120.632269,23.890425],[120.632219,23.890213],[120.632715,23.88976],[120.632117,23.889428],[120.630764,23.889599],[120.630353,23.889814],[120.629524,23.889424],[120.627606,23.889672],[120.627363,23.889648],[120.627308,23.889503],[120.627722,23.88929],[120.629422,23.8891],[120.630158,23.888922],[120.630792,23.889178],[120.631492,23.888884],[120.632237,23.888984],[120.633152,23.888512],[120.634214,23.889256],[120.634745,23.889031],[120.634895,23.889499],[120.635292,23.889595],[120.636163,23.889281],[120.636133,23.88863],[120.636341,23.888345],[120.636894,23.888394],[120.636937,23.888789],[120.637068,23.888852],[120.638349,23.88873],[120.639107,23.88818],[120.639139,23.888904],[120.639536,23.889015],[120.639983,23.888738],[120.640477,23.888827],[120.64076,23.88863],[120.641145,23.888623],[120.641751,23.888182],[120.641927,23.887751],[120.642034,23.888165],[120.641893,23.888665],[120.642561,23.888868],[120.643614,23.888256],[120.644111,23.88778],[120.644132,23.887418],[120.644835,23.887067],[120.647719,23.886079],[120.648042,23.886065],[120.647945,23.886398],[120.648096,23.886526],[120.648954,23.886601],[120.649585,23.886142],[120.651048,23.885716],[120.652051,23.884902],[120.653172,23.884427],[120.653226,23.884426],[120.654047,23.885588],[120.654464,23.886494],[120.653405,23.887056],[120.652266,23.88743],[120.651691,23.888343],[120.6514,23.888528],[120.651423,23.888792],[120.651461,23.889871],[120.651,23.889981],[120.650579,23.890634],[120.651176,23.890753],[120.651184,23.890925],[120.651933,23.891297],[120.652272,23.89169],[120.654412,23.892095],[120.655166,23.891904],[120.655737,23.892025],[120.65618,23.891548],[120.657533,23.890977],[120.657898,23.890524],[120.658808,23.890407],[120.659378,23.890555]]]},"properties":{"code":"10008010020","name":"永興里","countyCode":"10008","countyName":"南投縣","townCode":"10008010","townName":"南投市","level":"village","unassigned":false,"note":"","label":[120.64588738354205,23.89281770585309],"bounds":[120.627308,23.884426,120.659378,23.901419],"focusBounds":[120.627308,23.884426,120.659378,23.901419],"color":"#58b99d"}},{"type":"Feature","id":"10008010021","geometry":{"type":"Polygon","coordinates":[[[120.647138,23.932244],[120.64332,23.93089],[120.638741,23.929834],[120.63639,23.932521],[120.636905,23.933376],[120.636006,23.934387],[120.635108,23.934988],[120.634142,23.936117],[120.633814,23.935882],[120.633481,23.936061],[120.632777,23.935645],[120.632705,23.934442],[120.632671,23.93406],[120.632139,23.932874],[120.630987,23.932156],[120.630408,23.932592],[120.629723,23.931171],[120.628498,23.931369],[120.627833,23.931167],[120.627871,23.93083],[120.628285,23.930363],[120.629205,23.929675],[120.629766,23.929465],[120.630983,23.929338],[120.63104,23.929018],[120.631484,23.928715],[120.631957,23.928916],[120.632018,23.928807],[120.631728,23.92849],[120.631786,23.92832],[120.632605,23.92843],[120.632981,23.928186],[120.633183,23.927623],[120.633769,23.927222],[120.633138,23.926929],[120.633139,23.926596],[120.633602,23.926484],[120.634216,23.926626],[120.634863,23.926213],[120.635189,23.92634],[120.635501,23.926243],[120.635816,23.925948],[120.635865,23.925472],[120.636532,23.925268],[120.636836,23.925021],[120.636805,23.924811],[120.637265,23.924561],[120.637411,23.924084],[120.637395,23.923707],[120.636999,23.923534],[120.63696,23.9232],[120.637225,23.922831],[120.638203,23.922051],[120.639236,23.921607],[120.645401,23.9214],[120.646912,23.920965],[120.647297,23.920984],[120.647397,23.922016],[120.648544,23.924111],[120.649116,23.925618],[120.649235,23.92651],[120.64905,23.927625],[120.648054,23.930311],[120.647138,23.932244]]]},"properties":{"code":"10008010021","name":"鳳鳴里","countyCode":"10008","countyName":"南投縣","townCode":"10008010","townName":"南投市","level":"village","unassigned":false,"note":"","label":[120.64172403926518,23.926022448411125],"bounds":[120.627833,23.920965,120.649235,23.936117],"focusBounds":[120.627833,23.920965,120.649235,23.936117],"color":"#58b99d"}},{"type":"Feature","id":"10008010022","geometry":{"type":"Polygon","coordinates":[[[120.629658,23.956109],[120.627941,23.956507],[120.627128,23.95652],[120.626983,23.956442],[120.626947,23.955654],[120.627074,23.955573],[120.627778,23.955848],[120.628089,23.955359],[120.628623,23.955497],[120.628848,23.955324],[120.62981,23.955211],[120.62927,23.954826],[120.629215,23.954648],[120.629402,23.954557],[120.630156,23.954824],[120.630896,23.95445],[120.631622,23.954777],[120.632783,23.954392],[120.633412,23.953963],[120.633845,23.953365],[120.634073,23.95226],[120.633805,23.952203],[120.632875,23.952993],[120.631564,23.953484],[120.630935,23.953214],[120.630696,23.952681],[120.629382,23.952123],[120.628321,23.952645],[120.628015,23.95266],[120.627571,23.95202],[120.627593,23.95177],[120.629423,23.94932],[120.631262,23.947617],[120.631469,23.947176],[120.631983,23.946851],[120.632206,23.946432],[120.632768,23.945912],[120.633065,23.945385],[120.634603,23.943794],[120.634595,23.943591],[120.633366,23.942881],[120.633219,23.943178],[120.632795,23.94323],[120.63171,23.943774],[120.630829,23.9448],[120.630166,23.944282],[120.630721,23.943798],[120.630161,23.942957],[120.632614,23.941289],[120.633624,23.939775],[120.635149,23.938863],[120.636391,23.93772],[120.636864,23.93711],[120.636787,23.936402],[120.637598,23.93576],[120.637659,23.935433],[120.636854,23.935764],[120.635486,23.937445],[120.635361,23.936909],[120.634978,23.937109],[120.634664,23.936991],[120.634739,23.936638],[120.634142,23.936117],[120.635108,23.934988],[120.636006,23.934387],[120.636905,23.933376],[120.63639,23.932521],[120.638741,23.929834],[120.64332,23.93089],[120.647138,23.932244],[120.647136,23.932923],[120.648057,23.937456],[120.647881,23.938819],[120.645322,23.94217],[120.644043,23.943194],[120.643871,23.943559],[120.643835,23.944194],[120.644201,23.944763],[120.64452,23.947157],[120.644132,23.948975],[120.638134,23.953949],[120.636745,23.952695],[120.636024,23.952574],[120.635408,23.952245],[120.635051,23.953209],[120.634343,23.953999],[120.63293,23.95497],[120.631487,23.955597],[120.631127,23.956297],[120.63021,23.956072],[120.629658,23.956109]]]},"properties":{"code":"10008010022","name":"鳳山里","countyCode":"10008","countyName":"南投縣","townCode":"10008010","townName":"南投市","level":"village","unassigned":false,"note":"","label":[120.63948885909412,23.941415732316305],"bounds":[120.626947,23.929834,120.648057,23.95652],"focusBounds":[120.626947,23.929834,120.648057,23.95652],"color":"#efb44f"}},{"type":"Feature","id":"10008010023","geometry":{"type":"Polygon","coordinates":[[[120.652342,23.912996],[120.652702,23.912055],[120.654381,23.912102],[120.65479,23.911728],[120.654744,23.911234],[120.65452,23.910933],[120.649625,23.908712],[120.649372,23.908452],[120.649374,23.907567],[120.650159,23.905754],[120.650661,23.905782],[120.652078,23.906277],[120.652691,23.906287],[120.653787,23.906963],[120.654349,23.907483],[120.654953,23.90753],[120.657462,23.908472],[120.66001,23.909787],[120.661126,23.910717],[120.663211,23.912907],[120.663731,23.913188],[120.665708,23.915023],[120.667526,23.915517],[120.669927,23.916621],[120.672178,23.916561],[120.673401,23.9172],[120.676478,23.917705],[120.676582,23.91725],[120.677301,23.91756],[120.677777,23.918094],[120.678207,23.918199],[120.678055,23.919368],[120.679192,23.919779],[120.679899,23.920275],[120.680596,23.920531],[120.68113,23.92153],[120.682051,23.922469],[120.683691,23.923262],[120.684857,23.924457],[120.683863,23.925297],[120.682944,23.926401],[120.682578,23.927197],[120.682767,23.932033],[120.682311,23.933774],[120.678431,23.931443],[120.676632,23.930532],[120.675159,23.928071],[120.674071,23.927353],[120.673706,23.927957],[120.669741,23.926802],[120.664944,23.925047],[120.666545,23.923339],[120.667154,23.922101],[120.666103,23.921514],[120.664501,23.920921],[120.661543,23.920053],[120.658844,23.920069],[120.659476,23.917144],[120.659461,23.916815],[120.659081,23.916126],[120.658178,23.915565],[120.657368,23.915506],[120.656455,23.915683],[120.65523,23.91621],[120.654699,23.916266],[120.654138,23.916136],[120.653252,23.915167],[120.653108,23.913733],[120.652929,23.913424],[120.652342,23.912996]]]},"properties":{"code":"10008010023","name":"平山里","countyCode":"10008","countyName":"南投縣","townCode":"10008010","townName":"南投市","level":"village","unassigned":false,"note":"","label":[120.6729069965093,23.922333074366925],"bounds":[120.649372,23.905754,120.684857,23.933774],"focusBounds":[120.649372,23.905754,120.684857,23.933774],"color":"#78a7e3"}},{"type":"Feature","id":"10008010024","geometry":{"type":"Polygon","coordinates":[[[120.677165,23.940143],[120.675555,23.937889],[120.673942,23.936757],[120.672321,23.936109],[120.672153,23.93485],[120.672288,23.934575],[120.671531,23.933814],[120.671149,23.934218],[120.670405,23.933648],[120.669461,23.931573],[120.665836,23.929751],[120.664962,23.928629],[120.663892,23.926834],[120.660006,23.923408],[120.659124,23.922147],[120.658798,23.920794],[120.658844,23.920069],[120.661543,23.920053],[120.664501,23.920921],[120.666103,23.921514],[120.667154,23.922101],[120.666545,23.923339],[120.664944,23.925047],[120.669741,23.926802],[120.673706,23.927957],[120.674071,23.927353],[120.675159,23.928071],[120.676632,23.930532],[120.678431,23.931443],[120.682311,23.933774],[120.681748,23.934882],[120.681475,23.936935],[120.681223,23.937804],[120.68001,23.938874],[120.677165,23.940143]]]},"properties":{"code":"10008010024","name":"新興里","countyCode":"10008","countyName":"南投縣","townCode":"10008010","townName":"南投市","level":"village","unassigned":false,"note":"","label":[120.67265070866318,23.930876452715033],"bounds":[120.658798,23.920053,120.682311,23.940143],"focusBounds":[120.658798,23.920053,120.682311,23.940143],"color":"#dd8590"}},{"type":"Feature","id":"10008010025","geometry":{"type":"Polygon","coordinates":[[[120.671266,23.944763],[120.670544,23.945086],[120.670327,23.944097],[120.669529,23.943158],[120.666343,23.941558],[120.66615,23.941],[120.666093,23.939684],[120.665188,23.937776],[120.663928,23.93697],[120.661799,23.934713],[120.660102,23.934386],[120.659436,23.933895],[120.657381,23.931391],[120.656461,23.930676],[120.656257,23.929829],[120.655532,23.928689],[120.655255,23.927696],[120.653131,23.923688],[120.651551,23.921324],[120.652998,23.917975],[120.651328,23.915646],[120.652342,23.912996],[120.652929,23.913424],[120.653108,23.913733],[120.653252,23.915167],[120.654138,23.916136],[120.654699,23.916266],[120.65523,23.91621],[120.656455,23.915683],[120.657368,23.915506],[120.658178,23.915565],[120.659081,23.916126],[120.659461,23.916815],[120.659476,23.917144],[120.658844,23.920069],[120.658798,23.920794],[120.659124,23.922147],[120.660006,23.923408],[120.663892,23.926834],[120.664962,23.928629],[120.665836,23.929751],[120.669461,23.931573],[120.670405,23.933648],[120.671149,23.934218],[120.671531,23.933814],[120.672288,23.934575],[120.672153,23.93485],[120.672321,23.936109],[120.673942,23.936757],[120.675555,23.937889],[120.677165,23.940143],[120.676079,23.940547],[120.675086,23.941179],[120.674406,23.941905],[120.673121,23.943771],[120.672756,23.944071],[120.671266,23.944763]]]},"properties":{"code":"10008010025","name":"永豐里","countyCode":"10008","countyName":"南投縣","townCode":"10008010","townName":"南投市","level":"village","unassigned":false,"note":"","label":[120.66081734454724,23.929323455067525],"bounds":[120.651328,23.912996,120.677165,23.945086],"focusBounds":[120.651328,23.912996,120.677165,23.945086],"color":"#a49ad4"}},{"type":"Feature","id":"10008010026","geometry":{"type":"Polygon","coordinates":[[[120.653179,23.956655],[120.651169,23.958059],[120.648619,23.960351],[120.647987,23.961201],[120.646853,23.963377],[120.644721,23.962521],[120.644315,23.962169],[120.642857,23.959517],[120.642659,23.958272],[120.640342,23.956162],[120.639701,23.955256],[120.63837,23.954269],[120.638134,23.953949],[120.644132,23.948975],[120.64452,23.947157],[120.644201,23.944763],[120.643835,23.944194],[120.643871,23.943559],[120.644043,23.943194],[120.645322,23.94217],[120.647881,23.938819],[120.648057,23.937456],[120.647136,23.932923],[120.647138,23.932244],[120.648054,23.930311],[120.64905,23.927625],[120.649235,23.92651],[120.649116,23.925618],[120.648544,23.924111],[120.647397,23.922016],[120.647297,23.920984],[120.651252,23.921188],[120.651551,23.921324],[120.653131,23.923688],[120.655255,23.927696],[120.655532,23.928689],[120.656257,23.929829],[120.656461,23.930676],[120.657381,23.931391],[120.659436,23.933895],[120.660102,23.934386],[120.661799,23.934713],[120.663928,23.93697],[120.665188,23.937776],[120.666093,23.939684],[120.66615,23.941],[120.666343,23.941558],[120.669529,23.943158],[120.670327,23.944097],[120.670544,23.945086],[120.669184,23.945724],[120.668106,23.946003],[120.666337,23.946185],[120.665066,23.945817],[120.664527,23.945972],[120.662387,23.947761],[120.662089,23.949481],[120.662215,23.950185],[120.661598,23.951105],[120.660131,23.952158],[120.658015,23.952103],[120.657587,23.952344],[120.654812,23.955555],[120.653179,23.956655]]]},"properties":{"code":"10008010026","name":"福興里","countyCode":"10008","countyName":"南投縣","townCode":"10008010","townName":"南投市","level":"village","unassigned":false,"note":"","label":[120.65464049633594,23.944049503275927],"bounds":[120.638134,23.920984,120.670544,23.963377],"focusBounds":[120.638134,23.920984,120.670544,23.963377],"color":"#a8bf62"}},{"type":"Feature","id":"10008010027","geometry":{"type":"Polygon","coordinates":[[[120.692734,23.947414],[120.690219,23.94987],[120.687838,23.953019],[120.687287,23.954575],[120.686206,23.956733],[120.684386,23.955614],[120.684667,23.954762],[120.683612,23.954182],[120.68252,23.953895],[120.682476,23.953545],[120.680373,23.952426],[120.680286,23.952229],[120.678607,23.951542],[120.681907,23.94695],[120.685793,23.942405],[120.687222,23.943512],[120.687726,23.942925],[120.688349,23.943436],[120.691089,23.94065],[120.691956,23.940776],[120.692339,23.941219],[120.69296,23.940871],[120.694097,23.941054],[120.694633,23.941303],[120.695052,23.941724],[120.695526,23.94168],[120.695736,23.941711],[120.695913,23.942181],[120.696079,23.942168],[120.696334,23.941808],[120.69657,23.941862],[120.695982,23.942632],[120.69597,23.942767],[120.696202,23.9429],[120.695322,23.944033],[120.695504,23.94417],[120.692734,23.947414]]]},"properties":{"code":"10008010027","name":"營北里","countyCode":"10008","countyName":"南投縣","townCode":"10008010","townName":"南投市","level":"village","unassigned":false,"note":"","label":[120.6865805225626,23.947867568565364],"bounds":[120.678607,23.94065,120.69657,23.956733],"focusBounds":[120.678607,23.94065,120.69657,23.956733],"color":"#68bec9"}},{"type":"Feature","id":"10008010028","geometry":{"type":"Polygon","coordinates":[[[120.685793,23.942405],[120.681907,23.94695],[120.678607,23.951542],[120.675615,23.95039],[120.675223,23.950028],[120.674362,23.949703],[120.674122,23.9496],[120.672664,23.947764],[120.6728,23.94737],[120.671843,23.946245],[120.671842,23.945045],[120.671266,23.944763],[120.672756,23.944071],[120.673121,23.943771],[120.674406,23.941905],[120.675086,23.941179],[120.676079,23.940547],[120.677165,23.940143],[120.68001,23.938874],[120.681223,23.937804],[120.681475,23.936935],[120.682053,23.93693],[120.683047,23.937282],[120.683931,23.937311],[120.685306,23.937733],[120.684683,23.938514],[120.682813,23.940099],[120.685793,23.942405]]]},"properties":{"code":"10008010028","name":"營南里","countyCode":"10008","countyName":"南投縣","townCode":"10008010","townName":"南投市","level":"village","unassigned":false,"note":"","label":[120.67856106611202,23.944201784803788],"bounds":[120.671266,23.93693,120.685793,23.951542],"focusBounds":[120.671266,23.93693,120.685793,23.951542],"color":"#df9f6a"}},{"type":"Feature","id":"10008010029","geometry":{"type":"Polygon","coordinates":[[[120.718656,23.953514],[120.708233,23.942826],[120.707171,23.941461],[120.70712,23.94096],[120.707641,23.940412],[120.706189,23.938737],[120.704385,23.935464],[120.703946,23.935053],[120.703181,23.935649],[120.700866,23.936647],[120.700943,23.937196],[120.699433,23.937886],[120.697038,23.938667],[120.695334,23.936916],[120.694652,23.935792],[120.693774,23.932273],[120.692054,23.928254],[120.692407,23.922989],[120.694701,23.923166],[120.695938,23.922815],[120.696759,23.922738],[120.69846,23.923208],[120.700875,23.922917],[120.702125,23.923053],[120.702844,23.923398],[120.706018,23.925883],[120.706182,23.926963],[120.708111,23.928169],[120.709592,23.927962],[120.709816,23.927554],[120.710433,23.927742],[120.711055,23.928603],[120.71269,23.929825],[120.713858,23.930376],[120.714247,23.931023],[120.713775,23.932647],[120.713695,23.933482],[120.713954,23.934081],[120.714412,23.934371],[120.715824,23.934728],[120.716577,23.935088],[120.716862,23.93547],[120.716569,23.938648],[120.716799,23.940416],[120.717395,23.941135],[120.718616,23.941591],[120.721708,23.942265],[120.722097,23.942457],[120.722382,23.943151],[120.722276,23.943772],[120.721519,23.945633],[120.721413,23.946136],[120.721515,23.947138],[120.723081,23.951645],[120.722503,23.951718],[120.722139,23.95196],[120.721566,23.95199],[120.72095,23.952471],[120.720416,23.952376],[120.720046,23.952504],[120.719171,23.95292],[120.718656,23.953514]]]},"properties":{"code":"10008010029","name":"內興里","countyCode":"10008","countyName":"南投縣","townCode":"10008010","townName":"南投市","level":"village","unassigned":false,"note":"","label":[120.70061891491108,23.92944050605113],"bounds":[120.692054,23.922738,120.723081,23.953514],"focusBounds":[120.692054,23.922738,120.723081,23.953514],"color":"#c38cb8"}},{"type":"Feature","id":"10008010030","geometry":{"type":"Polygon","coordinates":[[[120.695526,23.94168],[120.695052,23.941724],[120.694633,23.941303],[120.694097,23.941054],[120.69296,23.940871],[120.692339,23.941219],[120.691956,23.940776],[120.691089,23.94065],[120.688349,23.943436],[120.687726,23.942925],[120.687222,23.943512],[120.685793,23.942405],[120.682813,23.940099],[120.684683,23.938514],[120.685306,23.937733],[120.683931,23.937311],[120.683047,23.937282],[120.682053,23.93693],[120.681475,23.936935],[120.681748,23.934882],[120.682311,23.933774],[120.682767,23.932033],[120.682578,23.927197],[120.682944,23.926401],[120.683863,23.925297],[120.684857,23.924457],[120.685561,23.924029],[120.686742,23.923641],[120.687533,23.923354],[120.688765,23.922458],[120.692407,23.922989],[120.692054,23.928254],[120.693774,23.932273],[120.694652,23.935792],[120.695334,23.936916],[120.697038,23.938667],[120.696832,23.938741],[120.697089,23.939168],[120.696414,23.939553],[120.69545,23.940937],[120.695526,23.94168]]]},"properties":{"code":"10008010030","name":"內新里","countyCode":"10008","countyName":"南投縣","townCode":"10008010","townName":"南投市","level":"village","unassigned":false,"note":"","label":[120.68838767708525,23.93306442209768],"bounds":[120.681475,23.922458,120.697089,23.943512],"focusBounds":[120.681475,23.922458,120.697089,23.943512],"color":"#98b69b"}},{"type":"Feature","id":"10008010031","geometry":{"type":"Polygon","coordinates":[[[120.707551,23.958877],[120.706718,23.959339],[120.706118,23.959429],[120.705089,23.959188],[120.704636,23.958937],[120.703884,23.959639],[120.702046,23.960569],[120.701776,23.960914],[120.701643,23.962923],[120.700741,23.964923],[120.700383,23.965312],[120.70002,23.965454],[120.699397,23.964841],[120.699109,23.964739],[120.69838,23.964668],[120.697887,23.96434],[120.697784,23.96326],[120.69733,23.962936],[120.697067,23.962511],[120.695235,23.962064],[120.693344,23.960527],[120.692399,23.961087],[120.69215,23.961076],[120.691615,23.960803],[120.690694,23.959825],[120.690484,23.959747],[120.690401,23.960018],[120.689968,23.959949],[120.689053,23.959457],[120.688761,23.959091],[120.688284,23.958833],[120.688245,23.958528],[120.687728,23.957867],[120.686206,23.956733],[120.687287,23.954575],[120.687838,23.953019],[120.690219,23.94987],[120.692734,23.947414],[120.693402,23.948224],[120.695199,23.949763],[120.696892,23.950633],[120.700561,23.951764],[120.70654,23.955559],[120.708821,23.958526],[120.707551,23.958877]]]},"properties":{"code":"10008010031","name":"光華里","countyCode":"10008","countyName":"南投縣","townCode":"10008010","townName":"南投市","level":"village","unassigned":false,"note":"","label":[120.69672690714003,23.95648784768786],"bounds":[120.686206,23.947414,120.708821,23.965454],"focusBounds":[120.686206,23.947414,120.708821,23.965454],"color":"#58b99d"}},{"type":"Feature","id":"10008010032","geometry":{"type":"Polygon","coordinates":[[[120.713045,23.954913],[120.712858,23.954913],[120.712247,23.954168],[120.711929,23.95416],[120.711581,23.954468],[120.710669,23.954858],[120.710517,23.955104],[120.710392,23.956861],[120.709527,23.957617],[120.709201,23.958308],[120.708821,23.958526],[120.70654,23.955559],[120.700561,23.951764],[120.696892,23.950633],[120.695199,23.949763],[120.693402,23.948224],[120.692734,23.947414],[120.695504,23.94417],[120.695322,23.944033],[120.696202,23.9429],[120.69597,23.942767],[120.695982,23.942632],[120.69657,23.941862],[120.696767,23.942206],[120.696996,23.942287],[120.697276,23.942324],[120.697976,23.942066],[120.699066,23.943],[120.699871,23.943241],[120.700228,23.944005],[120.699666,23.944776],[120.699652,23.945058],[120.701015,23.945587],[120.70248,23.947208],[120.702929,23.947356],[120.704201,23.94692],[120.705339,23.946801],[120.706106,23.947143],[120.71094,23.951554],[120.712543,23.953803],[120.713045,23.954913]]]},"properties":{"code":"10008010032","name":"光榮里","countyCode":"10008","countyName":"南投縣","townCode":"10008010","townName":"南投市","level":"village","unassigned":false,"note":"","label":[120.7045785791172,23.95013593142761],"bounds":[120.692734,23.941862,120.713045,23.958526],"focusBounds":[120.692734,23.941862,120.713045,23.958526],"color":"#efb44f"}},{"type":"Feature","id":"10008010033","geometry":{"type":"Polygon","coordinates":[[[120.718656,23.953514],[120.716978,23.953517],[120.716203,23.953809],[120.715449,23.954494],[120.713979,23.954603],[120.713045,23.954913],[120.712543,23.953803],[120.71094,23.951554],[120.706106,23.947143],[120.705339,23.946801],[120.704201,23.94692],[120.702929,23.947356],[120.70248,23.947208],[120.701015,23.945587],[120.699652,23.945058],[120.699666,23.944776],[120.700228,23.944005],[120.699871,23.943241],[120.699066,23.943],[120.697976,23.942066],[120.697276,23.942324],[120.696996,23.942287],[120.696767,23.942206],[120.69657,23.941862],[120.696334,23.941808],[120.696079,23.942168],[120.695913,23.942181],[120.695736,23.941711],[120.695526,23.94168],[120.69545,23.940937],[120.696414,23.939553],[120.697089,23.939168],[120.696832,23.938741],[120.697038,23.938667],[120.699433,23.937886],[120.700943,23.937196],[120.700866,23.936647],[120.703181,23.935649],[120.703946,23.935053],[120.704385,23.935464],[120.706189,23.938737],[120.707641,23.940412],[120.70712,23.94096],[120.707171,23.941461],[120.708233,23.942826],[120.718656,23.953514]]]},"properties":{"code":"10008010033","name":"光明里","countyCode":"10008","countyName":"南投縣","townCode":"10008010","townName":"南投市","level":"village","unassigned":false,"note":"","label":[120.70404276975295,23.9431686890981],"bounds":[120.69545,23.935053,120.718656,23.954913],"focusBounds":[120.69545,23.935053,120.718656,23.954913],"color":"#78a7e3"}},{"type":"Feature","id":"10008010034","geometry":{"type":"Polygon","coordinates":[[[120.690401,23.960018],[120.690289,23.960259],[120.688398,23.959844],[120.687069,23.960459],[120.686988,23.961213],[120.685931,23.961217],[120.685729,23.960388],[120.685491,23.960353],[120.685392,23.960149],[120.684986,23.958615],[120.685318,23.957986],[120.684863,23.957749],[120.683464,23.957789],[120.683912,23.956885],[120.68368,23.95675],[120.683594,23.956206],[120.680917,23.955648],[120.680373,23.952426],[120.682476,23.953545],[120.68252,23.953895],[120.683612,23.954182],[120.684667,23.954762],[120.684386,23.955614],[120.686206,23.956733],[120.687728,23.957867],[120.688245,23.958528],[120.688284,23.958833],[120.688761,23.959091],[120.689053,23.959457],[120.689968,23.959949],[120.690401,23.960018]]]},"properties":{"code":"10008010034","name":"光輝里","countyCode":"10008","countyName":"南投縣","townCode":"10008010","townName":"南投市","level":"village","unassigned":false,"note":"","label":[120.68655558532576,23.958876469693216],"bounds":[120.680373,23.952426,120.690401,23.961217],"focusBounds":[120.680373,23.952426,120.690401,23.961217],"color":"#dd8590"}}]}
