{"type":"FeatureCollection","features":[{"type":"Feature","id":"10005110001","geometry":{"type":"Polygon","coordinates":[[[121.022868,24.611161],[121.021411,24.608974],[121.017814,24.606945],[121.016166,24.60634],[121.014715,24.606147],[121.013693,24.606056],[121.011255,24.606165],[121.007481,24.607014],[121.007066,24.607224],[121.006692,24.607909],[121.006153,24.609878],[121.006002,24.611544],[121.005253,24.613137],[121.004464,24.614053],[121.002666,24.614543],[121.002054,24.613356],[121.001529,24.610506],[121.000952,24.609131],[120.997958,24.605427],[120.99772,24.605273],[120.99583,24.605078],[120.99589,24.604615],[120.99653,24.603774],[120.997966,24.600948],[120.998129,24.600688],[120.998618,24.600485],[120.998864,24.597986],[120.999438,24.596967],[120.999601,24.596005],[121.000226,24.595994],[121.002524,24.596672],[121.003302,24.59668],[121.005789,24.597692],[121.008389,24.599785],[121.012264,24.600362],[121.012494,24.600257],[121.012999,24.59934],[121.013609,24.597136],[121.013936,24.596805],[121.015866,24.597486],[121.016458,24.597559],[121.017094,24.597422],[121.02111,24.595773],[121.022839,24.59552],[121.024163,24.597275],[121.025568,24.598643],[121.026209,24.599023],[121.027459,24.599117],[121.028566,24.599372],[121.028669,24.599861],[121.028567,24.600551],[121.028087,24.601119],[121.027638,24.603264],[121.026564,24.606288],[121.02562,24.607461],[121.024415,24.610708],[121.023933,24.611059],[121.022868,24.611161]]]},"properties":{"code":"10005110001","name":"東村","countyCode":"10005","countyName":"苗栗縣","townCode":"10005110","townName":"南庄鄉","level":"village","unassigned":false,"note":"","label":[121.01934024774896,24.602152748660473],"bounds":[120.99583,24.59552,121.028669,24.614543],"focusBounds":[120.99583,24.59552,121.028669,24.614543],"color":"#a49ad4"}},{"type":"Feature","id":"10005110002","geometry":{"type":"Polygon","coordinates":[[[120.99583,24.605078],[120.992991,24.604884],[120.991941,24.605011],[120.98861,24.607555],[120.987629,24.607528],[120.986011,24.606911],[120.983759,24.605819],[120.983269,24.603874],[120.982463,24.602678],[120.981861,24.602209],[120.98151,24.601588],[120.980945,24.598977],[120.980689,24.598289],[120.980043,24.597441],[120.979756,24.595899],[120.978783,24.59454],[120.978224,24.594152],[120.97822,24.593004],[120.977967,24.592095],[120.977921,24.589162],[120.977207,24.58787],[120.977185,24.58737],[120.976856,24.586708],[120.974721,24.583917],[120.974562,24.583257],[120.974306,24.582849],[120.97547,24.582499],[120.977048,24.582494],[120.977655,24.58263],[120.980136,24.581586],[120.982015,24.581672],[120.984145,24.582993],[120.986878,24.586296],[120.988008,24.587207],[120.991456,24.588367],[120.994982,24.590581],[120.995442,24.590593],[120.99615,24.590299],[120.996522,24.590287],[120.997575,24.590868],[120.998829,24.592716],[120.999601,24.596005],[120.999438,24.596967],[120.998864,24.597986],[120.998618,24.600485],[120.998129,24.600688],[120.997966,24.600948],[120.99653,24.603774],[120.99589,24.604615],[120.99583,24.605078]]]},"properties":{"code":"10005110002","name":"西村","countyCode":"10005","countyName":"苗栗縣","townCode":"10005110","townName":"南庄鄉","level":"village","unassigned":false,"note":"","label":[120.98746983173614,24.59482082787123],"bounds":[120.974306,24.581586,120.999601,24.607555],"focusBounds":[120.974306,24.581586,120.999601,24.607555],"color":"#a8bf62"}},{"type":"Feature","id":"10005110003","geometry":{"type":"Polygon","coordinates":[[[121.022839,24.59552],[121.02111,24.595773],[121.017094,24.597422],[121.016458,24.597559],[121.015866,24.597486],[121.013936,24.596805],[121.013609,24.597136],[121.012999,24.59934],[121.012494,24.600257],[121.012264,24.600362],[121.008389,24.599785],[121.005789,24.597692],[121.003302,24.59668],[121.002524,24.596672],[121.000226,24.595994],[120.999601,24.596005],[120.998829,24.592716],[120.997575,24.590868],[120.996522,24.590287],[120.99615,24.590299],[120.995442,24.590593],[120.994982,24.590581],[120.991456,24.588367],[120.988008,24.587207],[120.986878,24.586296],[120.984145,24.582993],[120.982015,24.581672],[120.980136,24.581586],[120.977655,24.58263],[120.977048,24.582494],[120.97547,24.582499],[120.974306,24.582849],[120.973354,24.581152],[120.972364,24.578165],[120.972049,24.577676],[120.971385,24.577242],[120.970613,24.576362],[120.970639,24.574587],[120.969778,24.572943],[120.969755,24.572215],[120.969362,24.571225],[120.969561,24.570364],[120.970044,24.56954],[120.970101,24.569129],[120.970799,24.568187],[120.97221,24.567525],[120.973836,24.567171],[120.977109,24.566819],[120.981526,24.56337],[120.981793,24.562902],[120.981943,24.561973],[120.98226,24.561277],[120.983442,24.560492],[120.984897,24.559845],[120.985606,24.559845],[120.986827,24.560176],[120.988786,24.559673],[120.989384,24.559688],[120.993878,24.560675],[120.994603,24.560768],[120.99521,24.560653],[120.995772,24.560038],[120.997554,24.556383],[121.000164,24.554961],[121.001606,24.55396],[121.003201,24.553164],[121.005764,24.550517],[121.009603,24.547928],[121.011395,24.54702],[121.012742,24.54661],[121.013565,24.546516],[121.01409,24.546931],[121.016958,24.548498],[121.019379,24.551231],[121.021172,24.552361],[121.021849,24.553043],[121.023823,24.556579],[121.024778,24.557997],[121.025008,24.559974],[121.026025,24.563136],[121.026723,24.566478],[121.02749,24.567791],[121.028855,24.569567],[121.029592,24.571017],[121.029751,24.571644],[121.029761,24.571917],[121.029363,24.572639],[121.029512,24.57343],[121.029304,24.57641],[121.028906,24.578396],[121.027732,24.582389],[121.026916,24.584235],[121.025243,24.587178],[121.022105,24.590898],[121.021469,24.592007],[121.02134,24.593011],[121.021738,24.593956],[121.022839,24.59552]]]},"properties":{"code":"10005110003","name":"南江村","countyCode":"10005","countyName":"苗栗縣","townCode":"10005110","townName":"南庄鄉","level":"village","unassigned":false,"note":"","label":[121.00759864063289,24.57421438983009],"bounds":[120.969362,24.546516,121.029761,24.600362],"focusBounds":[120.969362,24.546516,121.029761,24.600362],"color":"#68bec9"}},{"type":"Feature","id":"10005110004","geometry":{"type":"Polygon","coordinates":[[[121.004075,24.636393],[121.004329,24.63617],[121.004577,24.63521],[121.004355,24.634585],[121.003777,24.634179],[121.003491,24.63325],[121.003148,24.632953],[121.002907,24.633009],[121.001973,24.631602],[121.001225,24.629894],[120.997934,24.62578],[120.995392,24.621847],[120.995135,24.621238],[120.994094,24.615904],[120.993497,24.613926],[120.993168,24.613537],[120.992253,24.613618],[120.991587,24.613253],[120.988705,24.609553],[120.986011,24.606911],[120.987629,24.607528],[120.98861,24.607555],[120.991941,24.605011],[120.992991,24.604884],[120.99583,24.605078],[120.99772,24.605273],[120.997958,24.605427],[121.000952,24.609131],[121.001529,24.610506],[121.002054,24.613356],[121.002666,24.614543],[121.004464,24.614053],[121.005253,24.613137],[121.006002,24.611544],[121.006153,24.609878],[121.006692,24.607909],[121.007066,24.607224],[121.007481,24.607014],[121.011255,24.606165],[121.013693,24.606056],[121.014715,24.606147],[121.016166,24.60634],[121.017814,24.606945],[121.021411,24.608974],[121.022868,24.611161],[121.023147,24.61158],[121.023209,24.612203],[121.023774,24.612737],[121.023992,24.613352],[121.025969,24.614098],[121.02697,24.61494],[121.027487,24.615626],[121.021938,24.616991],[121.020867,24.617109],[121.01882,24.618226],[121.016137,24.619209],[121.014931,24.619375],[121.014161,24.619818],[121.013477,24.620824],[121.013434,24.623398],[121.012884,24.624516],[121.012713,24.625742],[121.011902,24.626824],[121.010905,24.627297],[121.010785,24.627601],[121.01044,24.627749],[121.009224,24.629178],[121.009645,24.631227],[121.010087,24.631943],[121.011044,24.632959],[121.011176,24.633876],[121.010755,24.635791],[121.009907,24.636221],[121.009304,24.636324],[121.004075,24.636393]]]},"properties":{"code":"10005110004","name":"田美村","countyCode":"10005","countyName":"苗栗縣","townCode":"10005110","townName":"南庄鄉","level":"village","unassigned":false,"note":"","label":[121.00599160665439,24.621138741102733],"bounds":[120.986011,24.604884,121.027487,24.636393],"focusBounds":[120.986011,24.604884,121.027487,24.636393],"color":"#df9f6a"}},{"type":"Feature","id":"10005110005","geometry":{"type":"Polygon","coordinates":[[[121.008186,24.644386],[121.0075,24.644475],[121.006782,24.644341],[121.006363,24.644111],[121.005807,24.643114],[121.005511,24.64212],[121.005062,24.641634],[121.0048,24.641577],[121.004279,24.641818],[121.003651,24.641854],[121.001,24.642838],[120.999767,24.642913],[120.998196,24.642264],[120.997608,24.641173],[120.996836,24.640454],[120.99649,24.640329],[120.994675,24.640436],[120.99445,24.640615],[120.994278,24.64111],[120.993806,24.641411],[120.992752,24.641119],[120.991176,24.642016],[120.990595,24.642123],[120.990218,24.641698],[120.989304,24.641605],[120.98882,24.64127],[120.988323,24.64021],[120.987932,24.639804],[120.987524,24.638335],[120.987322,24.63813],[120.990554,24.636965],[120.994191,24.636292],[120.996546,24.636148],[120.998318,24.636359],[120.999561,24.636135],[121.004075,24.636393],[121.009304,24.636324],[121.009907,24.636221],[121.010755,24.635791],[121.011176,24.633876],[121.011044,24.632959],[121.010087,24.631943],[121.009645,24.631227],[121.009224,24.629178],[121.01044,24.627749],[121.010785,24.627601],[121.010905,24.627297],[121.011902,24.626824],[121.012713,24.625742],[121.012884,24.624516],[121.013434,24.623398],[121.013477,24.620824],[121.014161,24.619818],[121.014931,24.619375],[121.016137,24.619209],[121.01882,24.618226],[121.020867,24.617109],[121.021938,24.616991],[121.027487,24.615626],[121.028548,24.617453],[121.030507,24.619258],[121.031156,24.620232],[121.033326,24.621552],[121.034457,24.622936],[121.037692,24.624191],[121.039158,24.625409],[121.040064,24.625874],[121.040838,24.626881],[121.040504,24.62702],[121.039059,24.629625],[121.037978,24.6295],[121.037284,24.629642],[121.034092,24.631732],[121.033215,24.632145],[121.032391,24.632231],[121.0315,24.632566],[121.030188,24.632462],[121.02938,24.63287],[121.028077,24.634275],[121.027161,24.634985],[121.026959,24.635368],[121.026233,24.6356],[121.025737,24.636177],[121.025652,24.636742],[121.025161,24.637816],[121.025982,24.640001],[121.025436,24.64121],[121.024424,24.641423],[121.023508,24.641818],[121.022784,24.641789],[121.021966,24.641471],[121.01848,24.640758],[121.016707,24.640624],[121.015777,24.640835],[121.014388,24.64085],[121.012572,24.642124],[121.012079,24.642308],[121.010602,24.643743],[121.008186,24.644386]]]},"properties":{"code":"10005110005","name":"獅山村","countyCode":"10005","countyName":"苗栗縣","townCode":"10005110","townName":"南庄鄉","level":"village","unassigned":false,"note":"","label":[121.02202552938904,24.626814373418114],"bounds":[120.987322,24.615626,121.040838,24.644475],"focusBounds":[120.987322,24.615626,121.040838,24.644475],"color":"#c38cb8"}},{"type":"Feature","id":"10005110006","geometry":{"type":"Polygon","coordinates":[[[120.98318,24.638737],[120.982286,24.638724],[120.981091,24.638425],[120.978294,24.638799],[120.975585,24.638838],[120.974454,24.639132],[120.973793,24.635797],[120.97277,24.635652],[120.972204,24.63531],[120.971951,24.634781],[120.972039,24.633512],[120.972391,24.633246],[120.974388,24.632486],[120.975401,24.630178],[120.977344,24.628715],[120.977575,24.627782],[120.977488,24.626934],[120.977136,24.626052],[120.97586,24.624806],[120.974952,24.624351],[120.974858,24.623688],[120.974413,24.623136],[120.97329,24.622535],[120.972954,24.621391],[120.973272,24.620601],[120.973869,24.620201],[120.974146,24.619379],[120.974816,24.619369],[120.975479,24.618695],[120.975764,24.618687],[120.97616,24.618918],[120.976524,24.619352],[120.977802,24.619509],[120.979398,24.620781],[120.979998,24.620763],[120.980402,24.620445],[120.9807,24.619184],[120.981493,24.618155],[120.980212,24.617586],[120.98007,24.617228],[120.980844,24.61622],[120.981472,24.614091],[120.982725,24.61283],[120.983147,24.612126],[120.983126,24.611136],[120.983554,24.610133],[120.983633,24.608525],[120.983889,24.607262],[120.983759,24.605819],[120.986011,24.606911],[120.988705,24.609553],[120.991587,24.613253],[120.992253,24.613618],[120.993168,24.613537],[120.993497,24.613926],[120.994094,24.615904],[120.995135,24.621238],[120.995392,24.621847],[120.997934,24.62578],[121.001225,24.629894],[121.001973,24.631602],[121.002907,24.633009],[121.003148,24.632953],[121.003491,24.63325],[121.003777,24.634179],[121.004355,24.634585],[121.004577,24.63521],[121.004329,24.63617],[121.004075,24.636393],[120.999561,24.636135],[120.998318,24.636359],[120.996546,24.636148],[120.994191,24.636292],[120.990554,24.636965],[120.987322,24.63813],[120.987046,24.637909],[120.986398,24.637845],[120.98318,24.638737]]]},"properties":{"code":"10005110006","name":"南富村","countyCode":"10005","countyName":"苗栗縣","townCode":"10005110","townName":"南庄鄉","level":"village","unassigned":false,"note":"","label":[120.98717861241381,24.627484635767786],"bounds":[120.971951,24.605819,121.004577,24.639132],"focusBounds":[120.971951,24.605819,121.004577,24.639132],"color":"#98b69b"}},{"type":"Feature","id":"10005110007","geometry":{"type":"Polygon","coordinates":[[[120.974454,24.639132],[120.972242,24.639406],[120.971519,24.640124],[120.971114,24.64033],[120.966961,24.641147],[120.965119,24.641938],[120.963158,24.641888],[120.961895,24.642139],[120.95995,24.643106],[120.958294,24.644217],[120.957441,24.644579],[120.954755,24.646474],[120.950982,24.646339],[120.948689,24.646603],[120.948298,24.646541],[120.948362,24.646149],[120.949696,24.644602],[120.949839,24.643694],[120.950311,24.643209],[120.950201,24.642775],[120.950817,24.641519],[120.950567,24.64135],[120.950604,24.640953],[120.950849,24.640712],[120.951677,24.640421],[120.951734,24.639743],[120.952039,24.639334],[120.95239,24.639136],[120.953654,24.639041],[120.954107,24.638818],[120.954843,24.639023],[120.954739,24.638446],[120.954901,24.638011],[120.95588,24.637808],[120.956273,24.637564],[120.95644,24.637154],[120.956288,24.636024],[120.95657,24.634937],[120.956366,24.634274],[120.956487,24.633819],[120.955526,24.632988],[120.955055,24.631376],[120.955194,24.631165],[120.956382,24.630616],[120.956236,24.629634],[120.957498,24.629268],[120.958548,24.629463],[120.958745,24.628569],[120.958946,24.627898],[120.959285,24.627666],[120.959393,24.627365],[120.959301,24.62568],[120.958314,24.624977],[120.958304,24.624391],[120.957772,24.623599],[120.957825,24.623373],[120.958277,24.623093],[120.958673,24.621715],[120.958722,24.62046],[120.959072,24.620041],[120.959118,24.619654],[120.958992,24.619354],[120.957891,24.618346],[120.957353,24.618124],[120.957227,24.617933],[120.957033,24.617492],[120.957503,24.616844],[120.958264,24.617224],[120.959586,24.616622],[120.960943,24.616861],[120.961523,24.617485],[120.962578,24.618129],[120.963379,24.618915],[120.963931,24.619176],[120.964015,24.619348],[120.963769,24.619677],[120.964523,24.62135],[120.965734,24.62188],[120.966207,24.621951],[120.96671,24.622666],[120.967804,24.623093],[120.968742,24.623185],[120.969746,24.622611],[120.970848,24.622601],[120.971452,24.622123],[120.971744,24.621589],[120.97289,24.621497],[120.972954,24.621391],[120.97329,24.622535],[120.974413,24.623136],[120.974858,24.623688],[120.974952,24.624351],[120.97586,24.624806],[120.977136,24.626052],[120.977488,24.626934],[120.977575,24.627782],[120.977344,24.628715],[120.975401,24.630178],[120.974388,24.632486],[120.972391,24.633246],[120.972039,24.633512],[120.971951,24.634781],[120.972204,24.63531],[120.97277,24.635652],[120.973793,24.635797],[120.974454,24.639132]]]},"properties":{"code":"10005110007","name":"員林村","countyCode":"10005","countyName":"苗栗縣","townCode":"10005110","townName":"南庄鄉","level":"village","unassigned":false,"note":"","label":[120.96488392485627,24.633050584753263],"bounds":[120.948298,24.616622,120.977575,24.646603],"focusBounds":[120.948298,24.616622,120.977575,24.646603],"color":"#78a7e3"}},{"type":"Feature","id":"10005110008","geometry":{"type":"Polygon","coordinates":[[[121.013565,24.546516],[121.012742,24.54661],[121.011395,24.54702],[121.009603,24.547928],[121.005764,24.550517],[121.003201,24.553164],[121.001606,24.55396],[121.000164,24.554961],[120.997554,24.556383],[120.995772,24.560038],[120.99521,24.560653],[120.994603,24.560768],[120.993878,24.560675],[120.989384,24.559688],[120.988786,24.559673],[120.986827,24.560176],[120.985606,24.559845],[120.984897,24.559845],[120.983442,24.560492],[120.98226,24.561277],[120.981943,24.561973],[120.981793,24.562902],[120.981526,24.56337],[120.977109,24.566819],[120.973836,24.567171],[120.97221,24.567525],[120.970799,24.568187],[120.970101,24.569129],[120.969072,24.568036],[120.968613,24.56704],[120.966738,24.565314],[120.964781,24.56202],[120.963885,24.561372],[120.962928,24.560948],[120.962561,24.559973],[120.962429,24.558917],[120.96035,24.556696],[120.959452,24.554599],[120.959435,24.553639],[120.959177,24.552998],[120.95879,24.552677],[120.957542,24.55225],[120.956333,24.551372],[120.955927,24.54913],[120.95599,24.548236],[120.955768,24.54603],[120.955849,24.544493],[120.95444,24.543367],[120.953719,24.542511],[120.953687,24.542009],[120.954281,24.541011],[120.955509,24.539856],[120.955268,24.538599],[120.954736,24.537447],[120.95394,24.536555],[120.953665,24.535957],[120.953232,24.534121],[120.953223,24.533298],[120.952451,24.533081],[120.951764,24.532505],[120.951779,24.530902],[120.95122,24.530196],[120.950715,24.529863],[120.949255,24.529624],[120.948985,24.529195],[120.949091,24.528391],[120.949536,24.527555],[120.95048,24.527438],[120.951571,24.526621],[120.951699,24.526331],[120.951614,24.526097],[120.950965,24.525436],[120.951216,24.524556],[120.952759,24.523901],[120.953281,24.523468],[120.954443,24.523236],[120.954322,24.522868],[120.954637,24.521411],[120.954238,24.519578],[120.95427,24.518901],[120.953386,24.517648],[120.9531,24.516788],[120.95377,24.516792],[120.95425,24.517043],[120.954553,24.516919],[120.955526,24.515932],[120.956531,24.513993],[120.957502,24.512836],[120.957821,24.512691],[120.9588,24.51268],[120.959151,24.512519],[120.96062,24.510794],[120.963707,24.508326],[120.965636,24.506556],[120.96758,24.506114],[120.969045,24.505425],[120.970865,24.505034],[120.973319,24.503762],[120.976845,24.502514],[120.979289,24.501849],[120.98126,24.501843],[120.983866,24.502428],[120.988081,24.502387],[120.989385,24.502105],[120.991219,24.500951],[120.993944,24.501286],[120.995245,24.501609],[120.996168,24.502004],[120.998431,24.501656],[120.999453,24.50235],[121.002173,24.50567],[121.003748,24.506307],[121.005662,24.50771],[121.006496,24.508808],[121.005945,24.511351],[121.005229,24.51237],[121.004925,24.513512],[121.005212,24.514647],[121.005785,24.515757],[121.006119,24.51682],[121.006042,24.519576],[121.007077,24.524683],[121.007141,24.52576],[121.006721,24.52977],[121.00719,24.531311],[121.008584,24.533845],[121.009332,24.536154],[121.01011,24.537886],[121.010055,24.539569],[121.010284,24.541646],[121.011551,24.544262],[121.013565,24.546516]]]},"properties":{"code":"10005110008","name":"蓬萊村","countyCode":"10005","countyName":"苗栗縣","townCode":"10005110","townName":"南庄鄉","level":"village","unassigned":false,"note":"","label":[120.98111478581487,24.53276710093198],"bounds":[120.948985,24.500951,121.013565,24.569129],"focusBounds":[120.948985,24.500951,121.013565,24.569129],"color":"#efb44f"}},{"type":"Feature","id":"10005110009","geometry":{"type":"Polygon","coordinates":[[[121.04314,24.62725],[121.040838,24.626881],[121.040064,24.625874],[121.039158,24.625409],[121.037692,24.624191],[121.034457,24.622936],[121.033326,24.621552],[121.031156,24.620232],[121.030507,24.619258],[121.028548,24.617453],[121.027487,24.615626],[121.02697,24.61494],[121.025969,24.614098],[121.023992,24.613352],[121.023774,24.612737],[121.023209,24.612203],[121.023147,24.61158],[121.022868,24.611161],[121.023933,24.611059],[121.024415,24.610708],[121.02562,24.607461],[121.026564,24.606288],[121.027638,24.603264],[121.028087,24.601119],[121.028567,24.600551],[121.028669,24.599861],[121.028566,24.599372],[121.027459,24.599117],[121.026209,24.599023],[121.025568,24.598643],[121.024163,24.597275],[121.022839,24.59552],[121.021738,24.593956],[121.02134,24.593011],[121.021469,24.592007],[121.022105,24.590898],[121.025243,24.587178],[121.026916,24.584235],[121.027732,24.582389],[121.028906,24.578396],[121.029304,24.57641],[121.029512,24.57343],[121.029363,24.572639],[121.029761,24.571917],[121.029751,24.571644],[121.029592,24.571017],[121.028855,24.569567],[121.02749,24.567791],[121.026723,24.566478],[121.026025,24.563136],[121.025008,24.559974],[121.024778,24.557997],[121.023823,24.556579],[121.021849,24.553043],[121.021172,24.552361],[121.019379,24.551231],[121.016958,24.548498],[121.01409,24.546931],[121.013565,24.546516],[121.011551,24.544262],[121.010284,24.541646],[121.010055,24.539569],[121.01011,24.537886],[121.009332,24.536154],[121.008584,24.533845],[121.00719,24.531311],[121.006721,24.52977],[121.007141,24.52576],[121.007077,24.524683],[121.006042,24.519576],[121.006119,24.51682],[121.005785,24.515757],[121.005212,24.514647],[121.004925,24.513512],[121.005229,24.51237],[121.005945,24.511351],[121.006496,24.508808],[121.008057,24.509311],[121.009517,24.510247],[121.010816,24.51019],[121.012267,24.510787],[121.013848,24.509752],[121.015746,24.509555],[121.01717,24.50827],[121.018531,24.508024],[121.020524,24.506996],[121.020891,24.506545],[121.02133,24.505243],[121.021455,24.50252],[121.022942,24.50229],[121.023617,24.501917],[121.024583,24.50086],[121.025335,24.499394],[121.025908,24.498846],[121.025487,24.497169],[121.025629,24.495313],[121.025944,24.494054],[121.026679,24.492754],[121.026994,24.492624],[121.028673,24.492393],[121.02945,24.49279],[121.030167,24.49279],[121.031232,24.492472],[121.031886,24.491903],[121.032382,24.491809],[121.033885,24.492718],[121.034973,24.492725],[121.035825,24.493251],[121.038828,24.493394],[121.039376,24.493746],[121.040117,24.494827],[121.040512,24.494971],[121.041714,24.495134],[121.043544,24.494935],[121.045699,24.495052],[121.047804,24.4967],[121.049845,24.496645],[121.050383,24.496851],[121.051125,24.497404],[121.052811,24.497127],[121.053778,24.496546],[121.055185,24.496742],[121.057286,24.498045],[121.057342,24.498939],[121.058194,24.500388],[121.058929,24.500068],[121.05983,24.498631],[121.061252,24.497138],[121.061655,24.496913],[121.064069,24.496399],[121.064953,24.496398],[121.066243,24.495264],[121.066782,24.49509],[121.067355,24.495276],[121.067937,24.49581],[121.068742,24.496245],[121.070282,24.496976],[121.071888,24.498381],[121.071933,24.499135],[121.07165,24.500178],[121.072144,24.501448],[121.072113,24.503371],[121.071002,24.504404],[121.070323,24.50608],[121.068426,24.506741],[121.068104,24.507002],[121.069201,24.508657],[121.069317,24.509332],[121.068554,24.51245],[121.068487,24.516586],[121.067659,24.519066],[121.066944,24.52007],[121.066689,24.520778],[121.06693,24.522549],[121.067027,24.522982],[121.072178,24.526353],[121.073111,24.526586],[121.073662,24.527013],[121.074784,24.527286],[121.075593,24.527767],[121.077435,24.528208],[121.078303,24.528902],[121.078534,24.530127],[121.078462,24.531404],[121.07867,24.532505],[121.077964,24.533687],[121.077803,24.534237],[121.079159,24.535875],[121.079531,24.537021],[121.080045,24.537692],[121.080022,24.538693],[121.080288,24.539378],[121.080541,24.540961],[121.080243,24.541444],[121.079043,24.542307],[121.076232,24.543796],[121.074252,24.547141],[121.074519,24.548331],[121.073466,24.54942],[121.072952,24.549711],[121.070979,24.55016],[121.069992,24.550582],[121.066409,24.553265],[121.065339,24.553742],[121.064066,24.554559],[121.063023,24.55489],[121.062191,24.556154],[121.061407,24.556466],[121.059213,24.556974],[121.058627,24.557399],[121.058205,24.55791],[121.058426,24.560634],[121.059281,24.560572],[121.061404,24.560002],[121.061772,24.559521],[121.062435,24.557583],[121.062536,24.55742],[121.062734,24.557456],[121.067977,24.562129],[121.06874,24.562601],[121.069961,24.562976],[121.070591,24.563357],[121.070754,24.564682],[121.071583,24.566321],[121.072006,24.567894],[121.072408,24.569935],[121.072678,24.572583],[121.074346,24.57546],[121.07473,24.576725],[121.075158,24.578849],[121.07526,24.580667],[121.075463,24.581031],[121.077486,24.582408],[121.078743,24.583754],[121.078956,24.584244],[121.079504,24.588099],[121.079654,24.588227],[121.081049,24.588462],[121.082193,24.589016],[121.083034,24.589759],[121.082986,24.59056],[121.082532,24.593052],[121.082804,24.594829],[121.082334,24.595696],[121.082222,24.596813],[121.081911,24.597689],[121.081841,24.598414],[121.081463,24.5992],[121.081278,24.60057],[121.080774,24.601066],[121.080032,24.601496],[121.077925,24.602279],[121.07649,24.602988],[121.075684,24.603703],[121.07537,24.604449],[121.075266,24.60585],[121.0754,24.606723],[121.076041,24.608377],[121.076083,24.609067],[121.075645,24.610079],[121.075325,24.611623],[121.074929,24.612303],[121.073973,24.613088],[121.072871,24.613587],[121.071529,24.613964],[121.069834,24.614232],[121.067849,24.615055],[121.066928,24.616149],[121.066533,24.617196],[121.065903,24.618247],[121.064756,24.619449],[121.063886,24.61956],[121.062784,24.621024],[121.062603,24.621707],[121.062338,24.621828],[121.061422,24.62173],[121.060303,24.6208],[121.05951,24.620583],[121.058454,24.619955],[121.056844,24.618282],[121.055354,24.617889],[121.054752,24.61665],[121.053321,24.615451],[121.05154,24.615158],[121.051882,24.616335],[121.051688,24.617356],[121.051239,24.617846],[121.050306,24.618441],[121.049402,24.618592],[121.049028,24.619169],[121.048257,24.619833],[121.046929,24.621841],[121.046442,24.622347],[121.046457,24.623009],[121.045926,24.624092],[121.0456,24.624499],[121.044656,24.624939],[121.044267,24.625645],[121.044075,24.626416],[121.04314,24.62725]]]},"properties":{"code":"10005110009","name":"東河村","countyCode":"10005","countyName":"苗栗縣","townCode":"10005110","townName":"南庄鄉","level":"village","unassigned":false,"note":"","label":[121.04215612161524,24.534325315392493],"bounds":[121.004925,24.491809,121.083034,24.62725],"focusBounds":[121.004925,24.491809,121.083034,24.62725],"color":"#78a7e3"}}]}
