{"type":"FeatureCollection","features":[{"type":"Feature","id":"10005160001","geometry":{"type":"Polygon","coordinates":[[[120.97258,24.655353],[120.973047,24.656028],[120.97252,24.657452],[120.970758,24.658375],[120.971152,24.659114],[120.971042,24.659258],[120.970195,24.65922],[120.9712,24.660115],[120.971441,24.660144],[120.972377,24.659673],[120.972871,24.65988],[120.971756,24.661207],[120.97122,24.66162],[120.970805,24.661634],[120.970579,24.661922],[120.97071,24.662272],[120.971446,24.661932],[120.972318,24.661884],[120.97254,24.662952],[120.971925,24.663423],[120.971665,24.664096],[120.970993,24.664163],[120.969888,24.663741],[120.96956,24.663767],[120.968897,24.663484],[120.968505,24.663078],[120.968084,24.662913],[120.967634,24.662946],[120.967397,24.66307],[120.967511,24.663564],[120.967865,24.663978],[120.967738,24.664842],[120.968041,24.665046],[120.968385,24.665699],[120.968187,24.666075],[120.966467,24.66656],[120.9656,24.666521],[120.965525,24.666042],[120.964225,24.662974],[120.964018,24.661971],[120.963004,24.662488],[120.961789,24.661976],[120.960443,24.661721],[120.958076,24.662138],[120.95742,24.662132],[120.956326,24.660811],[120.955629,24.660207],[120.955184,24.659087],[120.955316,24.657739],[120.954905,24.657037],[120.952075,24.655524],[120.951014,24.655379],[120.950258,24.655718],[120.949993,24.655663],[120.949774,24.655348],[120.949542,24.654344],[120.949887,24.653078],[120.950704,24.65155],[120.951116,24.650348],[120.950969,24.649323],[120.951184,24.648906],[120.95248,24.647827],[120.954398,24.646763],[120.955452,24.646802],[120.956692,24.646616],[120.95823,24.647342],[120.959227,24.648195],[120.959402,24.649937],[120.959811,24.6502],[120.960131,24.650013],[120.961296,24.648268],[120.962065,24.647697],[120.963308,24.647477],[120.964348,24.648278],[120.964652,24.648336],[120.96542,24.648211],[120.966364,24.64779],[120.967839,24.647712],[120.969029,24.64675],[120.9693,24.647382],[120.969449,24.649211],[120.970275,24.651017],[120.971002,24.65145],[120.971804,24.653081],[120.971969,24.654585],[120.97258,24.655353]]]},"properties":{"code":"10005160001","name":"三灣村","countyCode":"10005","countyName":"苗栗縣","townCode":"10005160","townName":"三灣鄉","level":"village","unassigned":false,"note":"","label":[120.96435017742293,24.655102885308516],"bounds":[120.949542,24.646616,120.973047,24.66656],"focusBounds":[120.949542,24.646616,120.973047,24.66656],"color":"#68bec9"}},{"type":"Feature","id":"10005160002","geometry":{"type":"Polygon","coordinates":[[[120.965602,24.674941],[120.96536,24.675049],[120.965125,24.675931],[120.964863,24.676311],[120.963669,24.67705],[120.96284,24.677243],[120.962505,24.677717],[120.961285,24.678468],[120.960183,24.678861],[120.959522,24.678934],[120.958699,24.679373],[120.958067,24.67897],[120.957248,24.678167],[120.956554,24.677891],[120.954473,24.678146],[120.952197,24.678961],[120.951233,24.679099],[120.950554,24.678925],[120.949295,24.675382],[120.947451,24.673237],[120.946634,24.672005],[120.945086,24.671723],[120.943311,24.671096],[120.943051,24.670749],[120.943357,24.669644],[120.944722,24.66946],[120.945014,24.668731],[120.945643,24.668735],[120.944708,24.668175],[120.944367,24.66728],[120.94303,24.667175],[120.942712,24.667011],[120.944159,24.666276],[120.944736,24.666218],[120.944789,24.666092],[120.943917,24.665399],[120.942516,24.66504],[120.942417,24.663993],[120.941862,24.663743],[120.94106,24.661683],[120.940877,24.660711],[120.941102,24.659912],[120.941017,24.658909],[120.939999,24.657626],[120.939623,24.657503],[120.937338,24.657528],[120.937891,24.657151],[120.939342,24.656838],[120.939672,24.656472],[120.940325,24.656121],[120.940301,24.655955],[120.938753,24.65443],[120.939183,24.65359],[120.938709,24.653104],[120.938554,24.652507],[120.936638,24.651318],[120.936774,24.650212],[120.936229,24.649329],[120.935893,24.649087],[120.935221,24.648991],[120.934646,24.649139],[120.93394,24.64956],[120.933221,24.648471],[120.933188,24.648305],[120.933528,24.64806],[120.93357,24.647805],[120.933341,24.647308],[120.932794,24.646859],[120.932735,24.64663],[120.933814,24.646097],[120.93409,24.645587],[120.933949,24.645107],[120.933226,24.64467],[120.933382,24.643655],[120.934019,24.643097],[120.934085,24.642283],[120.934682,24.642384],[120.935113,24.6423],[120.936297,24.643689],[120.937295,24.643918],[120.937421,24.644718],[120.93766,24.644952],[120.938514,24.645092],[120.93924,24.644857],[120.939741,24.644999],[120.940392,24.644731],[120.941209,24.644904],[120.941321,24.646327],[120.942053,24.648324],[120.942897,24.649805],[120.944225,24.650712],[120.944879,24.653086],[120.946651,24.655155],[120.947949,24.656255],[120.950562,24.657992],[120.951447,24.65805],[120.952887,24.659373],[120.953652,24.659387],[120.955184,24.659087],[120.955629,24.660207],[120.956326,24.660811],[120.95742,24.662132],[120.958076,24.662138],[120.960443,24.661721],[120.961789,24.661976],[120.963004,24.662488],[120.963402,24.663037],[120.963515,24.663573],[120.963123,24.664441],[120.962659,24.666488],[120.961622,24.668333],[120.961469,24.668935],[120.962603,24.670957],[120.9646,24.673414],[120.96543,24.674167],[120.965602,24.674941]]]},"properties":{"code":"10005160002","name":"內灣村","countyCode":"10005","countyName":"苗栗縣","townCode":"10005160","townName":"三灣鄉","level":"village","unassigned":false,"note":"","label":[120.95313745664028,24.668253869998235],"bounds":[120.932735,24.642283,120.965602,24.679373],"focusBounds":[120.932735,24.642283,120.965602,24.679373],"color":"#df9f6a"}},{"type":"Feature","id":"10005160003","geometry":{"type":"Polygon","coordinates":[[[120.977017,24.673647],[120.976318,24.673728],[120.975699,24.674],[120.974287,24.673916],[120.973843,24.673704],[120.972402,24.673519],[120.972171,24.673238],[120.971638,24.672987],[120.971058,24.673238],[120.969835,24.67424],[120.968723,24.674771],[120.968381,24.675273],[120.967744,24.675059],[120.965602,24.674941],[120.96543,24.674167],[120.9646,24.673414],[120.962603,24.670957],[120.961469,24.668935],[120.961622,24.668333],[120.962659,24.666488],[120.963123,24.664441],[120.963515,24.663573],[120.963402,24.663037],[120.963004,24.662488],[120.964018,24.661971],[120.964225,24.662974],[120.965525,24.666042],[120.9656,24.666521],[120.966467,24.66656],[120.968187,24.666075],[120.968385,24.665699],[120.968041,24.665046],[120.967738,24.664842],[120.967865,24.663978],[120.967511,24.663564],[120.967397,24.66307],[120.967634,24.662946],[120.968084,24.662913],[120.968505,24.663078],[120.968897,24.663484],[120.96956,24.663767],[120.969888,24.663741],[120.970993,24.664163],[120.971665,24.664096],[120.971925,24.663423],[120.97254,24.662952],[120.972318,24.661884],[120.971446,24.661932],[120.97071,24.662272],[120.970579,24.661922],[120.970805,24.661634],[120.97122,24.66162],[120.971756,24.661207],[120.972871,24.65988],[120.972377,24.659673],[120.971441,24.660144],[120.9712,24.660115],[120.970195,24.65922],[120.971042,24.659258],[120.971152,24.659114],[120.970758,24.658375],[120.97252,24.657452],[120.973047,24.656028],[120.97258,24.655353],[120.9732,24.654441],[120.973989,24.654024],[120.974178,24.654052],[120.974257,24.654268],[120.974047,24.654994],[120.974672,24.655642],[120.975888,24.655532],[120.976382,24.655753],[120.977118,24.654366],[120.977539,24.654298],[120.977565,24.654644],[120.976924,24.655821],[120.977408,24.655941],[120.977571,24.655504],[120.977881,24.655514],[120.977935,24.65589],[120.977677,24.656365],[120.978449,24.656749],[120.978378,24.656323],[120.97904,24.656213],[120.979172,24.655561],[120.979734,24.655122],[120.980034,24.655954],[120.980249,24.656059],[120.982024,24.655205],[120.982421,24.655235],[120.982473,24.656194],[120.983769,24.655715],[120.984081,24.655352],[120.984569,24.655285],[120.984909,24.654907],[120.98547,24.655128],[120.986025,24.654906],[120.986947,24.654979],[120.987147,24.654841],[120.987217,24.654422],[120.98745,24.654331],[120.988087,24.655359],[120.989542,24.656159],[120.991375,24.658189],[120.992266,24.658692],[120.992707,24.6595],[120.991562,24.659591],[120.990694,24.660331],[120.990485,24.660709],[120.990646,24.664789],[120.990111,24.664759],[120.989785,24.663837],[120.989378,24.663215],[120.989084,24.663032],[120.987908,24.663195],[120.986773,24.663766],[120.985891,24.664778],[120.985648,24.666142],[120.985323,24.666743],[120.985039,24.666915],[120.983613,24.667022],[120.98319,24.667194],[120.983197,24.669811],[120.982532,24.67051],[120.98173,24.671021],[120.981755,24.671783],[120.980884,24.672367],[120.979907,24.673416],[120.979313,24.673716],[120.977759,24.673986],[120.977017,24.673647]]]},"properties":{"code":"10005160003","name":"銅鏡村","countyCode":"10005","countyName":"苗栗縣","townCode":"10005160","townName":"三灣鄉","level":"village","unassigned":false,"note":"","label":[120.9769379213141,24.666869974785023],"bounds":[120.961469,24.654024,120.992707,24.675273],"focusBounds":[120.961469,24.654024,120.992707,24.675273],"color":"#c38cb8"}},{"type":"Feature","id":"10005160004","geometry":{"type":"Polygon","coordinates":[[[121.01028,24.656207],[121.008961,24.655926],[121.006974,24.655758],[121.005997,24.655259],[121.005042,24.655821],[121.004469,24.656403],[121.004015,24.656382],[121.003178,24.656184],[121.002208,24.655539],[121.001654,24.655541],[121.001127,24.655133],[121.000291,24.654766],[120.999217,24.654843],[120.998436,24.654636],[120.997756,24.654799],[120.997242,24.654613],[120.996096,24.655487],[120.995823,24.656893],[120.995513,24.657245],[120.996005,24.657678],[120.996142,24.658015],[120.995329,24.659057],[120.994507,24.659582],[120.992707,24.6595],[120.992266,24.658692],[120.991375,24.658189],[120.989542,24.656159],[120.988087,24.655359],[120.98745,24.654331],[120.987217,24.654422],[120.987147,24.654841],[120.986947,24.654979],[120.986025,24.654906],[120.98547,24.655128],[120.984909,24.654907],[120.984569,24.655285],[120.984081,24.655352],[120.983769,24.655715],[120.982473,24.656194],[120.982421,24.655235],[120.982024,24.655205],[120.980249,24.656059],[120.980034,24.655954],[120.979734,24.655122],[120.982025,24.652066],[120.982854,24.650199],[120.984253,24.648952],[120.984484,24.648304],[120.984366,24.646993],[120.984461,24.646585],[120.984603,24.646121],[120.985171,24.645309],[120.985129,24.645111],[120.983879,24.644223],[120.983357,24.643257],[120.982771,24.642897],[120.982057,24.641955],[120.98231,24.640933],[120.982248,24.64027],[120.982666,24.639629],[120.983165,24.639258],[120.98318,24.638737],[120.986398,24.637845],[120.987046,24.637909],[120.987322,24.63813],[120.987524,24.638335],[120.987932,24.639804],[120.988323,24.64021],[120.98882,24.64127],[120.989304,24.641605],[120.990218,24.641698],[120.990595,24.642123],[120.991176,24.642016],[120.992752,24.641119],[120.993806,24.641411],[120.994278,24.64111],[120.99445,24.640615],[120.994675,24.640436],[120.99649,24.640329],[120.996836,24.640454],[120.997608,24.641173],[120.998196,24.642264],[120.999767,24.642913],[121.001,24.642838],[121.003651,24.641854],[121.004279,24.641818],[121.0048,24.641577],[121.005062,24.641634],[121.005511,24.64212],[121.005807,24.643114],[121.006363,24.644111],[121.006782,24.644341],[121.0075,24.644475],[121.008186,24.644386],[121.008322,24.645654],[121.008959,24.647568],[121.008102,24.65044],[121.008329,24.65104],[121.008756,24.651568],[121.009762,24.651614],[121.01068,24.652332],[121.01067,24.653513],[121.010888,24.654504],[121.01028,24.656207]]]},"properties":{"code":"10005160004","name":"頂寮村","countyCode":"10005","countyName":"苗栗縣","townCode":"10005160","townName":"三灣鄉","level":"village","unassigned":false,"note":"","label":[120.99491221010928,24.648456440115872],"bounds":[120.979734,24.637845,121.010888,24.659582],"focusBounds":[120.979734,24.637845,121.010888,24.659582],"color":"#efb44f"}},{"type":"Feature","id":"10005160005","geometry":{"type":"Polygon","coordinates":[[[120.955184,24.659087],[120.953652,24.659387],[120.952887,24.659373],[120.951447,24.65805],[120.950562,24.657992],[120.947949,24.656255],[120.946651,24.655155],[120.944879,24.653086],[120.944225,24.650712],[120.942897,24.649805],[120.942053,24.648324],[120.941321,24.646327],[120.941209,24.644904],[120.941837,24.644726],[120.943486,24.643865],[120.94475,24.64472],[120.945068,24.644759],[120.945264,24.644629],[120.945438,24.642577],[120.946556,24.640843],[120.946615,24.64016],[120.946314,24.639451],[120.946369,24.638962],[120.946843,24.63838],[120.948186,24.637545],[120.950063,24.634387],[120.950055,24.633796],[120.949888,24.633502],[120.949143,24.632533],[120.948302,24.631989],[120.948063,24.631538],[120.94814,24.631116],[120.948504,24.630596],[120.949491,24.629987],[120.949664,24.629796],[120.950004,24.628526],[120.950351,24.628137],[120.950999,24.62777],[120.952898,24.627153],[120.953747,24.626302],[120.954668,24.625643],[120.956121,24.625216],[120.956346,24.625269],[120.956435,24.625717],[120.957255,24.626743],[120.957439,24.627615],[120.958745,24.628569],[120.958548,24.629463],[120.957498,24.629268],[120.956236,24.629634],[120.956382,24.630616],[120.955194,24.631165],[120.955055,24.631376],[120.955526,24.632988],[120.956487,24.633819],[120.956366,24.634274],[120.95657,24.634937],[120.956288,24.636024],[120.95644,24.637154],[120.956273,24.637564],[120.95588,24.637808],[120.954901,24.638011],[120.954739,24.638446],[120.954843,24.639023],[120.954107,24.638818],[120.953654,24.639041],[120.95239,24.639136],[120.952039,24.639334],[120.951734,24.639743],[120.951677,24.640421],[120.950849,24.640712],[120.950604,24.640953],[120.950567,24.64135],[120.950817,24.641519],[120.950201,24.642775],[120.950311,24.643209],[120.949839,24.643694],[120.949696,24.644602],[120.948362,24.646149],[120.948298,24.646541],[120.948689,24.646603],[120.950982,24.646339],[120.954755,24.646474],[120.957441,24.644579],[120.958294,24.644217],[120.95995,24.643106],[120.961895,24.642139],[120.963158,24.641888],[120.965119,24.641938],[120.966961,24.641147],[120.971114,24.64033],[120.971519,24.640124],[120.972242,24.639406],[120.974454,24.639132],[120.975585,24.638838],[120.978294,24.638799],[120.981091,24.638425],[120.982286,24.638724],[120.98318,24.638737],[120.983165,24.639258],[120.982666,24.639629],[120.982248,24.64027],[120.98231,24.640933],[120.982057,24.641955],[120.982771,24.642897],[120.983357,24.643257],[120.983879,24.644223],[120.985129,24.645111],[120.985171,24.645309],[120.984603,24.646121],[120.984461,24.646585],[120.984366,24.646993],[120.984484,24.648304],[120.984253,24.648952],[120.982854,24.650199],[120.982025,24.652066],[120.979734,24.655122],[120.979172,24.655561],[120.97904,24.656213],[120.978378,24.656323],[120.978449,24.656749],[120.977677,24.656365],[120.977935,24.65589],[120.977881,24.655514],[120.977571,24.655504],[120.977408,24.655941],[120.976924,24.655821],[120.977565,24.654644],[120.977539,24.654298],[120.977118,24.654366],[120.976382,24.655753],[120.975888,24.655532],[120.974672,24.655642],[120.974047,24.654994],[120.974257,24.654268],[120.974178,24.654052],[120.973989,24.654024],[120.9732,24.654441],[120.97258,24.655353],[120.971969,24.654585],[120.971804,24.653081],[120.971002,24.65145],[120.970275,24.651017],[120.969449,24.649211],[120.9693,24.647382],[120.969029,24.64675],[120.967839,24.647712],[120.966364,24.64779],[120.96542,24.648211],[120.964652,24.648336],[120.964348,24.648278],[120.963308,24.647477],[120.962065,24.647697],[120.961296,24.648268],[120.960131,24.650013],[120.959811,24.6502],[120.959402,24.649937],[120.959227,24.648195],[120.95823,24.647342],[120.956692,24.646616],[120.955452,24.646802],[120.954398,24.646763],[120.95248,24.647827],[120.951184,24.648906],[120.950969,24.649323],[120.951116,24.650348],[120.950704,24.65155],[120.949887,24.653078],[120.949542,24.654344],[120.949774,24.655348],[120.949993,24.655663],[120.950258,24.655718],[120.951014,24.655379],[120.952075,24.655524],[120.954905,24.657037],[120.955316,24.657739],[120.955184,24.659087]]]},"properties":{"code":"10005160005","name":"北埔村","countyCode":"10005","countyName":"苗栗縣","townCode":"10005160","townName":"三灣鄉","level":"village","unassigned":false,"note":"","label":[120.96504687427705,24.645085155291632],"bounds":[120.941209,24.625216,120.985171,24.659387],"focusBounds":[120.941209,24.625216,120.985171,24.659387],"color":"#58b99d"}},{"type":"Feature","id":"10005160006","geometry":{"type":"Polygon","coordinates":[[[120.958745,24.628569],[120.957439,24.627615],[120.957255,24.626743],[120.956435,24.625717],[120.956346,24.625269],[120.956121,24.625216],[120.954668,24.625643],[120.953747,24.626302],[120.952898,24.627153],[120.950999,24.62777],[120.950351,24.628137],[120.950004,24.628526],[120.949664,24.629796],[120.949491,24.629987],[120.948206,24.629698],[120.94697,24.629159],[120.946416,24.627575],[120.945189,24.625711],[120.94447,24.624122],[120.942924,24.623603],[120.942075,24.62411],[120.941815,24.624116],[120.941536,24.623769],[120.941384,24.622905],[120.940933,24.622417],[120.938601,24.621399],[120.93763,24.620559],[120.93594,24.619612],[120.935451,24.618952],[120.934821,24.618462],[120.933702,24.617413],[120.932202,24.615641],[120.930614,24.615035],[120.928185,24.614523],[120.927967,24.614372],[120.927296,24.612908],[120.925293,24.611364],[120.924246,24.609331],[120.922996,24.608021],[120.922544,24.606985],[120.922576,24.605999],[120.922742,24.605531],[120.92342,24.604953],[120.925296,24.604151],[120.925625,24.604623],[120.926624,24.60503],[120.926556,24.605911],[120.927846,24.606944],[120.928146,24.607633],[120.929003,24.607956],[120.933112,24.607977],[120.933676,24.60776],[120.934248,24.607961],[120.9353,24.607973],[120.936113,24.607576],[120.936699,24.60687],[120.937501,24.606846],[120.938389,24.606246],[120.939836,24.606133],[120.940313,24.606007],[120.940568,24.605756],[120.943466,24.606155],[120.945303,24.607133],[120.946504,24.60638],[120.9489,24.605276],[120.948905,24.60462],[120.949423,24.603523],[120.949128,24.602336],[120.948819,24.601855],[120.949075,24.601236],[120.950798,24.600846],[120.951551,24.600824],[120.952573,24.600378],[120.953418,24.599754],[120.953843,24.599639],[120.955184,24.599644],[120.955573,24.599715],[120.955951,24.599991],[120.956216,24.598978],[120.955995,24.597972],[120.956865,24.59735],[120.957018,24.596893],[120.957441,24.596564],[120.957701,24.595905],[120.958551,24.596095],[120.958831,24.595864],[120.958599,24.595339],[120.959354,24.594992],[120.959197,24.594624],[120.959359,24.594288],[120.959656,24.594192],[120.960021,24.594411],[120.960572,24.593883],[120.961438,24.593473],[120.961833,24.592703],[120.961909,24.592155],[120.962328,24.592003],[120.962499,24.59176],[120.963455,24.591706],[120.963999,24.590771],[120.965807,24.589394],[120.9662,24.588741],[120.966681,24.586754],[120.967445,24.586355],[120.968959,24.586154],[120.970599,24.585175],[120.971835,24.585055],[120.972612,24.584326],[120.973877,24.583799],[120.974562,24.583257],[120.974721,24.583917],[120.976856,24.586708],[120.977185,24.58737],[120.977207,24.58787],[120.977921,24.589162],[120.977967,24.592095],[120.97822,24.593004],[120.978224,24.594152],[120.978783,24.59454],[120.979756,24.595899],[120.980043,24.597441],[120.980689,24.598289],[120.980945,24.598977],[120.98151,24.601588],[120.981861,24.602209],[120.982463,24.602678],[120.983269,24.603874],[120.983759,24.605819],[120.983889,24.607262],[120.983633,24.608525],[120.983554,24.610133],[120.983126,24.611136],[120.983147,24.612126],[120.982725,24.61283],[120.981472,24.614091],[120.980844,24.61622],[120.98007,24.617228],[120.980212,24.617586],[120.981493,24.618155],[120.9807,24.619184],[120.980402,24.620445],[120.979998,24.620763],[120.979398,24.620781],[120.977802,24.619509],[120.976524,24.619352],[120.97616,24.618918],[120.975764,24.618687],[120.975479,24.618695],[120.974816,24.619369],[120.974146,24.619379],[120.973869,24.620201],[120.973272,24.620601],[120.972954,24.621391],[120.97289,24.621497],[120.971744,24.621589],[120.971452,24.622123],[120.970848,24.622601],[120.969746,24.622611],[120.968742,24.623185],[120.967804,24.623093],[120.96671,24.622666],[120.966207,24.621951],[120.965734,24.62188],[120.964523,24.62135],[120.963769,24.619677],[120.964015,24.619348],[120.963931,24.619176],[120.963379,24.618915],[120.962578,24.618129],[120.961523,24.617485],[120.960943,24.616861],[120.959586,24.616622],[120.958264,24.617224],[120.957503,24.616844],[120.957033,24.617492],[120.957227,24.617933],[120.957353,24.618124],[120.957891,24.618346],[120.958992,24.619354],[120.959118,24.619654],[120.959072,24.620041],[120.958722,24.62046],[120.958673,24.621715],[120.958277,24.623093],[120.957825,24.623373],[120.957772,24.623599],[120.958304,24.624391],[120.958314,24.624977],[120.959301,24.62568],[120.959393,24.627365],[120.959285,24.627666],[120.958946,24.627898],[120.958745,24.628569]]]},"properties":{"code":"10005160006","name":"大河村","countyCode":"10005","countyName":"苗栗縣","townCode":"10005160","townName":"三灣鄉","level":"village","unassigned":false,"note":"","label":[120.96913106493744,24.605900784357374],"bounds":[120.922544,24.583257,120.983889,24.629987],"focusBounds":[120.922544,24.583257,120.983889,24.629987],"color":"#efb44f"}},{"type":"Feature","id":"10005160007","geometry":{"type":"Polygon","coordinates":[[[120.934821,24.618462],[120.934358,24.619293],[120.933319,24.620544],[120.930713,24.623114],[120.930229,24.623874],[120.92885,24.624577],[120.927525,24.625854],[120.926731,24.628797],[120.92618,24.629456],[120.925637,24.629782],[120.92361,24.630122],[120.922223,24.631347],[120.921039,24.631992],[120.919333,24.632182],[120.918111,24.633169],[120.917349,24.634353],[120.916799,24.634502],[120.91472,24.634434],[120.912783,24.634706],[120.910756,24.637201],[120.908819,24.637673],[120.907811,24.637192],[120.906082,24.63693],[120.905658,24.636539],[120.904387,24.635845],[120.904242,24.635592],[120.904308,24.634698],[120.903736,24.634047],[120.9039,24.633592],[120.903683,24.632932],[120.903919,24.631769],[120.902738,24.631185],[120.901304,24.629696],[120.899368,24.629001],[120.898934,24.628063],[120.89872,24.627089],[120.897403,24.626203],[120.896589,24.625417],[120.897104,24.625018],[120.898074,24.624787],[120.900535,24.624739],[120.901038,24.624859],[120.901171,24.625089],[120.901638,24.625622],[120.902974,24.626029],[120.904308,24.625988],[120.905713,24.625706],[120.906634,24.625916],[120.907224,24.626245],[120.909387,24.62812],[120.910516,24.628472],[120.911232,24.628267],[120.911709,24.62741],[120.911531,24.626259],[120.912311,24.625888],[120.913073,24.624675],[120.91341,24.624507],[120.914286,24.624425],[120.914572,24.624171],[120.914412,24.623237],[120.914082,24.622609],[120.914172,24.621955],[120.914639,24.621664],[120.915653,24.621741],[120.915882,24.621606],[120.916013,24.621239],[120.915891,24.619881],[120.915615,24.619503],[120.914717,24.619279],[120.913267,24.618283],[120.912611,24.618525],[120.91204,24.618422],[120.911642,24.618114],[120.911582,24.617684],[120.91304,24.615077],[120.91335,24.614875],[120.913882,24.614952],[120.91408,24.614784],[120.914626,24.613646],[120.914462,24.612745],[120.914665,24.612157],[120.916896,24.61117],[120.917901,24.611071],[120.918053,24.610925],[120.917776,24.61027],[120.916411,24.610386],[120.91466,24.608484],[120.914449,24.60838],[120.913796,24.608595],[120.913494,24.608447],[120.913476,24.608215],[120.91395,24.607488],[120.914401,24.607146],[120.915056,24.606874],[120.916181,24.606689],[120.916505,24.606851],[120.916866,24.607839],[120.917512,24.608019],[120.917644,24.607728],[120.917524,24.606867],[120.917664,24.606609],[120.918288,24.606436],[120.919271,24.606617],[120.919849,24.606348],[120.920035,24.606062],[120.919903,24.605705],[120.919143,24.605352],[120.917669,24.605645],[120.917336,24.605522],[120.916946,24.604773],[120.916545,24.604498],[120.916303,24.603968],[120.915563,24.603239],[120.915884,24.601955],[120.915677,24.601062],[120.915912,24.600963],[120.916672,24.601768],[120.917489,24.601845],[120.917999,24.602659],[120.918315,24.602839],[120.918742,24.602667],[120.919129,24.602177],[120.919104,24.60108],[120.91922,24.600917],[120.919881,24.601896],[120.920794,24.602592],[120.920544,24.60354],[120.920666,24.603839],[120.921008,24.603868],[120.922074,24.603543],[120.922675,24.603913],[120.923428,24.604006],[120.924624,24.603657],[120.925072,24.603801],[120.925296,24.604151],[120.92342,24.604953],[120.922742,24.605531],[120.922576,24.605999],[120.922544,24.606985],[120.922996,24.608021],[120.924246,24.609331],[120.925293,24.611364],[120.927296,24.612908],[120.927967,24.614372],[120.928185,24.614523],[120.930614,24.615035],[120.932202,24.615641],[120.933702,24.617413],[120.934821,24.618462]]]},"properties":{"code":"10005160007","name":"大坪村","countyCode":"10005","countyName":"苗栗縣","townCode":"10005160","townName":"三灣鄉","level":"village","unassigned":false,"note":"","label":[120.9230301625833,24.62021402081178],"bounds":[120.896589,24.600917,120.934821,24.637673],"focusBounds":[120.896589,24.600917,120.934821,24.637673],"color":"#dd8590"}},{"type":"Feature","id":"10005160008","geometry":{"type":"Polygon","coordinates":[[[120.937338,24.657528],[120.936042,24.657308],[120.935793,24.657382],[120.935507,24.657905],[120.935306,24.658833],[120.934515,24.659943],[120.933199,24.660479],[120.932645,24.660901],[120.931772,24.660634],[120.930811,24.661029],[120.929008,24.662664],[120.928534,24.662874],[120.927975,24.662994],[120.926944,24.662489],[120.926368,24.662476],[120.925749,24.662735],[120.924702,24.66244],[120.924024,24.662635],[120.922603,24.661914],[120.922359,24.66204],[120.922744,24.66243],[120.922345,24.662676],[120.922032,24.66276],[120.921453,24.662567],[120.920842,24.662141],[120.920031,24.661255],[120.920032,24.660867],[120.920395,24.659966],[120.919973,24.659276],[120.920036,24.658599],[120.919878,24.657932],[120.918772,24.657845],[120.917156,24.656765],[120.916735,24.656169],[120.914334,24.656122],[120.913771,24.655781],[120.913155,24.655673],[120.91261,24.655166],[120.911931,24.654973],[120.910683,24.653803],[120.910733,24.653149],[120.911679,24.652582],[120.912173,24.651638],[120.912391,24.65025],[120.911593,24.648025],[120.911551,24.645976],[120.912409,24.645436],[120.912645,24.644787],[120.913455,24.644135],[120.913487,24.6439],[120.912733,24.641752],[120.911907,24.641699],[120.910723,24.641287],[120.909959,24.64126],[120.909403,24.641058],[120.908967,24.63994],[120.908819,24.637673],[120.910756,24.637201],[120.912783,24.634706],[120.91472,24.634434],[120.916799,24.634502],[120.917349,24.634353],[120.918111,24.633169],[120.919333,24.632182],[120.921039,24.631992],[120.922223,24.631347],[120.92361,24.630122],[120.925637,24.629782],[120.92618,24.629456],[120.926731,24.628797],[120.927525,24.625854],[120.92885,24.624577],[120.930229,24.623874],[120.930713,24.623114],[120.933319,24.620544],[120.934358,24.619293],[120.934821,24.618462],[120.935451,24.618952],[120.93594,24.619612],[120.93763,24.620559],[120.938601,24.621399],[120.940933,24.622417],[120.941384,24.622905],[120.941536,24.623769],[120.941815,24.624116],[120.942075,24.62411],[120.942924,24.623603],[120.94447,24.624122],[120.945189,24.625711],[120.946416,24.627575],[120.94697,24.629159],[120.948206,24.629698],[120.949491,24.629987],[120.948504,24.630596],[120.94814,24.631116],[120.948063,24.631538],[120.948302,24.631989],[120.949143,24.632533],[120.949888,24.633502],[120.950055,24.633796],[120.950063,24.634387],[120.948186,24.637545],[120.946843,24.63838],[120.946369,24.638962],[120.946314,24.639451],[120.946615,24.64016],[120.946556,24.640843],[120.945438,24.642577],[120.945264,24.644629],[120.945068,24.644759],[120.94475,24.64472],[120.943486,24.643865],[120.941837,24.644726],[120.941209,24.644904],[120.940392,24.644731],[120.939741,24.644999],[120.93924,24.644857],[120.938514,24.645092],[120.93766,24.644952],[120.937421,24.644718],[120.937295,24.643918],[120.936297,24.643689],[120.935113,24.6423],[120.934682,24.642384],[120.934085,24.642283],[120.934019,24.643097],[120.933382,24.643655],[120.933226,24.64467],[120.933949,24.645107],[120.93409,24.645587],[120.933814,24.646097],[120.932735,24.64663],[120.932794,24.646859],[120.933341,24.647308],[120.93357,24.647805],[120.933528,24.64806],[120.933188,24.648305],[120.933221,24.648471],[120.93394,24.64956],[120.934646,24.649139],[120.935221,24.648991],[120.935893,24.649087],[120.936229,24.649329],[120.936774,24.650212],[120.936638,24.651318],[120.938554,24.652507],[120.938709,24.653104],[120.939183,24.65359],[120.938753,24.65443],[120.940301,24.655955],[120.940325,24.656121],[120.939672,24.656472],[120.939342,24.656838],[120.937891,24.657151],[120.937338,24.657528]]]},"properties":{"code":"10005160008","name":"永和村","countyCode":"10005","countyName":"苗栗縣","townCode":"10005160","townName":"三灣鄉","level":"village","unassigned":false,"note":"","label":[120.92382323048493,24.64163783927207],"bounds":[120.908819,24.618462,120.950063,24.662994],"focusBounds":[120.908819,24.618462,120.950063,24.662994],"color":"#a8bf62"}}]}
