{"type":"FeatureCollection","features":[{"type":"Feature","id":"10008040001","geometry":{"type":"Polygon","coordinates":[[[120.683132,23.755972],[120.684236,23.756659],[120.685471,23.75501],[120.686066,23.754408],[120.686515,23.75421],[120.687065,23.755649],[120.68778,23.756612],[120.687821,23.757297],[120.6874,23.758212],[120.687025,23.759225],[120.685859,23.760936],[120.685009,23.76149],[120.683068,23.761957],[120.68235,23.760958],[120.682644,23.760177],[120.682486,23.759545],[120.68255,23.759128],[120.681261,23.758782],[120.681741,23.757976],[120.681936,23.756772],[120.682618,23.756739],[120.683132,23.755972]]]},"properties":{"code":"10008040001","name":"竹山里","countyCode":"10008","countyName":"南投縣","townCode":"10008040","townName":"竹山鎮","level":"village","unassigned":false,"note":"","label":[120.68470869971787,23.75879482667848],"bounds":[120.681261,23.75421,120.687821,23.761957],"focusBounds":[120.681261,23.75421,120.687821,23.761957],"color":"#a49ad4"}},{"type":"Feature","id":"10008040002","geometry":{"type":"Polygon","coordinates":[[[120.683132,23.755972],[120.684189,23.754309],[120.685239,23.753334],[120.686082,23.753688],[120.686515,23.75421],[120.686066,23.754408],[120.685471,23.75501],[120.684236,23.756659],[120.683132,23.755972]]]},"properties":{"code":"10008040002","name":"中正里","countyCode":"10008","countyName":"南投縣","townCode":"10008040","townName":"竹山鎮","level":"village","unassigned":false,"note":"","label":[120.68470830083206,23.754850627096125],"bounds":[120.683132,23.753334,120.686515,23.756659],"focusBounds":[120.683132,23.753334,120.686515,23.756659],"color":"#a8bf62"}},{"type":"Feature","id":"10008040003","geometry":{"type":"Polygon","coordinates":[[[120.685239,23.753334],[120.684189,23.754309],[120.683132,23.755972],[120.68046,23.753607],[120.673482,23.754818],[120.673759,23.751637],[120.674215,23.749449],[120.674536,23.749293],[120.675168,23.748988],[120.676861,23.748633],[120.677399,23.748717],[120.677647,23.748621],[120.677544,23.747952],[120.681702,23.747927],[120.68363,23.749112],[120.683172,23.752472],[120.683541,23.752811],[120.685239,23.753334]]]},"properties":{"code":"10008040003","name":"中山里","countyCode":"10008","countyName":"南投縣","townCode":"10008040","townName":"竹山鎮","level":"village","unassigned":false,"note":"","label":[120.67948555596804,23.750858460304745],"bounds":[120.673482,23.747927,120.685239,23.755972],"focusBounds":[120.673482,23.747927,120.685239,23.755972],"color":"#68bec9"}},{"type":"Feature","id":"10008040004","geometry":{"type":"Polygon","coordinates":[[[120.673482,23.754818],[120.68046,23.753607],[120.683132,23.755972],[120.682618,23.756739],[120.681936,23.756772],[120.679928,23.75711],[120.673936,23.760817],[120.672017,23.761842],[120.671158,23.762023],[120.670559,23.761286],[120.669724,23.760236],[120.669408,23.759071],[120.669516,23.75829],[120.669822,23.757571],[120.67019,23.757154],[120.671745,23.756735],[120.672705,23.756213],[120.673046,23.75595],[120.673482,23.754818]]]},"properties":{"code":"10008040004","name":"雲林里","countyCode":"10008","countyName":"南投縣","townCode":"10008040","townName":"竹山鎮","level":"village","unassigned":false,"note":"","label":[120.6753500922989,23.757217709050952],"bounds":[120.669408,23.753607,120.683132,23.762023],"focusBounds":[120.669408,23.753607,120.683132,23.762023],"color":"#df9f6a"}},{"type":"Feature","id":"10008040005","geometry":{"type":"Polygon","coordinates":[[[120.681702,23.747927],[120.677544,23.747952],[120.677647,23.748621],[120.677399,23.748717],[120.676861,23.748633],[120.675168,23.748988],[120.674536,23.749293],[120.674475,23.74551],[120.673989,23.745116],[120.673686,23.743822],[120.672839,23.742094],[120.672985,23.741871],[120.674383,23.741638],[120.674479,23.741156],[120.675681,23.740856],[120.675718,23.740528],[120.676401,23.739817],[120.676505,23.739372],[120.67742,23.738705],[120.677943,23.737328],[120.67915,23.736506],[120.680189,23.734978],[120.681212,23.734278],[120.681391,23.733993],[120.681297,23.735138],[120.680965,23.735878],[120.679419,23.737638],[120.679296,23.739177],[120.67891,23.739977],[120.679855,23.743368],[120.680335,23.746439],[120.680779,23.747243],[120.681702,23.747927]]]},"properties":{"code":"10008040005","name":"硘[磘]里","countyCode":"10008","countyName":"南投縣","townCode":"10008040","townName":"竹山鎮","level":"village","unassigned":false,"note":"","label":[120.67685814374393,23.74367255798053],"bounds":[120.672839,23.733993,120.681702,23.749293],"focusBounds":[120.672839,23.733993,120.681702,23.749293],"color":"#c38cb8"}},{"type":"Feature","id":"10008040006","geometry":{"type":"Polygon","coordinates":[[[120.683617,23.80135],[120.680564,23.801698],[120.679904,23.801621],[120.678373,23.801123],[120.674535,23.799505],[120.673036,23.798187],[120.669656,23.796119],[120.668759,23.795162],[120.667317,23.794019],[120.66417,23.792287],[120.662384,23.791723],[120.658137,23.791041],[120.657359,23.790738],[120.658372,23.786962],[120.660394,23.781447],[120.661032,23.780209],[120.66172,23.779579],[120.662698,23.77924],[120.665446,23.779149],[120.666555,23.779393],[120.666926,23.779249],[120.667377,23.778593],[120.667888,23.774777],[120.668511,23.771776],[120.669787,23.770056],[120.671005,23.766052],[120.674047,23.765271],[120.678955,23.760667],[120.680658,23.762487],[120.68235,23.760958],[120.683068,23.761957],[120.68216,23.762333],[120.681726,23.762799],[120.681723,23.764047],[120.681984,23.764684],[120.683719,23.766573],[120.685003,23.767562],[120.686287,23.768443],[120.685729,23.769162],[120.685352,23.769994],[120.684989,23.776097],[120.684174,23.778721],[120.683678,23.782303],[120.683617,23.80135]]]},"properties":{"code":"10008040006","name":"下坪里","countyCode":"10008","countyName":"南投縣","townCode":"10008040","townName":"竹山鎮","level":"village","unassigned":false,"note":"","label":[120.67419687991092,23.78545634640323],"bounds":[120.657359,23.760667,120.686287,23.801698],"focusBounds":[120.657359,23.760667,120.686287,23.801698],"color":"#98b69b"}},{"type":"Feature","id":"10008040007","geometry":{"type":"Polygon","coordinates":[[[120.692643,23.757248],[120.691702,23.757733],[120.691075,23.758463],[120.690557,23.758713],[120.690173,23.759509],[120.688958,23.759452],[120.688703,23.759718],[120.688197,23.759683],[120.6874,23.758212],[120.687821,23.757297],[120.68778,23.756612],[120.687065,23.755649],[120.686515,23.75421],[120.686082,23.753688],[120.685239,23.753334],[120.683541,23.752811],[120.683172,23.752472],[120.68363,23.749112],[120.685632,23.746499],[120.686034,23.743561],[120.686633,23.742797],[120.687957,23.741642],[120.689366,23.740724],[120.69054,23.740216],[120.691776,23.739884],[120.693735,23.738884],[120.694526,23.738228],[120.69498,23.737188],[120.695503,23.736749],[120.696336,23.736568],[120.697095,23.736619],[120.698028,23.737231],[120.698628,23.738096],[120.699605,23.738514],[120.700158,23.738291],[120.701677,23.737168],[120.705219,23.736942],[120.707943,23.735974],[120.71118,23.735213],[120.718221,23.734971],[120.717857,23.737374],[120.717513,23.738232],[120.715756,23.741186],[120.714995,23.744728],[120.711494,23.750067],[120.709983,23.749064],[120.708865,23.748527],[120.707363,23.748039],[120.705153,23.747563],[120.704154,23.747764],[120.703538,23.74856],[120.703152,23.749564],[120.702493,23.750368],[120.702345,23.751174],[120.702465,23.751646],[120.701916,23.752679],[120.701726,23.753922],[120.70145,23.754197],[120.700632,23.755071],[120.699469,23.75585],[120.69641,23.756302],[120.696389,23.756763],[120.695869,23.756703],[120.69539,23.756996],[120.694628,23.756599],[120.694434,23.75628],[120.69406,23.756178],[120.693768,23.756304],[120.693434,23.756841],[120.692643,23.757248]]]},"properties":{"code":"10008040007","name":"桂林里","countyCode":"10008","countyName":"南投縣","townCode":"10008040","townName":"竹山鎮","level":"village","unassigned":false,"note":"","label":[120.69538503282243,23.746920990960817],"bounds":[120.683172,23.734971,120.718221,23.759718],"focusBounds":[120.683172,23.734971,120.718221,23.759718],"color":"#58b99d"}},{"type":"Feature","id":"10008040008","geometry":{"type":"Polygon","coordinates":[[[120.671005,23.766052],[120.669787,23.770056],[120.668511,23.771776],[120.667888,23.774777],[120.667377,23.778593],[120.666926,23.779249],[120.666555,23.779393],[120.665446,23.779149],[120.662698,23.77924],[120.66172,23.779579],[120.661032,23.780209],[120.660394,23.781447],[120.658372,23.786962],[120.657359,23.790738],[120.648106,23.787679],[120.646619,23.787136],[120.64468,23.786799],[120.642342,23.785692],[120.641548,23.785622],[120.640374,23.786048],[120.641716,23.782942],[120.642433,23.781699],[120.644254,23.779444],[120.645543,23.777463],[120.647867,23.774416],[120.648506,23.773214],[120.653461,23.760653],[120.658431,23.760889],[120.661893,23.760897],[120.66252,23.761505],[120.662262,23.761821],[120.662461,23.762216],[120.662832,23.762506],[120.663376,23.762559],[120.665094,23.761985],[120.670559,23.761286],[120.671158,23.762023],[120.671329,23.762472],[120.67132,23.764125],[120.671005,23.766052]]]},"properties":{"code":"10008040008","name":"中和里","countyCode":"10008","countyName":"南投縣","townCode":"10008040","townName":"竹山鎮","level":"village","unassigned":false,"note":"","label":[120.65920774478069,23.770675984315623],"bounds":[120.640374,23.760653,120.671329,23.790738],"focusBounds":[120.640374,23.760653,120.671329,23.790738],"color":"#efb44f"}},{"type":"Feature","id":"10008040009","geometry":{"type":"Polygon","coordinates":[[[120.670559,23.761286],[120.665094,23.761985],[120.663376,23.762559],[120.662832,23.762506],[120.662461,23.762216],[120.662262,23.761821],[120.66252,23.761505],[120.661893,23.760897],[120.658431,23.760889],[120.653461,23.760653],[120.655543,23.75547],[120.655973,23.753762],[120.654654,23.748458],[120.658132,23.748606],[120.659096,23.748425],[120.661239,23.74859],[120.674229,23.748485],[120.674215,23.749449],[120.673759,23.751637],[120.673482,23.754818],[120.673046,23.75595],[120.672705,23.756213],[120.671745,23.756735],[120.67019,23.757154],[120.669822,23.757571],[120.669516,23.75829],[120.669408,23.759071],[120.669724,23.760236],[120.670559,23.761286]]]},"properties":{"code":"10008040009","name":"中崎里","countyCode":"10008","countyName":"南投縣","townCode":"10008040","townName":"竹山鎮","level":"village","unassigned":false,"note":"","label":[120.66404572191053,23.75485793890771],"bounds":[120.653461,23.748425,120.674229,23.762559],"focusBounds":[120.653461,23.748425,120.674229,23.762559],"color":"#78a7e3"}},{"type":"Feature","id":"10008040010","geometry":{"type":"Polygon","coordinates":[[[120.674536,23.749293],[120.674215,23.749449],[120.674229,23.748485],[120.661239,23.74859],[120.659096,23.748425],[120.658132,23.748606],[120.654654,23.748458],[120.654527,23.747307],[120.654617,23.745168],[120.654362,23.742078],[120.654469,23.73979],[120.655292,23.737614],[120.655826,23.735036],[120.65962,23.731906],[120.662005,23.730189],[120.664085,23.729607],[120.669651,23.728971],[120.675592,23.727218],[120.676514,23.727198],[120.6777,23.727785],[120.678738,23.728001],[120.680984,23.72813],[120.681623,23.728416],[120.681613,23.731281],[120.681391,23.733993],[120.681212,23.734278],[120.680189,23.734978],[120.67915,23.736506],[120.677943,23.737328],[120.67742,23.738705],[120.676505,23.739372],[120.676401,23.739817],[120.675718,23.740528],[120.675681,23.740856],[120.674479,23.741156],[120.674383,23.741638],[120.672985,23.741871],[120.672839,23.742094],[120.673686,23.743822],[120.673989,23.745116],[120.674475,23.74551],[120.674536,23.749293]]]},"properties":{"code":"10008040010","name":"德興里","countyCode":"10008","countyName":"南投縣","townCode":"10008040","townName":"竹山鎮","level":"village","unassigned":false,"note":"","label":[120.66475948231168,23.7390456107195],"bounds":[120.654362,23.727198,120.681623,23.749449],"focusBounds":[120.654362,23.727198,120.681623,23.749449],"color":"#dd8590"}},{"type":"Feature","id":"10008040011","geometry":{"type":"Polygon","coordinates":[[[120.741594,23.786274],[120.740294,23.787285],[120.739191,23.787868],[120.735841,23.788799],[120.734058,23.790123],[120.732107,23.790978],[120.729432,23.793508],[120.728639,23.79375],[120.727354,23.793816],[120.725119,23.793451],[120.723119,23.792481],[120.716526,23.78859],[120.712814,23.784983],[120.711426,23.785084],[120.711111,23.784989],[120.710769,23.785132],[120.710076,23.786705],[120.709921,23.786878],[120.709645,23.786814],[120.709507,23.785347],[120.710206,23.782671],[120.710174,23.782014],[120.708943,23.778889],[120.702899,23.770178],[120.70054,23.770984],[120.698842,23.767235],[120.700207,23.766856],[120.700897,23.766968],[120.701375,23.766355],[120.702665,23.766809],[120.703257,23.766686],[120.70362,23.766355],[120.704154,23.766372],[120.704472,23.766637],[120.704714,23.766626],[120.70659,23.764927],[120.706645,23.764505],[120.707307,23.764218],[120.707621,23.763119],[120.708222,23.761989],[120.708653,23.761676],[120.7097,23.76131],[120.709827,23.761064],[120.709472,23.760461],[120.70969,23.759599],[120.711225,23.760884],[120.712641,23.761729],[120.713914,23.761907],[120.716942,23.761978],[120.71824,23.761739],[120.719971,23.761189],[120.723771,23.759316],[120.725983,23.7589],[120.727104,23.759044],[120.727592,23.759257],[120.729396,23.761182],[120.729007,23.760995],[120.727433,23.759521],[120.726347,23.759408],[120.725567,23.759503],[120.725149,23.759711],[120.724443,23.760624],[120.724304,23.761866],[120.723904,23.762971],[120.72099,23.765994],[120.720467,23.766146],[120.719757,23.766699],[120.719062,23.766841],[120.718453,23.767289],[120.71699,23.76796],[120.71536,23.769357],[120.713695,23.77149],[120.713825,23.773243],[120.714781,23.773464],[120.715254,23.773772],[120.716359,23.773898],[120.716942,23.774548],[120.71947,23.775027],[120.720145,23.776026],[120.720132,23.778033],[120.720437,23.778693],[120.721159,23.779282],[120.721854,23.77879],[120.722672,23.778505],[120.723669,23.779152],[120.725043,23.778791],[120.725383,23.778947],[120.726063,23.779619],[120.727357,23.779373],[120.728123,23.779631],[120.728927,23.779103],[120.729623,23.77897],[120.73061,23.779007],[120.731205,23.779733],[120.731327,23.780193],[120.731835,23.780715],[120.731442,23.781754],[120.731861,23.783616],[120.732865,23.783714],[120.733535,23.783983],[120.733946,23.783967],[120.735356,23.784338],[120.735845,23.783978],[120.738362,23.784584],[120.738823,23.784526],[120.739235,23.784245],[120.74146,23.78456],[120.741874,23.784909],[120.741594,23.786274]]]},"properties":{"code":"10008040011","name":"延平里","countyCode":"10008","countyName":"南投縣","townCode":"10008040","townName":"竹山鎮","level":"village","unassigned":false,"note":"","label":[120.72591590546887,23.786527250279192],"bounds":[120.698842,23.7589,120.741874,23.793816],"focusBounds":[120.698842,23.7589,120.741874,23.793816],"color":"#a49ad4"}},{"type":"Feature","id":"10008040012","geometry":{"type":"Polygon","coordinates":[[[120.716526,23.78859],[120.715525,23.788383],[120.714269,23.788448],[120.712572,23.789265],[120.710833,23.789729],[120.708923,23.790935],[120.705355,23.79475],[120.701832,23.796615],[120.69818,23.799416],[120.696975,23.800849],[120.696181,23.802268],[120.695395,23.804657],[120.695207,23.806217],[120.692573,23.804645],[120.689957,23.803788],[120.686713,23.80199],[120.68455,23.80136],[120.683801,23.80134],[120.683617,23.80135],[120.683678,23.782303],[120.684174,23.778721],[120.684989,23.776097],[120.685352,23.769994],[120.685729,23.769162],[120.686287,23.768443],[120.685003,23.767562],[120.690075,23.766551],[120.691678,23.766484],[120.696534,23.767457],[120.698842,23.767235],[120.70054,23.770984],[120.702899,23.770178],[120.708943,23.778889],[120.710174,23.782014],[120.710206,23.782671],[120.709507,23.785347],[120.709645,23.786814],[120.709921,23.786878],[120.710076,23.786705],[120.710769,23.785132],[120.711111,23.784989],[120.711426,23.785084],[120.712814,23.784983],[120.716526,23.78859]]]},"properties":{"code":"10008040012","name":"延正里","countyCode":"10008","countyName":"南投縣","townCode":"10008040","townName":"竹山鎮","level":"village","unassigned":false,"note":"","label":[120.69595140363735,23.785153430337658],"bounds":[120.683617,23.766484,120.716526,23.806217],"focusBounds":[120.683617,23.766484,120.716526,23.806217],"color":"#a8bf62"}},{"type":"Feature","id":"10008040013","geometry":{"type":"Polygon","coordinates":[[[120.729396,23.761182],[120.727592,23.759257],[120.727104,23.759044],[120.725983,23.7589],[120.723771,23.759316],[120.719971,23.761189],[120.71824,23.761739],[120.716942,23.761978],[120.713914,23.761907],[120.712641,23.761729],[120.711225,23.760884],[120.70969,23.759599],[120.709472,23.760461],[120.708838,23.760504],[120.707706,23.760254],[120.706724,23.75882],[120.706453,23.758164],[120.70145,23.754197],[120.701726,23.753922],[120.701916,23.752679],[120.702465,23.751646],[120.702345,23.751174],[120.702493,23.750368],[120.703152,23.749564],[120.703538,23.74856],[120.704154,23.747764],[120.705153,23.747563],[120.707363,23.748039],[120.708865,23.748527],[120.709983,23.749064],[120.711494,23.750067],[120.714995,23.744728],[120.715756,23.741186],[120.717513,23.738232],[120.717857,23.737374],[120.718221,23.734971],[120.718472,23.732335],[120.719604,23.730152],[120.71976,23.72949],[120.719352,23.726011],[120.719645,23.72521],[120.721309,23.723421],[120.721515,23.722737],[120.721396,23.721468],[120.72174,23.719974],[120.724182,23.718649],[120.725053,23.717928],[120.727414,23.714226],[120.728029,23.713536],[120.729292,23.712708],[120.730328,23.71252],[120.731214,23.712711],[120.732114,23.713155],[120.733051,23.713992],[120.73286,23.714571],[120.733271,23.715694],[120.734222,23.71658],[120.733857,23.717669],[120.734064,23.718719],[120.734207,23.718918],[120.734679,23.719077],[120.734725,23.719454],[120.735011,23.719632],[120.735073,23.720023],[120.735409,23.720384],[120.735266,23.720589],[120.735342,23.721019],[120.735184,23.721218],[120.735321,23.722293],[120.735959,23.723022],[120.735899,23.723245],[120.735304,23.723571],[120.735208,23.723944],[120.735999,23.72463],[120.736392,23.72515],[120.73655,23.725674],[120.736538,23.726088],[120.736155,23.726476],[120.735466,23.726368],[120.734882,23.726651],[120.734072,23.727668],[120.733402,23.728066],[120.73323,23.728633],[120.733564,23.72923],[120.73461,23.730012],[120.734923,23.730577],[120.73557,23.732138],[120.73555,23.733799],[120.733792,23.736052],[120.733145,23.736251],[120.731761,23.736343],[120.730616,23.736966],[120.730655,23.737271],[120.732089,23.738952],[120.732125,23.739493],[120.731963,23.739668],[120.731722,23.739765],[120.731111,23.739423],[120.730364,23.739251],[120.728761,23.73909],[120.72817,23.739384],[120.728096,23.739631],[120.729067,23.741198],[120.729629,23.74165],[120.730085,23.741805],[120.731084,23.741717],[120.731592,23.742389],[120.732315,23.742569],[120.733009,23.742941],[120.733974,23.742868],[120.73486,23.742302],[120.735311,23.744287],[120.735516,23.7444],[120.736191,23.74415],[120.737397,23.744094],[120.737551,23.744229],[120.737423,23.744857],[120.737521,23.745413],[120.739041,23.745514],[120.739961,23.746046],[120.739944,23.746177],[120.739676,23.7468],[120.740361,23.747092],[120.740763,23.748246],[120.741898,23.749356],[120.742261,23.750068],[120.742171,23.750269],[120.741953,23.750304],[120.741288,23.749895],[120.740938,23.750059],[120.740595,23.75047],[120.740301,23.751152],[120.740357,23.75224],[120.740054,23.753717],[120.739878,23.754106],[120.739564,23.754352],[120.738494,23.754743],[120.736735,23.754914],[120.735893,23.756783],[120.733146,23.756404],[120.732355,23.756689],[120.731709,23.757421],[120.731401,23.758309],[120.730064,23.759313],[120.730424,23.76038],[120.730362,23.760801],[120.73001,23.761087],[120.729396,23.761182]]]},"properties":{"code":"10008040013","name":"延山里","countyCode":"10008","countyName":"南投縣","townCode":"10008040","townName":"竹山鎮","level":"village","unassigned":false,"note":"","label":[120.72369794384585,23.74918864109999],"bounds":[120.70145,23.71252,120.742261,23.761978],"focusBounds":[120.70145,23.71252,120.742261,23.761978],"color":"#68bec9"}},{"type":"Feature","id":"10008040014","geometry":{"type":"Polygon","coordinates":[[[120.698842,23.767235],[120.696534,23.767457],[120.691678,23.766484],[120.690075,23.766551],[120.685003,23.767562],[120.683719,23.766573],[120.681984,23.764684],[120.681723,23.764047],[120.681726,23.762799],[120.68216,23.762333],[120.683068,23.761957],[120.685009,23.76149],[120.685859,23.760936],[120.687025,23.759225],[120.6874,23.758212],[120.688197,23.759683],[120.688703,23.759718],[120.688958,23.759452],[120.690173,23.759509],[120.690557,23.758713],[120.691075,23.758463],[120.691702,23.757733],[120.692643,23.757248],[120.693576,23.758412],[120.695027,23.758817],[120.696934,23.758468],[120.697222,23.758579],[120.698564,23.760065],[120.699742,23.76009],[120.700989,23.76091],[120.700411,23.761816],[120.700045,23.761502],[120.699087,23.76292],[120.695917,23.761961],[120.698842,23.767235]]]},"properties":{"code":"10008040014","name":"延和里","countyCode":"10008","countyName":"南投縣","townCode":"10008040","townName":"竹山鎮","level":"village","unassigned":false,"note":"","label":[120.69016103430833,23.763027989708295],"bounds":[120.681723,23.757248,120.700989,23.767562],"focusBounds":[120.681723,23.757248,120.700989,23.767562],"color":"#df9f6a"}},{"type":"Feature","id":"10008040015","geometry":{"type":"Polygon","coordinates":[[[120.733686,23.802311],[120.732152,23.802965],[120.731413,23.803932],[120.729488,23.805671],[120.728909,23.806011],[120.72816,23.806014],[120.726857,23.80545],[120.724988,23.805494],[120.723653,23.805329],[120.722746,23.805424],[120.722319,23.80567],[120.721778,23.806522],[120.722143,23.806942],[120.722106,23.807672],[120.721921,23.808348],[120.721479,23.809124],[120.721032,23.809652],[120.720059,23.810235],[120.718977,23.810594],[120.716476,23.810783],[120.711587,23.809036],[120.706727,23.816266],[120.705837,23.817418],[120.705659,23.817592],[120.705797,23.817752],[120.70559,23.81751],[120.705274,23.817119],[120.703034,23.814173],[120.698485,23.808888],[120.696828,23.807293],[120.695207,23.806217],[120.695395,23.804657],[120.696181,23.802268],[120.696975,23.800849],[120.69818,23.799416],[120.701832,23.796615],[120.705355,23.79475],[120.708923,23.790935],[120.710833,23.789729],[120.712572,23.789265],[120.714269,23.788448],[120.715525,23.788383],[120.716526,23.78859],[120.723119,23.792481],[120.725119,23.793451],[120.727354,23.793816],[120.728639,23.79375],[120.729432,23.793508],[120.732107,23.790978],[120.734058,23.790123],[120.735841,23.788799],[120.739191,23.787868],[120.740294,23.787285],[120.741594,23.786274],[120.742598,23.786373],[120.743887,23.786839],[120.744273,23.787574],[120.744335,23.788196],[120.744836,23.788362],[120.745177,23.788904],[120.743584,23.790431],[120.742414,23.79065],[120.738452,23.792765],[120.736797,23.794029],[120.736416,23.795073],[120.736308,23.797766],[120.735651,23.799063],[120.735546,23.800171],[120.733686,23.802311]]]},"properties":{"code":"10008040015","name":"山崇里","countyCode":"10008","countyName":"南投縣","townCode":"10008040","townName":"竹山鎮","level":"village","unassigned":false,"note":"","label":[120.71482639441565,23.799306448870887],"bounds":[120.695207,23.786274,120.745177,23.817752],"focusBounds":[120.695207,23.786274,120.745177,23.817752],"color":"#98b69b"}},{"type":"Feature","id":"10008040016","geometry":{"type":"Polygon","coordinates":[[[120.733686,23.802311],[120.733258,23.805208],[120.7335,23.807326],[120.733292,23.808087],[120.729228,23.809251],[120.727987,23.809913],[120.72771,23.810673],[120.727285,23.816501],[120.726746,23.818349],[120.72521,23.821341],[120.724683,23.823052],[120.724748,23.823948],[120.724373,23.826376],[120.723992,23.8272],[120.722818,23.82878],[120.722321,23.830175],[120.718623,23.828942],[120.715653,23.827173],[120.712719,23.825155],[120.71065,23.824007],[120.709834,23.823241],[120.708709,23.821616],[120.708182,23.82057],[120.705797,23.817752],[120.705659,23.817592],[120.705837,23.817418],[120.706727,23.816266],[120.711587,23.809036],[120.716476,23.810783],[120.718977,23.810594],[120.720059,23.810235],[120.721032,23.809652],[120.721479,23.809124],[120.721921,23.808348],[120.722106,23.807672],[120.722143,23.806942],[120.721778,23.806522],[120.722319,23.80567],[120.722746,23.805424],[120.723653,23.805329],[120.724988,23.805494],[120.726857,23.80545],[120.72816,23.806014],[120.728909,23.806011],[120.729488,23.805671],[120.731413,23.803932],[120.732152,23.802965],[120.733686,23.802311]]]},"properties":{"code":"10008040016","name":"社寮里","countyCode":"10008","countyName":"南投縣","townCode":"10008040","townName":"竹山鎮","level":"village","unassigned":false,"note":"","label":[120.7179846345949,23.818347778228887],"bounds":[120.705659,23.802311,120.733686,23.830175],"focusBounds":[120.705659,23.802311,120.733686,23.830175],"color":"#efb44f"}},{"type":"Feature","id":"10008040017","geometry":{"type":"Polygon","coordinates":[[[120.732958,23.831238],[120.731716,23.831638],[120.7307,23.832482],[120.727998,23.834023],[120.72724,23.833058],[120.725571,23.831877],[120.722321,23.830175],[120.722818,23.82878],[120.723992,23.8272],[120.724373,23.826376],[120.724748,23.823948],[120.724683,23.823052],[120.72521,23.821341],[120.726746,23.818349],[120.727285,23.816501],[120.72771,23.810673],[120.727987,23.809913],[120.729228,23.809251],[120.733292,23.808087],[120.7335,23.807326],[120.733258,23.805208],[120.733686,23.802311],[120.735546,23.800171],[120.735651,23.799063],[120.736308,23.797766],[120.736416,23.795073],[120.736797,23.794029],[120.738452,23.792765],[120.742414,23.79065],[120.743584,23.790431],[120.745177,23.788904],[120.745498,23.789145],[120.745849,23.788894],[120.746189,23.788908],[120.746946,23.789215],[120.747599,23.789235],[120.748317,23.789497],[120.749167,23.790047],[120.750031,23.789979],[120.751096,23.789537],[120.751575,23.789849],[120.753116,23.79038],[120.753263,23.790811],[120.753419,23.792078],[120.754584,23.792991],[120.752891,23.794929],[120.751093,23.795795],[120.748755,23.796618],[120.747855,23.797567],[120.743564,23.800819],[120.740068,23.804789],[120.739926,23.805504],[120.739927,23.808015],[120.738977,23.811196],[120.738722,23.813523],[120.739901,23.821078],[120.739412,23.822195],[120.736259,23.824939],[120.734266,23.827588],[120.733187,23.829932],[120.732958,23.831238]]]},"properties":{"code":"10008040017","name":"中央里","countyCode":"10008","countyName":"南投縣","townCode":"10008040","townName":"竹山鎮","level":"village","unassigned":false,"note":"","label":[120.73318955815013,23.81535536462151],"bounds":[120.722321,23.788894,120.754584,23.834023],"focusBounds":[120.722321,23.788894,120.754584,23.834023],"color":"#58b99d"}},{"type":"Feature","id":"10008040018","geometry":{"type":"Polygon","coordinates":[[[120.74339,23.826981],[120.739435,23.827735],[120.733584,23.831137],[120.732958,23.831238],[120.733187,23.829932],[120.734266,23.827588],[120.736259,23.824939],[120.739412,23.822195],[120.739901,23.821078],[120.738722,23.813523],[120.738977,23.811196],[120.739927,23.808015],[120.739926,23.805504],[120.740068,23.804789],[120.743564,23.800819],[120.747855,23.797567],[120.748755,23.796618],[120.751093,23.795795],[120.752891,23.794929],[120.754584,23.792991],[120.756309,23.793406],[120.756809,23.793746],[120.757505,23.794664],[120.757386,23.795679],[120.757576,23.796221],[120.758944,23.797813],[120.759578,23.798244],[120.759843,23.798274],[120.760111,23.798681],[120.760092,23.799163],[120.760369,23.799661],[120.760402,23.80057],[120.760207,23.801102],[120.759352,23.801518],[120.759442,23.802195],[120.759281,23.802957],[120.75904,23.803156],[120.758145,23.803567],[120.756577,23.803796],[120.756223,23.805542],[120.757782,23.806339],[120.758085,23.806787],[120.758962,23.806829],[120.75999,23.80796],[120.760724,23.80947],[120.76098,23.809693],[120.760975,23.810635],[120.761767,23.811114],[120.762304,23.811831],[120.762957,23.813704],[120.763228,23.814063],[120.76327,23.815084],[120.763941,23.816947],[120.762293,23.817359],[120.760854,23.818164],[120.759884,23.818948],[120.758145,23.820188],[120.756019,23.820686],[120.754699,23.822352],[120.751216,23.824213],[120.746487,23.82616],[120.74339,23.826981]]]},"properties":{"code":"10008040018","name":"富州里","countyCode":"10008","countyName":"南投縣","townCode":"10008040","townName":"竹山鎮","level":"village","unassigned":false,"note":"","label":[120.74918527346242,23.812870356624863],"bounds":[120.732958,23.792991,120.763941,23.831238],"focusBounds":[120.732958,23.792991,120.763941,23.831238],"color":"#efb44f"}},{"type":"Feature","id":"10008040019","geometry":{"type":"Polygon","coordinates":[[[120.733051,23.713992],[120.732114,23.713155],[120.731214,23.712711],[120.730328,23.71252],[120.729292,23.712708],[120.728029,23.713536],[120.727414,23.714226],[120.725053,23.717928],[120.724182,23.718649],[120.72174,23.719974],[120.717749,23.715919],[120.715021,23.71232],[120.714905,23.711413],[120.715402,23.710425],[120.715417,23.709989],[120.71451,23.7075],[120.714058,23.702887],[120.713833,23.698597],[120.713469,23.696436],[120.711613,23.689505],[120.713103,23.687909],[120.713823,23.687549],[120.718491,23.687294],[120.720164,23.686782],[120.721016,23.685969],[120.721712,23.685042],[120.722196,23.683402],[120.722173,23.682397],[120.721892,23.680695],[120.721214,23.678888],[120.721385,23.678653],[120.722352,23.678339],[120.722551,23.678104],[120.723695,23.674781],[120.724219,23.669231],[120.724048,23.6691],[120.721687,23.669333],[120.719554,23.670378],[120.717878,23.670184],[120.716221,23.670962],[120.715146,23.670998],[120.713467,23.672101],[120.712536,23.672138],[120.71204,23.671812],[120.709895,23.672128],[120.709234,23.67205],[120.708111,23.671062],[120.707635,23.670907],[120.70716,23.670888],[120.705442,23.671285],[120.704428,23.671283],[120.704015,23.6709],[120.703785,23.669184],[120.703414,23.668576],[120.702796,23.668004],[120.701478,23.667543],[120.69999,23.665827],[120.698071,23.664525],[120.698093,23.663882],[120.698717,23.662474],[120.698388,23.661636],[120.697686,23.661332],[120.696691,23.661378],[120.696299,23.66151],[120.695821,23.662004],[120.694583,23.66262],[120.694274,23.661766],[120.694336,23.659172],[120.693943,23.657234],[120.693924,23.655979],[120.694451,23.654316],[120.696767,23.649289],[120.702288,23.641674],[120.70285,23.640232],[120.703958,23.639045],[120.704064,23.638706],[120.703487,23.638457],[120.703367,23.635675],[120.704542,23.634206],[120.707637,23.631205],[120.711334,23.628692],[120.713062,23.62784],[120.713603,23.628357],[120.715801,23.629442],[120.717544,23.62958],[120.718371,23.629956],[120.718702,23.629808],[120.719732,23.628254],[120.720429,23.626261],[120.721182,23.625201],[120.721919,23.62457],[120.723087,23.622532],[120.724115,23.621769],[120.725324,23.621819],[120.725614,23.621716],[120.726452,23.62045],[120.726938,23.619966],[120.728436,23.619652],[120.730676,23.618274],[120.730769,23.61808],[120.730594,23.616683],[120.731296,23.614366],[120.731248,23.612106],[120.730865,23.610807],[120.73454,23.610074],[120.735859,23.609547],[120.737398,23.609632],[120.738394,23.609867],[120.739399,23.610355],[120.741365,23.61227],[120.742408,23.612543],[120.744388,23.612665],[120.746355,23.612478],[120.746755,23.612222],[120.74748,23.611164],[120.749215,23.612201],[120.750472,23.614066],[120.750918,23.614451],[120.75216,23.614758],[120.753562,23.614816],[120.755383,23.614169],[120.758081,23.612488],[120.761829,23.612315],[120.763262,23.612516],[120.764282,23.612237],[120.765132,23.611649],[120.766899,23.609764],[120.767874,23.60944],[120.769413,23.608371],[120.769711,23.607836],[120.769646,23.606932],[120.77005,23.606055],[120.77328,23.605654],[120.774576,23.605205],[120.776534,23.604028],[120.777472,23.602511],[120.778311,23.602033],[120.783129,23.600737],[120.784232,23.600771],[120.78745,23.60127],[120.790871,23.600944],[120.79145,23.600622],[120.793725,23.598627],[120.794137,23.598241],[120.794535,23.597459],[120.794917,23.597248],[120.796285,23.597164],[120.798074,23.597444],[120.799538,23.597173],[120.801091,23.596625],[120.803329,23.596646],[120.803728,23.596823],[120.804224,23.597928],[120.805124,23.598617],[120.806113,23.59877],[120.807554,23.59853],[120.809791,23.598688],[120.811259,23.600134],[120.812042,23.600497],[120.813792,23.60095],[120.814495,23.602512],[120.815843,23.603869],[120.817263,23.603845],[120.818094,23.604047],[120.818237,23.604204],[120.818277,23.604605],[120.81733,23.605542],[120.817254,23.605774],[120.817362,23.606627],[120.818145,23.607977],[120.819078,23.60843],[120.819873,23.608465],[120.82065,23.608736],[120.821012,23.60868],[120.821673,23.608988],[120.822027,23.609333],[120.821562,23.609885],[120.821732,23.610483],[120.823896,23.611617],[120.82517,23.612572],[120.825128,23.612971],[120.824677,23.613655],[120.824015,23.613968],[120.823865,23.614291],[120.823584,23.615126],[120.823733,23.616048],[120.823446,23.617458],[120.82313,23.618481],[120.822354,23.618485],[120.821077,23.619488],[120.819877,23.619556],[120.819563,23.619719],[120.818372,23.621223],[120.817635,23.621818],[120.816453,23.623191],[120.816404,23.623988],[120.81686,23.624835],[120.816183,23.625059],[120.816026,23.625737],[120.816148,23.626182],[120.816611,23.626785],[120.81663,23.627293],[120.816102,23.629312],[120.814741,23.630308],[120.814584,23.630647],[120.814185,23.63288],[120.814339,23.635258],[120.814549,23.636093],[120.813796,23.637655],[120.813916,23.639375],[120.813838,23.640586],[120.813633,23.641232],[120.812881,23.642029],[120.811336,23.642722],[120.810154,23.643752],[120.809149,23.644371],[120.808119,23.646024],[120.80553,23.646533],[120.804608,23.647118],[120.8044,23.647454],[120.804425,23.647986],[120.803939,23.649489],[120.802662,23.649179],[120.801193,23.64907],[120.800037,23.649279],[120.794255,23.652232],[120.790786,23.654629],[120.787426,23.656073],[120.786959,23.656064],[120.785611,23.655389],[120.784786,23.655141],[120.783939,23.655188],[120.78281,23.655487],[120.781894,23.65508],[120.780969,23.654932],[120.780149,23.654988],[120.779672,23.655239],[120.776796,23.658033],[120.774627,23.658508],[120.772379,23.659233],[120.770836,23.659498],[120.770119,23.660698],[120.769931,23.662173],[120.769284,23.663892],[120.769482,23.666787],[120.768482,23.668877],[120.769126,23.671545],[120.768399,23.67265],[120.767915,23.672963],[120.766557,23.67318],[120.765724,23.673632],[120.764472,23.673906],[120.764222,23.675479],[120.762932,23.676605],[120.762522,23.677163],[120.76265,23.678808],[120.762607,23.679086],[120.762236,23.679199],[120.759918,23.678944],[120.757965,23.679041],[120.757394,23.680289],[120.756824,23.680957],[120.753988,23.681942],[120.751768,23.683146],[120.747228,23.685997],[120.744511,23.688453],[120.743815,23.688908],[120.741622,23.689546],[120.740356,23.690698],[120.739159,23.691304],[120.738535,23.69327],[120.736811,23.695852],[120.736558,23.695997],[120.735324,23.696036],[120.73493,23.697105],[120.734307,23.697667],[120.734085,23.698122],[120.73339,23.698517],[120.732857,23.698551],[120.732751,23.699199],[120.73228,23.699863],[120.731204,23.700596],[120.73124,23.700999],[120.732366,23.702473],[120.73275,23.702848],[120.733705,23.703224],[120.734317,23.703645],[120.734907,23.704414],[120.735184,23.705255],[120.735164,23.706101],[120.735424,23.706648],[120.735905,23.707336],[120.736641,23.709278],[120.736286,23.710281],[120.73507,23.71168],[120.735003,23.71206],[120.734458,23.712942],[120.733916,23.713447],[120.733143,23.713706],[120.733051,23.713992]]]},"properties":{"code":"10008040019","name":"大鞍里","countyCode":"10008","countyName":"南投縣","townCode":"10008040","townName":"竹山鎮","level":"village","unassigned":false,"note":"","label":[120.74516809131995,23.64417283581268],"bounds":[120.693924,23.596625,120.82517,23.719974],"focusBounds":[120.693924,23.596625,120.82517,23.719974],"color":"#78a7e3"}},{"type":"Feature","id":"10008040020","geometry":{"type":"Polygon","coordinates":[[[120.714058,23.702887],[120.712209,23.705477],[120.711369,23.70655],[120.710899,23.706924],[120.704253,23.711296],[120.701987,23.712332],[120.696789,23.715697],[120.696114,23.716424],[120.695934,23.717063],[120.696004,23.718508],[120.694998,23.71847],[120.693889,23.718901],[120.693512,23.719428],[120.692329,23.722011],[120.692026,23.722351],[120.691724,23.722536],[120.688992,23.722607],[120.688349,23.72438],[120.685288,23.72857],[120.684673,23.728842],[120.683697,23.728969],[120.682826,23.728875],[120.681623,23.728416],[120.680984,23.72813],[120.678738,23.728001],[120.6777,23.727785],[120.680569,23.719519],[120.680671,23.718901],[120.680673,23.718285],[120.680031,23.716882],[120.67865,23.715199],[120.678008,23.714062],[120.678026,23.713803],[120.679173,23.711704],[120.679825,23.708876],[120.679228,23.704101],[120.679319,23.70385],[120.680101,23.703168],[120.680508,23.70243],[120.681396,23.696249],[120.682437,23.694238],[120.683078,23.693528],[120.683884,23.693044],[120.685156,23.693022],[120.686652,23.692648],[120.688828,23.691086],[120.68921,23.690366],[120.690798,23.688677],[120.691167,23.6884],[120.691794,23.688218],[120.694027,23.687897],[120.695827,23.687935],[120.696795,23.688158],[120.701351,23.690178],[120.701704,23.690226],[120.704989,23.689093],[120.706381,23.688953],[120.708323,23.689298],[120.711613,23.689505],[120.713469,23.696436],[120.713833,23.698597],[120.714058,23.702887]]]},"properties":{"code":"10008040020","name":"田子里","countyCode":"10008","countyName":"南投縣","townCode":"10008040","townName":"竹山鎮","level":"village","unassigned":false,"note":"","label":[120.69459589271065,23.702228857530912],"bounds":[120.6777,23.687897,120.714058,23.728969],"focusBounds":[120.6777,23.687897,120.714058,23.728969],"color":"#a49ad4"}},{"type":"Feature","id":"10008040021","geometry":{"type":"Polygon","coordinates":[[[120.6777,23.727785],[120.676514,23.727198],[120.675592,23.727218],[120.669651,23.728971],[120.664085,23.729607],[120.662005,23.730189],[120.65962,23.731906],[120.6596,23.729827],[120.659992,23.728634],[120.661209,23.726916],[120.661513,23.725928],[120.661399,23.723558],[120.661571,23.722499],[120.662467,23.720005],[120.663161,23.717293],[120.663785,23.715933],[120.663988,23.714947],[120.663924,23.713773],[120.663627,23.711984],[120.663178,23.710793],[120.66261,23.709718],[120.661575,23.708591],[120.660564,23.707896],[120.659025,23.707572],[120.656152,23.70571],[120.655718,23.703368],[120.655495,23.700196],[120.655538,23.699636],[120.65706,23.69587],[120.657841,23.69442],[120.659084,23.692924],[120.660064,23.692145],[120.661401,23.689274],[120.661931,23.687681],[120.663269,23.68198],[120.668517,23.682224],[120.674227,23.683897],[120.675254,23.684884],[120.675894,23.685899],[120.677184,23.689836],[120.677986,23.69149],[120.681396,23.696249],[120.680508,23.70243],[120.680101,23.703168],[120.679319,23.70385],[120.679228,23.704101],[120.679825,23.708876],[120.679173,23.711704],[120.678026,23.713803],[120.678008,23.714062],[120.67865,23.715199],[120.680031,23.716882],[120.680673,23.718285],[120.680671,23.718901],[120.680569,23.719519],[120.6777,23.727785]]]},"properties":{"code":"10008040021","name":"福興里","countyCode":"10008","countyName":"南投縣","townCode":"10008040","townName":"竹山鎮","level":"village","unassigned":false,"note":"","label":[120.66832502362597,23.69974823449023],"bounds":[120.655495,23.68198,120.681396,23.731906],"focusBounds":[120.655495,23.68198,120.681396,23.731906],"color":"#68bec9"}},{"type":"Feature","id":"10008040022","geometry":{"type":"Polygon","coordinates":[[[120.655826,23.735036],[120.655431,23.734516],[120.654603,23.734461],[120.652211,23.735677],[120.650898,23.736169],[120.649947,23.735708],[120.649476,23.735912],[120.648608,23.735727],[120.64845,23.735894],[120.647863,23.736038],[120.646635,23.735899],[120.646302,23.735571],[120.645716,23.73609],[120.644502,23.73662],[120.643945,23.735541],[120.64387,23.734594],[120.643428,23.73417],[120.643446,23.733271],[120.642069,23.730643],[120.64156,23.730379],[120.640224,23.730758],[120.639818,23.728574],[120.639916,23.728001],[120.640149,23.72767],[120.63971,23.726214],[120.640112,23.72577],[120.640038,23.725385],[120.640157,23.725166],[120.640362,23.724995],[120.641005,23.725032],[120.641348,23.724527],[120.640938,23.723592],[120.641683,23.722281],[120.641193,23.721649],[120.641,23.720349],[120.640413,23.719391],[120.640773,23.718555],[120.640737,23.717577],[120.640182,23.716241],[120.640487,23.715303],[120.640049,23.715062],[120.639746,23.714477],[120.640665,23.714277],[120.640682,23.713755],[120.640522,23.713105],[120.639676,23.71211],[120.6393,23.710926],[120.638985,23.710576],[120.639898,23.710406],[120.640195,23.710002],[120.640181,23.709456],[120.639718,23.708777],[120.64043,23.708177],[120.64063,23.707454],[120.640376,23.706915],[120.640631,23.70686],[120.640979,23.706514],[120.641492,23.705524],[120.64191,23.705579],[120.642385,23.70534],[120.643095,23.705308],[120.643955,23.704366],[120.644316,23.704131],[120.645071,23.703986],[120.645164,23.703503],[120.645673,23.703205],[120.645323,23.702504],[120.645289,23.701923],[120.644771,23.701315],[120.644195,23.701026],[120.644093,23.700519],[120.64341,23.699702],[120.643896,23.699451],[120.643928,23.698933],[120.644575,23.697324],[120.645082,23.696745],[120.645196,23.696297],[120.645704,23.695902],[120.645446,23.695355],[120.645876,23.694527],[120.646049,23.693399],[120.646355,23.693258],[120.646596,23.692806],[120.646598,23.691737],[120.646014,23.691179],[120.646012,23.69078],[120.645565,23.690333],[120.645517,23.690076],[120.645929,23.689447],[120.645581,23.688556],[120.64554,23.687651],[120.645713,23.687212],[120.646829,23.686906],[120.646989,23.686574],[120.646992,23.686133],[120.646716,23.68577],[120.646725,23.685288],[120.646245,23.684776],[120.646816,23.684045],[120.647309,23.683601],[120.648018,23.683251],[120.648276,23.682857],[120.648122,23.682635],[120.648122,23.682203],[120.647662,23.682012],[120.647912,23.681645],[120.648017,23.681011],[120.647706,23.68078],[120.647725,23.680553],[120.647434,23.680082],[120.647645,23.679761],[120.647586,23.679526],[120.646936,23.678959],[120.646977,23.678265],[120.646548,23.677929],[120.646467,23.677589],[120.646046,23.677129],[120.646124,23.67663],[120.646528,23.675869],[120.646052,23.67503],[120.646968,23.674327],[120.64709,23.673321],[120.646878,23.673073],[120.646931,23.672707],[120.645542,23.671841],[120.644976,23.671708],[120.644908,23.671347],[120.645044,23.671079],[120.644506,23.669856],[120.64455,23.669638],[120.64431,23.669471],[120.644163,23.668756],[120.644366,23.668378],[120.64451,23.667954],[120.644393,23.667606],[120.643685,23.667096],[120.642934,23.666239],[120.642367,23.665976],[120.641983,23.666048],[120.641734,23.665719],[120.641336,23.665663],[120.641328,23.665262],[120.640365,23.663975],[120.640343,23.662707],[120.64002,23.661452],[120.640136,23.661141],[120.640009,23.660935],[120.639698,23.660889],[120.64362,23.660508],[120.645674,23.660709],[120.649824,23.661543],[120.65251,23.661323],[120.654443,23.66091],[120.656172,23.665625],[120.657738,23.668856],[120.658617,23.670039],[120.66046,23.672014],[120.662367,23.673199],[120.662658,23.674416],[120.662986,23.677627],[120.663371,23.679754],[120.663269,23.68198],[120.661931,23.687681],[120.661401,23.689274],[120.660064,23.692145],[120.659084,23.692924],[120.657841,23.69442],[120.65706,23.69587],[120.655538,23.699636],[120.655495,23.700196],[120.655718,23.703368],[120.656152,23.70571],[120.659025,23.707572],[120.660564,23.707896],[120.661575,23.708591],[120.66261,23.709718],[120.663178,23.710793],[120.663627,23.711984],[120.663924,23.713773],[120.663988,23.714947],[120.663785,23.715933],[120.663161,23.717293],[120.662467,23.720005],[120.661571,23.722499],[120.661399,23.723558],[120.661513,23.725928],[120.661209,23.726916],[120.659992,23.728634],[120.6596,23.729827],[120.65962,23.731906],[120.655826,23.735036]]]},"properties":{"code":"10008040022","name":"鯉魚里","countyCode":"10008","countyName":"南投縣","townCode":"10008040","townName":"竹山鎮","level":"village","unassigned":false,"note":"","label":[120.6519760286012,23.716425343694517],"bounds":[120.638985,23.660508,120.663988,23.73662],"focusBounds":[120.638985,23.660508,120.663988,23.73662],"color":"#a8bf62"}},{"type":"Feature","id":"10008040023","geometry":{"type":"Polygon","coordinates":[[[120.694583,23.66262],[120.69353,23.663753],[120.688206,23.663133],[120.687212,23.663323],[120.686849,23.663844],[120.686219,23.665937],[120.684197,23.668195],[120.683809,23.668273],[120.68325,23.668116],[120.682151,23.667344],[120.680278,23.665717],[120.679455,23.6654],[120.676439,23.666651],[120.672424,23.669495],[120.670375,23.670383],[120.664889,23.670743],[120.663483,23.671235],[120.663027,23.671613],[120.662367,23.673199],[120.66046,23.672014],[120.658617,23.670039],[120.657738,23.668856],[120.656172,23.665625],[120.654443,23.66091],[120.653686,23.657215],[120.652522,23.65376],[120.652464,23.652819],[120.652706,23.652293],[120.653219,23.651769],[120.654364,23.651022],[120.656195,23.650421],[120.657271,23.650434],[120.658005,23.650201],[120.658924,23.649546],[120.659787,23.648465],[120.661029,23.648208],[120.662854,23.648214],[120.663455,23.648082],[120.664247,23.647357],[120.664985,23.645591],[120.667251,23.642036],[120.668156,23.641284],[120.669878,23.638978],[120.670497,23.637918],[120.67116,23.635832],[120.673402,23.631421],[120.673543,23.630326],[120.673266,23.628454],[120.673351,23.628039],[120.673522,23.627468],[120.674343,23.626041],[120.67529,23.62288],[120.675849,23.621651],[120.677606,23.618482],[120.682846,23.610834],[120.683729,23.610938],[120.685402,23.612673],[120.685638,23.614328],[120.685383,23.615477],[120.685593,23.616465],[120.686157,23.617345],[120.686058,23.618209],[120.688001,23.618873],[120.691319,23.620353],[120.691822,23.62035],[120.692778,23.619964],[120.694681,23.620295],[120.695575,23.620093],[120.696447,23.620094],[120.697222,23.619754],[120.697652,23.619185],[120.699555,23.618791],[120.700441,23.618291],[120.700875,23.618247],[120.70199,23.617452],[120.705029,23.617268],[120.70537,23.617449],[120.705754,23.617969],[120.706883,23.618688],[120.708065,23.618509],[120.708816,23.618661],[120.711102,23.619504],[120.712414,23.620313],[120.713838,23.620793],[120.714132,23.621284],[120.714152,23.622808],[120.713062,23.62784],[120.711334,23.628692],[120.707637,23.631205],[120.704542,23.634206],[120.703367,23.635675],[120.703487,23.638457],[120.704064,23.638706],[120.703958,23.639045],[120.70285,23.640232],[120.702288,23.641674],[120.696767,23.649289],[120.694451,23.654316],[120.693924,23.655979],[120.693943,23.657234],[120.694336,23.659172],[120.694274,23.661766],[120.694583,23.66262]]]},"properties":{"code":"10008040023","name":"瑞竹里","countyCode":"10008","countyName":"南投縣","townCode":"10008040","townName":"竹山鎮","level":"village","unassigned":false,"note":"","label":[120.68293858809564,23.644974163778002],"bounds":[120.652464,23.610834,120.714152,23.673199],"focusBounds":[120.652464,23.610834,120.714152,23.673199],"color":"#68bec9"}},{"type":"Feature","id":"10008040024","geometry":{"type":"Polygon","coordinates":[[[120.711613,23.689505],[120.708323,23.689298],[120.706381,23.688953],[120.704989,23.689093],[120.701704,23.690226],[120.701351,23.690178],[120.696795,23.688158],[120.695827,23.687935],[120.694027,23.687897],[120.691794,23.688218],[120.691167,23.6884],[120.690798,23.688677],[120.68921,23.690366],[120.688828,23.691086],[120.686652,23.692648],[120.685156,23.693022],[120.683884,23.693044],[120.683078,23.693528],[120.682437,23.694238],[120.681396,23.696249],[120.677986,23.69149],[120.677184,23.689836],[120.675894,23.685899],[120.675254,23.684884],[120.674227,23.683897],[120.668517,23.682224],[120.663269,23.68198],[120.663371,23.679754],[120.662986,23.677627],[120.662658,23.674416],[120.662367,23.673199],[120.663027,23.671613],[120.663483,23.671235],[120.664889,23.670743],[120.670375,23.670383],[120.672424,23.669495],[120.676439,23.666651],[120.679455,23.6654],[120.680278,23.665717],[120.682151,23.667344],[120.68325,23.668116],[120.683809,23.668273],[120.684197,23.668195],[120.686219,23.665937],[120.686849,23.663844],[120.687212,23.663323],[120.688206,23.663133],[120.69353,23.663753],[120.694583,23.66262],[120.695821,23.662004],[120.696299,23.66151],[120.696691,23.661378],[120.697686,23.661332],[120.698388,23.661636],[120.698717,23.662474],[120.698093,23.663882],[120.698071,23.664525],[120.69999,23.665827],[120.701478,23.667543],[120.702796,23.668004],[120.703414,23.668576],[120.703785,23.669184],[120.704015,23.6709],[120.704428,23.671283],[120.705442,23.671285],[120.70716,23.670888],[120.707635,23.670907],[120.708111,23.671062],[120.709234,23.67205],[120.709895,23.672128],[120.71204,23.671812],[120.712536,23.672138],[120.713467,23.672101],[120.715146,23.670998],[120.716221,23.670962],[120.717878,23.670184],[120.719554,23.670378],[120.721687,23.669333],[120.724048,23.6691],[120.724219,23.669231],[120.723695,23.674781],[120.722551,23.678104],[120.722352,23.678339],[120.721385,23.678653],[120.721214,23.678888],[120.721892,23.680695],[120.722173,23.682397],[120.722196,23.683402],[120.721712,23.685042],[120.721016,23.685969],[120.720164,23.686782],[120.718491,23.687294],[120.713823,23.687549],[120.713103,23.687909],[120.711613,23.689505]]]},"properties":{"code":"10008040024","name":"坪頂里","countyCode":"10008","countyName":"南投縣","townCode":"10008040","townName":"竹山鎮","level":"village","unassigned":false,"note":"","label":[120.69318778341116,23.67586556989238],"bounds":[120.662367,23.661332,120.724219,23.696249],"focusBounds":[120.662367,23.661332,120.724219,23.696249],"color":"#df9f6a"}},{"type":"Feature","id":"10008040025","geometry":{"type":"Polygon","coordinates":[[[120.654443,23.66091],[120.65251,23.661323],[120.649824,23.661543],[120.645674,23.660709],[120.64362,23.660508],[120.639698,23.660889],[120.639289,23.660675],[120.639286,23.66034],[120.638868,23.659756],[120.638482,23.659604],[120.638292,23.659075],[120.638082,23.65891],[120.638143,23.658366],[120.637486,23.657795],[120.637301,23.657149],[120.636854,23.656977],[120.636809,23.65658],[120.637104,23.656324],[120.636921,23.65543],[120.636614,23.654699],[120.636274,23.654533],[120.636321,23.654056],[120.63602,23.653057],[120.635593,23.65276],[120.635363,23.652065],[120.635146,23.652005],[120.634971,23.651573],[120.635318,23.650744],[120.634996,23.650307],[120.635098,23.649711],[120.636061,23.648741],[120.636352,23.648244],[120.636046,23.648146],[120.635676,23.647668],[120.634832,23.647078],[120.635007,23.64621],[120.63492,23.645832],[120.634682,23.645445],[120.634776,23.645104],[120.635053,23.644956],[120.635264,23.64431],[120.635207,23.642862],[120.634715,23.642141],[120.634293,23.642006],[120.634146,23.64162],[120.633576,23.641321],[120.633467,23.641014],[120.631789,23.640195],[120.63174,23.639077],[120.631151,23.638019],[120.63027,23.637134],[120.630141,23.636538],[120.629077,23.635165],[120.629148,23.634896],[120.629552,23.634665],[120.630013,23.633869],[120.630162,23.632637],[120.629978,23.631957],[120.629149,23.630699],[120.628717,23.630317],[120.628704,23.630091],[120.628938,23.629165],[120.629666,23.628088],[120.629896,23.627438],[120.630117,23.625558],[120.630585,23.624253],[120.630426,23.623272],[120.630725,23.622815],[120.630787,23.622088],[120.632719,23.620216],[120.6329,23.619831],[120.633828,23.619107],[120.634305,23.619283],[120.634888,23.619806],[120.635412,23.619879],[120.63614,23.621018],[120.636592,23.621359],[120.637804,23.623007],[120.638735,23.624742],[120.639722,23.625425],[120.640933,23.625841],[120.641761,23.626921],[120.642384,23.627289],[120.642523,23.627684],[120.642975,23.628159],[120.643871,23.628247],[120.644097,23.628935],[120.644423,23.629268],[120.644898,23.630759],[120.645135,23.630984],[120.646684,23.631007],[120.649087,23.629837],[120.65081,23.629765],[120.651371,23.629927],[120.652081,23.629491],[120.653003,23.629506],[120.653595,23.628824],[120.653596,23.628208],[120.653113,23.627188],[120.653012,23.625694],[120.652544,23.624558],[120.652423,23.622745],[120.652923,23.621865],[120.652494,23.620433],[120.65235,23.619307],[120.651977,23.618666],[120.652001,23.618015],[120.651402,23.616265],[120.651449,23.616106],[120.651879,23.615962],[120.654186,23.615583],[120.658353,23.613833],[120.658824,23.613363],[120.659394,23.61217],[120.660041,23.61136],[120.66133,23.610438],[120.662586,23.610668],[120.663662,23.611167],[120.664512,23.611118],[120.665495,23.610785],[120.666175,23.610354],[120.667189,23.610069],[120.667901,23.609412],[120.669136,23.60934],[120.672693,23.609734],[120.673668,23.610167],[120.675476,23.610264],[120.676617,23.61055],[120.677778,23.611049],[120.680944,23.611026],[120.682846,23.610834],[120.677606,23.618482],[120.675849,23.621651],[120.67529,23.62288],[120.674343,23.626041],[120.673522,23.627468],[120.673351,23.628039],[120.673266,23.628454],[120.673543,23.630326],[120.673402,23.631421],[120.67116,23.635832],[120.670497,23.637918],[120.669878,23.638978],[120.668156,23.641284],[120.667251,23.642036],[120.664985,23.645591],[120.664247,23.647357],[120.663455,23.648082],[120.662854,23.648214],[120.661029,23.648208],[120.659787,23.648465],[120.658924,23.649546],[120.658005,23.650201],[120.657271,23.650434],[120.656195,23.650421],[120.654364,23.651022],[120.653219,23.651769],[120.652706,23.652293],[120.652464,23.652819],[120.652522,23.65376],[120.653686,23.657215],[120.654443,23.66091]]]},"properties":{"code":"10008040025","name":"桶頭里","countyCode":"10008","countyName":"南投縣","townCode":"10008040","townName":"竹山鎮","level":"village","unassigned":false,"note":"","label":[120.65175638716244,23.640615282591742],"bounds":[120.628704,23.60934,120.682846,23.661543],"focusBounds":[120.628704,23.60934,120.682846,23.661543],"color":"#c38cb8"}},{"type":"Feature","id":"10008040026","geometry":{"type":"Polygon","coordinates":[[[120.718221,23.734971],[120.71118,23.735213],[120.707943,23.735974],[120.705219,23.736942],[120.701677,23.737168],[120.700158,23.738291],[120.699605,23.738514],[120.698628,23.738096],[120.698028,23.737231],[120.697095,23.736619],[120.696336,23.736568],[120.695503,23.736749],[120.69498,23.737188],[120.694526,23.738228],[120.693735,23.738884],[120.691776,23.739884],[120.69054,23.740216],[120.689366,23.740724],[120.687957,23.741642],[120.686633,23.742797],[120.686034,23.743561],[120.685632,23.746499],[120.68363,23.749112],[120.681702,23.747927],[120.680779,23.747243],[120.680335,23.746439],[120.679855,23.743368],[120.67891,23.739977],[120.679296,23.739177],[120.679419,23.737638],[120.680965,23.735878],[120.681297,23.735138],[120.681391,23.733993],[120.681613,23.731281],[120.681623,23.728416],[120.682826,23.728875],[120.683697,23.728969],[120.684673,23.728842],[120.685288,23.72857],[120.688349,23.72438],[120.688992,23.722607],[120.691724,23.722536],[120.692026,23.722351],[120.692329,23.722011],[120.693512,23.719428],[120.693889,23.718901],[120.694998,23.71847],[120.696004,23.718508],[120.695934,23.717063],[120.696114,23.716424],[120.696789,23.715697],[120.701987,23.712332],[120.704253,23.711296],[120.710899,23.706924],[120.711369,23.70655],[120.712209,23.705477],[120.714058,23.702887],[120.71451,23.7075],[120.715417,23.709989],[120.715402,23.710425],[120.714905,23.711413],[120.715021,23.71232],[120.717749,23.715919],[120.72174,23.719974],[120.721396,23.721468],[120.721515,23.722737],[120.721309,23.723421],[120.719645,23.72521],[120.719352,23.726011],[120.71976,23.72949],[120.719604,23.730152],[120.718472,23.732335],[120.718221,23.734971]]]},"properties":{"code":"10008040026","name":"秀林里","countyCode":"10008","countyName":"南投縣","townCode":"10008040","townName":"竹山鎮","level":"village","unassigned":false,"note":"","label":[120.70295556881783,23.72643432136664],"bounds":[120.67891,23.702887,120.72174,23.749112],"focusBounds":[120.67891,23.702887,120.72174,23.749112],"color":"#98b69b"}},{"type":"Feature","id":"10008040027","geometry":{"type":"Polygon","coordinates":[[[120.709472,23.760461],[120.709827,23.761064],[120.7097,23.76131],[120.708653,23.761676],[120.708222,23.761989],[120.707621,23.763119],[120.707307,23.764218],[120.706645,23.764505],[120.70659,23.764927],[120.704714,23.766626],[120.704472,23.766637],[120.704154,23.766372],[120.70362,23.766355],[120.703257,23.766686],[120.702665,23.766809],[120.701375,23.766355],[120.700897,23.766968],[120.700207,23.766856],[120.698842,23.767235],[120.695917,23.761961],[120.699087,23.76292],[120.700045,23.761502],[120.700411,23.761816],[120.700989,23.76091],[120.699742,23.76009],[120.698564,23.760065],[120.697222,23.758579],[120.696934,23.758468],[120.695027,23.758817],[120.693576,23.758412],[120.692643,23.757248],[120.693434,23.756841],[120.693768,23.756304],[120.69406,23.756178],[120.694434,23.75628],[120.694628,23.756599],[120.69539,23.756996],[120.695869,23.756703],[120.696389,23.756763],[120.69641,23.756302],[120.699469,23.75585],[120.700632,23.755071],[120.70145,23.754197],[120.706453,23.758164],[120.706724,23.75882],[120.707706,23.760254],[120.708838,23.760504],[120.709472,23.760461]]]},"properties":{"code":"10008040027","name":"延祥里","countyCode":"10008","countyName":"南投縣","townCode":"10008040","townName":"竹山鎮","level":"village","unassigned":false,"note":"","label":[120.70413325991483,23.76212890508952],"bounds":[120.692643,23.754197,120.709827,23.767235],"focusBounds":[120.692643,23.754197,120.709827,23.767235],"color":"#efb44f"}},{"type":"Feature","id":"10008040028","geometry":{"type":"Polygon","coordinates":[[[120.671158,23.762023],[120.672017,23.761842],[120.673936,23.760817],[120.679928,23.75711],[120.681936,23.756772],[120.681741,23.757976],[120.681261,23.758782],[120.68255,23.759128],[120.682486,23.759545],[120.682644,23.760177],[120.68235,23.760958],[120.680658,23.762487],[120.678955,23.760667],[120.674047,23.765271],[120.671005,23.766052],[120.67132,23.764125],[120.671329,23.762472],[120.671158,23.762023]]]},"properties":{"code":"10008040028","name":"竹圍里","countyCode":"10008","countyName":"南投縣","townCode":"10008040","townName":"竹山鎮","level":"village","unassigned":false,"note":"","label":[120.67637327062066,23.761198671324664],"bounds":[120.671005,23.756772,120.682644,23.766052],"focusBounds":[120.671005,23.756772,120.682644,23.766052],"color":"#78a7e3"}}]}
