{"type":"FeatureCollection","features":[{"type":"Feature","id":"10005180001","geometry":{"type":"Polygon","coordinates":[[[120.965636,24.506556],[120.96427,24.505102],[120.963031,24.504421],[120.962699,24.504388],[120.95878,24.504732],[120.957519,24.505025],[120.955624,24.504777],[120.954966,24.504815],[120.954394,24.505507],[120.954046,24.506422],[120.953692,24.506613],[120.952902,24.506621],[120.952198,24.506308],[120.950685,24.506507],[120.949916,24.506372],[120.949554,24.506526],[120.949032,24.506195],[120.9482,24.505315],[120.946851,24.503469],[120.946018,24.502949],[120.945709,24.502866],[120.944024,24.503096],[120.943306,24.50345],[120.942662,24.502926],[120.94126,24.501316],[120.940547,24.500832],[120.940038,24.499752],[120.93879,24.498998],[120.937274,24.498677],[120.936039,24.498039],[120.933965,24.497507],[120.933102,24.496765],[120.929757,24.498097],[120.929338,24.497427],[120.927157,24.49648],[120.926933,24.496246],[120.926162,24.496303],[120.924792,24.496022],[120.923745,24.496081],[120.922649,24.49558],[120.921209,24.495536],[120.92082,24.493938],[120.920284,24.492926],[120.919928,24.492595],[120.919908,24.491649],[120.919216,24.490284],[120.919625,24.489474],[120.919546,24.488645],[120.920429,24.486733],[120.920555,24.485265],[120.920802,24.484426],[120.920527,24.48359],[120.920521,24.482599],[120.921932,24.481024],[120.921118,24.479316],[120.920363,24.47881],[120.919791,24.477994],[120.919344,24.476925],[120.918347,24.476047],[120.917656,24.475771],[120.917333,24.475487],[120.91638,24.473494],[120.916333,24.473239],[120.916685,24.472422],[120.916672,24.471127],[120.916432,24.470318],[120.91647,24.469544],[120.916093,24.468209],[120.915528,24.467697],[120.914887,24.467639],[120.91501,24.467184],[120.915797,24.466737],[120.916167,24.466336],[120.916517,24.465473],[120.919267,24.4669],[120.921116,24.468503],[120.921842,24.469802],[120.923262,24.471042],[120.933368,24.478148],[120.933863,24.479146],[120.933731,24.480233],[120.934325,24.480929],[120.93492,24.48105],[120.935613,24.481654],[120.937859,24.484707],[120.942881,24.485646],[120.944434,24.485496],[120.947011,24.484892],[120.948829,24.484802],[120.950646,24.485196],[120.954545,24.48559],[120.955932,24.486255],[120.960724,24.485199],[120.962773,24.485351],[120.965481,24.487829],[120.967001,24.488887],[120.969281,24.490157],[120.970536,24.491275],[120.972684,24.493663],[120.978201,24.500735],[120.979027,24.5014],[120.979289,24.501849],[120.976845,24.502514],[120.973319,24.503762],[120.970865,24.505034],[120.969045,24.505425],[120.96758,24.506114],[120.965636,24.506556]]]},"properties":{"code":"10005180001","name":"八卦村","countyCode":"10005","countyName":"苗栗縣","townCode":"10005180","townName":"泰安鄉","level":"village","unassigned":false,"note":"","label":[120.94816535027252,24.493590846324125],"bounds":[120.914887,24.465473,120.979289,24.506621],"focusBounds":[120.914887,24.465473,120.979289,24.506621],"color":"#78a7e3"}},{"type":"Feature","id":"10005180002","geometry":{"type":"Polygon","coordinates":[[[121.068742,24.496245],[121.067937,24.49581],[121.067355,24.495276],[121.066782,24.49509],[121.066243,24.495264],[121.064953,24.496398],[121.064069,24.496399],[121.061655,24.496913],[121.061252,24.497138],[121.05983,24.498631],[121.058929,24.500068],[121.058194,24.500388],[121.057342,24.498939],[121.057286,24.498045],[121.055185,24.496742],[121.053778,24.496546],[121.052811,24.497127],[121.051125,24.497404],[121.050383,24.496851],[121.049845,24.496645],[121.047804,24.4967],[121.045699,24.495052],[121.043544,24.494935],[121.041714,24.495134],[121.040512,24.494971],[121.040117,24.494827],[121.039376,24.493746],[121.038828,24.493394],[121.035825,24.493251],[121.034973,24.492725],[121.033885,24.492718],[121.032382,24.491809],[121.031886,24.491903],[121.031232,24.492472],[121.030167,24.49279],[121.02945,24.49279],[121.028673,24.492393],[121.026994,24.492624],[121.026679,24.492754],[121.025944,24.494054],[121.025629,24.495313],[121.025487,24.497169],[121.025908,24.498846],[121.025335,24.499394],[121.024583,24.50086],[121.023617,24.501917],[121.022942,24.50229],[121.021455,24.50252],[121.02133,24.505243],[121.020891,24.506545],[121.020524,24.506996],[121.018531,24.508024],[121.01717,24.50827],[121.015746,24.509555],[121.013848,24.509752],[121.012267,24.510787],[121.010816,24.51019],[121.009517,24.510247],[121.008057,24.509311],[121.006496,24.508808],[121.005662,24.50771],[121.003748,24.506307],[121.002173,24.50567],[120.999453,24.50235],[120.998431,24.501656],[120.996168,24.502004],[120.995245,24.501609],[120.993944,24.501286],[120.991219,24.500951],[120.989385,24.502105],[120.988081,24.502387],[120.983866,24.502428],[120.98126,24.501843],[120.979289,24.501849],[120.979027,24.5014],[120.978201,24.500735],[120.972684,24.493663],[120.970536,24.491275],[120.969281,24.490157],[120.967001,24.488887],[120.965481,24.487829],[120.962773,24.485351],[120.960724,24.485199],[120.955932,24.486255],[120.954545,24.48559],[120.950646,24.485196],[120.948829,24.484802],[120.947011,24.484892],[120.944434,24.485496],[120.942881,24.485646],[120.937859,24.484707],[120.935613,24.481654],[120.93492,24.48105],[120.934325,24.480929],[120.933731,24.480233],[120.933863,24.479146],[120.933368,24.478148],[120.923262,24.471042],[120.921842,24.469802],[120.921116,24.468503],[120.919267,24.4669],[120.916517,24.465473],[120.91633,24.465083],[120.914117,24.462902],[120.913502,24.462112],[120.911706,24.458376],[120.911284,24.45681],[120.911213,24.455979],[120.914567,24.455989],[120.914888,24.455024],[120.916076,24.454985],[120.916077,24.454629],[120.917154,24.454303],[120.918059,24.453716],[120.919363,24.453519],[120.920782,24.452048],[120.922084,24.449324],[120.924002,24.448379],[120.924861,24.448288],[120.926017,24.448712],[120.931763,24.451767],[120.936288,24.452947],[120.939163,24.452223],[120.944514,24.451531],[120.948445,24.451441],[120.949701,24.451593],[120.950758,24.451956],[120.951385,24.451865],[120.952443,24.450899],[120.953335,24.449751],[120.954657,24.448724],[120.955813,24.447304],[120.95654,24.447062],[120.956771,24.447093],[120.958423,24.448513],[120.960239,24.451506],[120.960998,24.453772],[120.961658,24.454558],[120.962087,24.454679],[120.963574,24.454468],[120.969355,24.454499],[120.971635,24.453714],[120.972263,24.452959],[120.97441,24.452143],[120.977119,24.449575],[120.978176,24.448941],[120.979465,24.448397],[120.995651,24.449335],[120.99717,24.449184],[120.99793,24.44864],[120.998161,24.446586],[120.998624,24.445528],[120.999549,24.444773],[121.002059,24.444621],[121.007807,24.447824],[121.00959,24.447704],[121.013224,24.446072],[121.016626,24.445376],[121.018179,24.445467],[121.025182,24.446554],[121.025116,24.447218],[121.027098,24.449424],[121.027891,24.450814],[121.029279,24.452355],[121.032649,24.45456],[121.033211,24.456645],[121.03417,24.458337],[121.03612,24.461026],[121.036682,24.463897],[121.03731,24.464712],[121.041176,24.465618],[121.043456,24.46743],[121.043985,24.468307],[121.044052,24.470936],[121.044449,24.471902],[121.045242,24.47305],[121.046431,24.473352],[121.049604,24.475648],[121.049837,24.478911],[121.050035,24.479818],[121.049672,24.480906],[121.049805,24.481691],[121.050367,24.48293],[121.051226,24.483776],[121.053474,24.484742],[121.054135,24.485437],[121.055391,24.486071],[121.057538,24.486252],[121.061603,24.487791],[121.062397,24.487972],[121.063686,24.488637],[121.065603,24.490298],[121.066562,24.490902],[121.067488,24.492412],[121.067555,24.494739],[121.068742,24.496245]]]},"properties":{"code":"10005180002","name":"錦水村","countyCode":"10005","countyName":"苗栗縣","townCode":"10005180","townName":"泰安鄉","level":"village","unassigned":false,"note":"","label":[120.99192157513929,24.475078494749198],"bounds":[120.911213,24.444621,121.068742,24.510787],"focusBounds":[120.911213,24.444621,121.068742,24.510787],"color":"#dd8590"}},{"type":"Feature","id":"10005180003","geometry":{"type":"Polygon","coordinates":[[[120.971635,24.453714],[120.969355,24.454499],[120.963574,24.454468],[120.962087,24.454679],[120.961658,24.454558],[120.960998,24.453772],[120.960239,24.451506],[120.958423,24.448513],[120.956771,24.447093],[120.95654,24.447062],[120.955813,24.447304],[120.954657,24.448724],[120.953335,24.449751],[120.952443,24.450899],[120.951385,24.451865],[120.950758,24.451956],[120.949701,24.451593],[120.948445,24.451441],[120.944514,24.451531],[120.939163,24.452223],[120.936288,24.452947],[120.931763,24.451767],[120.926017,24.448712],[120.924861,24.448288],[120.924002,24.448379],[120.922084,24.449324],[120.920782,24.452048],[120.919363,24.453519],[120.918059,24.453716],[120.917154,24.454303],[120.916077,24.454629],[120.916076,24.454985],[120.914888,24.455024],[120.914567,24.455989],[120.911213,24.455979],[120.911194,24.453303],[120.911037,24.452738],[120.910489,24.45197],[120.90937,24.450822],[120.90794,24.449827],[120.906146,24.448064],[120.904131,24.447114],[120.905009,24.445967],[120.906505,24.446253],[120.90753,24.44572],[120.908182,24.444989],[120.908669,24.444823],[120.909207,24.444189],[120.909962,24.443745],[120.910337,24.442185],[120.910832,24.441305],[120.912363,24.437504],[120.912754,24.436902],[120.913231,24.436497],[120.913266,24.435998],[120.913084,24.435403],[120.912308,24.4348],[120.912121,24.434445],[120.912064,24.433441],[120.912067,24.433378],[120.912445,24.433578],[120.912515,24.433355],[120.913353,24.433843],[120.913778,24.433818],[120.91481,24.433234],[120.914826,24.432968],[120.915923,24.432101],[120.917066,24.431654],[120.917572,24.431766],[120.917481,24.431476],[120.917839,24.43093],[120.918104,24.431005],[120.918398,24.43145],[120.918647,24.431328],[120.918775,24.431411],[120.918584,24.43104],[120.918699,24.43065],[120.918081,24.430089],[120.918825,24.43007],[120.919182,24.430259],[120.919455,24.430686],[120.920441,24.430975],[120.920558,24.430477],[120.92075,24.431189],[120.921073,24.431288],[120.921028,24.431588],[120.921269,24.43183],[120.921952,24.432074],[120.922098,24.432502],[120.922538,24.432869],[120.922781,24.433361],[120.923192,24.433179],[120.923144,24.433469],[120.923345,24.433531],[120.923786,24.432818],[120.924652,24.432576],[120.924829,24.432405],[120.924619,24.43143],[120.924998,24.430599],[120.928641,24.429138],[120.92887,24.428806],[120.93066,24.4286],[120.930791,24.427817],[120.930564,24.426792],[120.930928,24.426662],[120.931359,24.425974],[120.931962,24.427287],[120.93293,24.426491],[120.932864,24.426906],[120.933169,24.42757],[120.933917,24.42765],[120.934244,24.427447],[120.934435,24.427697],[120.935216,24.427835],[120.935708,24.427495],[120.93643,24.42763],[120.936486,24.427211],[120.936767,24.427082],[120.936867,24.426776],[120.937155,24.426738],[120.937332,24.426457],[120.937532,24.426437],[120.937967,24.427315],[120.937868,24.427391],[120.937621,24.427193],[120.937757,24.427775],[120.937919,24.427982],[120.938262,24.42808],[120.938224,24.428433],[120.938565,24.428338],[120.938905,24.42794],[120.939588,24.427527],[120.939832,24.427633],[120.939758,24.427993],[120.941519,24.427385],[120.946143,24.427719],[120.951096,24.42893],[120.956743,24.432739],[120.958162,24.435791],[120.958822,24.437605],[120.960968,24.440355],[120.962091,24.443468],[120.96285,24.444647],[120.96493,24.447065],[120.965492,24.448183],[120.967011,24.449573],[120.968861,24.450752],[120.971635,24.453714]]]},"properties":{"code":"10005180003","name":"清安村","countyCode":"10005","countyName":"苗栗縣","townCode":"10005180","townName":"泰安鄉","level":"village","unassigned":false,"note":"","label":[120.9363321493053,24.44027404578647],"bounds":[120.904131,24.425974,120.971635,24.455989],"focusBounds":[120.904131,24.425974,120.971635,24.455989],"color":"#a49ad4"}},{"type":"Feature","id":"10005180004","geometry":{"type":"Polygon","coordinates":[[[120.956743,24.432739],[120.951096,24.42893],[120.946143,24.427719],[120.941519,24.427385],[120.939758,24.427993],[120.939832,24.427633],[120.939588,24.427527],[120.938905,24.42794],[120.938565,24.428338],[120.938224,24.428433],[120.938262,24.42808],[120.937919,24.427982],[120.937757,24.427775],[120.937621,24.427193],[120.937868,24.427391],[120.937967,24.427315],[120.937532,24.426437],[120.937332,24.426457],[120.937155,24.426738],[120.936867,24.426776],[120.936767,24.427082],[120.936486,24.427211],[120.93643,24.42763],[120.935708,24.427495],[120.935216,24.427835],[120.934435,24.427697],[120.934244,24.427447],[120.933917,24.42765],[120.933169,24.42757],[120.932864,24.426906],[120.93293,24.426491],[120.931962,24.427287],[120.931359,24.425974],[120.930928,24.426662],[120.930564,24.426792],[120.930791,24.427817],[120.93066,24.4286],[120.92887,24.428806],[120.928641,24.429138],[120.924998,24.430599],[120.924619,24.43143],[120.924829,24.432405],[120.924652,24.432576],[120.923786,24.432818],[120.923345,24.433531],[120.923144,24.433469],[120.923192,24.433179],[120.922781,24.433361],[120.922538,24.432869],[120.922098,24.432502],[120.921952,24.432074],[120.921269,24.43183],[120.921028,24.431588],[120.921073,24.431288],[120.92075,24.431189],[120.920558,24.430477],[120.920441,24.430975],[120.919455,24.430686],[120.919182,24.430259],[120.918825,24.43007],[120.918081,24.430089],[120.918699,24.43065],[120.918584,24.43104],[120.918775,24.431411],[120.918647,24.431328],[120.918398,24.43145],[120.918104,24.431005],[120.917839,24.43093],[120.917481,24.431476],[120.917572,24.431766],[120.917066,24.431654],[120.915923,24.432101],[120.914826,24.432968],[120.91481,24.433234],[120.913778,24.433818],[120.913353,24.433843],[120.912515,24.433355],[120.912445,24.433578],[120.912067,24.433378],[120.912087,24.433025],[120.91162,24.43202],[120.911803,24.430473],[120.911726,24.428791],[120.911465,24.428261],[120.911483,24.427793],[120.911223,24.427024],[120.910634,24.426111],[120.910616,24.425312],[120.910243,24.424931],[120.908674,24.424431],[120.908141,24.423856],[120.907382,24.423557],[120.90715,24.423328],[120.907224,24.423147],[120.907881,24.422984],[120.908149,24.422141],[120.907994,24.421446],[120.907412,24.420329],[120.907942,24.419158],[120.90802,24.418444],[120.907175,24.417739],[120.90708,24.416609],[120.908432,24.415237],[120.909577,24.414964],[120.91075,24.414478],[120.911529,24.413505],[120.912022,24.411795],[120.911758,24.409442],[120.912225,24.407688],[120.912787,24.407166],[120.913477,24.406797],[120.91398,24.405949],[120.91558,24.405421],[120.916122,24.405088],[120.916665,24.404259],[120.91769,24.403349],[120.919141,24.400572],[120.919405,24.399479],[120.922674,24.404471],[120.923168,24.405559],[120.924653,24.407524],[120.926667,24.408673],[120.93096,24.409491],[120.932709,24.410489],[120.933303,24.411275],[120.933797,24.414207],[120.933631,24.41602],[120.933796,24.417108],[120.936173,24.418438],[120.940663,24.422127],[120.941752,24.422671],[120.94337,24.422944],[120.947202,24.422522],[120.948655,24.422553],[120.951627,24.423279],[120.953542,24.424156],[120.954664,24.42603],[120.955787,24.428417],[120.95605,24.43008],[120.95605,24.431198],[120.956743,24.432739]]]},"properties":{"code":"10005180004","name":"大興村","countyCode":"10005","countyName":"苗栗縣","townCode":"10005180","townName":"泰安鄉","level":"village","unassigned":false,"note":"","label":[120.92117949010904,24.419185700478195],"bounds":[120.90708,24.399479,120.956743,24.433843],"focusBounds":[120.90708,24.399479,120.956743,24.433843],"color":"#68bec9"}},{"type":"Feature","id":"10005180005","geometry":{"type":"Polygon","coordinates":[[[121.025182,24.446554],[121.018179,24.445467],[121.016626,24.445376],[121.013224,24.446072],[121.00959,24.447704],[121.007807,24.447824],[121.002059,24.444621],[120.999549,24.444773],[120.998624,24.445528],[120.998161,24.446586],[120.99793,24.44864],[120.99717,24.449184],[120.995651,24.449335],[120.979465,24.448397],[120.978176,24.448941],[120.977119,24.449575],[120.97441,24.452143],[120.972263,24.452959],[120.971635,24.453714],[120.968861,24.450752],[120.967011,24.449573],[120.965492,24.448183],[120.96493,24.447065],[120.96285,24.444647],[120.962091,24.443468],[120.960968,24.440355],[120.958822,24.437605],[120.958162,24.435791],[120.956743,24.432739],[120.95605,24.431198],[120.95605,24.43008],[120.955787,24.428417],[120.954664,24.42603],[120.953542,24.424156],[120.951627,24.423279],[120.948655,24.422553],[120.947202,24.422522],[120.94337,24.422944],[120.941752,24.422671],[120.940663,24.422127],[120.936173,24.418438],[120.933796,24.417108],[120.933631,24.41602],[120.933797,24.414207],[120.933303,24.411275],[120.932709,24.410489],[120.93096,24.409491],[120.926667,24.408673],[120.924653,24.407524],[120.923168,24.405559],[120.922674,24.404471],[120.919405,24.399479],[120.919606,24.398789],[120.919557,24.397263],[120.919478,24.396515],[120.918986,24.395138],[120.916776,24.392411],[120.916414,24.391798],[120.915468,24.390965],[120.915295,24.390064],[120.914283,24.387968],[120.914877,24.386925],[120.914995,24.386061],[120.913923,24.380885],[120.914243,24.378446],[120.914721,24.376989],[120.914819,24.376174],[120.914541,24.375281],[120.913707,24.374287],[120.913547,24.372322],[120.91385,24.36918],[120.913561,24.366993],[120.918768,24.365699],[120.919692,24.365609],[120.920881,24.365821],[120.922597,24.366335],[120.923422,24.36697],[120.924609,24.36966],[120.925928,24.37226],[120.926852,24.373227],[120.934345,24.375406],[120.937315,24.376677],[120.938768,24.376859],[120.940352,24.377313],[120.941178,24.377736],[120.942036,24.378432],[120.943323,24.380245],[120.94484,24.384355],[120.945466,24.387559],[120.94639,24.387892],[120.948932,24.388195],[120.949361,24.388376],[120.950912,24.390703],[120.952397,24.393575],[120.953024,24.394421],[120.955929,24.39687],[120.959098,24.398684],[120.963258,24.400891],[120.96732,24.401224],[120.968509,24.401164],[120.97049,24.401497],[120.971282,24.401769],[120.972041,24.403582],[120.973032,24.405395],[120.974781,24.406665],[120.976697,24.407118],[120.9834,24.407361],[120.987528,24.406667],[120.988651,24.406878],[120.990731,24.407573],[120.991887,24.408238],[120.993604,24.408964],[120.996972,24.409689],[120.998029,24.409659],[121.000671,24.408511],[121.001926,24.408329],[121.002916,24.40839],[121.003478,24.409266],[121.004304,24.413527],[121.00546,24.4167],[121.007772,24.421474],[121.008961,24.423015],[121.010084,24.424073],[121.011174,24.424314],[121.011801,24.424707],[121.013486,24.426671],[121.013057,24.429119],[121.01342,24.430056],[121.016525,24.432987],[121.017814,24.435041],[121.021514,24.438909],[121.023529,24.442565],[121.025182,24.446554]]]},"properties":{"code":"10005180005","name":"中興村","countyCode":"10005","countyName":"苗栗縣","townCode":"10005180","townName":"泰安鄉","level":"village","unassigned":false,"note":"","label":[120.97833191592869,24.428026432119218],"bounds":[120.913547,24.365609,121.025182,24.453714],"focusBounds":[120.913547,24.365609,121.025182,24.453714],"color":"#a8bf62"}},{"type":"Feature","id":"10005180006","geometry":{"type":"Polygon","coordinates":[[[121.262477,24.455404],[121.261516,24.45598],[121.260017,24.456349],[121.258989,24.456776],[121.258041,24.457463],[121.258092,24.463241],[121.25797,24.463353],[121.255686,24.46424],[121.252848,24.464547],[121.250701,24.465463],[121.249311,24.46587],[121.248533,24.466507],[121.246426,24.468765],[121.244428,24.469938],[121.244526,24.471439],[121.244393,24.472937],[121.243978,24.475563],[121.243299,24.477294],[121.242951,24.477851],[121.242293,24.478476],[121.239396,24.480074],[121.23845,24.481362],[121.234719,24.483661],[121.234569,24.485381],[121.234648,24.487741],[121.234435,24.488018],[121.233677,24.487467],[121.233431,24.487456],[121.230835,24.48843],[121.229928,24.488914],[121.229729,24.489216],[121.229659,24.490121],[121.228785,24.492412],[121.225621,24.493475],[121.223506,24.494392],[121.222594,24.495106],[121.221422,24.496452],[121.219945,24.497277],[121.219189,24.498008],[121.218673,24.498262],[121.218799,24.498747],[121.219422,24.499752],[121.219742,24.500765],[121.220966,24.50145],[121.220941,24.502568],[121.221639,24.503707],[121.221929,24.504817],[121.222438,24.505358],[121.223468,24.506008],[121.223642,24.506307],[121.223398,24.506706],[121.222143,24.507507],[121.219803,24.508335],[121.217472,24.509651],[121.217393,24.510078],[121.217671,24.5113],[121.217515,24.512368],[121.217637,24.513796],[121.21737,24.514363],[121.216745,24.515046],[121.215818,24.515522],[121.214782,24.515262],[121.213605,24.514504],[121.210334,24.511878],[121.209551,24.511486],[121.208178,24.511632],[121.207442,24.512466],[121.206667,24.512955],[121.205406,24.512772],[121.204589,24.512164],[121.204015,24.512168],[121.203168,24.512494],[121.202409,24.511739],[121.200688,24.511501],[121.200249,24.51129],[121.19807,24.508837],[121.196459,24.507617],[121.195555,24.507119],[121.194436,24.507027],[121.191622,24.507469],[121.189855,24.50661],[121.188886,24.506348],[121.18671,24.505361],[121.186072,24.505895],[121.184363,24.506527],[121.183189,24.507933],[121.179417,24.507984],[121.177399,24.507437],[121.176127,24.505855],[121.174689,24.504841],[121.172701,24.504711],[121.172173,24.504602],[121.171402,24.504132],[121.17058,24.504117],[121.169933,24.503546],[121.169346,24.50262],[121.169138,24.502588],[121.164937,24.50351],[121.161418,24.503581],[121.159154,24.504783],[121.158135,24.505122],[121.156669,24.506316],[121.155021,24.506799],[121.154494,24.506823],[121.150586,24.506092],[121.147121,24.508725],[121.146088,24.509694],[121.145539,24.51046],[121.145025,24.51192],[121.143682,24.511115],[121.142531,24.510005],[121.141646,24.509612],[121.139769,24.508235],[121.136995,24.506655],[121.133263,24.506797],[121.129657,24.506695],[121.127666,24.50817],[121.12686,24.508358],[121.125971,24.508289],[121.125379,24.508503],[121.123874,24.509935],[121.123238,24.510239],[121.122042,24.509041],[121.120962,24.50842],[121.117147,24.508442],[121.114335,24.5071],[121.113335,24.506465],[121.110705,24.50295],[121.109996,24.502484],[121.108934,24.500971],[121.108045,24.500676],[121.105328,24.500607],[121.104635,24.499809],[121.103063,24.499122],[121.10246,24.498252],[121.101198,24.498418],[121.100338,24.498228],[121.099599,24.497826],[121.098323,24.496478],[121.096696,24.496359],[121.094886,24.496523],[121.094113,24.496706],[121.09246,24.497424],[121.090813,24.497708],[121.089073,24.49884],[121.087752,24.499399],[121.086686,24.500771],[121.085556,24.501308],[121.08367,24.501134],[121.081026,24.499898],[121.079771,24.499566],[121.07892,24.499068],[121.07794,24.499042],[121.075438,24.499452],[121.072891,24.498784],[121.071888,24.498381],[121.070282,24.496976],[121.068742,24.496245],[121.067555,24.494739],[121.067488,24.492412],[121.066562,24.490902],[121.065603,24.490298],[121.063686,24.488637],[121.062397,24.487972],[121.061603,24.487791],[121.057538,24.486252],[121.055391,24.486071],[121.054135,24.485437],[121.053474,24.484742],[121.051226,24.483776],[121.050367,24.48293],[121.049805,24.481691],[121.049672,24.480906],[121.050035,24.479818],[121.049837,24.478911],[121.049604,24.475648],[121.046431,24.473352],[121.045242,24.47305],[121.044449,24.471902],[121.044052,24.470936],[121.043985,24.468307],[121.043456,24.46743],[121.041176,24.465618],[121.03731,24.464712],[121.036682,24.463897],[121.03612,24.461026],[121.03417,24.458337],[121.033211,24.456645],[121.032649,24.45456],[121.029279,24.452355],[121.027891,24.450814],[121.027098,24.449424],[121.025116,24.447218],[121.025182,24.446554],[121.023529,24.442565],[121.021514,24.438909],[121.017814,24.435041],[121.016525,24.432987],[121.01342,24.430056],[121.013057,24.429119],[121.013486,24.426671],[121.011801,24.424707],[121.011174,24.424314],[121.010084,24.424073],[121.008961,24.423015],[121.007772,24.421474],[121.00546,24.4167],[121.004304,24.413527],[121.003478,24.409266],[121.002916,24.40839],[121.001926,24.408329],[121.000671,24.408511],[120.998029,24.409659],[120.996972,24.409689],[120.993604,24.408964],[120.991887,24.408238],[120.990731,24.407573],[120.988651,24.406878],[120.987528,24.406667],[120.9834,24.407361],[120.976697,24.407118],[120.974781,24.406665],[120.973032,24.405395],[120.972041,24.403582],[120.971282,24.401769],[120.97049,24.401497],[120.968509,24.401164],[120.96732,24.401224],[120.963258,24.400891],[120.959098,24.398684],[120.955929,24.39687],[120.953024,24.394421],[120.952397,24.393575],[120.950912,24.390703],[120.949361,24.388376],[120.948932,24.388195],[120.94639,24.387892],[120.945466,24.387559],[120.946522,24.387197],[120.948108,24.386049],[120.952071,24.382333],[120.953755,24.38179],[120.955241,24.381518],[120.956165,24.381096],[120.958775,24.375325],[120.959403,24.374177],[120.959964,24.374116],[120.967755,24.377593],[120.9733,24.381795],[120.974654,24.382732],[120.975413,24.383004],[120.976734,24.383276],[120.979243,24.383126],[120.981125,24.381978],[120.983106,24.381313],[120.98479,24.381494],[120.98644,24.382643],[120.987596,24.384124],[120.989115,24.384849],[120.990567,24.384728],[120.991756,24.384336],[120.992581,24.384457],[120.993176,24.385061],[120.994034,24.38763],[120.994826,24.388808],[120.995355,24.389412],[120.997171,24.390349],[120.998458,24.390621],[121.000671,24.389866],[121.004699,24.390893],[121.008034,24.390651],[121.009685,24.391195],[121.011864,24.390984],[121.011533,24.389896],[121.009882,24.386904],[121.009849,24.385393],[121.009651,24.384487],[121.008957,24.383157],[121.003576,24.377265],[121.002816,24.374908],[121.002651,24.371221],[121.00209,24.369227],[121.000868,24.367383],[120.99935,24.366144],[120.998656,24.365329],[120.998326,24.364573],[120.998854,24.363395],[120.999779,24.361944],[121.000175,24.360826],[121.00034,24.359013],[121.001132,24.355508],[121.001693,24.353967],[121.004268,24.351912],[121.005093,24.350159],[121.005489,24.346019],[121.006413,24.343964],[121.008393,24.342],[121.009053,24.340972],[121.010043,24.340277],[121.010703,24.338918],[121.010901,24.338102],[121.010736,24.336863],[121.009349,24.334627],[121.007303,24.332058],[121.005724,24.330606],[121.006815,24.328982],[121.007154,24.328218],[121.008215,24.326862],[121.009567,24.325801],[121.010885,24.324391],[121.011568,24.323973],[121.012641,24.321971],[121.014495,24.320114],[121.015017,24.318673],[121.015903,24.317159],[121.017199,24.313754],[121.017689,24.311733],[121.019508,24.309672],[121.020023,24.309244],[121.026205,24.306748],[121.028763,24.305199],[121.029366,24.304708],[121.031694,24.302],[121.032567,24.300419],[121.033114,24.298824],[121.034134,24.297817],[121.036013,24.296924],[121.038375,24.296356],[121.043177,24.295802],[121.045192,24.295326],[121.047083,24.29614],[121.049007,24.295969],[121.049442,24.296122],[121.05135,24.297821],[121.052244,24.299327],[121.052108,24.300025],[121.052114,24.301866],[121.052563,24.304241],[121.052798,24.304791],[121.053682,24.305601],[121.054063,24.306671],[121.054919,24.307664],[121.055163,24.309906],[121.055284,24.310311],[121.055642,24.310697],[121.05683,24.310893],[121.057427,24.311267],[121.057904,24.312165],[121.0584,24.312729],[121.059006,24.312938],[121.060171,24.312943],[121.060901,24.313118],[121.064802,24.315437],[121.065627,24.315677],[121.069328,24.315525],[121.070213,24.315759],[121.070914,24.316821],[121.071881,24.317131],[121.072599,24.318429],[121.073606,24.31882],[121.073855,24.319195],[121.073691,24.321388],[121.073427,24.322307],[121.073076,24.322823],[121.075307,24.322604],[121.078462,24.322807],[121.078887,24.322892],[121.081021,24.324053],[121.081473,24.324136],[121.082201,24.322981],[121.082664,24.322552],[121.083063,24.321702],[121.085082,24.319705],[121.085757,24.318416],[121.086348,24.317748],[121.086859,24.317535],[121.087509,24.31754],[121.088418,24.318408],[121.09008,24.318703],[121.091926,24.31863],[121.09339,24.319223],[121.094352,24.319811],[121.094973,24.320581],[121.095226,24.321977],[121.095713,24.322568],[121.096798,24.322821],[121.098054,24.323629],[121.100087,24.323837],[121.102256,24.324584],[121.103137,24.325645],[121.103776,24.326812],[121.105292,24.328151],[121.106344,24.328595],[121.108477,24.330954],[121.109085,24.330884],[121.114234,24.328787],[121.114873,24.328637],[121.117139,24.329552],[121.118551,24.33037],[121.12158,24.330679],[121.121815,24.331288],[121.121835,24.331851],[121.121442,24.33385],[121.121503,24.334293],[121.12206,24.33635],[121.122626,24.337743],[121.124126,24.340554],[121.125299,24.34199],[121.126619,24.341574],[121.127748,24.341756],[121.12844,24.342171],[121.130198,24.344711],[121.130802,24.347131],[121.131353,24.348249],[121.131376,24.348504],[121.131134,24.348891],[121.131227,24.349357],[121.131892,24.34977],[121.133574,24.351674],[121.135588,24.352547],[121.136443,24.353132],[121.1378,24.354692],[121.137605,24.355359],[121.137965,24.356271],[121.14001,24.358337],[121.14086,24.359583],[121.141567,24.35947],[121.144112,24.358278],[121.144909,24.358069],[121.148408,24.35788],[121.149265,24.357967],[121.15013,24.358515],[121.150918,24.358712],[121.153306,24.35883],[121.154036,24.359105],[121.155538,24.359042],[121.159415,24.360797],[121.162261,24.360563],[121.163715,24.360944],[121.16467,24.360989],[121.166481,24.360604],[121.167382,24.360594],[121.168369,24.360912],[121.168871,24.361522],[121.168829,24.363346],[121.169005,24.364313],[121.170683,24.365564],[121.171097,24.366133],[121.172449,24.366806],[121.173063,24.368381],[121.173536,24.368732],[121.174177,24.36892],[121.17305,24.370678],[121.173017,24.371748],[121.173424,24.373344],[121.174696,24.373851],[121.176403,24.375759],[121.176969,24.376663],[121.178516,24.377916],[121.181676,24.378861],[121.182448,24.380239],[121.183297,24.381011],[121.184741,24.381489],[121.18552,24.38126],[121.186592,24.381185],[121.188272,24.381441],[121.189457,24.381323],[121.190043,24.381439],[121.190236,24.381622],[121.190385,24.382364],[121.191144,24.383942],[121.192436,24.385081],[121.192997,24.385834],[121.195307,24.390024],[121.196715,24.391519],[121.196911,24.391993],[121.197141,24.394036],[121.197187,24.396588],[121.200713,24.39761],[121.202835,24.397527],[121.203662,24.397672],[121.204377,24.397853],[121.205838,24.397784],[121.207197,24.397905],[121.207998,24.397451],[121.208737,24.396634],[121.210101,24.396256],[121.210629,24.395717],[121.210824,24.394398],[121.210434,24.391616],[121.211249,24.388392],[121.213457,24.384026],[121.213503,24.381852],[121.215876,24.379455],[121.216624,24.380378],[121.218458,24.381262],[121.222172,24.381981],[121.223344,24.382491],[121.22562,24.383026],[121.227107,24.38298],[121.22869,24.383389],[121.229485,24.383357],[121.231861,24.383858],[121.232151,24.384297],[121.231655,24.387707],[121.234634,24.391125],[121.234977,24.391923],[121.234843,24.392669],[121.234943,24.394466],[121.2346,24.395868],[121.234661,24.397337],[121.235739,24.398597],[121.238024,24.400285],[121.238141,24.401506],[121.240139,24.403539],[121.241107,24.404116],[121.242921,24.404765],[121.243569,24.405717],[121.243256,24.408087],[121.242904,24.409081],[121.243322,24.410521],[121.24333,24.411203],[121.242913,24.412832],[121.241988,24.414094],[121.242732,24.414723],[121.243596,24.416607],[121.243301,24.418756],[121.243897,24.420076],[121.246113,24.422783],[121.249147,24.423793],[121.249998,24.424907],[121.251077,24.425069],[121.252869,24.424896],[121.257613,24.425046],[121.257982,24.425426],[121.258887,24.427714],[121.259381,24.428387],[121.260218,24.429009],[121.259806,24.429377],[121.259148,24.430889],[121.259634,24.43155],[121.259721,24.432021],[121.25998,24.43619],[121.25972,24.437193],[121.258781,24.438203],[121.258697,24.439937],[121.259076,24.441014],[121.260716,24.442523],[121.26166,24.444217],[121.260881,24.445646],[121.261943,24.447303],[121.262196,24.448032],[121.261386,24.448209],[121.261101,24.448789],[121.260609,24.450422],[121.260612,24.45141],[121.260931,24.452501],[121.262627,24.455131],[121.262477,24.455404]]]},"properties":{"code":"10005180006","name":"梅園村","countyCode":"10005","countyName":"苗栗縣","townCode":"10005180","townName":"泰安鄉","level":"village","unassigned":false,"note":"","label":[121.10422581553509,24.420525001905965],"bounds":[120.945466,24.295326,121.262627,24.515522],"focusBounds":[120.945466,24.295326,121.262627,24.515522],"color":"#df9f6a"}},{"type":"Feature","id":"10005180007","geometry":{"type":"Polygon","coordinates":[[[121.005724,24.330606],[121.007303,24.332058],[121.009349,24.334627],[121.010736,24.336863],[121.010901,24.338102],[121.010703,24.338918],[121.010043,24.340277],[121.009053,24.340972],[121.008393,24.342],[121.006413,24.343964],[121.005489,24.346019],[121.005093,24.350159],[121.004268,24.351912],[121.001693,24.353967],[121.001132,24.355508],[121.00034,24.359013],[121.000175,24.360826],[120.999779,24.361944],[120.998854,24.363395],[120.998326,24.364573],[120.998656,24.365329],[120.99935,24.366144],[121.000868,24.367383],[121.00209,24.369227],[121.002651,24.371221],[121.002816,24.374908],[121.003576,24.377265],[121.008957,24.383157],[121.009651,24.384487],[121.009849,24.385393],[121.009882,24.386904],[121.011533,24.389896],[121.011864,24.390984],[121.009685,24.391195],[121.008034,24.390651],[121.004699,24.390893],[121.000671,24.389866],[120.998458,24.390621],[120.997171,24.390349],[120.995355,24.389412],[120.994826,24.388808],[120.994034,24.38763],[120.993176,24.385061],[120.992581,24.384457],[120.991756,24.384336],[120.990567,24.384728],[120.989115,24.384849],[120.987596,24.384124],[120.98644,24.382643],[120.98479,24.381494],[120.983106,24.381313],[120.981125,24.381978],[120.979243,24.383126],[120.976734,24.383276],[120.975413,24.383004],[120.974654,24.382732],[120.9733,24.381795],[120.967755,24.377593],[120.959964,24.374116],[120.959403,24.374177],[120.958775,24.375325],[120.956165,24.381096],[120.955241,24.381518],[120.953755,24.38179],[120.952071,24.382333],[120.948108,24.386049],[120.946522,24.387197],[120.945466,24.387559],[120.94484,24.384355],[120.943323,24.380245],[120.942036,24.378432],[120.941178,24.377736],[120.940352,24.377313],[120.938768,24.376859],[120.937315,24.376677],[120.934345,24.375406],[120.926852,24.373227],[120.925928,24.37226],[120.924609,24.36966],[120.928109,24.368],[120.929529,24.367004],[120.933626,24.361234],[120.934716,24.358484],[120.935278,24.356339],[120.936303,24.354557],[120.936964,24.351958],[120.938255,24.344676],[120.937794,24.341868],[120.9384,24.341492],[120.939968,24.339999],[120.942459,24.339136],[120.945171,24.339786],[120.946523,24.339101],[120.949646,24.339177],[120.952314,24.339073],[120.954092,24.338603],[120.954898,24.338792],[120.955992,24.339291],[120.956786,24.339298],[120.957283,24.338927],[120.957813,24.338092],[120.958953,24.336968],[120.960161,24.335054],[120.960668,24.334885],[120.962658,24.334772],[120.966488,24.33346],[120.968808,24.333397],[120.970058,24.333593],[120.972365,24.333507],[120.97722,24.334732],[120.979621,24.334419],[120.980199,24.334608],[120.981985,24.335904],[120.982662,24.335572],[120.983841,24.334433],[120.985586,24.33166],[120.987344,24.331224],[120.991028,24.329763],[120.992525,24.32965],[120.994008,24.329902],[120.995296,24.32995],[120.996158,24.330277],[120.997403,24.330088],[120.998048,24.330425],[120.999874,24.332341],[121.000481,24.332662],[121.00132,24.332813],[121.002303,24.332823],[121.004152,24.3323],[121.004718,24.33196],[121.005724,24.330606]]]},"properties":{"code":"10005180007","name":"象鼻村","countyCode":"10005","countyName":"苗栗縣","townCode":"10005180","townName":"泰安鄉","level":"village","unassigned":false,"note":"","label":[120.97224519458615,24.357253435282527],"bounds":[120.924609,24.32965,121.011864,24.391195],"focusBounds":[120.924609,24.32965,121.011864,24.391195],"color":"#98b69b"}},{"type":"Feature","id":"10005180008","geometry":{"type":"Polygon","coordinates":[[[120.937794,24.341868],[120.938255,24.344676],[120.936964,24.351958],[120.936303,24.354557],[120.935278,24.356339],[120.934716,24.358484],[120.933626,24.361234],[120.929529,24.367004],[120.928109,24.368],[120.924609,24.36966],[120.923422,24.36697],[120.922597,24.366335],[120.920881,24.365821],[120.919692,24.365609],[120.918768,24.365699],[120.913561,24.366993],[120.912649,24.365277],[120.912227,24.364759],[120.910393,24.364747],[120.908203,24.364229],[120.908205,24.360055],[120.909223,24.358126],[120.90987,24.355309],[120.909598,24.352578],[120.90859,24.349757],[120.908253,24.348248],[120.909727,24.348234],[120.909254,24.347741],[120.907909,24.347025],[120.90717,24.346074],[120.906859,24.345513],[120.907171,24.344193],[120.907124,24.343844],[120.906813,24.342985],[120.906035,24.342243],[120.905521,24.340836],[120.905455,24.339771],[120.906235,24.338757],[120.906499,24.33793],[120.905996,24.337286],[120.905937,24.336847],[120.906363,24.336453],[120.906756,24.336356],[120.91096,24.336596],[120.911111,24.336539],[120.911111,24.335782],[120.91046,24.334553],[120.907082,24.332529],[120.906157,24.331425],[120.906216,24.33125],[120.907493,24.330273],[120.905556,24.328879],[120.902957,24.327621],[120.902898,24.327428],[120.90372,24.326509],[120.905209,24.325253],[120.905428,24.324189],[120.907299,24.321657],[120.907556,24.320821],[120.908172,24.32024],[120.909138,24.316994],[120.909691,24.315742],[120.910241,24.31503],[120.910779,24.314674],[120.911772,24.314392],[120.911907,24.312979],[120.913347,24.309604],[120.914234,24.308364],[120.914341,24.307693],[120.914261,24.306697],[120.914437,24.303859],[120.91366,24.301455],[120.912802,24.300423],[120.911874,24.298234],[120.911201,24.297519],[120.910512,24.296344],[120.910524,24.295801],[120.909824,24.293972],[120.910611,24.293892],[120.911906,24.294064],[120.916774,24.299012],[120.919888,24.300703],[120.921481,24.302036],[120.922121,24.302841],[120.922499,24.303944],[120.922374,24.305248],[120.921982,24.306278],[120.920999,24.307727],[120.920583,24.308657],[120.920099,24.311193],[120.920073,24.315202],[120.920652,24.317792],[120.920503,24.320107],[120.919654,24.324223],[120.918507,24.327306],[120.917937,24.329614],[120.9167,24.332694],[120.916375,24.334191],[120.916421,24.334669],[120.917012,24.335723],[120.919648,24.337137],[120.923471,24.338102],[120.926317,24.338648],[120.927273,24.339203],[120.928743,24.339686],[120.932097,24.341654],[120.933917,24.342523],[120.935644,24.342915],[120.936056,24.342815],[120.936732,24.34222],[120.937794,24.341868]]]},"properties":{"code":"10005180008","name":"士林村","countyCode":"10005","countyName":"苗栗縣","townCode":"10005180","townName":"泰安鄉","level":"village","unassigned":false,"note":"","label":[120.92228810327491,24.35121969442862],"bounds":[120.902898,24.293892,120.938255,24.36966],"focusBounds":[120.902898,24.293892,120.938255,24.36966],"color":"#c38cb8"}}]}
