{"type":"FeatureCollection","features":[{"type":"Feature","id":"10005080001","geometry":{"type":"Polygon","coordinates":[[[120.866532,24.425361],[120.866198,24.424538],[120.867324,24.424145],[120.866311,24.421895],[120.865525,24.420644],[120.867443,24.419698],[120.868178,24.419524],[120.870013,24.419775],[120.870953,24.420372],[120.871394,24.420846],[120.87245,24.422405],[120.872677,24.423548],[120.866532,24.425361]]]},"properties":{"code":"10005080001","name":"大湖村","countyCode":"10005","countyName":"苗栗縣","townCode":"10005080","townName":"大湖鄉","level":"village","unassigned":false,"note":"","label":[120.86901717416052,24.42213309552076],"bounds":[120.865525,24.419524,120.872677,24.425361],"focusBounds":[120.865525,24.419524,120.872677,24.425361],"color":"#dd8590"}},{"type":"Feature","id":"10005080002","geometry":{"type":"Polygon","coordinates":[[[120.862145,24.428206],[120.861203,24.426866],[120.860909,24.425275],[120.860882,24.424574],[120.861103,24.423877],[120.862635,24.421449],[120.863582,24.421017],[120.865525,24.420644],[120.866311,24.421895],[120.867324,24.424145],[120.866198,24.424538],[120.866532,24.425361],[120.866568,24.425448],[120.865104,24.426121],[120.862145,24.428206]]]},"properties":{"code":"10005080002","name":"明湖村","countyCode":"10005","countyName":"苗栗縣","townCode":"10005080","townName":"大湖鄉","level":"village","unassigned":false,"note":"","label":[120.86375145896477,24.424213420452094],"bounds":[120.860882,24.420644,120.867324,24.428206],"focusBounds":[120.860882,24.420644,120.867324,24.428206],"color":"#a49ad4"}},{"type":"Feature","id":"10005080003","geometry":{"type":"Polygon","coordinates":[[[120.912308,24.4348],[120.911318,24.43476],[120.909999,24.434431],[120.909126,24.434464],[120.904111,24.436401],[120.902193,24.436855],[120.900671,24.436791],[120.89886,24.436087],[120.89794,24.43597],[120.8972,24.436112],[120.895553,24.437161],[120.891186,24.437051],[120.889699,24.436653],[120.887243,24.435166],[120.884567,24.434504],[120.882993,24.434284],[120.882705,24.43397],[120.881947,24.432419],[120.881385,24.431844],[120.880984,24.431734],[120.879884,24.431833],[120.878647,24.431602],[120.877605,24.431896],[120.877076,24.431902],[120.876226,24.431638],[120.875188,24.430912],[120.873338,24.428958],[120.870973,24.427568],[120.86951,24.427562],[120.867333,24.428141],[120.865978,24.428342],[120.865566,24.42829],[120.86461,24.427817],[120.862758,24.42857],[120.862145,24.428206],[120.865104,24.426121],[120.866568,24.425448],[120.866532,24.425361],[120.872677,24.423548],[120.87245,24.422405],[120.871394,24.420846],[120.87175,24.420677],[120.871303,24.419722],[120.872307,24.418602],[120.873637,24.417904],[120.874586,24.417049],[120.874802,24.416721],[120.87496,24.415629],[120.875333,24.414757],[120.876737,24.413318],[120.877185,24.413142],[120.878053,24.41308],[120.879064,24.413881],[120.881924,24.41526],[120.882384,24.415269],[120.883807,24.41474],[120.884914,24.415018],[120.887878,24.417267],[120.888637,24.417649],[120.890455,24.418232],[120.889835,24.419895],[120.889512,24.420123],[120.888573,24.420368],[120.888157,24.4209],[120.888249,24.421963],[120.888534,24.42272],[120.888852,24.423071],[120.88944,24.423301],[120.890919,24.42326],[120.892019,24.423646],[120.892697,24.424133],[120.894212,24.425904],[120.895469,24.426585],[120.896438,24.426704],[120.90045,24.42642],[120.901828,24.426619],[120.905225,24.427493],[120.905977,24.427984],[120.908047,24.430838],[120.91053,24.432638],[120.912064,24.433441],[120.912121,24.434445],[120.912308,24.4348]]]},"properties":{"code":"10005080003","name":"靜湖村","countyCode":"10005","countyName":"苗栗縣","townCode":"10005080","townName":"大湖鄉","level":"village","unassigned":false,"note":"","label":[120.88050535986488,24.423176627885187],"bounds":[120.862145,24.41308,120.912308,24.437161],"focusBounds":[120.862145,24.41308,120.912308,24.437161],"color":"#a8bf62"}},{"type":"Feature","id":"10005080004","geometry":{"type":"Polygon","coordinates":[[[120.904131,24.447114],[120.899546,24.445303],[120.898402,24.445],[120.896135,24.445021],[120.893142,24.444559],[120.892025,24.444556],[120.889502,24.444891],[120.887372,24.445515],[120.885622,24.446345],[120.883219,24.448238],[120.883492,24.448932],[120.883365,24.449501],[120.881401,24.45085],[120.878417,24.453483],[120.876714,24.454364],[120.875483,24.456219],[120.874168,24.457304],[120.873603,24.456133],[120.873846,24.454149],[120.871184,24.455484],[120.871032,24.455622],[120.870974,24.456259],[120.869005,24.455842],[120.867396,24.455945],[120.866915,24.455753],[120.866472,24.453664],[120.865239,24.453135],[120.864276,24.453154],[120.864139,24.453006],[120.863505,24.451675],[120.863299,24.450086],[120.862754,24.449315],[120.862294,24.448017],[120.862081,24.447832],[120.861147,24.447714],[120.860426,24.44718],[120.860209,24.446706],[120.860258,24.445927],[120.857831,24.44485],[120.85811,24.444069],[120.857969,24.443778],[120.857471,24.443172],[120.856052,24.442481],[120.855792,24.442013],[120.855467,24.440697],[120.854622,24.440311],[120.854067,24.439515],[120.853607,24.439126],[120.851932,24.439242],[120.851438,24.438648],[120.850454,24.438623],[120.849494,24.438091],[120.84775,24.437959],[120.847195,24.437379],[120.84622,24.437191],[120.845859,24.436484],[120.844994,24.435391],[120.844694,24.434724],[120.84304,24.432406],[120.842059,24.430437],[120.841525,24.429682],[120.840642,24.429362],[120.839146,24.429343],[120.838944,24.429135],[120.838858,24.428546],[120.839376,24.427421],[120.839372,24.426555],[120.839698,24.426107],[120.84044,24.425642],[120.843184,24.425521],[120.842013,24.424046],[120.842038,24.423804],[120.842851,24.422933],[120.845348,24.423286],[120.84652,24.42372],[120.847039,24.424128],[120.848505,24.425934],[120.84945,24.425804],[120.851508,24.425035],[120.852665,24.424484],[120.854232,24.42347],[120.855228,24.423158],[120.855793,24.423453],[120.857193,24.425159],[120.860909,24.425275],[120.861203,24.426866],[120.862145,24.428206],[120.862758,24.42857],[120.86461,24.427817],[120.865566,24.42829],[120.865978,24.428342],[120.867333,24.428141],[120.86951,24.427562],[120.870973,24.427568],[120.873338,24.428958],[120.875188,24.430912],[120.876226,24.431638],[120.877076,24.431902],[120.877605,24.431896],[120.878647,24.431602],[120.879884,24.431833],[120.880984,24.431734],[120.881385,24.431844],[120.881947,24.432419],[120.882705,24.43397],[120.882993,24.434284],[120.884567,24.434504],[120.887243,24.435166],[120.889699,24.436653],[120.891186,24.437051],[120.895553,24.437161],[120.8972,24.436112],[120.89794,24.43597],[120.89886,24.436087],[120.900671,24.436791],[120.902193,24.436855],[120.904111,24.436401],[120.909126,24.434464],[120.909999,24.434431],[120.911318,24.43476],[120.912308,24.4348],[120.913084,24.435403],[120.913266,24.435998],[120.913231,24.436497],[120.912754,24.436902],[120.912363,24.437504],[120.910832,24.441305],[120.910337,24.442185],[120.909962,24.443745],[120.909207,24.444189],[120.908669,24.444823],[120.908182,24.444989],[120.90753,24.44572],[120.906505,24.446253],[120.905009,24.445967],[120.904131,24.447114]]]},"properties":{"code":"10005080004","name":"富興村","countyCode":"10005","countyName":"苗栗縣","townCode":"10005080","townName":"大湖鄉","level":"village","unassigned":false,"note":"","label":[120.87229301441558,24.441652975292847],"bounds":[120.838858,24.422933,120.913266,24.457304],"focusBounds":[120.838858,24.422933,120.913266,24.457304],"color":"#68bec9"}},{"type":"Feature","id":"10005080005","geometry":{"type":"Polygon","coordinates":[[[120.912064,24.433441],[120.91053,24.432638],[120.908047,24.430838],[120.905977,24.427984],[120.905225,24.427493],[120.901828,24.426619],[120.90045,24.42642],[120.896438,24.426704],[120.895469,24.426585],[120.894212,24.425904],[120.892697,24.424133],[120.892019,24.423646],[120.890919,24.42326],[120.88944,24.423301],[120.888852,24.423071],[120.888534,24.42272],[120.888249,24.421963],[120.888157,24.4209],[120.888573,24.420368],[120.889512,24.420123],[120.889835,24.419895],[120.890455,24.418232],[120.891878,24.414264],[120.89169,24.413084],[120.891274,24.412342],[120.890559,24.411612],[120.89043,24.411059],[120.890635,24.410692],[120.890995,24.410579],[120.891173,24.410266],[120.891342,24.408311],[120.892019,24.405981],[120.892571,24.405325],[120.894277,24.404345],[120.897546,24.401826],[120.901536,24.397463],[120.904767,24.392638],[120.904838,24.389871],[120.905013,24.389128],[120.905886,24.389419],[120.908238,24.389343],[120.909565,24.389671],[120.911963,24.390662],[120.914177,24.391948],[120.916776,24.392411],[120.918986,24.395138],[120.919478,24.396515],[120.919557,24.397263],[120.919606,24.398789],[120.919405,24.399479],[120.919141,24.400572],[120.91769,24.403349],[120.916665,24.404259],[120.916122,24.405088],[120.91558,24.405421],[120.91398,24.405949],[120.913477,24.406797],[120.912787,24.407166],[120.912225,24.407688],[120.911758,24.409442],[120.912022,24.411795],[120.911529,24.413505],[120.91075,24.414478],[120.909577,24.414964],[120.908432,24.415237],[120.90708,24.416609],[120.907175,24.417739],[120.90802,24.418444],[120.907942,24.419158],[120.907412,24.420329],[120.907994,24.421446],[120.908149,24.422141],[120.907881,24.422984],[120.907224,24.423147],[120.90715,24.423328],[120.907382,24.423557],[120.908141,24.423856],[120.908674,24.424431],[120.910243,24.424931],[120.910616,24.425312],[120.910634,24.426111],[120.911223,24.427024],[120.911483,24.427793],[120.911465,24.428261],[120.911726,24.428791],[120.911803,24.430473],[120.91162,24.43202],[120.912087,24.433025],[120.912067,24.433378],[120.912064,24.433441]]]},"properties":{"code":"10005080005","name":"大南村","countyCode":"10005","countyName":"苗栗縣","townCode":"10005080","townName":"大湖鄉","level":"village","unassigned":false,"note":"","label":[120.90254678721597,24.409234620523605],"bounds":[120.888157,24.389128,120.919606,24.433441],"focusBounds":[120.888157,24.389128,120.919606,24.433441],"color":"#df9f6a"}},{"type":"Feature","id":"10005080006","geometry":{"type":"Polygon","coordinates":[[[120.860909,24.425275],[120.857193,24.425159],[120.855793,24.423453],[120.855228,24.423158],[120.854232,24.42347],[120.852665,24.424484],[120.851508,24.425035],[120.84945,24.425804],[120.848505,24.425934],[120.847039,24.424128],[120.84652,24.42372],[120.845348,24.423286],[120.842851,24.422933],[120.842983,24.422637],[120.842597,24.421475],[120.842314,24.421099],[120.84257,24.420979],[120.843346,24.421183],[120.843182,24.420697],[120.843493,24.420091],[120.844236,24.420109],[120.844536,24.419223],[120.84543,24.418685],[120.846489,24.418874],[120.849206,24.417542],[120.849829,24.41773],[120.85009,24.41765],[120.85207,24.414773],[120.851591,24.411878],[120.85147,24.411788],[120.852243,24.411613],[120.85326,24.411655],[120.854316,24.411308],[120.855227,24.410733],[120.856853,24.41047],[120.861717,24.406304],[120.86329,24.40448],[120.865281,24.403724],[120.867238,24.4025],[120.869079,24.40199],[120.868758,24.400603],[120.868867,24.399679],[120.869156,24.399222],[120.870079,24.398892],[120.874229,24.398336],[120.877214,24.398122],[120.878302,24.397195],[120.879696,24.396606],[120.881001,24.395207],[120.881588,24.394112],[120.881477,24.393162],[120.880465,24.391871],[120.882376,24.39151],[120.883367,24.391099],[120.884965,24.389769],[120.886651,24.387834],[120.888907,24.386403],[120.891322,24.385739],[120.893419,24.385346],[120.894239,24.385385],[120.895284,24.385669],[120.901882,24.38789],[120.905013,24.389128],[120.904838,24.389871],[120.904767,24.392638],[120.901536,24.397463],[120.897546,24.401826],[120.894277,24.404345],[120.892571,24.405325],[120.892019,24.405981],[120.891342,24.408311],[120.891173,24.410266],[120.890995,24.410579],[120.890635,24.410692],[120.89043,24.411059],[120.890559,24.411612],[120.891274,24.412342],[120.89169,24.413084],[120.891878,24.414264],[120.890455,24.418232],[120.888637,24.417649],[120.887878,24.417267],[120.884914,24.415018],[120.883807,24.41474],[120.882384,24.415269],[120.881924,24.41526],[120.879064,24.413881],[120.878053,24.41308],[120.877185,24.413142],[120.876737,24.413318],[120.875333,24.414757],[120.87496,24.415629],[120.874802,24.416721],[120.874586,24.417049],[120.873637,24.417904],[120.872307,24.418602],[120.871303,24.419722],[120.87175,24.420677],[120.871394,24.420846],[120.870953,24.420372],[120.870013,24.419775],[120.868178,24.419524],[120.867443,24.419698],[120.865525,24.420644],[120.863582,24.421017],[120.862635,24.421449],[120.861103,24.423877],[120.860882,24.424574],[120.860909,24.425275]]]},"properties":{"code":"10005080006","name":"大寮村","countyCode":"10005","countyName":"苗栗縣","townCode":"10005080","townName":"大湖鄉","level":"village","unassigned":false,"note":"","label":[120.8770024816426,24.405703659242093],"bounds":[120.842314,24.385346,120.905013,24.425934],"focusBounds":[120.842314,24.385346,120.905013,24.425934],"color":"#c38cb8"}},{"type":"Feature","id":"10005080007","geometry":{"type":"Polygon","coordinates":[[[120.868867,24.399679],[120.868758,24.400603],[120.869079,24.40199],[120.867238,24.4025],[120.865281,24.403724],[120.86329,24.40448],[120.861717,24.406304],[120.856853,24.41047],[120.855227,24.410733],[120.854316,24.411308],[120.85326,24.411655],[120.852243,24.411613],[120.85147,24.411788],[120.851591,24.411878],[120.85207,24.414773],[120.85009,24.41765],[120.849829,24.41773],[120.849206,24.417542],[120.846489,24.418874],[120.84543,24.418685],[120.844536,24.419223],[120.844236,24.420109],[120.843493,24.420091],[120.843182,24.420697],[120.843346,24.421183],[120.84257,24.420979],[120.842314,24.421099],[120.841638,24.420419],[120.840744,24.418906],[120.840173,24.417675],[120.840102,24.416974],[120.839807,24.416585],[120.83922,24.41649],[120.838003,24.415875],[120.837175,24.415831],[120.836275,24.414405],[120.836088,24.413314],[120.836341,24.411831],[120.836577,24.411654],[120.837946,24.411344],[120.839137,24.41033],[120.839424,24.409649],[120.839959,24.409147],[120.840405,24.408191],[120.840699,24.406344],[120.840095,24.405533],[120.83969,24.404663],[120.838436,24.404],[120.837193,24.403027],[120.837221,24.402617],[120.837673,24.401879],[120.837092,24.401352],[120.838134,24.400329],[120.838715,24.399961],[120.840088,24.39952],[120.841308,24.399454],[120.847863,24.400199],[120.850316,24.399373],[120.851883,24.399341],[120.853885,24.399535],[120.856626,24.398864],[120.857427,24.398544],[120.857741,24.398583],[120.859108,24.399831],[120.859943,24.40024],[120.86045,24.400322],[120.864354,24.399942],[120.866544,24.40033],[120.866681,24.399279],[120.868568,24.398631],[120.868771,24.398871],[120.868867,24.399679]]]},"properties":{"code":"10005080007","name":"南湖村","countyCode":"10005","countyName":"苗栗縣","townCode":"10005080","townName":"大湖鄉","level":"village","unassigned":false,"note":"","label":[120.8469174387755,24.407128505137255],"bounds":[120.836088,24.398544,120.869079,24.421183],"focusBounds":[120.836088,24.398544,120.869079,24.421183],"color":"#98b69b"}},{"type":"Feature","id":"10005080008","geometry":{"type":"Polygon","coordinates":[[[120.868867,24.399679],[120.868771,24.398871],[120.868568,24.398631],[120.866681,24.399279],[120.866544,24.40033],[120.864354,24.399942],[120.86045,24.400322],[120.859943,24.40024],[120.859108,24.399831],[120.857741,24.398583],[120.857427,24.398544],[120.856626,24.398864],[120.853885,24.399535],[120.851883,24.399341],[120.850316,24.399373],[120.847863,24.400199],[120.841308,24.399454],[120.840088,24.39952],[120.838715,24.399961],[120.838134,24.400329],[120.837092,24.401352],[120.837064,24.401319],[120.838155,24.398157],[120.839111,24.396202],[120.839529,24.394646],[120.839958,24.393853],[120.841172,24.392257],[120.841488,24.391291],[120.841174,24.387629],[120.841257,24.385833],[120.842344,24.385481],[120.843607,24.384651],[120.84484,24.383481],[120.845933,24.382022],[120.846929,24.382251],[120.847266,24.382042],[120.847594,24.382125],[120.848038,24.381966],[120.84824,24.381803],[120.848113,24.381219],[120.848394,24.380657],[120.848877,24.380304],[120.848913,24.380104],[120.849495,24.379821],[120.849608,24.379584],[120.850562,24.379577],[120.850478,24.378906],[120.851387,24.378689],[120.851902,24.378844],[120.852224,24.378505],[120.852275,24.37818],[120.852815,24.378185],[120.852955,24.377967],[120.853953,24.37781],[120.854609,24.377978],[120.855455,24.377674],[120.856078,24.377017],[120.85867,24.37644],[120.859992,24.375275],[120.860289,24.375284],[120.86079,24.376332],[120.860788,24.37711],[120.861613,24.377419],[120.861971,24.378002],[120.862635,24.377191],[120.863127,24.377248],[120.863527,24.377504],[120.864813,24.37707],[120.865549,24.377228],[120.865437,24.377723],[120.864834,24.378117],[120.864649,24.37881],[120.863832,24.379377],[120.864104,24.379868],[120.864772,24.380467],[120.865276,24.380715],[120.866735,24.380932],[120.86693,24.380115],[120.867626,24.379967],[120.867985,24.380169],[120.868362,24.381349],[120.868698,24.381589],[120.869346,24.381738],[120.869948,24.381602],[120.870051,24.380805],[120.870611,24.380946],[120.871243,24.381582],[120.871576,24.381663],[120.872123,24.381477],[120.873137,24.380797],[120.872985,24.383162],[120.873112,24.383297],[120.874496,24.383634],[120.875005,24.384332],[120.875324,24.385348],[120.875854,24.385882],[120.876926,24.386422],[120.88023,24.386588],[120.880619,24.386653],[120.880928,24.386906],[120.881006,24.387554],[120.8806,24.389127],[120.880859,24.390233],[120.880756,24.390717],[120.880346,24.391417],[120.880465,24.391871],[120.881477,24.393162],[120.881588,24.394112],[120.881001,24.395207],[120.879696,24.396606],[120.878302,24.397195],[120.877214,24.398122],[120.874229,24.398336],[120.870079,24.398892],[120.869156,24.399222],[120.868867,24.399679]]]},"properties":{"code":"10005080008","name":"義和村","countyCode":"10005","countyName":"苗栗縣","townCode":"10005080","townName":"大湖鄉","level":"village","unassigned":false,"note":"","label":[120.8577696493588,24.387723454474475],"bounds":[120.837064,24.375275,120.881588,24.401352],"focusBounds":[120.837064,24.375275,120.881588,24.401352],"color":"#58b99d"}},{"type":"Feature","id":"10005080009","geometry":{"type":"Polygon","coordinates":[[[120.913561,24.366993],[120.91385,24.36918],[120.913547,24.372322],[120.913707,24.374287],[120.914541,24.375281],[120.914819,24.376174],[120.914721,24.376989],[120.914243,24.378446],[120.913923,24.380885],[120.914995,24.386061],[120.914877,24.386925],[120.914283,24.387968],[120.915295,24.390064],[120.915468,24.390965],[120.916414,24.391798],[120.916776,24.392411],[120.914177,24.391948],[120.911963,24.390662],[120.909565,24.389671],[120.908238,24.389343],[120.905886,24.389419],[120.905013,24.389128],[120.901882,24.38789],[120.895284,24.385669],[120.894239,24.385385],[120.893419,24.385346],[120.891322,24.385739],[120.888907,24.386403],[120.886651,24.387834],[120.884965,24.389769],[120.883367,24.391099],[120.882376,24.39151],[120.880465,24.391871],[120.880346,24.391417],[120.880756,24.390717],[120.880859,24.390233],[120.8806,24.389127],[120.881006,24.387554],[120.880928,24.386906],[120.880619,24.386653],[120.88023,24.386588],[120.876926,24.386422],[120.875854,24.385882],[120.875324,24.385348],[120.875005,24.384332],[120.874496,24.383634],[120.873112,24.383297],[120.872985,24.383162],[120.873137,24.380797],[120.873247,24.379706],[120.873463,24.379155],[120.874445,24.378536],[120.876088,24.377133],[120.877424,24.375621],[120.878059,24.374385],[120.878776,24.374002],[120.879254,24.373514],[120.879494,24.371352],[120.879839,24.370334],[120.880357,24.369484],[120.881191,24.368758],[120.882361,24.368426],[120.883114,24.367868],[120.885713,24.365232],[120.886786,24.363735],[120.889003,24.362973],[120.890631,24.363509],[120.891297,24.363566],[120.892711,24.363354],[120.894063,24.362917],[120.898475,24.362758],[120.898855,24.36259],[120.899327,24.361963],[120.899496,24.361929],[120.901527,24.362871],[120.903619,24.364648],[120.904261,24.365005],[120.905312,24.364864],[120.906612,24.364239],[120.908203,24.364229],[120.910393,24.364747],[120.912227,24.364759],[120.912649,24.365277],[120.913561,24.366993]]]},"properties":{"code":"10005080009","name":"東興村","countyCode":"10005","countyName":"苗栗縣","townCode":"10005080","townName":"大湖鄉","level":"village","unassigned":false,"note":"","label":[120.89789996944903,24.374664120285836],"bounds":[120.872985,24.361929,120.916776,24.392411],"focusBounds":[120.872985,24.361929,120.916776,24.392411],"color":"#efb44f"}},{"type":"Feature","id":"10005080010","geometry":{"type":"Polygon","coordinates":[[[120.859992,24.375275],[120.859666,24.375365],[120.859532,24.374813],[120.85815,24.373459],[120.857962,24.372872],[120.857381,24.371975],[120.856341,24.371497],[120.855902,24.37142],[120.855263,24.371627],[120.854647,24.371373],[120.853966,24.371289],[120.853171,24.370241],[120.851959,24.369266],[120.852028,24.368296],[120.851729,24.368119],[120.85068,24.3668],[120.850589,24.364677],[120.8504,24.364269],[120.84992,24.364035],[120.849971,24.363467],[120.850344,24.362659],[120.85009,24.362576],[120.849344,24.362819],[120.848976,24.362546],[120.848949,24.362204],[120.849651,24.361005],[120.850438,24.361142],[120.851373,24.360975],[120.851927,24.361537],[120.85242,24.361749],[120.853126,24.361537],[120.85351,24.3612],[120.853897,24.359923],[120.855097,24.35876],[120.855683,24.358622],[120.856316,24.358962],[120.856486,24.359472],[120.856758,24.359479],[120.857039,24.35921],[120.85702,24.358664],[120.857692,24.355928],[120.858172,24.355565],[120.859342,24.355447],[120.859842,24.354917],[120.861139,24.355563],[120.861703,24.35689],[120.862721,24.357707],[120.865821,24.359256],[120.867031,24.359575],[120.868422,24.360302],[120.871976,24.360901],[120.872911,24.361525],[120.873474,24.362092],[120.873963,24.36312],[120.874612,24.362332],[120.874723,24.361294],[120.875331,24.360696],[120.877176,24.360279],[120.878654,24.360254],[120.879901,24.360667],[120.880791,24.361486],[120.884291,24.362912],[120.884985,24.363797],[120.886786,24.363735],[120.885713,24.365232],[120.883114,24.367868],[120.882361,24.368426],[120.881191,24.368758],[120.880357,24.369484],[120.879839,24.370334],[120.879494,24.371352],[120.879254,24.373514],[120.878776,24.374002],[120.878059,24.374385],[120.877424,24.375621],[120.876088,24.377133],[120.874445,24.378536],[120.873463,24.379155],[120.873247,24.379706],[120.873137,24.380797],[120.872123,24.381477],[120.871576,24.381663],[120.871243,24.381582],[120.870611,24.380946],[120.870051,24.380805],[120.869948,24.381602],[120.869346,24.381738],[120.868698,24.381589],[120.868362,24.381349],[120.867985,24.380169],[120.867626,24.379967],[120.86693,24.380115],[120.866735,24.380932],[120.865276,24.380715],[120.864772,24.380467],[120.864104,24.379868],[120.863832,24.379377],[120.864649,24.37881],[120.864834,24.378117],[120.865437,24.377723],[120.865549,24.377228],[120.864813,24.37707],[120.863527,24.377504],[120.863127,24.377248],[120.862635,24.377191],[120.861971,24.378002],[120.861613,24.377419],[120.860788,24.37711],[120.86079,24.376332],[120.860289,24.375284],[120.859992,24.375275]]]},"properties":{"code":"10005080010","name":"武榮村","countyCode":"10005","countyName":"苗栗縣","townCode":"10005080","townName":"大湖鄉","level":"village","unassigned":false,"note":"","label":[120.86574854084371,24.368282621222384],"bounds":[120.848949,24.354917,120.886786,24.381738],"focusBounds":[120.848949,24.354917,120.886786,24.381738],"color":"#78a7e3"}},{"type":"Feature","id":"10005080011","geometry":{"type":"Polygon","coordinates":[[[120.859992,24.375275],[120.85867,24.37644],[120.856078,24.377017],[120.855455,24.377674],[120.854609,24.377978],[120.853953,24.37781],[120.852955,24.377967],[120.852815,24.378185],[120.852275,24.37818],[120.852224,24.378505],[120.851902,24.378844],[120.851387,24.378689],[120.850478,24.378906],[120.850562,24.379577],[120.849608,24.379584],[120.849495,24.379821],[120.848913,24.380104],[120.848877,24.380304],[120.848394,24.380657],[120.848113,24.381219],[120.84824,24.381803],[120.848038,24.381966],[120.847594,24.382125],[120.847266,24.382042],[120.846929,24.382251],[120.845933,24.382022],[120.84484,24.383481],[120.843607,24.384651],[120.842344,24.385481],[120.841257,24.385833],[120.841174,24.387629],[120.841488,24.391291],[120.841172,24.392257],[120.839958,24.393853],[120.839529,24.394646],[120.839111,24.396202],[120.838155,24.398157],[120.837064,24.401319],[120.835566,24.400611],[120.833279,24.398237],[120.83266,24.398061],[120.831175,24.396068],[120.829145,24.395596],[120.828844,24.395332],[120.827212,24.395585],[120.825775,24.395205],[120.825221,24.394925],[120.8248,24.392859],[120.825054,24.392228],[120.825014,24.390907],[120.823903,24.389472],[120.823277,24.389176],[120.822694,24.389121],[120.822537,24.388086],[120.822939,24.387063],[120.822065,24.384363],[120.822296,24.383023],[120.821304,24.381028],[120.820846,24.380419],[120.820167,24.379999],[120.820275,24.379442],[120.819779,24.378954],[120.819736,24.378244],[120.819192,24.377521],[120.818957,24.376462],[120.818636,24.375965],[120.81773,24.3755],[120.81699,24.37528],[120.816264,24.375264],[120.814769,24.374798],[120.813437,24.374714],[120.81234,24.375216],[120.811038,24.375241],[120.810695,24.374816],[120.810366,24.373845],[120.810019,24.373356],[120.812135,24.371919],[120.812828,24.370235],[120.814805,24.366675],[120.815993,24.365152],[120.817646,24.363795],[120.818638,24.362229],[120.819974,24.36148],[120.822418,24.361254],[120.822907,24.360669],[120.823445,24.359157],[120.824341,24.359051],[120.824678,24.358863],[120.825243,24.357876],[120.826079,24.357284],[120.827292,24.357174],[120.832711,24.358532],[120.835978,24.360559],[120.837159,24.360639],[120.838002,24.36252],[120.838347,24.362721],[120.839601,24.362976],[120.840024,24.36329],[120.840416,24.362902],[120.841268,24.3625],[120.842414,24.362476],[120.843419,24.362742],[120.843038,24.362134],[120.843012,24.361784],[120.842617,24.361442],[120.842342,24.360233],[120.843409,24.359342],[120.84438,24.358207],[120.84502,24.357984],[120.846085,24.35803],[120.846278,24.358182],[120.84716,24.358312],[120.847222,24.359701],[120.847082,24.359988],[120.847254,24.360088],[120.847191,24.360516],[120.848668,24.360671],[120.849651,24.361005],[120.848949,24.362204],[120.848976,24.362546],[120.849344,24.362819],[120.85009,24.362576],[120.850344,24.362659],[120.849971,24.363467],[120.84992,24.364035],[120.8504,24.364269],[120.850589,24.364677],[120.85068,24.3668],[120.851729,24.368119],[120.852028,24.368296],[120.851959,24.369266],[120.853171,24.370241],[120.853966,24.371289],[120.854647,24.371373],[120.855263,24.371627],[120.855902,24.37142],[120.856341,24.371497],[120.857381,24.371975],[120.857962,24.372872],[120.85815,24.373459],[120.859532,24.374813],[120.859666,24.375365],[120.859992,24.375275]]]},"properties":{"code":"10005080011","name":"栗林村","countyCode":"10005","countyName":"苗栗縣","townCode":"10005080","townName":"大湖鄉","level":"village","unassigned":false,"note":"","label":[120.83372051421323,24.37551967417528],"bounds":[120.810019,24.357174,120.859992,24.401319],"focusBounds":[120.810019,24.357174,120.859992,24.401319],"color":"#a49ad4"}},{"type":"Feature","id":"10005080012","geometry":{"type":"Polygon","coordinates":[[[120.846085,24.35803],[120.84502,24.357984],[120.84438,24.358207],[120.843409,24.359342],[120.842342,24.360233],[120.842617,24.361442],[120.843012,24.361784],[120.843038,24.362134],[120.843419,24.362742],[120.842414,24.362476],[120.841268,24.3625],[120.840416,24.362902],[120.840024,24.36329],[120.839601,24.362976],[120.838347,24.362721],[120.838002,24.36252],[120.837159,24.360639],[120.835978,24.360559],[120.832711,24.358532],[120.827292,24.357174],[120.826079,24.357284],[120.825243,24.357876],[120.824678,24.358863],[120.824341,24.359051],[120.823445,24.359157],[120.822907,24.360669],[120.822418,24.361254],[120.819974,24.36148],[120.818638,24.362229],[120.817646,24.363795],[120.815993,24.365152],[120.814805,24.366675],[120.812828,24.370235],[120.812135,24.371919],[120.810019,24.373356],[120.809137,24.373299],[120.808458,24.372231],[120.807452,24.371768],[120.806965,24.371226],[120.806798,24.370292],[120.807124,24.367521],[120.806917,24.366749],[120.805599,24.365568],[120.804605,24.364295],[120.803569,24.363363],[120.800832,24.361184],[120.799767,24.36063],[120.798699,24.359662],[120.797649,24.359059],[120.797161,24.357975],[120.7967,24.357508],[120.796073,24.35719],[120.795417,24.356509],[120.794648,24.356382],[120.794149,24.355998],[120.793363,24.355889],[120.792528,24.355538],[120.791379,24.354805],[120.790926,24.354281],[120.789395,24.354223],[120.78904,24.353682],[120.787592,24.352975],[120.786999,24.353332],[120.786564,24.353267],[120.786377,24.352547],[120.785871,24.3524],[120.785363,24.351963],[120.784977,24.351862],[120.784793,24.352019],[120.783738,24.353416],[120.783059,24.353197],[120.78201,24.352267],[120.781254,24.351813],[120.780631,24.351796],[120.780322,24.351645],[120.779598,24.350665],[120.77774,24.350215],[120.777929,24.349347],[120.777557,24.348769],[120.776944,24.348496],[120.776905,24.348159],[120.777215,24.347701],[120.777278,24.347295],[120.776808,24.346771],[120.776671,24.346542],[120.777128,24.345951],[120.777307,24.344814],[120.776371,24.343993],[120.776023,24.342903],[120.775484,24.342169],[120.776072,24.341197],[120.775982,24.339318],[120.77668,24.339572],[120.777844,24.340546],[120.778817,24.341667],[120.780163,24.343842],[120.780895,24.344476],[120.781653,24.344757],[120.782273,24.344476],[120.783313,24.343557],[120.784535,24.343212],[120.78456,24.342644],[120.783797,24.341902],[120.783921,24.341636],[120.784418,24.341372],[120.785213,24.341355],[120.786326,24.342138],[120.787188,24.342161],[120.787781,24.342045],[120.789903,24.340958],[120.790526,24.340807],[120.791151,24.341278],[120.791244,24.341999],[120.791581,24.342484],[120.792126,24.342938],[120.792703,24.343124],[120.793573,24.342668],[120.794361,24.341737],[120.794512,24.341214],[120.794269,24.339997],[120.794598,24.339546],[120.79518,24.339477],[120.796081,24.339601],[120.797376,24.340858],[120.798455,24.34115],[120.799057,24.340993],[120.799544,24.340668],[120.800141,24.339525],[120.801116,24.339222],[120.801539,24.339599],[120.801402,24.341085],[120.803132,24.341656],[120.804664,24.342635],[120.8056,24.34297],[120.80654,24.342788],[120.806776,24.34263],[120.807204,24.341802],[120.80914,24.342689],[120.810259,24.343699],[120.810279,24.344759],[120.809655,24.345602],[120.811517,24.346212],[120.811847,24.346803],[120.812508,24.347283],[120.813871,24.346973],[120.814408,24.346497],[120.814734,24.345702],[120.814271,24.344863],[120.81201,24.343344],[120.812254,24.343096],[120.811942,24.342271],[120.811934,24.341733],[120.813058,24.340888],[120.81353,24.340903],[120.814459,24.341271],[120.814976,24.34198],[120.815058,24.342679],[120.815294,24.342928],[120.815846,24.343194],[120.817172,24.343456],[120.818712,24.344235],[120.819607,24.344222],[120.820098,24.343952],[120.820873,24.343109],[120.821541,24.341873],[120.822684,24.341368],[120.823965,24.341651],[120.82572,24.342746],[120.828756,24.342774],[120.830528,24.343056],[120.831831,24.343674],[120.833665,24.344815],[120.834427,24.346427],[120.835387,24.347358],[120.836833,24.347675],[120.83719,24.347339],[120.837522,24.346545],[120.838603,24.34586],[120.839743,24.345788],[120.840384,24.346098],[120.840611,24.346754],[120.839494,24.347919],[120.839542,24.348103],[120.839821,24.348215],[120.840501,24.34775],[120.840798,24.347836],[120.840685,24.349467],[120.840066,24.349787],[120.839854,24.350342],[120.839945,24.351707],[120.840262,24.352385],[120.840535,24.352475],[120.840982,24.352671],[120.840859,24.353159],[120.841271,24.354094],[120.842236,24.354218],[120.843054,24.354531],[120.844823,24.354906],[120.844556,24.355667],[120.844605,24.355972],[120.845156,24.356903],[120.846085,24.35803]]]},"properties":{"code":"10005080012","name":"新開村","countyCode":"10005","countyName":"苗栗縣","townCode":"10005080","townName":"大湖鄉","level":"village","unassigned":false,"note":"","label":[120.81078468522333,24.356194794259117],"bounds":[120.775484,24.339222,120.846085,24.373356],"focusBounds":[120.775484,24.339222,120.846085,24.373356],"color":"#a8bf62"}}]}
