{"type":"FeatureCollection","features":[{"type":"Feature","id":"10007160001","geometry":{"type":"Polygon","coordinates":[[[120.549415,23.92121],[120.5494,23.921447],[120.549855,23.921847],[120.549799,23.92232],[120.549373,23.923159],[120.547084,23.922395],[120.547132,23.921602],[120.545287,23.921064],[120.546153,23.918834],[120.547075,23.919895],[120.549415,23.92121]]]},"properties":{"code":"10007160001","name":"永東村","countyCode":"10007","countyName":"彰化縣","townCode":"10007160","townName":"永靖鄉","level":"village","unassigned":false,"note":"","label":[120.54815441575269,23.921626912736574],"bounds":[120.545287,23.918834,120.549855,23.923159],"focusBounds":[120.545287,23.918834,120.549855,23.923159],"color":"#78a7e3"}},{"type":"Feature","id":"10007160002","geometry":{"type":"Polygon","coordinates":[[[120.549373,23.923159],[120.547764,23.925392],[120.544156,23.924289],[120.544683,23.922769],[120.545287,23.921064],[120.547132,23.921602],[120.547084,23.922395],[120.549373,23.923159]]]},"properties":{"code":"10007160002","name":"永西村","countyCode":"10007","countyName":"彰化縣","townCode":"10007160","townName":"永靖鄉","level":"village","unassigned":false,"note":"","label":[120.54614639098926,23.923461670183215],"bounds":[120.544156,23.921064,120.549373,23.925392],"focusBounds":[120.544156,23.921064,120.549373,23.925392],"color":"#dd8590"}},{"type":"Feature","id":"10007160003","geometry":{"type":"Polygon","coordinates":[[[120.545287,23.921064],[120.544683,23.922769],[120.541858,23.921386],[120.541379,23.920746],[120.540558,23.920223],[120.540131,23.920175],[120.538804,23.920462],[120.538473,23.920082],[120.538668,23.919869],[120.539053,23.918512],[120.538671,23.916335],[120.538601,23.914924],[120.540855,23.914395],[120.542245,23.913675],[120.542636,23.913697],[120.542984,23.914787],[120.542616,23.917354],[120.546153,23.918834],[120.545287,23.921064]]]},"properties":{"code":"10007160003","name":"永南村","countyCode":"10007","countyName":"彰化縣","townCode":"10007160","townName":"永靖鄉","level":"village","unassigned":false,"note":"","label":[120.54200083107843,23.91902513663235],"bounds":[120.538473,23.913675,120.546153,23.922769],"focusBounds":[120.538473,23.913675,120.546153,23.922769],"color":"#a49ad4"}},{"type":"Feature","id":"10007160004","geometry":{"type":"Polygon","coordinates":[[[120.544393,23.933388],[120.543357,23.934252],[120.543047,23.934295],[120.543973,23.931907],[120.543882,23.931723],[120.54133,23.930951],[120.537343,23.929459],[120.535836,23.929685],[120.536727,23.923859],[120.536962,23.923399],[120.537594,23.92286],[120.538279,23.921171],[120.538804,23.920462],[120.540131,23.920175],[120.540558,23.920223],[120.541379,23.920746],[120.541858,23.921386],[120.544683,23.922769],[120.544156,23.924289],[120.547764,23.925392],[120.54699,23.926585],[120.546064,23.929937],[120.544771,23.93231],[120.544393,23.933388]]]},"properties":{"code":"10007160004","name":"永北村","countyCode":"10007","countyName":"彰化縣","townCode":"10007160","townName":"永靖鄉","level":"village","unassigned":false,"note":"","label":[120.54057744541632,23.92626561333031],"bounds":[120.535836,23.920175,120.547764,23.934295],"focusBounds":[120.535836,23.920175,120.547764,23.934295],"color":"#a8bf62"}},{"type":"Feature","id":"10007160005","geometry":{"type":"Polygon","coordinates":[[[120.549154,23.920702],[120.549471,23.920905],[120.549415,23.92121],[120.547075,23.919895],[120.546153,23.918834],[120.542616,23.917354],[120.542984,23.914787],[120.542636,23.913697],[120.542245,23.913675],[120.540855,23.914395],[120.538601,23.914924],[120.538568,23.913691],[120.538934,23.912194],[120.538909,23.911284],[120.539643,23.911349],[120.540735,23.910858],[120.540389,23.910298],[120.542413,23.909551],[120.542352,23.908925],[120.546073,23.909517],[120.546033,23.910875],[120.546289,23.911984],[120.547098,23.912665],[120.547755,23.915173],[120.547714,23.915347],[120.546967,23.915724],[120.54681,23.916227],[120.547447,23.917964],[120.54823,23.918013],[120.548934,23.92049],[120.549154,23.920702]]]},"properties":{"code":"10007160005","name":"港西村","countyCode":"10007","countyName":"彰化縣","townCode":"10007160","townName":"永靖鄉","level":"village","unassigned":false,"note":"","label":[120.5450127734781,23.913852633672988],"bounds":[120.538568,23.908925,120.549471,23.92121],"focusBounds":[120.538568,23.908925,120.549471,23.92121],"color":"#68bec9"}},{"type":"Feature","id":"10007160006","geometry":{"type":"Polygon","coordinates":[[[120.546073,23.909517],[120.542352,23.908925],[120.542413,23.909551],[120.540389,23.910298],[120.540735,23.910858],[120.539643,23.911349],[120.538909,23.911284],[120.539117,23.909645],[120.538909,23.908912],[120.538958,23.9085],[120.538685,23.908185],[120.538624,23.907549],[120.538786,23.906937],[120.538514,23.906599],[120.538651,23.905979],[120.538372,23.904346],[120.538682,23.903822],[120.538047,23.902117],[120.537925,23.901819],[120.540114,23.901118],[120.540192,23.900818],[120.547121,23.901761],[120.546288,23.907032],[120.546073,23.909517]]]},"properties":{"code":"10007160006","name":"五福村","countyCode":"10007","countyName":"彰化縣","townCode":"10007160","townName":"永靖鄉","level":"village","unassigned":false,"note":"","label":[120.54246988052202,23.905035992279345],"bounds":[120.537925,23.900818,120.547121,23.911349],"focusBounds":[120.537925,23.900818,120.547121,23.911349],"color":"#c38cb8"}},{"type":"Feature","id":"10007160007","geometry":{"type":"Polygon","coordinates":[[[120.556321,23.91956],[120.55511,23.919374],[120.554064,23.9194],[120.551812,23.919875],[120.550265,23.920477],[120.549154,23.920702],[120.548934,23.92049],[120.54823,23.918013],[120.547447,23.917964],[120.54681,23.916227],[120.546967,23.915724],[120.547714,23.915347],[120.547755,23.915173],[120.547098,23.912665],[120.546289,23.911984],[120.546033,23.910875],[120.546073,23.909517],[120.546288,23.907032],[120.547325,23.907174],[120.54741,23.906695],[120.548434,23.906804],[120.548534,23.906446],[120.549522,23.906522],[120.549509,23.907045],[120.55038,23.907139],[120.550451,23.907008],[120.55121,23.907032],[120.551371,23.907501],[120.551129,23.908419],[120.551185,23.909092],[120.550882,23.909361],[120.550983,23.909567],[120.557476,23.913333],[120.554985,23.917455],[120.556321,23.91956]]]},"properties":{"code":"10007160007","name":"湳港村","countyCode":"10007","countyName":"彰化縣","townCode":"10007160","townName":"永靖鄉","level":"village","unassigned":false,"note":"","label":[120.551518271361,23.914279922423887],"bounds":[120.546033,23.906446,120.557476,23.920702],"focusBounds":[120.546033,23.906446,120.557476,23.920702],"color":"#98b69b"}},{"type":"Feature","id":"10007160008","geometry":{"type":"Polygon","coordinates":[[[120.562164,23.903193],[120.560275,23.908691],[120.557476,23.913333],[120.550983,23.909567],[120.550882,23.909361],[120.551185,23.909092],[120.551129,23.908419],[120.551371,23.907501],[120.551915,23.907316],[120.55312,23.90745],[120.553371,23.907271],[120.553301,23.906966],[120.55363,23.906753],[120.553931,23.905509],[120.554988,23.905612],[120.556357,23.898325],[120.55727,23.898404],[120.557239,23.899886],[120.556767,23.902022],[120.557763,23.902162],[120.559855,23.902803],[120.562164,23.903193]]]},"properties":{"code":"10007160008","name":"新莊村","countyCode":"10007","countyName":"彰化縣","townCode":"10007160","townName":"永靖鄉","level":"village","unassigned":false,"note":"","label":[120.55731485375182,23.907669303244816],"bounds":[120.550882,23.898325,120.562164,23.913333],"focusBounds":[120.550882,23.898325,120.562164,23.913333],"color":"#58b99d"}},{"type":"Feature","id":"10007160009","geometry":{"type":"Polygon","coordinates":[[[120.553014,23.93119],[120.552941,23.93288],[120.5527,23.934226],[120.551818,23.932959],[120.549591,23.933091],[120.548155,23.933408],[120.545684,23.933491],[120.544393,23.933388],[120.544771,23.93231],[120.546064,23.929937],[120.54699,23.926585],[120.547764,23.925392],[120.549373,23.923159],[120.549799,23.92232],[120.549855,23.921847],[120.5494,23.921447],[120.549415,23.92121],[120.549471,23.920905],[120.549154,23.920702],[120.550265,23.920477],[120.551812,23.919875],[120.554064,23.9194],[120.55511,23.919374],[120.556321,23.91956],[120.558596,23.919873],[120.559441,23.920119],[120.559704,23.920329],[120.557936,23.921487],[120.557603,23.922658],[120.556537,23.922462],[120.554323,23.922782],[120.553884,23.9232],[120.553558,23.9247],[120.553945,23.925809],[120.552986,23.928284],[120.553111,23.92911],[120.553014,23.93119]]]},"properties":{"code":"10007160009","name":"瑚璉村","countyCode":"10007","countyName":"彰化縣","townCode":"10007160","townName":"永靖鄉","level":"village","unassigned":false,"note":"","label":[120.55040750477157,23.926732109074187],"bounds":[120.544393,23.919374,120.559704,23.934226],"focusBounds":[120.544393,23.919374,120.559704,23.934226],"color":"#58b99d"}},{"type":"Feature","id":"10007160010","geometry":{"type":"Polygon","coordinates":[[[120.558643,23.937563],[120.558305,23.937769],[120.557831,23.93774],[120.555289,23.936429],[120.553148,23.934488],[120.552826,23.934487],[120.5527,23.934226],[120.552941,23.93288],[120.553014,23.93119],[120.553712,23.931178],[120.554311,23.93093],[120.556772,23.931118],[120.559113,23.930774],[120.559815,23.931101],[120.560184,23.932036],[120.560358,23.932096],[120.560769,23.932115],[120.56247,23.931664],[120.563261,23.931743],[120.563344,23.931887],[120.562314,23.932887],[120.560682,23.935257],[120.559487,23.936235],[120.558643,23.937563]]]},"properties":{"code":"10007160010","name":"五汴村","countyCode":"10007","countyName":"彰化縣","townCode":"10007160","townName":"永靖鄉","level":"village","unassigned":false,"note":"","label":[120.5574704412676,23.93398063998511],"bounds":[120.5527,23.930774,120.563344,23.937769],"focusBounds":[120.5527,23.930774,120.563344,23.937769],"color":"#efb44f"}},{"type":"Feature","id":"10007160011","geometry":{"type":"Polygon","coordinates":[[[120.564369,23.90355],[120.564139,23.907536],[120.563472,23.909644],[120.563145,23.911289],[120.561318,23.917103],[120.561205,23.917389],[120.560719,23.91752],[120.559704,23.920329],[120.559441,23.920119],[120.558596,23.919873],[120.556321,23.91956],[120.554985,23.917455],[120.557476,23.913333],[120.560275,23.908691],[120.562164,23.903193],[120.564369,23.90355]]]},"properties":{"code":"10007160011","name":"浮圳村","countyCode":"10007","countyName":"彰化縣","townCode":"10007160","townName":"永靖鄉","level":"village","unassigned":false,"note":"","label":[120.56031609281227,23.912963127433095],"bounds":[120.554985,23.903193,120.564369,23.920329],"focusBounds":[120.554985,23.903193,120.564369,23.920329],"color":"#78a7e3"}},{"type":"Feature","id":"10007160012","geometry":{"type":"Polygon","coordinates":[[[120.559815,23.931101],[120.559113,23.930774],[120.556772,23.931118],[120.554311,23.93093],[120.553712,23.931178],[120.553014,23.93119],[120.553111,23.92911],[120.552986,23.928284],[120.553945,23.925809],[120.553558,23.9247],[120.553884,23.9232],[120.554323,23.922782],[120.556537,23.922462],[120.557603,23.922658],[120.559176,23.923088],[120.561147,23.923966],[120.560864,23.924697],[120.56158,23.925467],[120.56268,23.926248],[120.563926,23.926886],[120.564587,23.927427],[120.563145,23.928653],[120.561614,23.930472],[120.560456,23.931166],[120.559815,23.931101]]]},"properties":{"code":"10007160012","name":"光雲村","countyCode":"10007","countyName":"彰化縣","townCode":"10007160","townName":"永靖鄉","level":"village","unassigned":false,"note":"","label":[120.55775062389999,23.927167728981786],"bounds":[120.552986,23.922462,120.564587,23.93119],"focusBounds":[120.552986,23.922462,120.564587,23.93119],"color":"#dd8590"}},{"type":"Feature","id":"10007160013","geometry":{"type":"Polygon","coordinates":[[[120.570305,23.914014],[120.569503,23.916572],[120.569179,23.916982],[120.568223,23.917653],[120.567411,23.923557],[120.568448,23.923659],[120.568312,23.924795],[120.567717,23.924832],[120.567731,23.925192],[120.567302,23.925211],[120.567591,23.925475],[120.567662,23.9259],[120.566426,23.925889],[120.564587,23.927427],[120.563926,23.926886],[120.56268,23.926248],[120.56158,23.925467],[120.560864,23.924697],[120.561147,23.923966],[120.559176,23.923088],[120.557603,23.922658],[120.557936,23.921487],[120.559704,23.920329],[120.560719,23.91752],[120.561205,23.917389],[120.561318,23.917103],[120.563145,23.911289],[120.563472,23.909644],[120.564139,23.907536],[120.564369,23.90355],[120.56449,23.903555],[120.564526,23.903337],[120.569065,23.904865],[120.568727,23.905975],[120.568026,23.907309],[120.566196,23.911935],[120.570124,23.913663],[120.570068,23.913967],[120.570305,23.914014]]]},"properties":{"code":"10007160013","name":"東寧村","countyCode":"10007","countyName":"彰化縣","townCode":"10007160","townName":"永靖鄉","level":"village","unassigned":false,"note":"","label":[120.56486517618502,23.917054969118148],"bounds":[120.557603,23.903337,120.570305,23.927427],"focusBounds":[120.557603,23.903337,120.570305,23.927427],"color":"#a49ad4"}},{"type":"Feature","id":"10007160014","geometry":{"type":"Polygon","coordinates":[[[120.563344,23.931887],[120.563261,23.931743],[120.56247,23.931664],[120.560769,23.932115],[120.560358,23.932096],[120.560184,23.932036],[120.559815,23.931101],[120.560456,23.931166],[120.561614,23.930472],[120.563145,23.928653],[120.564587,23.927427],[120.566426,23.925889],[120.567662,23.9259],[120.567591,23.925475],[120.567302,23.925211],[120.567731,23.925192],[120.567717,23.924832],[120.568312,23.924795],[120.568448,23.923659],[120.567411,23.923557],[120.568223,23.917653],[120.569179,23.916982],[120.569503,23.916572],[120.570305,23.914014],[120.570682,23.914059],[120.570785,23.914319],[120.573864,23.914276],[120.577068,23.91451],[120.577183,23.916777],[120.576906,23.916854],[120.575676,23.920904],[120.575171,23.922124],[120.576207,23.923173],[120.576366,23.923242],[120.57444,23.92488],[120.571209,23.92707],[120.570723,23.927174],[120.569562,23.927833],[120.567536,23.929401],[120.563344,23.931887]]]},"properties":{"code":"10007160014","name":"永興村","countyCode":"10007","countyName":"彰化縣","townCode":"10007160","townName":"永靖鄉","level":"village","unassigned":false,"note":"","label":[120.57142101937504,23.92140774293125],"bounds":[120.559815,23.914014,120.577183,23.932115],"focusBounds":[120.559815,23.914014,120.577183,23.932115],"color":"#a8bf62"}},{"type":"Feature","id":"10007160015","geometry":{"type":"Polygon","coordinates":[[[120.575383,23.933295],[120.572717,23.933682],[120.569698,23.934434],[120.567395,23.934428],[120.567462,23.934921],[120.567307,23.935153],[120.566401,23.93526],[120.565713,23.935167],[120.565398,23.936607],[120.564198,23.936442],[120.563488,23.938456],[120.561507,23.937979],[120.559457,23.937482],[120.558882,23.937442],[120.558643,23.937563],[120.559487,23.936235],[120.560682,23.935257],[120.562314,23.932887],[120.563344,23.931887],[120.567536,23.929401],[120.569562,23.927833],[120.570723,23.927174],[120.571209,23.92707],[120.572521,23.928107],[120.573402,23.928542],[120.573817,23.929034],[120.574406,23.931089],[120.575383,23.933295]]]},"properties":{"code":"10007160015","name":"崙子村","countyCode":"10007","countyName":"彰化縣","townCode":"10007160","townName":"永靖鄉","level":"village","unassigned":false,"note":"","label":[120.57023805355827,23.93125504949601],"bounds":[120.558643,23.92707,120.575383,23.938456],"focusBounds":[120.558643,23.92707,120.575383,23.938456],"color":"#68bec9"}},{"type":"Feature","id":"10007160016","geometry":{"type":"Polygon","coordinates":[[[120.538473,23.920082],[120.537644,23.920899],[120.534859,23.921833],[120.532522,23.923845],[120.531788,23.922231],[120.531623,23.919046],[120.531625,23.91834],[120.532043,23.917876],[120.533366,23.91768],[120.533278,23.916281],[120.532526,23.911723],[120.534278,23.910265],[120.536197,23.908178],[120.537872,23.908004],[120.538624,23.907549],[120.538685,23.908185],[120.538958,23.9085],[120.538909,23.908912],[120.539117,23.909645],[120.538909,23.911284],[120.538934,23.912194],[120.538568,23.913691],[120.538601,23.914924],[120.538671,23.916335],[120.539053,23.918512],[120.538668,23.919869],[120.538473,23.920082]]]},"properties":{"code":"10007160016","name":"獨鰲村","countyCode":"10007","countyName":"彰化縣","townCode":"10007160","townName":"永靖鄉","level":"village","unassigned":false,"note":"","label":[120.53593152982101,23.915612541080325],"bounds":[120.531623,23.907549,120.539117,23.923845],"focusBounds":[120.531623,23.907549,120.539117,23.923845],"color":"#df9f6a"}},{"type":"Feature","id":"10007160017","geometry":{"type":"Polygon","coordinates":[[[120.532522,23.923845],[120.531134,23.924499],[120.529682,23.924814],[120.52913,23.924751],[120.52861,23.924569],[120.526379,23.92252],[120.525003,23.920694],[120.524324,23.920139],[120.524826,23.919625],[120.525785,23.917903],[120.524622,23.917884],[120.524459,23.917365],[120.526188,23.917479],[120.526011,23.913787],[120.526741,23.913537],[120.527351,23.91343],[120.528055,23.912967],[120.529755,23.91287],[120.530579,23.91268],[120.532526,23.911723],[120.533278,23.916281],[120.533366,23.91768],[120.532043,23.917876],[120.531625,23.91834],[120.531623,23.919046],[120.531788,23.922231],[120.532522,23.923845]]]},"properties":{"code":"10007160017","name":"敦厚村","countyCode":"10007","countyName":"彰化縣","townCode":"10007160","townName":"永靖鄉","level":"village","unassigned":false,"note":"","label":[120.52867866933603,23.919020743288943],"bounds":[120.524324,23.911723,120.533366,23.924814],"focusBounds":[120.524324,23.911723,120.533366,23.924814],"color":"#c38cb8"}},{"type":"Feature","id":"10007160018","geometry":{"type":"Polygon","coordinates":[[[120.526011,23.913787],[120.526188,23.917479],[120.524459,23.917365],[120.524622,23.917884],[120.525785,23.917903],[120.524826,23.919625],[120.524324,23.920139],[120.523241,23.919328],[120.521686,23.918923],[120.519744,23.917971],[120.517923,23.917893],[120.514897,23.917399],[120.511381,23.917357],[120.510973,23.915641],[120.511075,23.915509],[120.511822,23.915393],[120.51297,23.915183],[120.515502,23.913347],[120.515812,23.913718],[120.516493,23.913891],[120.519367,23.913989],[120.520178,23.913576],[120.521042,23.913397],[120.524001,23.913406],[120.524059,23.914292],[120.524516,23.91442],[120.526011,23.913787]]]},"properties":{"code":"10007160018","name":"崙美村","countyCode":"10007","countyName":"彰化縣","townCode":"10007160","townName":"永靖鄉","level":"village","unassigned":false,"note":"","label":[120.5219793448012,23.916199607683748],"bounds":[120.510973,23.913347,120.526188,23.920139],"focusBounds":[120.510973,23.913347,120.526188,23.920139],"color":"#98b69b"}},{"type":"Feature","id":"10007160019","geometry":{"type":"Polygon","coordinates":[[[120.532522,23.923845],[120.532548,23.924219],[120.531315,23.925178],[120.531243,23.928374],[120.531361,23.929549],[120.53125,23.929954],[120.529719,23.930118],[120.528285,23.930059],[120.527412,23.929853],[120.525499,23.929772],[120.525258,23.926713],[120.524528,23.924382],[120.524162,23.922135],[120.52515,23.922242],[120.526126,23.922587],[120.526379,23.92252],[120.52861,23.924569],[120.52913,23.924751],[120.529682,23.924814],[120.531134,23.924499],[120.532522,23.923845]]]},"properties":{"code":"10007160019","name":"同安村","countyCode":"10007","countyName":"彰化縣","townCode":"10007160","townName":"永靖鄉","level":"village","unassigned":false,"note":"","label":[120.52800878827334,23.927244965969855],"bounds":[120.524162,23.922135,120.532548,23.930118],"focusBounds":[120.524162,23.922135,120.532548,23.930118],"color":"#58b99d"}},{"type":"Feature","id":"10007160020","geometry":{"type":"Polygon","coordinates":[[[120.534081,23.93168],[120.530196,23.933882],[120.529147,23.933729],[120.529255,23.933002],[120.528618,23.932818],[120.528362,23.932247],[120.527892,23.931991],[120.528285,23.930059],[120.529719,23.930118],[120.53125,23.929954],[120.531361,23.929549],[120.531243,23.928374],[120.531315,23.925178],[120.532548,23.924219],[120.532522,23.923845],[120.534859,23.921833],[120.537644,23.920899],[120.538473,23.920082],[120.538804,23.920462],[120.538279,23.921171],[120.537594,23.92286],[120.536962,23.923399],[120.536727,23.923859],[120.535836,23.929685],[120.535114,23.930205],[120.534081,23.93168]]]},"properties":{"code":"10007160020","name":"同仁村","countyCode":"10007","countyName":"彰化縣","townCode":"10007160","townName":"永靖鄉","level":"village","unassigned":false,"note":"","label":[120.53370218784028,23.92760990033806],"bounds":[120.527892,23.920082,120.538804,23.933882],"focusBounds":[120.527892,23.920082,120.538804,23.933882],"color":"#efb44f"}},{"type":"Feature","id":"10007160021","geometry":{"type":"Polygon","coordinates":[[[120.518829,23.937627],[120.517476,23.936615],[120.516275,23.935324],[120.518268,23.9329],[120.51817,23.932136],[120.518509,23.932133],[120.518597,23.931798],[120.518936,23.931809],[120.519005,23.931566],[120.519188,23.931533],[120.519175,23.930137],[120.519363,23.929541],[120.521602,23.928285],[120.521793,23.928341],[120.5226,23.929837],[120.525499,23.929772],[120.527412,23.929853],[120.528285,23.930059],[120.527892,23.931991],[120.528362,23.932247],[120.528618,23.932818],[120.529255,23.933002],[120.529147,23.933729],[120.530196,23.933882],[120.534081,23.93168],[120.533102,23.933852],[120.532764,23.935355],[120.532584,23.936099],[120.532359,23.936565],[120.531422,23.936583],[120.530364,23.936816],[120.528198,23.937633],[120.526184,23.937455],[120.525741,23.936872],[120.521835,23.936272],[120.520871,23.936244],[120.520024,23.93666],[120.518829,23.937627]]]},"properties":{"code":"10007160021","name":"湳墘村","countyCode":"10007","countyName":"彰化縣","townCode":"10007160","townName":"永靖鄉","level":"village","unassigned":false,"note":"","label":[120.52460274517435,23.933244547926783],"bounds":[120.516275,23.928285,120.534081,23.937633],"focusBounds":[120.516275,23.928285,120.534081,23.937633],"color":"#78a7e3"}},{"type":"Feature","id":"10007160022","geometry":{"type":"Polygon","coordinates":[[[120.519363,23.929541],[120.519301,23.929391],[120.518329,23.929935],[120.516229,23.931496],[120.515114,23.930877],[120.515768,23.929094],[120.516003,23.926373],[120.516537,23.92362],[120.516432,23.92069],[120.516983,23.920622],[120.517709,23.920755],[120.521367,23.921945],[120.52268,23.922195],[120.524162,23.922135],[120.524528,23.924382],[120.525258,23.926713],[120.525499,23.929772],[120.5226,23.929837],[120.521793,23.928341],[120.521602,23.928285],[120.519363,23.929541]]]},"properties":{"code":"10007160022","name":"四芳村","countyCode":"10007","countyName":"彰化縣","townCode":"10007160","townName":"永靖鄉","level":"village","unassigned":false,"note":"","label":[120.51976504501002,23.92536932540761],"bounds":[120.515114,23.920622,120.525499,23.931496],"focusBounds":[120.515114,23.920622,120.525499,23.931496],"color":"#dd8590"}},{"type":"Feature","id":"10007160023","geometry":{"type":"Polygon","coordinates":[[[120.524162,23.922135],[120.52268,23.922195],[120.521367,23.921945],[120.517709,23.920755],[120.516983,23.920622],[120.516432,23.92069],[120.516537,23.92362],[120.516003,23.926373],[120.515768,23.929094],[120.515114,23.930877],[120.513551,23.930331],[120.51307,23.930606],[120.512984,23.930396],[120.512436,23.930315],[120.512392,23.929727],[120.511639,23.929637],[120.511529,23.929783],[120.511122,23.929807],[120.511183,23.9269],[120.510902,23.925475],[120.510003,23.923643],[120.508294,23.919275],[120.50749,23.919128],[120.507131,23.918468],[120.508268,23.918042],[120.511381,23.917357],[120.514897,23.917399],[120.517923,23.917893],[120.519744,23.917971],[120.521686,23.918923],[120.523241,23.919328],[120.524324,23.920139],[120.525003,23.920694],[120.526379,23.92252],[120.526126,23.922587],[120.52515,23.922242],[120.524162,23.922135]]]},"properties":{"code":"10007160023","name":"福興村","countyCode":"10007","countyName":"彰化縣","townCode":"10007160","townName":"永靖鄉","level":"village","unassigned":false,"note":"","label":[120.51312445360102,23.92222662788003],"bounds":[120.507131,23.917357,120.526379,23.930877],"focusBounds":[120.507131,23.917357,120.526379,23.930877],"color":"#a49ad4"}},{"type":"Feature","id":"10007160024","geometry":{"type":"Polygon","coordinates":[[[120.50815,23.934972],[120.507899,23.93481],[120.507235,23.935162],[120.506982,23.934977],[120.50659,23.934178],[120.50558,23.934133],[120.50468,23.933523],[120.503936,23.932705],[120.502948,23.932177],[120.502229,23.932559],[120.501651,23.932417],[120.501505,23.932011],[120.501656,23.930671],[120.501056,23.929388],[120.500998,23.92885],[120.500304,23.929666],[120.498983,23.929973],[120.498299,23.929953],[120.497509,23.929718],[120.497548,23.929357],[120.497396,23.929326],[120.497043,23.929319],[120.496996,23.92952],[120.495793,23.929425],[120.495638,23.928331],[120.495321,23.927515],[120.495015,23.927367],[120.49505,23.92694],[120.493952,23.927038],[120.494553,23.925125],[120.496207,23.925557],[120.497192,23.925391],[120.498504,23.924973],[120.499763,23.924097],[120.500272,23.923905],[120.500694,23.923373],[120.501844,23.923451],[120.502634,23.921523],[120.503268,23.92094],[120.505199,23.919309],[120.507131,23.918468],[120.50749,23.919128],[120.508294,23.919275],[120.510003,23.923643],[120.510902,23.925475],[120.511183,23.9269],[120.511122,23.929807],[120.511015,23.930302],[120.510386,23.930461],[120.510316,23.930914],[120.510097,23.930804],[120.509315,23.930902],[120.509246,23.93104],[120.507982,23.931383],[120.507301,23.931956],[120.50815,23.932681],[120.508743,23.933558],[120.508761,23.93382],[120.50815,23.934972]]]},"properties":{"code":"10007160024","name":"竹子村","countyCode":"10007","countyName":"彰化縣","townCode":"10007160","townName":"永靖鄉","level":"village","unassigned":false,"note":"","label":[120.50572246281781,23.926610287717395],"bounds":[120.493952,23.918468,120.511183,23.935162],"focusBounds":[120.493952,23.918468,120.511183,23.935162],"color":"#a8bf62"}}]}
