{"type":"FeatureCollection","features":[{"type":"Feature","id":"10009140001","geometry":{"type":"Polygon","coordinates":[[[120.253331,23.691547],[120.251432,23.692195],[120.249497,23.692318],[120.249014,23.691917],[120.248803,23.691907],[120.247788,23.692297],[120.247718,23.689391],[120.246113,23.683573],[120.245077,23.680473],[120.244781,23.678941],[120.245103,23.677929],[120.244861,23.676858],[120.245731,23.67665],[120.246145,23.675855],[120.245835,23.672748],[120.244579,23.671416],[120.242307,23.669584],[120.239885,23.668136],[120.24207,23.668357],[120.244481,23.668998],[120.24825,23.671134],[120.249518,23.672483],[120.250924,23.67354],[120.252364,23.674104],[120.253244,23.674201],[120.255364,23.674044],[120.25539,23.673415],[120.258103,23.673374],[120.257951,23.673684],[120.257973,23.674655],[120.257588,23.674585],[120.255947,23.674819],[120.256144,23.675811],[120.255581,23.675928],[120.255611,23.676088],[120.255217,23.676202],[120.255561,23.677391],[120.254222,23.677845],[120.255029,23.681982],[120.253369,23.685475],[120.25331,23.69012],[120.253331,23.691547]]]},"properties":{"code":"10009140001","name":"東南村","countyCode":"10009","countyName":"雲林縣","townCode":"10009140","townName":"東勢鄉","level":"village","unassigned":false,"note":"","label":[120.24998521935984,23.680490454753993],"bounds":[120.239885,23.668136,120.258103,23.692318],"focusBounds":[120.239885,23.668136,120.258103,23.692318],"color":"#dd8590"}},{"type":"Feature","id":"10009140002","geometry":{"type":"Polygon","coordinates":[[[120.265287,23.688794],[120.262486,23.689257],[120.258821,23.68949],[120.255947,23.690045],[120.25331,23.69012],[120.253369,23.685475],[120.255029,23.681982],[120.254222,23.677845],[120.255561,23.677391],[120.255217,23.676202],[120.255611,23.676088],[120.255581,23.675928],[120.256144,23.675811],[120.255947,23.674819],[120.257588,23.674585],[120.257973,23.674655],[120.257951,23.673684],[120.258103,23.673374],[120.259875,23.67252],[120.262079,23.671733],[120.262884,23.671482],[120.263917,23.67137],[120.264948,23.672948],[120.26591,23.673449],[120.268595,23.673618],[120.270217,23.675734],[120.270954,23.675985],[120.268231,23.677539],[120.270738,23.677973],[120.270504,23.678898],[120.267318,23.688038],[120.267244,23.68872],[120.265287,23.688794]]]},"properties":{"code":"10009140002","name":"東北村","countyCode":"10009","countyName":"雲林縣","townCode":"10009140","townName":"東勢鄉","level":"village","unassigned":false,"note":"","label":[120.2619036641593,23.68104908227641],"bounds":[120.25331,23.67137,120.270954,23.69012],"focusBounds":[120.25331,23.67137,120.270954,23.69012],"color":"#a49ad4"}},{"type":"Feature","id":"10009140003","geometry":{"type":"Polygon","coordinates":[[[120.278799,23.672108],[120.277182,23.675852],[120.276151,23.676836],[120.275287,23.677988],[120.275218,23.678299],[120.274078,23.678237],[120.274408,23.677119],[120.270954,23.675985],[120.270217,23.675734],[120.268595,23.673618],[120.26591,23.673449],[120.264948,23.672948],[120.263917,23.67137],[120.262884,23.671482],[120.262079,23.671733],[120.259875,23.67252],[120.258103,23.673374],[120.25539,23.673415],[120.255364,23.674044],[120.253244,23.674201],[120.252364,23.674104],[120.250924,23.67354],[120.249518,23.672483],[120.24825,23.671134],[120.244481,23.668998],[120.24207,23.668357],[120.239885,23.668136],[120.238525,23.667915],[120.237529,23.668007],[120.236332,23.666536],[120.235237,23.665669],[120.232854,23.664977],[120.232738,23.664026],[120.231982,23.664014],[120.231248,23.663459],[120.230209,23.663046],[120.228361,23.662756],[120.226751,23.658102],[120.228385,23.657419],[120.232647,23.655612],[120.233132,23.655549],[120.237107,23.653793],[120.238079,23.65366],[120.239366,23.653655],[120.241775,23.654122],[120.244309,23.655496],[120.248054,23.657815],[120.248801,23.658051],[120.249624,23.658012],[120.25505,23.6567],[120.256405,23.656694],[120.257407,23.657444],[120.258221,23.65856],[120.259746,23.661248],[120.26178,23.662911],[120.262554,23.663401],[120.264204,23.663952],[120.265746,23.664932],[120.267127,23.666643],[120.270016,23.670815],[120.271481,23.672209],[120.272127,23.672478],[120.272895,23.672512],[120.27598,23.671536],[120.277585,23.67165],[120.278799,23.672108]]]},"properties":{"code":"10009140003","name":"嘉隆村","countyCode":"10009","countyName":"雲林縣","townCode":"10009140","townName":"東勢鄉","level":"village","unassigned":false,"note":"","label":[120.2529942368578,23.66568530978016],"bounds":[120.226751,23.653655,120.278799,23.678299],"focusBounds":[120.226751,23.653655,120.278799,23.678299],"color":"#a8bf62"}},{"type":"Feature","id":"10009140004","geometry":{"type":"Polygon","coordinates":[[[120.269722,23.696799],[120.264674,23.694823],[120.26512,23.692141],[120.265287,23.688794],[120.267244,23.68872],[120.267318,23.688038],[120.270504,23.678898],[120.270738,23.677973],[120.268231,23.677539],[120.270954,23.675985],[120.274408,23.677119],[120.274078,23.678237],[120.275218,23.678299],[120.275287,23.677988],[120.276151,23.676836],[120.277182,23.675852],[120.278799,23.672108],[120.279254,23.672536],[120.279608,23.673157],[120.28146,23.677541],[120.283343,23.679405],[120.282456,23.680757],[120.28179,23.682786],[120.281877,23.684813],[120.277323,23.684708],[120.277036,23.689391],[120.277189,23.690863],[120.276348,23.691142],[120.275414,23.691241],[120.273265,23.691348],[120.272333,23.691192],[120.271364,23.691498],[120.270786,23.692045],[120.269404,23.692672],[120.268972,23.693327],[120.268877,23.694052],[120.269722,23.696799]]]},"properties":{"code":"10009140004","name":"復興村","countyCode":"10009","countyName":"雲林縣","townCode":"10009140","townName":"東勢鄉","level":"village","unassigned":false,"note":"","label":[120.27299825847952,23.684828585930045],"bounds":[120.264674,23.672108,120.283343,23.696799],"focusBounds":[120.264674,23.672108,120.283343,23.696799],"color":"#68bec9"}},{"type":"Feature","id":"10009140005","geometry":{"type":"Polygon","coordinates":[[[120.298913,23.690036],[120.298852,23.690222],[120.298003,23.690056],[120.293742,23.688839],[120.292829,23.688061],[120.291714,23.687662],[120.289672,23.68637],[120.287978,23.685602],[120.286698,23.690421],[120.286699,23.691404],[120.284413,23.69202],[120.279481,23.692927],[120.27767,23.693824],[120.277352,23.691136],[120.277189,23.690863],[120.277036,23.689391],[120.277323,23.684708],[120.281877,23.684813],[120.28179,23.682786],[120.282456,23.680757],[120.283343,23.679405],[120.284322,23.679801],[120.285647,23.67977],[120.290038,23.676724],[120.290853,23.676328],[120.291935,23.676143],[120.293097,23.676334],[120.296115,23.677231],[120.297353,23.677323],[120.298931,23.678025],[120.300966,23.678352],[120.301973,23.67885],[120.306404,23.68386],[120.306283,23.684144],[120.305332,23.685088],[120.304768,23.687332],[120.303433,23.687216],[120.30165,23.686496],[120.29947,23.686268],[120.298982,23.686354],[120.298781,23.686672],[120.297536,23.686937],[120.297431,23.688246],[120.297447,23.688724],[120.298438,23.689208],[120.298913,23.690036]]]},"properties":{"code":"10009140005","name":"月眉村","countyCode":"10009","countyName":"雲林縣","townCode":"10009140","townName":"東勢鄉","level":"village","unassigned":false,"note":"","label":[120.29307496366016,23.682300703878695],"bounds":[120.277036,23.676143,120.306404,23.693824],"focusBounds":[120.277036,23.676143,120.306404,23.693824],"color":"#df9f6a"}},{"type":"Feature","id":"10009140006","geometry":{"type":"Polygon","coordinates":[[[120.244861,23.676858],[120.243605,23.677283],[120.24315,23.67759],[120.242267,23.6788],[120.240405,23.680497],[120.236451,23.681031],[120.23367,23.683223],[120.232554,23.683869],[120.230924,23.684552],[120.229698,23.685243],[120.229608,23.685481],[120.229379,23.684678],[120.229532,23.68403],[120.229091,23.68207],[120.228693,23.681344],[120.228406,23.679594],[120.228266,23.678756],[120.225766,23.678928],[120.225416,23.67863],[120.224874,23.678734],[120.224292,23.678297],[120.223963,23.678523],[120.223836,23.678966],[120.223502,23.67915],[120.221724,23.679288],[120.221382,23.677724],[120.221438,23.676896],[120.220996,23.676032],[120.220715,23.674972],[120.22081,23.674709],[120.220424,23.673891],[120.220423,23.673689],[120.222394,23.671312],[120.221987,23.66986],[120.219951,23.664597],[120.219105,23.66036],[120.218419,23.658015],[120.220256,23.657856],[120.225708,23.658299],[120.226751,23.658102],[120.228361,23.662756],[120.230209,23.663046],[120.231248,23.663459],[120.231982,23.664014],[120.232738,23.664026],[120.232854,23.664977],[120.235237,23.665669],[120.236332,23.666536],[120.237529,23.668007],[120.238525,23.667915],[120.239885,23.668136],[120.242307,23.669584],[120.244579,23.671416],[120.245835,23.672748],[120.246145,23.675855],[120.245731,23.67665],[120.244861,23.676858]]]},"properties":{"code":"10009140006","name":"程海村","countyCode":"10009","countyName":"雲林縣","townCode":"10009140","townName":"東勢鄉","level":"village","unassigned":false,"note":"","label":[120.22984423702212,23.671630954443472],"bounds":[120.218419,23.657856,120.246145,23.685481],"focusBounds":[120.218419,23.657856,120.246145,23.685481],"color":"#c38cb8"}},{"type":"Feature","id":"10009140007","geometry":{"type":"Polygon","coordinates":[[[120.247788,23.692297],[120.248044,23.693801],[120.243302,23.693981],[120.242963,23.693948],[120.242158,23.693513],[120.241793,23.693813],[120.241836,23.694448],[120.240829,23.69454],[120.240324,23.694894],[120.239409,23.695246],[120.242927,23.700232],[120.241837,23.700495],[120.240819,23.700427],[120.239729,23.700605],[120.239531,23.700441],[120.237774,23.700584],[120.232802,23.702144],[120.23114,23.702018],[120.228737,23.702641],[120.228458,23.702188],[120.228231,23.699955],[120.229561,23.699324],[120.230294,23.698251],[120.230249,23.697677],[120.231211,23.697401],[120.231641,23.697024],[120.232668,23.696737],[120.233417,23.696116],[120.23249,23.692661],[120.231852,23.692722],[120.231765,23.692605],[120.230751,23.688983],[120.230342,23.686869],[120.229894,23.686342],[120.229608,23.685481],[120.229698,23.685243],[120.230924,23.684552],[120.232554,23.683869],[120.23367,23.683223],[120.236451,23.681031],[120.240405,23.680497],[120.242267,23.6788],[120.24315,23.67759],[120.243605,23.677283],[120.244861,23.676858],[120.245103,23.677929],[120.244781,23.678941],[120.245077,23.680473],[120.246113,23.683573],[120.247718,23.689391],[120.247788,23.692297]]]},"properties":{"code":"10009140007","name":"龍潭村","countyCode":"10009","countyName":"雲林縣","townCode":"10009140","townName":"東勢鄉","level":"village","unassigned":false,"note":"","label":[120.23844618839206,23.687943686859914],"bounds":[120.228231,23.676858,120.248044,23.702641],"focusBounds":[120.228231,23.676858,120.248044,23.702641],"color":"#98b69b"}},{"type":"Feature","id":"10009140008","geometry":{"type":"Polygon","coordinates":[[[120.261916,23.709123],[120.259305,23.710957],[120.258387,23.711292],[120.258218,23.712338],[120.257217,23.713083],[120.255329,23.714058],[120.253276,23.714351],[120.252183,23.714316],[120.251364,23.714517],[120.24775,23.713834],[120.246871,23.713331],[120.244319,23.714002],[120.243974,23.714459],[120.241484,23.713573],[120.239502,23.713103],[120.237797,23.712907],[120.236319,23.711737],[120.235347,23.70987],[120.233712,23.71034],[120.23146,23.710756],[120.231332,23.710604],[120.229854,23.710639],[120.229015,23.710111],[120.227431,23.703765],[120.227303,23.703553],[120.225663,23.703911],[120.225424,23.703934],[120.225223,23.703769],[120.22483,23.702319],[120.22594,23.701296],[120.228231,23.699955],[120.228458,23.702188],[120.228737,23.702641],[120.23114,23.702018],[120.232802,23.702144],[120.237774,23.700584],[120.239531,23.700441],[120.239729,23.700605],[120.240819,23.700427],[120.241837,23.700495],[120.242927,23.700232],[120.239409,23.695246],[120.240324,23.694894],[120.240829,23.69454],[120.241836,23.694448],[120.241793,23.693813],[120.242158,23.693513],[120.242963,23.693948],[120.243302,23.693981],[120.248044,23.693801],[120.247788,23.692297],[120.248803,23.691907],[120.249014,23.691917],[120.249497,23.692318],[120.251432,23.692195],[120.253331,23.691547],[120.253363,23.693637],[120.254283,23.698037],[120.254036,23.698788],[120.25456,23.699144],[120.255709,23.698988],[120.256478,23.699054],[120.257369,23.701445],[120.257815,23.703567],[120.259163,23.702803],[120.259825,23.702603],[120.25987,23.703118],[120.260582,23.705178],[120.260671,23.705946],[120.261295,23.707008],[120.261916,23.709123]]]},"properties":{"code":"10009140008","name":"安南村","countyCode":"10009","countyName":"雲林縣","townCode":"10009140","townName":"東勢鄉","level":"village","unassigned":false,"note":"","label":[120.24888650722708,23.705531100840318],"bounds":[120.22483,23.691547,120.261916,23.714517],"focusBounds":[120.22483,23.691547,120.261916,23.714517],"color":"#58b99d"}},{"type":"Feature","id":"10009140009","geometry":{"type":"Polygon","coordinates":[[[120.269722,23.696799],[120.270657,23.700021],[120.271233,23.702761],[120.274356,23.702169],[120.274602,23.702529],[120.274965,23.703854],[120.275417,23.703939],[120.27654,23.703865],[120.278522,23.703127],[120.27896,23.703543],[120.279009,23.703672],[120.27932,23.704754],[120.279384,23.704995],[120.279446,23.705197],[120.270655,23.705072],[120.268885,23.704109],[120.265913,23.703872],[120.262372,23.702112],[120.261612,23.702106],[120.259825,23.702603],[120.259163,23.702803],[120.257815,23.703567],[120.257369,23.701445],[120.256478,23.699054],[120.255709,23.698988],[120.25456,23.699144],[120.254036,23.698788],[120.254283,23.698037],[120.253363,23.693637],[120.253331,23.691547],[120.25331,23.69012],[120.255947,23.690045],[120.258821,23.68949],[120.262486,23.689257],[120.265287,23.688794],[120.26512,23.692141],[120.264674,23.694823],[120.269722,23.696799]]]},"properties":{"code":"10009140009","name":"昌南村","countyCode":"10009","countyName":"雲林縣","townCode":"10009140","townName":"東勢鄉","level":"village","unassigned":false,"note":"","label":[120.25961844910354,23.694864527998586],"bounds":[120.25331,23.688794,120.279446,23.705197],"focusBounds":[120.25331,23.688794,120.279446,23.705197],"color":"#efb44f"}},{"type":"Feature","id":"10009140010","geometry":{"type":"Polygon","coordinates":[[[120.282601,23.71709],[120.282738,23.717643],[120.282984,23.717913],[120.287114,23.719497],[120.28699,23.721156],[120.287335,23.722929],[120.287068,23.725163],[120.287298,23.72549],[120.287971,23.725868],[120.289012,23.727306],[120.289234,23.728557],[120.289494,23.741531],[120.28674,23.741319],[120.283869,23.741292],[120.283024,23.741092],[120.281695,23.739839],[120.281273,23.738709],[120.280441,23.737216],[120.279206,23.736161],[120.278508,23.735837],[120.277267,23.735745],[120.275111,23.735278],[120.274279,23.734565],[120.273225,23.734167],[120.269124,23.733943],[120.267061,23.733683],[120.266624,23.729358],[120.2672,23.729223],[120.267168,23.728198],[120.26688,23.726678],[120.266057,23.724572],[120.26567,23.720744],[120.264538,23.720806],[120.262399,23.715245],[120.262297,23.713538],[120.262619,23.712463],[120.262622,23.711951],[120.262122,23.71086],[120.2622,23.710084],[120.261916,23.709123],[120.261295,23.707008],[120.260671,23.705946],[120.260582,23.705178],[120.25987,23.703118],[120.259825,23.702603],[120.261612,23.702106],[120.262372,23.702112],[120.265913,23.703872],[120.268885,23.704109],[120.270655,23.705072],[120.279446,23.705197],[120.279995,23.707123],[120.279186,23.70726],[120.279723,23.709674],[120.279669,23.709832],[120.279271,23.710004],[120.279213,23.710397],[120.280154,23.71386],[120.281631,23.713678],[120.281781,23.714556],[120.282367,23.714471],[120.282707,23.716907],[120.282601,23.71709]]]},"properties":{"code":"10009140010","name":"同安村","countyCode":"10009","countyName":"雲林縣","townCode":"10009140","townName":"東勢鄉","level":"village","unassigned":false,"note":"","label":[120.27523411457958,23.722918298119183],"bounds":[120.259825,23.702106,120.289494,23.741531],"focusBounds":[120.259825,23.702106,120.289494,23.741531],"color":"#dd8590"}},{"type":"Feature","id":"10009140011","geometry":{"type":"Polygon","coordinates":[[[120.267061,23.733683],[120.264093,23.733697],[120.261966,23.734423],[120.259694,23.735428],[120.257434,23.735922],[120.256583,23.736009],[120.255487,23.735912],[120.254238,23.736219],[120.254261,23.733773],[120.253456,23.731907],[120.253684,23.730901],[120.252497,23.727649],[120.252056,23.726862],[120.251648,23.723632],[120.250856,23.722637],[120.250582,23.721816],[120.249971,23.721592],[120.249845,23.720925],[120.247526,23.720948],[120.247217,23.719904],[120.245653,23.717625],[120.245189,23.715045],[120.243974,23.714459],[120.244319,23.714002],[120.246871,23.713331],[120.24775,23.713834],[120.251364,23.714517],[120.252183,23.714316],[120.253276,23.714351],[120.255329,23.714058],[120.257217,23.713083],[120.258218,23.712338],[120.258387,23.711292],[120.259305,23.710957],[120.261916,23.709123],[120.2622,23.710084],[120.262122,23.71086],[120.262622,23.711951],[120.262619,23.712463],[120.262297,23.713538],[120.262399,23.715245],[120.264538,23.720806],[120.26567,23.720744],[120.266057,23.724572],[120.26688,23.726678],[120.267168,23.728198],[120.2672,23.729223],[120.266624,23.729358],[120.267061,23.733683]]]},"properties":{"code":"10009140011","name":"新坤村","countyCode":"10009","countyName":"雲林縣","townCode":"10009140","townName":"東勢鄉","level":"village","unassigned":false,"note":"","label":[120.25842015053276,23.723492999894333],"bounds":[120.243974,23.709123,120.2672,23.736219],"focusBounds":[120.243974,23.709123,120.2672,23.736219],"color":"#a8bf62"}},{"type":"Feature","id":"10009140012","geometry":{"type":"Polygon","coordinates":[[[120.254238,23.736219],[120.25115,23.735919],[120.248,23.737558],[120.247222,23.738222],[120.245315,23.740755],[120.244264,23.74317],[120.24271,23.74442],[120.239861,23.742199],[120.23859,23.740797],[120.237724,23.739421],[120.237422,23.738105],[120.238599,23.737196],[120.24145,23.733497],[120.241782,23.733142],[120.242607,23.732934],[120.24268,23.732697],[120.242135,23.73148],[120.241457,23.730751],[120.241405,23.730162],[120.240959,23.729036],[120.241147,23.728785],[120.242117,23.728909],[120.241901,23.727819],[120.242598,23.727578],[120.242916,23.72601],[120.242876,23.725053],[120.242461,23.723252],[120.240917,23.722958],[120.240732,23.721801],[120.240428,23.721106],[120.24016,23.720147],[120.240102,23.719132],[120.239966,23.718997],[120.23794,23.719398],[120.23738,23.717006],[120.233354,23.717439],[120.232645,23.714492],[120.23146,23.710756],[120.233712,23.71034],[120.235347,23.70987],[120.236319,23.711737],[120.237797,23.712907],[120.239502,23.713103],[120.241484,23.713573],[120.243974,23.714459],[120.245189,23.715045],[120.245653,23.717625],[120.247217,23.719904],[120.247526,23.720948],[120.249845,23.720925],[120.249971,23.721592],[120.250582,23.721816],[120.250856,23.722637],[120.251648,23.723632],[120.252056,23.726862],[120.252497,23.727649],[120.253684,23.730901],[120.253456,23.731907],[120.254261,23.733773],[120.254238,23.736219]]]},"properties":{"code":"10009140012","name":"四美村","countyCode":"10009","countyName":"雲林縣","townCode":"10009140","townName":"東勢鄉","level":"village","unassigned":false,"note":"","label":[120.247755666049,23.73039229189535],"bounds":[120.23146,23.70987,120.254261,23.74442],"focusBounds":[120.23146,23.70987,120.254261,23.74442],"color":"#a49ad4"}}]}
