{"type":"FeatureCollection","features":[{"type":"Feature","id":"10007100001","geometry":{"type":"Polygon","coordinates":[[[120.578059,23.955885],[120.577827,23.957627],[120.575742,23.957287],[120.575528,23.956742],[120.57533,23.956164],[120.57559,23.955405],[120.575542,23.954975],[120.576948,23.955345],[120.578588,23.952604],[120.578669,23.954048],[120.578214,23.955],[120.578059,23.955885]]]},"properties":{"code":"10007100001","name":"東和里","countyCode":"10007","countyName":"彰化縣","townCode":"10007100","townName":"員林市","level":"village","unassigned":false,"note":"","label":[120.57683341217887,23.956389992312502],"bounds":[120.57533,23.952604,120.578669,23.957627],"focusBounds":[120.57533,23.952604,120.578669,23.957627],"color":"#68bec9"}},{"type":"Feature","id":"10007100002","geometry":{"type":"Polygon","coordinates":[[[120.578588,23.952604],[120.576948,23.955345],[120.575542,23.954975],[120.57559,23.955405],[120.57533,23.956164],[120.575528,23.956742],[120.573349,23.956501],[120.575759,23.952177],[120.575817,23.951111],[120.578753,23.951093],[120.578785,23.949974],[120.579928,23.949943],[120.578588,23.952604]]]},"properties":{"code":"10007100002","name":"民生里","countyCode":"10007","countyName":"彰化縣","townCode":"10007100","townName":"員林市","level":"village","unassigned":false,"note":"","label":[120.57653941214917,23.953471329116823],"bounds":[120.573349,23.949943,120.579928,23.956742],"focusBounds":[120.573349,23.949943,120.579928,23.956742],"color":"#c38cb8"}},{"type":"Feature","id":"10007100003","geometry":{"type":"Polygon","coordinates":[[[120.577433,23.959494],[120.577112,23.96099],[120.573104,23.960191],[120.571903,23.959811],[120.572,23.95949],[120.572945,23.957221],[120.574123,23.957643],[120.574363,23.957323],[120.574945,23.957275],[120.575528,23.956742],[120.575742,23.957287],[120.577827,23.957627],[120.577433,23.959494]]]},"properties":{"code":"10007100003","name":"中正里","countyCode":"10007","countyName":"彰化縣","townCode":"10007100","townName":"員林市","level":"village","unassigned":false,"note":"","label":[120.57510799577317,23.95885791234017],"bounds":[120.571903,23.956742,120.577827,23.96099],"focusBounds":[120.571903,23.956742,120.577827,23.96099],"color":"#c38cb8"}},{"type":"Feature","id":"10007100004","geometry":{"type":"Polygon","coordinates":[[[120.576754,23.962541],[120.576729,23.962683],[120.577869,23.962979],[120.57712,23.965783],[120.574002,23.964547],[120.571669,23.964092],[120.571293,23.964188],[120.571459,23.961535],[120.576754,23.962541]]]},"properties":{"code":"10007100004","name":"仁美里","countyCode":"10007","countyName":"彰化縣","townCode":"10007100","townName":"員林市","level":"village","unassigned":false,"note":"","label":[120.57455884124153,23.963445980678742],"bounds":[120.571293,23.961535,120.577869,23.965783],"focusBounds":[120.571293,23.961535,120.577869,23.965783],"color":"#98b69b"}},{"type":"Feature","id":"10007100005","geometry":{"type":"Polygon","coordinates":[[[120.577112,23.96099],[120.576754,23.962541],[120.571459,23.961535],[120.571903,23.959811],[120.573104,23.960191],[120.577112,23.96099]]]},"properties":{"code":"10007100005","name":"新興里","countyCode":"10007","countyName":"彰化縣","townCode":"10007100","townName":"員林市","level":"village","unassigned":false,"note":"","label":[120.57426543118642,23.96124529894763],"bounds":[120.571459,23.959811,120.577112,23.962541],"focusBounds":[120.571459,23.959811,120.577112,23.962541],"color":"#58b99d"}},{"type":"Feature","id":"10007100006","geometry":{"type":"Polygon","coordinates":[[[120.570604,23.968721],[120.57033,23.971319],[120.568327,23.969944],[120.569446,23.966905],[120.569644,23.96468],[120.569613,23.962356],[120.569586,23.959371],[120.571357,23.959452],[120.572,23.95949],[120.571903,23.959811],[120.571459,23.961535],[120.571293,23.964188],[120.57129,23.964516],[120.57095,23.96452],[120.570604,23.968721]]]},"properties":{"code":"10007100006","name":"和平里","countyCode":"10007","countyName":"彰化縣","townCode":"10007100","townName":"員林市","level":"village","unassigned":false,"note":"","label":[120.57065044235819,23.96053026114665],"bounds":[120.568327,23.959371,120.572,23.971319],"focusBounds":[120.568327,23.959371,120.572,23.971319],"color":"#efb44f"}},{"type":"Feature","id":"10007100007","geometry":{"type":"Polygon","coordinates":[[[120.575528,23.956742],[120.574945,23.957275],[120.574363,23.957323],[120.574123,23.957643],[120.572945,23.957221],[120.572,23.95949],[120.571357,23.959452],[120.57202,23.956362],[120.573349,23.956501],[120.575528,23.956742]]]},"properties":{"code":"10007100007","name":"光明里","countyCode":"10007","countyName":"彰化縣","townCode":"10007100","townName":"員林市","level":"village","unassigned":false,"note":"","label":[120.57241091553921,23.9570741269628],"bounds":[120.571357,23.956362,120.575528,23.95949],"focusBounds":[120.571357,23.956362,120.575528,23.95949],"color":"#78a7e3"}},{"type":"Feature","id":"10007100008","geometry":{"type":"Polygon","coordinates":[[[120.57202,23.956362],[120.571357,23.959452],[120.569586,23.959371],[120.569665,23.956322],[120.57202,23.956362]]]},"properties":{"code":"10007100008","name":"中山里","countyCode":"10007","countyName":"彰化縣","townCode":"10007100","townName":"員林市","level":"village","unassigned":false,"note":"","label":[120.57065270945613,23.95783059797529],"bounds":[120.569586,23.956322,120.57202,23.959452],"focusBounds":[120.569586,23.956322,120.57202,23.959452],"color":"#dd8590"}},{"type":"Feature","id":"10007100009","geometry":{"type":"Polygon","coordinates":[[[120.575817,23.951111],[120.575759,23.952177],[120.573349,23.956501],[120.57202,23.956362],[120.572667,23.953789],[120.573698,23.953923],[120.574414,23.951405],[120.574693,23.949302],[120.575686,23.948957],[120.575817,23.951111]]]},"properties":{"code":"10007100009","name":"黎明里","countyCode":"10007","countyName":"彰化縣","townCode":"10007100","townName":"員林市","level":"village","unassigned":false,"note":"","label":[120.5748591709552,23.95238069865572],"bounds":[120.57202,23.948957,120.575817,23.956501],"focusBounds":[120.57202,23.948957,120.575817,23.956501],"color":"#a49ad4"}},{"type":"Feature","id":"10007100010","geometry":{"type":"Polygon","coordinates":[[[120.574693,23.949302],[120.574414,23.951405],[120.573698,23.953923],[120.572667,23.953789],[120.57202,23.956362],[120.569665,23.956322],[120.569279,23.956336],[120.566607,23.951677],[120.565857,23.950618],[120.567597,23.950029],[120.571828,23.95002],[120.574693,23.949302]]]},"properties":{"code":"10007100010","name":"惠來里","countyCode":"10007","countyName":"彰化縣","townCode":"10007100","townName":"員林市","level":"village","unassigned":false,"note":"","label":[120.57023649013632,23.952672795595653],"bounds":[120.565857,23.949302,120.574693,23.956362],"focusBounds":[120.565857,23.949302,120.574693,23.956362],"color":"#a8bf62"}},{"type":"Feature","id":"10007100011","geometry":{"type":"Polygon","coordinates":[[[120.569279,23.956336],[120.566768,23.956476],[120.563922,23.957441],[120.563266,23.957364],[120.563245,23.956417],[120.56352,23.95442],[120.563243,23.95287],[120.564007,23.95172],[120.565857,23.950618],[120.566607,23.951677],[120.569279,23.956336]]]},"properties":{"code":"10007100011","name":"三義里","countyCode":"10007","countyName":"彰化縣","townCode":"10007100","townName":"員林市","level":"village","unassigned":false,"note":"","label":[120.56569921116424,23.95446506303982],"bounds":[120.563243,23.950618,120.569279,23.957441],"focusBounds":[120.563243,23.950618,120.569279,23.957441],"color":"#68bec9"}},{"type":"Feature","id":"10007100012","geometry":{"type":"Polygon","coordinates":[[[120.569613,23.962356],[120.565494,23.962307],[120.562547,23.96263],[120.562836,23.961184],[120.563055,23.960823],[120.562836,23.957822],[120.563266,23.957364],[120.563922,23.957441],[120.566768,23.956476],[120.569279,23.956336],[120.569665,23.956322],[120.569586,23.959371],[120.569613,23.962356]]]},"properties":{"code":"10007100012","name":"新生里","countyCode":"10007","countyName":"彰化縣","townCode":"10007100","townName":"員林市","level":"village","unassigned":false,"note":"","label":[120.56641207240702,23.959599661534806],"bounds":[120.562547,23.956322,120.569665,23.96263],"focusBounds":[120.562547,23.956322,120.569665,23.96263],"color":"#df9f6a"}},{"type":"Feature","id":"10007100013","geometry":{"type":"Polygon","coordinates":[[[120.569714,23.974021],[120.5693,23.974311],[120.569032,23.97424],[120.5684,23.97378],[120.568308,23.973243],[120.568032,23.973103],[120.567504,23.973016],[120.566063,23.973152],[120.565841,23.972967],[120.565023,23.972792],[120.564899,23.972063],[120.563718,23.970464],[120.563655,23.969821],[120.564339,23.968435],[120.564362,23.96777],[120.562927,23.964159],[120.562518,23.963452],[120.562547,23.96263],[120.565494,23.962307],[120.569613,23.962356],[120.569644,23.96468],[120.569446,23.966905],[120.568327,23.969944],[120.57033,23.971319],[120.570049,23.973204],[120.570119,23.973799],[120.569714,23.974021]]]},"properties":{"code":"10007100013","name":"南平里","countyCode":"10007","countyName":"彰化縣","townCode":"10007100","townName":"員林市","level":"village","unassigned":false,"note":"","label":[120.56676692653159,23.966364690885282],"bounds":[120.562518,23.962307,120.57033,23.974311],"focusBounds":[120.562518,23.962307,120.57033,23.974311],"color":"#c38cb8"}},{"type":"Feature","id":"10007100014","geometry":{"type":"Polygon","coordinates":[[[120.562565,23.972545],[120.561262,23.972596],[120.560495,23.97278],[120.559148,23.97254],[120.558474,23.973114],[120.557975,23.973333],[120.557958,23.972717],[120.557627,23.971741],[120.556693,23.969762],[120.555387,23.967795],[120.555313,23.966898],[120.554818,23.96629],[120.554637,23.963879],[120.555344,23.962626],[120.558724,23.960259],[120.561148,23.959073],[120.561624,23.958936],[120.562836,23.957822],[120.563055,23.960823],[120.562836,23.961184],[120.562547,23.96263],[120.562518,23.963452],[120.562927,23.964159],[120.564362,23.96777],[120.564339,23.968435],[120.563655,23.969821],[120.563718,23.970464],[120.564899,23.972063],[120.565023,23.972792],[120.563126,23.972479],[120.562565,23.972545]]]},"properties":{"code":"10007100014","name":"南興里","countyCode":"10007","countyName":"彰化縣","townCode":"10007100","townName":"員林市","level":"village","unassigned":false,"note":"","label":[120.55942777705313,23.966549079737163],"bounds":[120.554637,23.957822,120.565023,23.973333],"focusBounds":[120.554637,23.957822,120.565023,23.973333],"color":"#98b69b"}},{"type":"Feature","id":"10007100015","geometry":{"type":"Polygon","coordinates":[[[120.548232,23.974855],[120.547286,23.975504],[120.547182,23.975495],[120.546924,23.975177],[120.547112,23.974314],[120.547068,23.973465],[120.546596,23.971926],[120.546238,23.97141],[120.545251,23.971169],[120.544012,23.968413],[120.544093,23.967292],[120.544492,23.965907],[120.545251,23.964819],[120.546707,23.963535],[120.548079,23.962616],[120.550479,23.962299],[120.55245,23.961469],[120.557873,23.95862],[120.558224,23.958555],[120.559937,23.958974],[120.561148,23.959073],[120.558724,23.960259],[120.555344,23.962626],[120.554637,23.963879],[120.554818,23.96629],[120.552757,23.967216],[120.552932,23.970383],[120.550919,23.971708],[120.549317,23.97392],[120.548232,23.974855]]]},"properties":{"code":"10007100015","name":"源潭里","countyCode":"10007","countyName":"彰化縣","townCode":"10007100","townName":"員林市","level":"village","unassigned":false,"note":"","label":[120.54874907964643,23.96730004826957],"bounds":[120.544012,23.958555,120.561148,23.975504],"focusBounds":[120.544012,23.958555,120.561148,23.975504],"color":"#58b99d"}},{"type":"Feature","id":"10007100016","geometry":{"type":"Polygon","coordinates":[[[120.562565,23.972545],[120.562737,23.975763],[120.562216,23.978052],[120.562353,23.978586],[120.562928,23.979436],[120.562918,23.980052],[120.562598,23.980217],[120.561474,23.979892],[120.555901,23.979309],[120.555308,23.978974],[120.553794,23.978611],[120.553783,23.978099],[120.550503,23.977625],[120.550357,23.977063],[120.548917,23.976446],[120.549507,23.974767],[120.548232,23.974855],[120.549317,23.97392],[120.550919,23.971708],[120.552932,23.970383],[120.552757,23.967216],[120.554818,23.96629],[120.555313,23.966898],[120.555387,23.967795],[120.556693,23.969762],[120.557627,23.971741],[120.557958,23.972717],[120.557975,23.973333],[120.558474,23.973114],[120.559148,23.97254],[120.560495,23.97278],[120.561262,23.972596],[120.562565,23.972545]]]},"properties":{"code":"10007100016","name":"大埔里","countyCode":"10007","countyName":"彰化縣","townCode":"10007100","townName":"員林市","level":"village","unassigned":false,"note":"","label":[120.55430539550686,23.97429674089177],"bounds":[120.548232,23.96629,120.562928,23.980217],"focusBounds":[120.548232,23.96629,120.562928,23.980217],"color":"#efb44f"}},{"type":"Feature","id":"10007100017","geometry":{"type":"Polygon","coordinates":[[[120.589062,23.955014],[120.587587,23.957208],[120.587879,23.961902],[120.58712,23.961762],[120.583731,23.961143],[120.580832,23.959038],[120.581812,23.957822],[120.581934,23.957272],[120.581836,23.955405],[120.583413,23.95524],[120.586614,23.955326],[120.589249,23.954561],[120.589062,23.955014]]]},"properties":{"code":"10007100017","name":"三條里","countyCode":"10007","countyName":"彰化縣","townCode":"10007100","townName":"員林市","level":"village","unassigned":false,"note":"","label":[120.58467239589119,23.958294415325266],"bounds":[120.580832,23.954561,120.589249,23.961902],"focusBounds":[120.580832,23.954561,120.589249,23.961902],"color":"#78a7e3"}},{"type":"Feature","id":"10007100018","geometry":{"type":"Polygon","coordinates":[[[120.585826,23.965135],[120.585545,23.965169],[120.584108,23.967684],[120.583317,23.967604],[120.58001,23.966884],[120.577291,23.96585],[120.57712,23.965783],[120.577869,23.962979],[120.576729,23.962683],[120.576754,23.962541],[120.577112,23.96099],[120.577433,23.959494],[120.583731,23.961143],[120.58712,23.961762],[120.586955,23.962017],[120.586776,23.963279],[120.585826,23.965135]]]},"properties":{"code":"10007100018","name":"三和里","countyCode":"10007","countyName":"彰化縣","townCode":"10007100","townName":"員林市","level":"village","unassigned":false,"note":"","label":[120.5814799932552,23.96387891878807],"bounds":[120.576729,23.959494,120.58712,23.967684],"focusBounds":[120.576729,23.959494,120.58712,23.967684],"color":"#dd8590"}},{"type":"Feature","id":"10007100019","geometry":{"type":"Polygon","coordinates":[[[120.583317,23.967604],[120.580229,23.973587],[120.579768,23.973748],[120.579153,23.974729],[120.578215,23.975553],[120.578043,23.975444],[120.577421,23.975506],[120.579294,23.970958],[120.579249,23.968597],[120.58001,23.966884],[120.583317,23.967604]]]},"properties":{"code":"10007100019","name":"三橋里","countyCode":"10007","countyName":"彰化縣","townCode":"10007100","townName":"員林市","level":"village","unassigned":false,"note":"","label":[120.58076490951578,23.969262382453458],"bounds":[120.577421,23.966884,120.583317,23.975553],"focusBounds":[120.577421,23.966884,120.583317,23.975553],"color":"#a49ad4"}},{"type":"Feature","id":"10007100020","geometry":{"type":"Polygon","coordinates":[[[120.563063,23.945756],[120.562155,23.946237],[120.56194,23.946175],[120.560794,23.945237],[120.561082,23.942102],[120.561291,23.941548],[120.561241,23.939853],[120.561507,23.937979],[120.563488,23.938456],[120.564198,23.936442],[120.565398,23.936607],[120.565713,23.935167],[120.566401,23.93526],[120.567307,23.935153],[120.567462,23.934921],[120.567395,23.934428],[120.569698,23.934434],[120.572717,23.933682],[120.575383,23.933295],[120.576202,23.934597],[120.576302,23.936267],[120.576709,23.936146],[120.576259,23.939314],[120.576264,23.940457],[120.576389,23.942233],[120.575917,23.942429],[120.573024,23.942467],[120.570161,23.94185],[120.569543,23.941944],[120.569491,23.944791],[120.564987,23.944857],[120.563063,23.945756]]]},"properties":{"code":"10007100020","name":"中央里","countyCode":"10007","countyName":"彰化縣","townCode":"10007100","townName":"員林市","level":"village","unassigned":false,"note":"","label":[120.56962667855285,23.938182602544693],"bounds":[120.560794,23.933295,120.576709,23.946237],"focusBounds":[120.560794,23.933295,120.576709,23.946237],"color":"#a8bf62"}},{"type":"Feature","id":"10007100021","geometry":{"type":"Polygon","coordinates":[[[120.574693,23.949302],[120.571828,23.95002],[120.567597,23.950029],[120.565857,23.950618],[120.563063,23.945756],[120.564987,23.944857],[120.569491,23.944791],[120.569543,23.941944],[120.570161,23.94185],[120.573024,23.942467],[120.575917,23.942429],[120.576389,23.942233],[120.576543,23.943658],[120.575432,23.947912],[120.575686,23.948957],[120.574693,23.949302]]]},"properties":{"code":"10007100021","name":"溝皂里","countyCode":"10007","countyName":"彰化縣","townCode":"10007100","townName":"員林市","level":"village","unassigned":false,"note":"","label":[120.57239562871374,23.946490054936945],"bounds":[120.563063,23.94185,120.576543,23.950618],"focusBounds":[120.563063,23.94185,120.576543,23.950618],"color":"#68bec9"}},{"type":"Feature","id":"10007100022","geometry":{"type":"Polygon","coordinates":[[[120.579928,23.949943],[120.578785,23.949974],[120.578753,23.951093],[120.575817,23.951111],[120.575686,23.948957],[120.575432,23.947912],[120.576543,23.943658],[120.576389,23.942233],[120.576264,23.940457],[120.578301,23.94001],[120.580038,23.939237],[120.581911,23.939609],[120.58557,23.941305],[120.585467,23.94208],[120.584936,23.943314],[120.584379,23.943539],[120.584175,23.943784],[120.584279,23.944512],[120.582869,23.946185],[120.581422,23.946535],[120.581216,23.946813],[120.580826,23.948189],[120.579928,23.949943]]]},"properties":{"code":"10007100022","name":"大饒里","countyCode":"10007","countyName":"彰化縣","townCode":"10007100","townName":"員林市","level":"village","unassigned":false,"note":"","label":[120.58013279032933,23.943241078939913],"bounds":[120.575432,23.939237,120.58557,23.951111],"focusBounds":[120.575432,23.939237,120.58557,23.951111],"color":"#df9f6a"}},{"type":"Feature","id":"10007100023","geometry":{"type":"Polygon","coordinates":[[[120.591452,23.92695],[120.588442,23.930151],[120.588144,23.930633],[120.587897,23.933467],[120.587964,23.934904],[120.585768,23.940395],[120.58557,23.941305],[120.581911,23.939609],[120.580038,23.939237],[120.578301,23.94001],[120.576264,23.940457],[120.576259,23.939314],[120.576709,23.936146],[120.57822,23.929826],[120.579194,23.926946],[120.580724,23.92428],[120.581142,23.92326],[120.589786,23.92504],[120.59058,23.925955],[120.591177,23.926417],[120.591452,23.92695]]]},"properties":{"code":"10007100023","name":"大明里","countyCode":"10007","countyName":"彰化縣","townCode":"10007100","townName":"員林市","level":"village","unassigned":false,"note":"","label":[120.5830329799846,23.931888856691337],"bounds":[120.576259,23.92326,120.591452,23.941305],"focusBounds":[120.576259,23.92326,120.591452,23.941305],"color":"#c38cb8"}},{"type":"Feature","id":"10007100024","geometry":{"type":"Polygon","coordinates":[[[120.581836,23.955405],[120.578059,23.955885],[120.578214,23.955],[120.578669,23.954048],[120.578588,23.952604],[120.579928,23.949943],[120.580826,23.948189],[120.581216,23.946813],[120.581422,23.946535],[120.582869,23.946185],[120.584279,23.944512],[120.584175,23.943784],[120.584379,23.943539],[120.584936,23.943314],[120.585467,23.94208],[120.58557,23.941305],[120.585768,23.940395],[120.587964,23.934904],[120.587897,23.933467],[120.588144,23.930633],[120.588442,23.930151],[120.591452,23.92695],[120.592355,23.928041],[120.59344,23.930749],[120.592807,23.933098],[120.592916,23.933216],[120.592805,23.936786],[120.592408,23.940184],[120.592342,23.942081],[120.591067,23.948691],[120.590292,23.95117],[120.58993,23.953065],[120.589249,23.954561],[120.586614,23.955326],[120.583413,23.95524],[120.581836,23.955405]]]},"properties":{"code":"10007100024","name":"萬年里","countyCode":"10007","countyName":"彰化縣","townCode":"10007100","townName":"員林市","level":"village","unassigned":false,"note":"","label":[120.58548524293988,23.950367661167125],"bounds":[120.578059,23.92695,120.59344,23.955885],"focusBounds":[120.578059,23.92695,120.59344,23.955885],"color":"#98b69b"}},{"type":"Feature","id":"10007100025","geometry":{"type":"Polygon","coordinates":[[[120.590424,23.954756],[120.589062,23.955014],[120.589249,23.954561],[120.58993,23.953065],[120.590292,23.95117],[120.591067,23.948691],[120.592342,23.942081],[120.593537,23.942092],[120.593964,23.94196],[120.594432,23.942157],[120.597082,23.942288],[120.598819,23.942951],[120.599052,23.943352],[120.599832,23.943975],[120.600439,23.943983],[120.599788,23.94478],[120.599403,23.947614],[120.598881,23.947627],[120.598515,23.951771],[120.597274,23.951698],[120.596627,23.952837],[120.596743,23.954926],[120.596268,23.954826],[120.596177,23.954615],[120.595089,23.954302],[120.594072,23.954482],[120.593888,23.95466],[120.590424,23.954756]]]},"properties":{"code":"10007100025","name":"崙雅里","countyCode":"10007","countyName":"彰化縣","townCode":"10007100","townName":"員林市","level":"village","unassigned":false,"note":"","label":[120.59487579737807,23.948584523424167],"bounds":[120.589062,23.94196,120.600439,23.955014],"focusBounds":[120.589062,23.94196,120.600439,23.955014],"color":"#58b99d"}},{"type":"Feature","id":"10007100026","geometry":{"type":"Polygon","coordinates":[[[120.611717,23.959055],[120.610945,23.959031],[120.609419,23.958571],[120.6083,23.958038],[120.607012,23.958026],[120.603994,23.957534],[120.602898,23.956909],[120.601464,23.956961],[120.599347,23.956489],[120.598185,23.956469],[120.598066,23.95637],[120.598021,23.955454],[120.59761,23.955426],[120.597551,23.955173],[120.596667,23.955198],[120.596743,23.954926],[120.596627,23.952837],[120.597274,23.951698],[120.598515,23.951771],[120.598881,23.947627],[120.599403,23.947614],[120.599788,23.94478],[120.600439,23.943983],[120.60075,23.943852],[120.601779,23.944132],[120.601734,23.944894],[120.602054,23.946452],[120.601853,23.94768],[120.602625,23.949741],[120.602769,23.950579],[120.602725,23.953674],[120.604791,23.953301],[120.60772,23.952217],[120.608481,23.952101],[120.608916,23.952346],[120.608895,23.953731],[120.609087,23.955175],[120.609412,23.955769],[120.610743,23.956368],[120.611408,23.957267],[120.611717,23.959055]]]},"properties":{"code":"10007100026","name":"振興里","countyCode":"10007","countyName":"彰化縣","townCode":"10007100","townName":"員林市","level":"village","unassigned":false,"note":"","label":[120.60630180867942,23.955326132039296],"bounds":[120.596627,23.943852,120.611717,23.959055],"focusBounds":[120.596627,23.943852,120.611717,23.959055],"color":"#efb44f"}},{"type":"Feature","id":"10007100027","geometry":{"type":"Polygon","coordinates":[[[120.632705,23.934442],[120.627112,23.93814],[120.625943,23.939587],[120.625181,23.939881],[120.624762,23.939872],[120.622624,23.940417],[120.621278,23.940501],[120.617832,23.941324],[120.616305,23.941321],[120.613719,23.941833],[120.611634,23.9416],[120.611019,23.941661],[120.609492,23.942217],[120.60867,23.94271],[120.607068,23.942779],[120.605999,23.94309],[120.604181,23.94395],[120.601779,23.944132],[120.60075,23.943852],[120.600439,23.943983],[120.599832,23.943975],[120.599052,23.943352],[120.598819,23.942951],[120.597082,23.942288],[120.594432,23.942157],[120.593964,23.94196],[120.593537,23.942092],[120.592342,23.942081],[120.592408,23.940184],[120.592805,23.936786],[120.592916,23.933216],[120.598109,23.933821],[120.59833,23.933898],[120.598348,23.934721],[120.598983,23.934709],[120.600095,23.935183],[120.602496,23.935608],[120.602807,23.935216],[120.604474,23.934355],[120.606335,23.934235],[120.606993,23.933823],[120.607554,23.933861],[120.608024,23.934156],[120.608903,23.934312],[120.609695,23.934657],[120.610383,23.934165],[120.611381,23.934278],[120.613145,23.933909],[120.614276,23.934093],[120.61547,23.933987],[120.615929,23.933532],[120.61646,23.933341],[120.616672,23.933048],[120.617769,23.932962],[120.619109,23.932518],[120.61981,23.932085],[120.620869,23.931884],[120.621911,23.931362],[120.623848,23.930837],[120.624695,23.930862],[120.626924,23.931409],[120.627843,23.931479],[120.628498,23.931369],[120.629723,23.931171],[120.630408,23.932592],[120.630987,23.932156],[120.632139,23.932874],[120.632671,23.93406],[120.632705,23.934442]]]},"properties":{"code":"10007100027","name":"林厝里","countyCode":"10007","countyName":"彰化縣","townCode":"10007100","townName":"員林市","level":"village","unassigned":false,"note":"","label":[120.60759719096455,23.938321996838344],"bounds":[120.592342,23.930837,120.632705,23.944132],"focusBounds":[120.592342,23.930837,120.632705,23.944132],"color":"#78a7e3"}},{"type":"Feature","id":"10007100028","geometry":{"type":"Polygon","coordinates":[[[120.632768,23.945912],[120.628528,23.945938],[120.628138,23.946364],[120.625081,23.947209],[120.621666,23.947033],[120.618191,23.947227],[120.607896,23.949216],[120.607751,23.94927],[120.607858,23.949689],[120.607573,23.950214],[120.606356,23.949809],[120.605408,23.950391],[120.60412,23.950917],[120.602769,23.950579],[120.602625,23.949741],[120.601853,23.94768],[120.602054,23.946452],[120.601734,23.944894],[120.601779,23.944132],[120.604181,23.94395],[120.605999,23.94309],[120.607068,23.942779],[120.60867,23.94271],[120.609492,23.942217],[120.611019,23.941661],[120.611634,23.9416],[120.613719,23.941833],[120.616305,23.941321],[120.617832,23.941324],[120.621278,23.940501],[120.622624,23.940417],[120.624762,23.939872],[120.625181,23.939881],[120.625943,23.939587],[120.627112,23.93814],[120.632705,23.934442],[120.632777,23.935645],[120.633481,23.936061],[120.633814,23.935882],[120.634142,23.936117],[120.634739,23.936638],[120.634664,23.936991],[120.634978,23.937109],[120.635361,23.936909],[120.635486,23.937445],[120.636854,23.935764],[120.637659,23.935433],[120.637598,23.93576],[120.636787,23.936402],[120.636864,23.93711],[120.636391,23.93772],[120.635149,23.938863],[120.633624,23.939775],[120.632614,23.941289],[120.630161,23.942957],[120.630721,23.943798],[120.630166,23.944282],[120.630829,23.9448],[120.63171,23.943774],[120.632795,23.94323],[120.633219,23.943178],[120.633366,23.942881],[120.634595,23.943591],[120.634603,23.943794],[120.633065,23.945385],[120.632768,23.945912]]]},"properties":{"code":"10007100028","name":"出水里","countyCode":"10007","countyName":"彰化縣","townCode":"10007100","townName":"員林市","level":"village","unassigned":false,"note":"","label":[120.62037346314649,23.943911124566817],"bounds":[120.601734,23.934442,120.637659,23.950917],"focusBounds":[120.601734,23.934442,120.637659,23.950917],"color":"#dd8590"}},{"type":"Feature","id":"10007100029","geometry":{"type":"Polygon","coordinates":[[[120.629658,23.956109],[120.629543,23.957877],[120.628399,23.958704],[120.627481,23.958726],[120.626828,23.95855],[120.625846,23.959081],[120.621033,23.957535],[120.618424,23.957193],[120.617353,23.957647],[120.6165,23.957585],[120.615242,23.95782],[120.613691,23.95872],[120.611717,23.959055],[120.611408,23.957267],[120.610743,23.956368],[120.609412,23.955769],[120.609087,23.955175],[120.608895,23.953731],[120.608916,23.952346],[120.608481,23.952101],[120.60772,23.952217],[120.604791,23.953301],[120.602725,23.953674],[120.602769,23.950579],[120.60412,23.950917],[120.605408,23.950391],[120.606356,23.949809],[120.607573,23.950214],[120.607858,23.949689],[120.607751,23.94927],[120.607896,23.949216],[120.618191,23.947227],[120.621666,23.947033],[120.625081,23.947209],[120.628138,23.946364],[120.628528,23.945938],[120.632768,23.945912],[120.632206,23.946432],[120.631983,23.946851],[120.631469,23.947176],[120.631262,23.947617],[120.629423,23.94932],[120.627593,23.95177],[120.627571,23.95202],[120.628015,23.95266],[120.628321,23.952645],[120.629382,23.952123],[120.630696,23.952681],[120.630935,23.953214],[120.631564,23.953484],[120.632875,23.952993],[120.633805,23.952203],[120.634073,23.95226],[120.633845,23.953365],[120.633412,23.953963],[120.632783,23.954392],[120.631622,23.954777],[120.630896,23.95445],[120.630156,23.954824],[120.629402,23.954557],[120.629215,23.954648],[120.62927,23.954826],[120.62981,23.955211],[120.628848,23.955324],[120.628623,23.955497],[120.628089,23.955359],[120.627778,23.955848],[120.627074,23.955573],[120.626947,23.955654],[120.626983,23.956442],[120.627128,23.95652],[120.627941,23.956507],[120.629658,23.956109]]]},"properties":{"code":"10007100029","name":"湖水里","countyCode":"10007","countyName":"彰化縣","townCode":"10007100","townName":"員林市","level":"village","unassigned":false,"note":"","label":[120.61953212789427,23.952245362704424],"bounds":[120.602725,23.945912,120.634073,23.959081],"focusBounds":[120.602725,23.945912,120.634073,23.959081],"color":"#a8bf62"}},{"type":"Feature","id":"10007100030","geometry":{"type":"Polygon","coordinates":[[[120.622467,23.968297],[120.620844,23.968448],[120.620171,23.968751],[120.619616,23.968617],[120.618039,23.968745],[120.616115,23.968432],[120.615386,23.968165],[120.614313,23.967483],[120.613926,23.967],[120.613225,23.96667],[120.607897,23.96695],[120.605735,23.966231],[120.604246,23.965275],[120.603652,23.964455],[120.601012,23.963895],[120.601892,23.963415],[120.60205,23.962478],[120.60258,23.961752],[120.603219,23.961659],[120.604531,23.95857],[120.607851,23.959153],[120.608553,23.959165],[120.608878,23.959086],[120.609419,23.958571],[120.610945,23.959031],[120.611717,23.959055],[120.613691,23.95872],[120.615242,23.95782],[120.6165,23.957585],[120.617353,23.957647],[120.618424,23.957193],[120.621033,23.957535],[120.625846,23.959081],[120.625423,23.959273],[120.625375,23.959505],[120.625508,23.959643],[120.627437,23.95918],[120.627584,23.959235],[120.627489,23.959813],[120.627662,23.959985],[120.628702,23.959663],[120.628828,23.959783],[120.628524,23.960656],[120.627884,23.960669],[120.62745,23.960993],[120.626802,23.962238],[120.627959,23.961852],[120.628533,23.961292],[120.628709,23.961523],[120.628058,23.963014],[120.626392,23.963974],[120.625293,23.964191],[120.624635,23.964542],[120.624284,23.964928],[120.624355,23.965313],[120.625163,23.965284],[120.624136,23.966473],[120.624195,23.966751],[120.623699,23.967417],[120.623204,23.967759],[120.622155,23.967578],[120.621514,23.967782],[120.621591,23.968041],[120.622357,23.968089],[120.622467,23.968297]]]},"properties":{"code":"10007100030","name":"大峯里","countyCode":"10007","countyName":"彰化縣","townCode":"10007100","townName":"員林市","level":"village","unassigned":false,"note":"","label":[120.61805088190584,23.963047593715018],"bounds":[120.601012,23.957193,120.628828,23.968751],"focusBounds":[120.601012,23.957193,120.628828,23.968751],"color":"#68bec9"}},{"type":"Feature","id":"10007100031","geometry":{"type":"Polygon","coordinates":[[[120.601012,23.963895],[120.59899,23.963653],[120.598844,23.965932],[120.598512,23.967271],[120.598231,23.967761],[120.595067,23.966939],[120.594787,23.967028],[120.594983,23.966653],[120.596732,23.965141],[120.596121,23.964997],[120.596595,23.963808],[120.597386,23.964038],[120.597763,23.963737],[120.597872,23.962026],[120.597331,23.961345],[120.596999,23.961191],[120.59681,23.960669],[120.595906,23.960077],[120.593864,23.958349],[120.590785,23.955373],[120.590424,23.954756],[120.593888,23.95466],[120.594072,23.954482],[120.595089,23.954302],[120.596177,23.954615],[120.596268,23.954826],[120.596743,23.954926],[120.596667,23.955198],[120.597551,23.955173],[120.59761,23.955426],[120.598021,23.955454],[120.598066,23.95637],[120.598185,23.956469],[120.599347,23.956489],[120.601464,23.956961],[120.602898,23.956909],[120.603994,23.957534],[120.607012,23.958026],[120.6083,23.958038],[120.609419,23.958571],[120.608878,23.959086],[120.608553,23.959165],[120.607851,23.959153],[120.604531,23.95857],[120.603219,23.961659],[120.60258,23.961752],[120.60205,23.962478],[120.601892,23.963415],[120.601012,23.963895]]]},"properties":{"code":"10007100031","name":"鎮興里","countyCode":"10007","countyName":"彰化縣","townCode":"10007100","townName":"員林市","level":"village","unassigned":false,"note":"","label":[120.59964736135873,23.959712368291214],"bounds":[120.590424,23.954302,120.609419,23.967761],"focusBounds":[120.590424,23.954302,120.609419,23.967761],"color":"#c38cb8"}},{"type":"Feature","id":"10007100032","geometry":{"type":"Polygon","coordinates":[[[120.594787,23.967028],[120.594711,23.967094],[120.59231,23.966575],[120.592406,23.965717],[120.589792,23.965062],[120.585826,23.965135],[120.586776,23.963279],[120.586955,23.962017],[120.58712,23.961762],[120.587879,23.961902],[120.587587,23.957208],[120.589062,23.955014],[120.590424,23.954756],[120.590785,23.955373],[120.593864,23.958349],[120.595906,23.960077],[120.59681,23.960669],[120.596999,23.961191],[120.597331,23.961345],[120.597872,23.962026],[120.597763,23.963737],[120.597386,23.964038],[120.596595,23.963808],[120.596121,23.964997],[120.596732,23.965141],[120.594983,23.966653],[120.594787,23.967028]]]},"properties":{"code":"10007100032","name":"浮圳里","countyCode":"10007","countyName":"彰化縣","townCode":"10007100","townName":"員林市","level":"village","unassigned":false,"note":"","label":[120.59180033589584,23.96150751817906],"bounds":[120.585826,23.954756,120.597872,23.967094],"focusBounds":[120.585826,23.954756,120.597872,23.967094],"color":"#df9f6a"}},{"type":"Feature","id":"10007100033","geometry":{"type":"Polygon","coordinates":[[[120.592847,23.971976],[120.592112,23.972895],[120.590975,23.972606],[120.590639,23.973729],[120.589085,23.973411],[120.588955,23.973697],[120.588472,23.973587],[120.587285,23.975724],[120.585904,23.977419],[120.584126,23.979973],[120.582519,23.979734],[120.580074,23.979081],[120.575841,23.978571],[120.575795,23.978463],[120.57646,23.977999],[120.576773,23.977238],[120.57745,23.976777],[120.577655,23.976179],[120.578215,23.975553],[120.579153,23.974729],[120.579768,23.973748],[120.580229,23.973587],[120.583317,23.967604],[120.584108,23.967684],[120.585545,23.965169],[120.585826,23.965135],[120.589792,23.965062],[120.592406,23.965717],[120.59231,23.966575],[120.594711,23.967094],[120.593214,23.971454],[120.592847,23.971976]]]},"properties":{"code":"10007100033","name":"西東里","countyCode":"10007","countyName":"彰化縣","townCode":"10007100","townName":"員林市","level":"village","unassigned":false,"note":"","label":[120.58518167560675,23.972131252367326],"bounds":[120.575795,23.965062,120.594711,23.979973],"focusBounds":[120.575795,23.965062,120.594711,23.979973],"color":"#c38cb8"}},{"type":"Feature","id":"10007100034","geometry":{"type":"Polygon","coordinates":[[[120.619509,23.976315],[120.618208,23.975975],[120.616504,23.976465],[120.615362,23.977055],[120.614535,23.977097],[120.613025,23.976863],[120.612186,23.976533],[120.609638,23.974924],[120.607574,23.97385],[120.606639,23.973562],[120.605412,23.972146],[120.604953,23.971102],[120.604316,23.970213],[120.603625,23.96969],[120.60277,23.969379],[120.601057,23.969648],[120.600481,23.969611],[120.599772,23.970238],[120.598561,23.969996],[120.5973,23.970223],[120.596357,23.972475],[120.59599,23.972801],[120.592847,23.971976],[120.593214,23.971454],[120.594711,23.967094],[120.594787,23.967028],[120.595067,23.966939],[120.598231,23.967761],[120.598512,23.967271],[120.598844,23.965932],[120.59899,23.963653],[120.601012,23.963895],[120.603652,23.964455],[120.604246,23.965275],[120.605735,23.966231],[120.607897,23.96695],[120.613225,23.96667],[120.613926,23.967],[120.614313,23.967483],[120.615386,23.968165],[120.616115,23.968432],[120.618039,23.968745],[120.619616,23.968617],[120.620171,23.968751],[120.620844,23.968448],[120.622467,23.968297],[120.623328,23.968279],[120.623031,23.969344],[120.623229,23.969369],[120.624575,23.967862],[120.624643,23.968025],[120.624349,23.968807],[120.623698,23.970126],[120.622455,23.971892],[120.621844,23.972182],[120.621767,23.972805],[120.621215,23.973012],[120.621047,23.973358],[120.620558,23.973595],[120.619871,23.97438],[120.619818,23.974531],[120.619951,23.974614],[120.620614,23.974325],[120.62105,23.974666],[120.620775,23.974991],[120.620134,23.975314],[120.619548,23.976027],[120.619509,23.976315]]]},"properties":{"code":"10007100034","name":"南東里","countyCode":"10007","countyName":"彰化縣","townCode":"10007100","townName":"員林市","level":"village","unassigned":false,"note":"","label":[120.61249320939369,23.971680898139176],"bounds":[120.592847,23.963653,120.624643,23.977097],"focusBounds":[120.592847,23.963653,120.624643,23.977097],"color":"#98b69b"}},{"type":"Feature","id":"10007100035","geometry":{"type":"Polygon","coordinates":[[[120.619509,23.976315],[120.619507,23.976985],[120.619753,23.977816],[120.619691,23.978761],[120.619122,23.979298],[120.617147,23.980216],[120.617324,23.981675],[120.616048,23.982306],[120.615985,23.98246],[120.61497,23.982294],[120.614274,23.981979],[120.61362,23.981299],[120.611516,23.98049],[120.607422,23.979887],[120.606506,23.979633],[120.60323,23.976994],[120.603477,23.976555],[120.602426,23.976],[120.600834,23.97646],[120.597858,23.976168],[120.597061,23.975468],[120.595801,23.975456],[120.595389,23.975084],[120.59538,23.974828],[120.595991,23.973275],[120.59599,23.972801],[120.596357,23.972475],[120.5973,23.970223],[120.598561,23.969996],[120.599772,23.970238],[120.600481,23.969611],[120.601057,23.969648],[120.60277,23.969379],[120.603625,23.96969],[120.604316,23.970213],[120.604953,23.971102],[120.605412,23.972146],[120.606639,23.973562],[120.607574,23.97385],[120.609638,23.974924],[120.612186,23.976533],[120.613025,23.976863],[120.614535,23.977097],[120.615362,23.977055],[120.616504,23.976465],[120.618208,23.975975],[120.619509,23.976315]]]},"properties":{"code":"10007100035","name":"中東里","countyCode":"10007","countyName":"彰化縣","townCode":"10007100","townName":"員林市","level":"village","unassigned":false,"note":"","label":[120.60713395639053,23.976760836542297],"bounds":[120.59538,23.969379,120.619753,23.98246],"focusBounds":[120.59538,23.969379,120.619753,23.98246],"color":"#58b99d"}},{"type":"Feature","id":"10007100036","geometry":{"type":"Polygon","coordinates":[[[120.608791,23.990147],[120.608157,23.99034],[120.607731,23.990046],[120.606606,23.990399],[120.604772,23.990087],[120.604153,23.989595],[120.603888,23.988767],[120.601549,23.98678],[120.601018,23.986507],[120.600106,23.986303],[120.598315,23.984858],[120.597591,23.984541],[120.596738,23.984508],[120.595428,23.983673],[120.593381,23.98287],[120.589529,23.979811],[120.589185,23.979818],[120.588463,23.980404],[120.587995,23.980582],[120.584126,23.979973],[120.585904,23.977419],[120.587285,23.975724],[120.588472,23.973587],[120.588955,23.973697],[120.589085,23.973411],[120.590639,23.973729],[120.590975,23.972606],[120.592112,23.972895],[120.592847,23.971976],[120.59599,23.972801],[120.595991,23.973275],[120.59538,23.974828],[120.595389,23.975084],[120.595801,23.975456],[120.597061,23.975468],[120.597858,23.976168],[120.600834,23.97646],[120.602426,23.976],[120.603477,23.976555],[120.60323,23.976994],[120.606506,23.979633],[120.607422,23.979887],[120.611516,23.98049],[120.61362,23.981299],[120.614274,23.981979],[120.61497,23.982294],[120.615985,23.98246],[120.616445,23.983034],[120.616209,23.98354],[120.615716,23.984044],[120.614423,23.984267],[120.613713,23.98365],[120.613504,23.983271],[120.613225,23.98321],[120.612948,23.983341],[120.612779,23.983796],[120.613022,23.98445],[120.612853,23.98467],[120.612363,23.984773],[120.611384,23.985802],[120.611002,23.986393],[120.611159,23.986916],[120.611077,23.987309],[120.610829,23.986899],[120.610107,23.987072],[120.609944,23.986858],[120.611612,23.984746],[120.611832,23.984131],[120.611687,23.98376],[120.6094,23.986521],[120.609286,23.986534],[120.609326,23.98638],[120.609751,23.985782],[120.609251,23.985646],[120.609005,23.985672],[120.608211,23.986302],[120.607987,23.986216],[120.6078,23.986328],[120.60764,23.987324],[120.608347,23.988381],[120.608237,23.988717],[120.608406,23.989416],[120.608339,23.989798],[120.608791,23.990147]]]},"properties":{"code":"10007100036","name":"東北里","countyCode":"10007","countyName":"彰化縣","townCode":"10007100","townName":"員林市","level":"village","unassigned":false,"note":"","label":[120.60138526875545,23.98149803743721],"bounds":[120.584126,23.971976,120.616445,23.990399],"focusBounds":[120.584126,23.971976,120.616445,23.990399],"color":"#efb44f"}},{"type":"Feature","id":"10007100037","geometry":{"type":"Polygon","coordinates":[[[120.577421,23.975506],[120.576102,23.975689],[120.575744,23.975607],[120.576221,23.970258],[120.576811,23.970368],[120.576859,23.968997],[120.576908,23.967594],[120.57709,23.967621],[120.577291,23.96585],[120.58001,23.966884],[120.579249,23.968597],[120.579294,23.970958],[120.577421,23.975506]]]},"properties":{"code":"10007100037","name":"三愛里","countyCode":"10007","countyName":"彰化縣","townCode":"10007100","townName":"員林市","level":"village","unassigned":false,"note":"","label":[120.57753203562447,23.971558593187154],"bounds":[120.575744,23.96585,120.58001,23.975689],"focusBounds":[120.575744,23.96585,120.58001,23.975689],"color":"#78a7e3"}},{"type":"Feature","id":"10007100038","geometry":{"type":"Polygon","coordinates":[[[120.576859,23.968997],[120.571422,23.96915],[120.571383,23.968779],[120.570604,23.968721],[120.57095,23.96452],[120.57129,23.964516],[120.571293,23.964188],[120.571669,23.964092],[120.574002,23.964547],[120.57712,23.965783],[120.577291,23.96585],[120.57709,23.967621],[120.576908,23.967594],[120.576859,23.968997]]]},"properties":{"code":"10007100038","name":"三信里","countyCode":"10007","countyName":"彰化縣","townCode":"10007100","townName":"員林市","level":"village","unassigned":false,"note":"","label":[120.57367018094396,23.966784559349477],"bounds":[120.570604,23.964092,120.577291,23.96915],"focusBounds":[120.570604,23.964092,120.577291,23.96915],"color":"#a49ad4"}},{"type":"Feature","id":"10007100039","geometry":{"type":"Polygon","coordinates":[[[120.576859,23.968997],[120.576811,23.970368],[120.576221,23.970258],[120.575744,23.975607],[120.57233,23.974408],[120.571341,23.973866],[120.570119,23.973799],[120.570049,23.973204],[120.57033,23.971319],[120.570604,23.968721],[120.571383,23.968779],[120.571422,23.96915],[120.576859,23.968997]]]},"properties":{"code":"10007100039","name":"三多里","countyCode":"10007","countyName":"彰化縣","townCode":"10007100","townName":"員林市","level":"village","unassigned":false,"note":"","label":[120.57334085075131,23.971929426255862],"bounds":[120.570049,23.968721,120.576859,23.975607],"focusBounds":[120.570049,23.968721,120.576859,23.975607],"color":"#a8bf62"}},{"type":"Feature","id":"10007100040","geometry":{"type":"Polygon","coordinates":[[[120.580832,23.959038],[120.583731,23.961143],[120.577433,23.959494],[120.577827,23.957627],[120.579472,23.957984],[120.580832,23.959038]]]},"properties":{"code":"10007100040","name":"仁愛里","countyCode":"10007","countyName":"彰化縣","townCode":"10007100","townName":"員林市","level":"village","unassigned":false,"note":"","label":[120.57906112460279,23.958907445638737],"bounds":[120.577433,23.957627,120.583731,23.961143],"focusBounds":[120.577433,23.957627,120.583731,23.961143],"color":"#a8bf62"}},{"type":"Feature","id":"10007100041","geometry":{"type":"Polygon","coordinates":[[[120.581836,23.955405],[120.581934,23.957272],[120.581812,23.957822],[120.580832,23.959038],[120.579472,23.957984],[120.577827,23.957627],[120.578059,23.955885],[120.581836,23.955405]]]},"properties":{"code":"10007100041","name":"忠孝里","countyCode":"10007","countyName":"彰化縣","townCode":"10007100","townName":"員林市","level":"village","unassigned":false,"note":"","label":[120.5804664208739,23.957049315004166],"bounds":[120.577827,23.955405,120.581934,23.959038],"focusBounds":[120.577827,23.955405,120.581934,23.959038],"color":"#df9f6a"}}]}
