{"type":"FeatureCollection","features":[{"type":"Feature","id":"10009130001","geometry":{"type":"Polygon","coordinates":[[[120.240544,23.753934],[120.243405,23.75075],[120.249983,23.750592],[120.251268,23.75003],[120.252626,23.748991],[120.255457,23.748309],[120.255796,23.748573],[120.256496,23.748558],[120.257533,23.74878],[120.257431,23.749482],[120.256917,23.749643],[120.256785,23.750079],[120.256994,23.751713],[120.260153,23.751224],[120.261177,23.751906],[120.261226,23.75398],[120.260798,23.754401],[120.260696,23.754739],[120.261004,23.757675],[120.260672,23.758949],[120.260378,23.759534],[120.258345,23.761161],[120.259285,23.763068],[120.259678,23.764686],[120.259311,23.766382],[120.25985,23.767434],[120.259805,23.767981],[120.260645,23.771565],[120.259957,23.774762],[120.259344,23.776057],[120.252682,23.776077],[120.252664,23.774991],[120.250653,23.77502],[120.249301,23.773156],[120.247624,23.769703],[120.246247,23.769594],[120.246097,23.761212],[120.241531,23.76128],[120.24136,23.761072],[120.241354,23.757212],[120.240995,23.754946],[120.240544,23.753934]]]},"properties":{"code":"10009130001","name":"麥津村","countyCode":"10009","countyName":"雲林縣","townCode":"10009130","townName":"麥寮鄉","level":"village","unassigned":false,"note":"","label":[120.25225159778748,23.76095534535092],"bounds":[120.240544,23.748309,120.261226,23.776077],"focusBounds":[120.240544,23.748309,120.261226,23.776077],"color":"#98b69b"}},{"type":"Feature","id":"10009130002","geometry":{"type":"Polygon","coordinates":[[[120.240544,23.753934],[120.236797,23.754839],[120.235878,23.754232],[120.236407,23.75363],[120.238876,23.751591],[120.23966,23.750568],[120.24012,23.749627],[120.24085,23.746682],[120.241519,23.745604],[120.24271,23.74442],[120.244264,23.74317],[120.245315,23.740755],[120.247222,23.738222],[120.248,23.737558],[120.25115,23.735919],[120.254238,23.736219],[120.255487,23.735912],[120.256583,23.736009],[120.257434,23.735922],[120.259694,23.735428],[120.261966,23.734423],[120.264093,23.733697],[120.267061,23.733683],[120.269124,23.733943],[120.273225,23.734167],[120.274279,23.734565],[120.275111,23.735278],[120.277267,23.735745],[120.278508,23.735837],[120.279206,23.736161],[120.280441,23.737216],[120.281273,23.738709],[120.277471,23.736716],[120.278195,23.741043],[120.278153,23.741984],[120.277386,23.744226],[120.273605,23.744256],[120.273576,23.743461],[120.272954,23.743481],[120.268718,23.746127],[120.265601,23.749274],[120.262493,23.750573],[120.261269,23.75134],[120.261177,23.751906],[120.260153,23.751224],[120.256994,23.751713],[120.256785,23.750079],[120.256917,23.749643],[120.257431,23.749482],[120.257533,23.74878],[120.256496,23.748558],[120.255796,23.748573],[120.255457,23.748309],[120.252626,23.748991],[120.251268,23.75003],[120.249983,23.750592],[120.243405,23.75075],[120.240544,23.753934]]]},"properties":{"code":"10009130002","name":"麥豐村","countyCode":"10009","countyName":"雲林縣","townCode":"10009130","townName":"麥寮鄉","level":"village","unassigned":false,"note":"","label":[120.2625303644439,23.742393943703476],"bounds":[120.235878,23.733683,120.281273,23.754839],"focusBounds":[120.235878,23.733683,120.281273,23.754839],"color":"#58b99d"}},{"type":"Feature","id":"10009130003","geometry":{"type":"Polygon","coordinates":[[[120.264957,23.76531],[120.263871,23.765165],[120.25985,23.767434],[120.259311,23.766382],[120.259678,23.764686],[120.259285,23.763068],[120.258345,23.761161],[120.260378,23.759534],[120.260672,23.758949],[120.261004,23.757675],[120.260696,23.754739],[120.260798,23.754401],[120.261226,23.75398],[120.261177,23.751906],[120.261269,23.75134],[120.262493,23.750573],[120.265601,23.749274],[120.268718,23.746127],[120.272954,23.743481],[120.273576,23.743461],[120.273605,23.744256],[120.277386,23.744226],[120.277218,23.744695],[120.277228,23.745957],[120.277614,23.751525],[120.276568,23.753243],[120.27618,23.754607],[120.274588,23.756421],[120.274066,23.75771],[120.273933,23.758738],[120.271942,23.759808],[120.270577,23.761018],[120.270955,23.764083],[120.269137,23.764774],[120.268169,23.765698],[120.264957,23.76531]]]},"properties":{"code":"10009130003","name":"瓦[磘]村","countyCode":"10009","countyName":"雲林縣","townCode":"10009130","townName":"麥寮鄉","level":"village","unassigned":false,"note":"","label":[120.26814812088163,23.75488497775963],"bounds":[120.258345,23.743461,120.277614,23.767434],"focusBounds":[120.258345,23.743461,120.277614,23.767434],"color":"#efb44f"}},{"type":"Feature","id":"10009130004","geometry":{"type":"Polygon","coordinates":[[[120.294663,23.78013],[120.293997,23.780405],[120.281814,23.781403],[120.280575,23.77674],[120.279378,23.773344],[120.279252,23.767497],[120.265561,23.767622],[120.264957,23.76531],[120.268169,23.765698],[120.269137,23.764774],[120.270955,23.764083],[120.270577,23.761018],[120.271942,23.759808],[120.273933,23.758738],[120.274066,23.75771],[120.274588,23.756421],[120.27618,23.754607],[120.276568,23.753243],[120.277614,23.751525],[120.277228,23.745957],[120.277218,23.744695],[120.277386,23.744226],[120.278153,23.741984],[120.278195,23.741043],[120.277471,23.736716],[120.281273,23.738709],[120.281695,23.739839],[120.283024,23.741092],[120.283869,23.741292],[120.28674,23.741319],[120.289494,23.741531],[120.290461,23.741646],[120.293389,23.741428],[120.297141,23.740661],[120.298987,23.740928],[120.298986,23.747126],[120.2989,23.747462],[120.29852,23.74771],[120.298438,23.7482],[120.298874,23.749229],[120.298779,23.749399],[120.298997,23.750994],[120.299469,23.752288],[120.299718,23.752887],[120.300687,23.753943],[120.298723,23.755041],[120.298624,23.755273],[120.298773,23.75622],[120.297758,23.756577],[120.298007,23.757619],[120.297185,23.758004],[120.297759,23.759841],[120.293314,23.760535],[120.293924,23.76241],[120.294967,23.762331],[120.294275,23.763437],[120.294297,23.76363],[120.301985,23.763406],[120.303354,23.763502],[120.304699,23.763436],[120.3068,23.763074],[120.30681,23.764233],[120.306361,23.76573],[120.305809,23.770398],[120.305984,23.774715],[120.305912,23.776483],[120.304582,23.777316],[120.303252,23.777409],[120.303268,23.778209],[120.303091,23.778534],[120.301962,23.778487],[120.300937,23.77827],[120.300367,23.778221],[120.300281,23.778077],[120.299825,23.777319],[120.298442,23.777127],[120.297335,23.777334],[120.297009,23.777604],[120.296516,23.778483],[120.294663,23.78013]]]},"properties":{"code":"10009130004","name":"興華村","countyCode":"10009","countyName":"雲林縣","townCode":"10009130","townName":"麥寮鄉","level":"village","unassigned":false,"note":"","label":[120.28459079363115,23.758383298747166],"bounds":[120.264957,23.736716,120.30681,23.781403],"focusBounds":[120.264957,23.736716,120.30681,23.781403],"color":"#78a7e3"}},{"type":"Feature","id":"10009130005","geometry":{"type":"Polygon","coordinates":[[[120.274525,23.782051],[120.259732,23.783382],[120.258617,23.783717],[120.257034,23.784897],[120.257147,23.783187],[120.258558,23.778902],[120.258914,23.777103],[120.259344,23.776057],[120.259957,23.774762],[120.260645,23.771565],[120.259805,23.767981],[120.25985,23.767434],[120.263871,23.765165],[120.264957,23.76531],[120.265561,23.767622],[120.279252,23.767497],[120.279378,23.773344],[120.280575,23.77674],[120.281814,23.781403],[120.274525,23.782051]]]},"properties":{"code":"10009130005","name":"崙後村","countyCode":"10009","countyName":"雲林縣","townCode":"10009130","townName":"麥寮鄉","level":"village","unassigned":false,"note":"","label":[120.26924991773608,23.77505705330629],"bounds":[120.257034,23.765165,120.281814,23.784897],"focusBounds":[120.257034,23.765165,120.281814,23.784897],"color":"#dd8590"}},{"type":"Feature","id":"10009130006","geometry":{"type":"Polygon","coordinates":[[[120.24637,23.786794],[120.24103,23.789808],[120.238963,23.790732],[120.238025,23.790999],[120.23228,23.791808],[120.224272,23.792524],[120.222626,23.792468],[120.21985,23.79191],[120.217564,23.791046],[120.216466,23.78962],[120.215749,23.789073],[120.214318,23.787406],[120.211987,23.78562],[120.210863,23.78424],[120.208465,23.782208],[120.208722,23.781981],[120.212362,23.780469],[120.213496,23.780188],[120.212859,23.779354],[120.21316,23.779245],[120.229622,23.775393],[120.229991,23.776304],[120.230755,23.775866],[120.233496,23.77518],[120.233618,23.774952],[120.235855,23.77841],[120.237355,23.781506],[120.246319,23.781317],[120.24637,23.786794]]]},"properties":{"code":"10009130006","name":"後安村","countyCode":"10009","countyName":"雲林縣","townCode":"10009130","townName":"麥寮鄉","level":"village","unassigned":false,"note":"","label":[120.22796841627303,23.783986622120196],"bounds":[120.208465,23.774952,120.24637,23.792524],"focusBounds":[120.208465,23.774952,120.24637,23.792524],"color":"#a49ad4"}},{"type":"Feature","id":"10009130007","geometry":{"type":"Polygon","coordinates":[[[120.2496,23.785131],[120.249161,23.785227],[120.24637,23.786794],[120.246319,23.781317],[120.237355,23.781506],[120.235855,23.77841],[120.233618,23.774952],[120.233496,23.77518],[120.230755,23.775866],[120.229991,23.776304],[120.229622,23.775393],[120.21316,23.779245],[120.212859,23.779354],[120.213496,23.780188],[120.212362,23.780469],[120.208722,23.781981],[120.208465,23.782208],[120.207646,23.78165],[120.206054,23.781035],[120.203896,23.779667],[120.204157,23.779524],[120.204076,23.779373],[120.204303,23.779408],[120.204913,23.779278],[120.204951,23.779018],[120.204785,23.779293],[120.204622,23.779301],[120.203833,23.778972],[120.203648,23.778016],[120.202915,23.777595],[120.202647,23.776876],[120.20175,23.776451],[120.200215,23.774856],[120.20019,23.774455],[120.199819,23.77431],[120.200003,23.773826],[120.198757,23.772657],[120.19824,23.770454],[120.198202,23.769711],[120.197632,23.767862],[120.197637,23.767099],[120.198055,23.765521],[120.198915,23.764523],[120.19893,23.763694],[120.198148,23.760772],[120.198012,23.759191],[120.198208,23.756734],[120.201168,23.756743],[120.201712,23.756974],[120.203062,23.758675],[120.204451,23.759941],[120.206057,23.760975],[120.207749,23.761793],[120.208638,23.761979],[120.212185,23.762104],[120.215793,23.763016],[120.217648,23.763038],[120.221394,23.762715],[120.223754,23.762018],[120.224519,23.761448],[120.225831,23.759455],[120.226572,23.758698],[120.229136,23.757388],[120.229814,23.757242],[120.231066,23.757286],[120.233352,23.756538],[120.235026,23.755257],[120.235878,23.754232],[120.236797,23.754839],[120.240544,23.753934],[120.240995,23.754946],[120.241354,23.757212],[120.24136,23.761072],[120.241531,23.76128],[120.246097,23.761212],[120.246247,23.769594],[120.247624,23.769703],[120.249301,23.773156],[120.250653,23.77502],[120.252664,23.774991],[120.252682,23.776077],[120.259344,23.776057],[120.258914,23.777103],[120.258558,23.778902],[120.257147,23.783187],[120.257034,23.784897],[120.256905,23.784985],[120.2496,23.785131]]]},"properties":{"code":"10009130007","name":"海豐村","countyCode":"10009","countyName":"雲林縣","townCode":"10009130","townName":"麥寮鄉","level":"village","unassigned":false,"note":"","label":[120.23242078878873,23.766145750029523],"bounds":[120.197632,23.753934,120.259344,23.786794],"focusBounds":[120.197632,23.753934,120.259344,23.786794],"color":"#a8bf62"}},{"type":"Feature","id":"10009130008","geometry":{"type":"Polygon","coordinates":[[[120.271203,23.829891],[120.258707,23.833194],[120.256228,23.82579],[120.254347,23.818712],[120.25031,23.809914],[120.249659,23.809195],[120.249847,23.808788],[120.248691,23.808634],[120.248443,23.808201],[120.248762,23.807807],[120.249954,23.807244],[120.249863,23.806851],[120.249182,23.805733],[120.249688,23.805272],[120.2496,23.785131],[120.256905,23.784985],[120.259518,23.78516],[120.261304,23.78594],[120.262829,23.786234],[120.263259,23.786487],[120.264051,23.787696],[120.264329,23.789374],[120.264958,23.791335],[120.264935,23.792576],[120.265424,23.793711],[120.266082,23.797421],[120.266376,23.797745],[120.269025,23.798715],[120.269968,23.798616],[120.270128,23.79872],[120.270746,23.79957],[120.271568,23.801271],[120.271447,23.801566],[120.270623,23.801628],[120.270406,23.801884],[120.271845,23.803918],[120.272413,23.80518],[120.266314,23.80628],[120.259186,23.806361],[120.259739,23.808589],[120.260067,23.809259],[120.261015,23.812455],[120.262574,23.814379],[120.26646,23.820978],[120.268181,23.826318],[120.270073,23.828049],[120.271203,23.829891]]]},"properties":{"code":"10009130008","name":"三盛村","countyCode":"10009","countyName":"雲林縣","townCode":"10009130","townName":"麥寮鄉","level":"village","unassigned":false,"note":"","label":[120.25985848070124,23.799644332013635],"bounds":[120.248443,23.784985,120.272413,23.833194],"focusBounds":[120.248443,23.784985,120.272413,23.833194],"color":"#68bec9"}},{"type":"Feature","id":"10009130009","geometry":{"type":"Polygon","coordinates":[[[120.27993,23.800877],[120.273451,23.802354],[120.271845,23.803918],[120.270406,23.801884],[120.270623,23.801628],[120.271447,23.801566],[120.271568,23.801271],[120.270746,23.79957],[120.270128,23.79872],[120.269968,23.798616],[120.269025,23.798715],[120.266376,23.797745],[120.266082,23.797421],[120.265424,23.793711],[120.264935,23.792576],[120.264958,23.791335],[120.264329,23.789374],[120.264051,23.787696],[120.263259,23.786487],[120.262829,23.786234],[120.261304,23.78594],[120.259518,23.78516],[120.256905,23.784985],[120.257034,23.784897],[120.258617,23.783717],[120.259732,23.783382],[120.274525,23.782051],[120.276204,23.78905],[120.278087,23.794184],[120.27993,23.800877]]]},"properties":{"code":"10009130009","name":"橋頭村","countyCode":"10009","countyName":"雲林縣","townCode":"10009130","townName":"麥寮鄉","level":"village","unassigned":false,"note":"","label":[120.27101634791264,23.791768267397444],"bounds":[120.256905,23.782051,120.27993,23.803918],"focusBounds":[120.256905,23.782051,120.27993,23.803918],"color":"#df9f6a"}},{"type":"Feature","id":"10009130010","geometry":{"type":"Polygon","coordinates":[[[120.287529,23.825652],[120.271203,23.829891],[120.270073,23.828049],[120.268181,23.826318],[120.26646,23.820978],[120.262574,23.814379],[120.261015,23.812455],[120.260067,23.809259],[120.259739,23.808589],[120.259186,23.806361],[120.266314,23.80628],[120.272413,23.80518],[120.271845,23.803918],[120.273451,23.802354],[120.27993,23.800877],[120.283099,23.812682],[120.287529,23.825652]]]},"properties":{"code":"10009130010","name":"新吉村","countyCode":"10009","countyName":"雲林縣","townCode":"10009130","townName":"麥寮鄉","level":"village","unassigned":false,"note":"","label":[120.27414275252146,23.81566212905294],"bounds":[120.259186,23.800877,120.287529,23.829891],"focusBounds":[120.259186,23.800877,120.287529,23.829891],"color":"#c38cb8"}},{"type":"Feature","id":"10009130011","geometry":{"type":"Polygon","coordinates":[[[120.294924,23.798747],[120.283567,23.800131],[120.27993,23.800877],[120.278087,23.794184],[120.276204,23.78905],[120.274525,23.782051],[120.281814,23.781403],[120.293997,23.780405],[120.294663,23.78013],[120.294961,23.781458],[120.294769,23.781637],[120.295891,23.785645],[120.296153,23.787296],[120.295624,23.787516],[120.295322,23.787986],[120.29558,23.790008],[120.294956,23.790785],[120.293815,23.791169],[120.293287,23.792746],[120.293967,23.796939],[120.294666,23.798016],[120.294924,23.798747]]]},"properties":{"code":"10009130011","name":"施厝村","countyCode":"10009","countyName":"雲林縣","townCode":"10009130","townName":"麥寮鄉","level":"village","unassigned":false,"note":"","label":[120.28560597005398,23.78986929464126],"bounds":[120.274525,23.78013,120.296153,23.800877],"focusBounds":[120.274525,23.78013,120.296153,23.800877],"color":"#98b69b"}},{"type":"Feature","id":"10009130012","geometry":{"type":"Polygon","coordinates":[[[120.298008,23.822935],[120.287529,23.825652],[120.283099,23.812682],[120.27993,23.800877],[120.283567,23.800131],[120.294924,23.798747],[120.294973,23.799056],[120.295267,23.799412],[120.29703,23.804848],[120.298671,23.804647],[120.29923,23.804773],[120.300619,23.804668],[120.301004,23.804832],[120.301901,23.806337],[120.302061,23.82188],[120.300117,23.822381],[120.298008,23.822935]]]},"properties":{"code":"10009130012","name":"雷厝村","countyCode":"10009","countyName":"雲林縣","townCode":"10009130","townName":"麥寮鄉","level":"village","unassigned":false,"note":"","label":[120.29184976141227,23.81182682183296],"bounds":[120.27993,23.798747,120.302061,23.825652],"focusBounds":[120.27993,23.798747,120.302061,23.825652],"color":"#58b99d"}},{"type":"Feature","id":"10009130013","geometry":{"type":"Polygon","coordinates":[[[120.258707,23.833194],[120.255692,23.833955],[120.250395,23.836761],[120.244756,23.84061],[120.239825,23.844586],[120.234889,23.849194],[120.22995,23.854424],[120.225995,23.859064],[120.220362,23.866219],[120.219937,23.864581],[120.219851,23.862396],[120.219251,23.858473],[120.215362,23.85288],[120.214975,23.851798],[120.214325,23.850717],[120.213399,23.84998],[120.210973,23.849184],[120.209459,23.848907],[120.20722,23.848825],[120.205206,23.848375],[120.204631,23.847661],[120.204294,23.846844],[120.204181,23.845602],[120.204519,23.8449],[120.206358,23.844108],[120.208398,23.841924],[120.208348,23.840221],[120.207674,23.837218],[120.206048,23.834283],[120.201509,23.828413],[120.200084,23.826674],[120.19817,23.825431],[120.195606,23.823082],[120.193993,23.820561],[120.192943,23.819203],[120.191692,23.818247],[120.186777,23.816402],[120.185676,23.816183],[120.182549,23.816192],[120.182061,23.815686],[120.181649,23.813131],[120.181425,23.810439],[120.181087,23.809794],[120.180061,23.809391],[120.178748,23.809309],[120.178023,23.809067],[120.177397,23.80833],[120.176885,23.807191],[120.174988,23.805823],[120.170433,23.806659],[120.170242,23.805486],[120.17295,23.804966],[120.174394,23.804514],[120.175662,23.804434],[120.175075,23.803564],[120.175461,23.803146],[120.165072,23.794434],[120.163569,23.791864],[120.160156,23.786702],[120.156758,23.78455],[120.161923,23.779865],[120.161911,23.779706],[120.162886,23.779714],[120.162924,23.772471],[120.164987,23.767679],[120.169188,23.758933],[120.167783,23.756956],[120.17111,23.756773],[120.171152,23.757238],[120.170845,23.758439],[120.178803,23.758507],[120.181954,23.758708],[120.186033,23.759782],[120.187549,23.760376],[120.189821,23.7617],[120.19188,23.7636],[120.192727,23.764726],[120.193473,23.766],[120.195689,23.770644],[120.198525,23.774789],[120.202873,23.779978],[120.203282,23.780005],[120.203896,23.779667],[120.206054,23.781035],[120.207646,23.78165],[120.208465,23.782208],[120.210863,23.78424],[120.211987,23.78562],[120.214318,23.787406],[120.215749,23.789073],[120.216466,23.78962],[120.217564,23.791046],[120.21985,23.79191],[120.222626,23.792468],[120.224272,23.792524],[120.23228,23.791808],[120.238025,23.790999],[120.238963,23.790732],[120.24103,23.789808],[120.24637,23.786794],[120.249161,23.785227],[120.2496,23.785131],[120.249688,23.805272],[120.249182,23.805733],[120.249863,23.806851],[120.249954,23.807244],[120.248762,23.807807],[120.248443,23.808201],[120.248691,23.808634],[120.249847,23.808788],[120.249659,23.809195],[120.25031,23.809914],[120.254347,23.818712],[120.256228,23.82579],[120.258707,23.833194]]]},"properties":{"code":"10009130013","name":"中興村","countyCode":"10009","countyName":"雲林縣","townCode":"10009130","townName":"麥寮鄉","level":"village","unassigned":false,"note":"","label":[120.22613891527638,23.818675001756006],"bounds":[120.156758,23.756773,120.258707,23.866219],"focusBounds":[120.156758,23.756773,120.258707,23.866219],"color":"#efb44f"}},{"type":"Feature","id":"10009130S01","geometry":{"type":"Polygon","coordinates":[[[120.198208,23.756734],[120.198012,23.759191],[120.198148,23.760772],[120.19893,23.763694],[120.198915,23.764523],[120.198055,23.765521],[120.197637,23.767099],[120.197632,23.767862],[120.198202,23.769711],[120.19824,23.770454],[120.198757,23.772657],[120.200003,23.773826],[120.199819,23.77431],[120.20019,23.774455],[120.200215,23.774856],[120.20175,23.776451],[120.202647,23.776876],[120.202915,23.777595],[120.203648,23.778016],[120.203833,23.778972],[120.204622,23.779301],[120.204785,23.779293],[120.204951,23.779018],[120.204913,23.779278],[120.204303,23.779408],[120.204076,23.779373],[120.204157,23.779524],[120.203896,23.779667],[120.203282,23.780005],[120.202873,23.779978],[120.198525,23.774789],[120.195689,23.770644],[120.193473,23.766],[120.192727,23.764726],[120.19188,23.7636],[120.189821,23.7617],[120.187549,23.760376],[120.186033,23.759782],[120.181954,23.758708],[120.178803,23.758507],[120.170845,23.758439],[120.171152,23.757238],[120.17111,23.756773],[120.180136,23.7565],[120.18171,23.756633],[120.198208,23.756734]]]},"properties":{"code":"10009130S01","name":"未編定村里","countyCode":"10009","countyName":"雲林縣","townCode":"10009130","townName":"麥寮鄉","level":"village","unassigned":true,"note":"未編定村里","label":[120.19435314895487,23.760728593971876],"bounds":[120.170845,23.7565,120.204951,23.780005],"focusBounds":[120.170845,23.7565,120.204951,23.780005],"color":"#78a7e3"}}]}
