{"type":"FeatureCollection","features":[{"type":"Feature","id":"10005170001","geometry":{"type":"Polygon","coordinates":[[[120.974562,24.583257],[120.973877,24.583799],[120.972612,24.584326],[120.971835,24.585055],[120.970599,24.585175],[120.968959,24.586154],[120.967445,24.586355],[120.966681,24.586754],[120.9662,24.588741],[120.965807,24.589394],[120.963999,24.590771],[120.963455,24.591706],[120.962499,24.59176],[120.962328,24.592003],[120.961909,24.592155],[120.961833,24.592703],[120.961438,24.593473],[120.960572,24.593883],[120.960021,24.594411],[120.959656,24.594192],[120.959359,24.594288],[120.959197,24.594624],[120.959354,24.594992],[120.958599,24.595339],[120.958831,24.595864],[120.958551,24.596095],[120.957701,24.595905],[120.957441,24.596564],[120.957018,24.596893],[120.956865,24.59735],[120.955995,24.597972],[120.956216,24.598978],[120.955951,24.599991],[120.955573,24.599715],[120.955184,24.599644],[120.953843,24.599639],[120.953418,24.599754],[120.952573,24.600378],[120.951551,24.600824],[120.950798,24.600846],[120.949075,24.601236],[120.948713,24.60017],[120.948178,24.599855],[120.947856,24.599186],[120.94713,24.598913],[120.946023,24.598138],[120.944943,24.59623],[120.943409,24.595777],[120.942642,24.595795],[120.942105,24.596027],[120.941815,24.595906],[120.941285,24.595323],[120.941017,24.594597],[120.938922,24.59262],[120.938435,24.591448],[120.937384,24.59004],[120.936857,24.589559],[120.935495,24.587058],[120.934942,24.585599],[120.934393,24.584759],[120.934175,24.582887],[120.934193,24.581355],[120.935393,24.581555],[120.935754,24.581142],[120.935585,24.580562],[120.935063,24.579749],[120.934737,24.578255],[120.934124,24.577224],[120.934207,24.576974],[120.934646,24.576843],[120.936849,24.577283],[120.937723,24.576982],[120.938533,24.577033],[120.938799,24.576755],[120.938542,24.576333],[120.937024,24.575389],[120.936733,24.575015],[120.936768,24.574629],[120.937747,24.574059],[120.937886,24.573745],[120.936956,24.57208],[120.936886,24.571526],[120.937033,24.571177],[120.937235,24.571094],[120.937805,24.571266],[120.93825,24.571724],[120.938613,24.572482],[120.939979,24.571722],[120.940373,24.57176],[120.941102,24.572122],[120.941628,24.572047],[120.943632,24.570937],[120.944266,24.570187],[120.944682,24.57019],[120.945767,24.571017],[120.947336,24.573081],[120.947886,24.573436],[120.948316,24.573342],[120.948947,24.572902],[120.950549,24.571246],[120.951851,24.570463],[120.953593,24.569803],[120.954412,24.56898],[120.954616,24.568539],[120.954293,24.56667],[120.954809,24.565743],[120.955695,24.564904],[120.956432,24.564628],[120.957926,24.564818],[120.959227,24.564445],[120.960977,24.563329],[120.962928,24.560948],[120.963885,24.561372],[120.964781,24.56202],[120.966738,24.565314],[120.968613,24.56704],[120.969072,24.568036],[120.970101,24.569129],[120.970044,24.56954],[120.969561,24.570364],[120.969362,24.571225],[120.969755,24.572215],[120.969778,24.572943],[120.970639,24.574587],[120.970613,24.576362],[120.971385,24.577242],[120.972049,24.577676],[120.972364,24.578165],[120.973354,24.581152],[120.974306,24.582849],[120.974562,24.583257]]]},"properties":{"code":"10005170001","name":"百壽村","countyCode":"10005","countyName":"苗栗縣","townCode":"10005170","townName":"獅潭鄉","level":"village","unassigned":false,"note":"","label":[120.95556854057472,24.58242074345318],"bounds":[120.934124,24.560948,120.974562,24.601236],"focusBounds":[120.934124,24.560948,120.974562,24.601236],"color":"#a49ad4"}},{"type":"Feature","id":"10005170002","geometry":{"type":"Polygon","coordinates":[[[120.962928,24.560948],[120.960977,24.563329],[120.959227,24.564445],[120.957926,24.564818],[120.956432,24.564628],[120.955695,24.564904],[120.954809,24.565743],[120.954293,24.56667],[120.954616,24.568539],[120.954412,24.56898],[120.953593,24.569803],[120.951851,24.570463],[120.950549,24.571246],[120.948947,24.572902],[120.948316,24.573342],[120.947886,24.573436],[120.947336,24.573081],[120.945767,24.571017],[120.944682,24.57019],[120.944266,24.570187],[120.943632,24.570937],[120.941628,24.572047],[120.941102,24.572122],[120.940373,24.57176],[120.939979,24.571722],[120.938613,24.572482],[120.93825,24.571724],[120.937805,24.571266],[120.937235,24.571094],[120.937033,24.571177],[120.936886,24.571526],[120.936956,24.57208],[120.937886,24.573745],[120.937747,24.574059],[120.936768,24.574629],[120.936733,24.575015],[120.937024,24.575389],[120.938542,24.576333],[120.938799,24.576755],[120.938533,24.577033],[120.937723,24.576982],[120.936849,24.577283],[120.934646,24.576843],[120.934207,24.576974],[120.934124,24.577224],[120.934737,24.578255],[120.935063,24.579749],[120.935585,24.580562],[120.935754,24.581142],[120.935393,24.581555],[120.934193,24.581355],[120.934155,24.580543],[120.933191,24.579898],[120.932409,24.580061],[120.931821,24.579841],[120.931326,24.579567],[120.93098,24.578486],[120.929626,24.576637],[120.929508,24.575774],[120.928671,24.575212],[120.928005,24.574278],[120.927749,24.573093],[120.92709,24.572039],[120.925922,24.570735],[120.924453,24.567903],[120.923105,24.565982],[120.922992,24.565496],[120.922418,24.564912],[120.921966,24.563625],[120.920064,24.560318],[120.919241,24.558001],[120.918923,24.557924],[120.917204,24.558299],[120.916025,24.558991],[120.914845,24.558977],[120.914366,24.559227],[120.910957,24.557799],[120.910523,24.557501],[120.910122,24.556988],[120.909803,24.5558],[120.909312,24.555421],[120.90868,24.555206],[120.908324,24.554617],[120.908014,24.553261],[120.907317,24.552499],[120.906878,24.551273],[120.906045,24.55058],[120.905856,24.548554],[120.906238,24.547362],[120.906221,24.546895],[120.90944,24.546957],[120.910359,24.546662],[120.912141,24.545632],[120.91331,24.545591],[120.913567,24.545736],[120.914158,24.547032],[120.915072,24.548294],[120.915879,24.548455],[120.917137,24.548446],[120.918282,24.549],[120.919471,24.548807],[120.920733,24.549614],[120.921586,24.548992],[120.921885,24.548952],[120.92336,24.55023],[120.924026,24.550434],[120.924638,24.550227],[120.925591,24.549451],[120.928994,24.545226],[120.930627,24.543622],[120.931409,24.543214],[120.93345,24.542642],[120.934758,24.54209],[120.936266,24.541828],[120.937524,24.541939],[120.938433,24.542468],[120.93939,24.543777],[120.940181,24.544511],[120.940853,24.544778],[120.941292,24.544798],[120.945258,24.544292],[120.946617,24.543778],[120.948196,24.542904],[120.950639,24.542925],[120.953719,24.542511],[120.95444,24.543367],[120.955849,24.544493],[120.955768,24.54603],[120.95599,24.548236],[120.955927,24.54913],[120.956333,24.551372],[120.957542,24.55225],[120.95879,24.552677],[120.959177,24.552998],[120.959435,24.553639],[120.959452,24.554599],[120.96035,24.556696],[120.962429,24.558917],[120.962561,24.559973],[120.962928,24.560948]]]},"properties":{"code":"10005170002","name":"永興村","countyCode":"10005","countyName":"苗栗縣","townCode":"10005170","townName":"獅潭鄉","level":"village","unassigned":false,"note":"","label":[120.93727741052132,24.557809368227904],"bounds":[120.905856,24.541828,120.962928,24.581555],"focusBounds":[120.905856,24.541828,120.962928,24.581555],"color":"#a8bf62"}},{"type":"Feature","id":"10005170003","geometry":{"type":"Polygon","coordinates":[[[120.953719,24.542511],[120.950639,24.542925],[120.948196,24.542904],[120.946617,24.543778],[120.945258,24.544292],[120.941292,24.544798],[120.940853,24.544778],[120.940181,24.544511],[120.93939,24.543777],[120.938433,24.542468],[120.937524,24.541939],[120.936266,24.541828],[120.934758,24.54209],[120.93345,24.542642],[120.931409,24.543214],[120.930627,24.543622],[120.928994,24.545226],[120.925591,24.549451],[120.924638,24.550227],[120.924026,24.550434],[120.92336,24.55023],[120.921885,24.548952],[120.921586,24.548992],[120.920733,24.549614],[120.919471,24.548807],[120.918282,24.549],[120.917137,24.548446],[120.915879,24.548455],[120.915072,24.548294],[120.914158,24.547032],[120.913567,24.545736],[120.91331,24.545591],[120.912141,24.545632],[120.910359,24.546662],[120.90944,24.546957],[120.906221,24.546895],[120.905879,24.545937],[120.905006,24.545215],[120.904509,24.543688],[120.90368,24.542977],[120.903492,24.542028],[120.905006,24.541146],[120.90595,24.538966],[120.907825,24.537774],[120.90953,24.538474],[120.910322,24.538664],[120.911257,24.538621],[120.914695,24.53751],[120.916277,24.53552],[120.916675,24.535496],[120.918131,24.536147],[120.918659,24.536064],[120.918846,24.535332],[120.918262,24.533871],[120.918863,24.532488],[120.919979,24.531903],[120.919932,24.53148],[120.922567,24.530306],[120.92362,24.529188],[120.923631,24.528777],[120.92321,24.528141],[120.922487,24.526389],[120.922417,24.524975],[120.921957,24.523866],[120.92199,24.522989],[120.923958,24.522006],[120.924677,24.521264],[120.925636,24.520643],[120.927748,24.519936],[120.927991,24.517965],[120.928375,24.517604],[120.929591,24.517229],[120.930842,24.517169],[120.932865,24.517515],[120.933539,24.515648],[120.933409,24.513752],[120.933915,24.512223],[120.935156,24.511622],[120.937029,24.511406],[120.937931,24.510846],[120.939029,24.509503],[120.940454,24.508346],[120.940223,24.50714],[120.94045,24.506515],[120.941532,24.505653],[120.942782,24.505324],[120.943,24.503732],[120.943306,24.50345],[120.944024,24.503096],[120.945709,24.502866],[120.946018,24.502949],[120.946851,24.503469],[120.9482,24.505315],[120.949032,24.506195],[120.949554,24.506526],[120.949916,24.506372],[120.950685,24.506507],[120.952198,24.506308],[120.952902,24.506621],[120.953692,24.506613],[120.954046,24.506422],[120.954394,24.505507],[120.954966,24.504815],[120.955624,24.504777],[120.957519,24.505025],[120.95878,24.504732],[120.962699,24.504388],[120.963031,24.504421],[120.96427,24.505102],[120.965636,24.506556],[120.963707,24.508326],[120.96062,24.510794],[120.959151,24.512519],[120.9588,24.51268],[120.957821,24.512691],[120.957502,24.512836],[120.956531,24.513993],[120.955526,24.515932],[120.954553,24.516919],[120.95425,24.517043],[120.95377,24.516792],[120.9531,24.516788],[120.953386,24.517648],[120.95427,24.518901],[120.954238,24.519578],[120.954637,24.521411],[120.954322,24.522868],[120.954443,24.523236],[120.953281,24.523468],[120.952759,24.523901],[120.951216,24.524556],[120.950965,24.525436],[120.951614,24.526097],[120.951699,24.526331],[120.951571,24.526621],[120.95048,24.527438],[120.949536,24.527555],[120.949091,24.528391],[120.948985,24.529195],[120.949255,24.529624],[120.950715,24.529863],[120.95122,24.530196],[120.951779,24.530902],[120.951764,24.532505],[120.952451,24.533081],[120.953223,24.533298],[120.953232,24.534121],[120.953665,24.535957],[120.95394,24.536555],[120.954736,24.537447],[120.955268,24.538599],[120.955509,24.539856],[120.954281,24.541011],[120.953687,24.542009],[120.953719,24.542511]]]},"properties":{"code":"10005170003","name":"新店村","countyCode":"10005","countyName":"苗栗縣","townCode":"10005170","townName":"獅潭鄉","level":"village","unassigned":false,"note":"","label":[120.93662022395117,24.529481042278178],"bounds":[120.903492,24.502866,120.965636,24.550434],"focusBounds":[120.903492,24.502866,120.965636,24.550434],"color":"#68bec9"}},{"type":"Feature","id":"10005170004","geometry":{"type":"Polygon","coordinates":[[[120.943306,24.50345],[120.943,24.503732],[120.942782,24.505324],[120.941532,24.505653],[120.94045,24.506515],[120.940223,24.50714],[120.940454,24.508346],[120.939029,24.509503],[120.937931,24.510846],[120.937029,24.511406],[120.935156,24.511622],[120.933915,24.512223],[120.933409,24.513752],[120.933539,24.515648],[120.932865,24.517515],[120.930842,24.517169],[120.929591,24.517229],[120.928375,24.517604],[120.927991,24.517965],[120.927748,24.519936],[120.925636,24.520643],[120.924677,24.521264],[120.923958,24.522006],[120.92199,24.522989],[120.921957,24.523866],[120.922417,24.524975],[120.922487,24.526389],[120.92321,24.528141],[120.923631,24.528777],[120.92362,24.529188],[120.922567,24.530306],[120.919932,24.53148],[120.919979,24.531903],[120.918863,24.532488],[120.918262,24.533871],[120.918846,24.535332],[120.918659,24.536064],[120.918131,24.536147],[120.916675,24.535496],[120.916277,24.53552],[120.914695,24.53751],[120.911257,24.538621],[120.910322,24.538664],[120.90953,24.538474],[120.907825,24.537774],[120.907742,24.53702],[120.906806,24.535806],[120.907002,24.534257],[120.90692,24.533648],[120.906053,24.532082],[120.905515,24.530698],[120.903502,24.52775],[120.902971,24.526266],[120.902383,24.525549],[120.90183,24.5255],[120.900871,24.52492],[120.900205,24.525039],[120.899741,24.524933],[120.899085,24.524254],[120.899715,24.521955],[120.897761,24.519662],[120.897131,24.517472],[120.895604,24.515944],[120.895316,24.515009],[120.894241,24.515018],[120.892882,24.513852],[120.891411,24.513499],[120.89133,24.513199],[120.891641,24.51038],[120.893697,24.509756],[120.90066,24.508869],[120.902494,24.506718],[120.90231,24.505025],[120.902825,24.503921],[120.903503,24.503561],[120.904871,24.503401],[120.906211,24.502897],[120.907044,24.503328],[120.907476,24.503398],[120.90931,24.503369],[120.914806,24.501108],[120.919601,24.501081],[120.92167,24.500505],[120.923037,24.499766],[120.924315,24.498854],[120.925525,24.497219],[120.926933,24.496246],[120.927157,24.49648],[120.929338,24.497427],[120.929757,24.498097],[120.933102,24.496765],[120.933965,24.497507],[120.936039,24.498039],[120.937274,24.498677],[120.93879,24.498998],[120.940038,24.499752],[120.940547,24.500832],[120.94126,24.501316],[120.942662,24.502926],[120.943306,24.50345]]]},"properties":{"code":"10005170004","name":"和興村","countyCode":"10005","countyName":"苗栗縣","townCode":"10005170","townName":"獅潭鄉","level":"village","unassigned":false,"note":"","label":[120.91209493883429,24.515561706574537],"bounds":[120.89133,24.496246,120.943306,24.538664],"focusBounds":[120.89133,24.496246,120.943306,24.538664],"color":"#df9f6a"}},{"type":"Feature","id":"10005170005","geometry":{"type":"Polygon","coordinates":[[[120.891641,24.51038],[120.890879,24.510466],[120.890334,24.510937],[120.889311,24.510813],[120.888433,24.511457],[120.887847,24.511534],[120.887239,24.511941],[120.886565,24.511697],[120.884982,24.510059],[120.884621,24.509503],[120.884345,24.508635],[120.883188,24.509088],[120.882208,24.50811],[120.881728,24.507077],[120.880716,24.506242],[120.879028,24.504456],[120.879019,24.503786],[120.880269,24.502151],[120.879408,24.501153],[120.878869,24.500217],[120.878814,24.498868],[120.879829,24.498337],[120.880617,24.496665],[120.881167,24.495885],[120.881844,24.495966],[120.882168,24.495652],[120.883052,24.495222],[120.886015,24.494573],[120.886445,24.494181],[120.886543,24.49326],[120.886965,24.492816],[120.890743,24.491096],[120.892845,24.490817],[120.893562,24.48966],[120.894625,24.489033],[120.895205,24.488315],[120.897637,24.487988],[120.898033,24.487374],[120.898053,24.485534],[120.898475,24.48518],[120.898791,24.484647],[120.8999,24.483796],[120.900997,24.482412],[120.902578,24.481382],[120.90346,24.481363],[120.905547,24.482534],[120.906031,24.482549],[120.908029,24.479604],[120.908252,24.478964],[120.908119,24.478087],[120.907296,24.476774],[120.90732,24.475714],[120.909481,24.476162],[120.912391,24.4763],[120.91454,24.476563],[120.917663,24.476268],[120.918347,24.476047],[120.919344,24.476925],[120.919791,24.477994],[120.920363,24.47881],[120.921118,24.479316],[120.921932,24.481024],[120.920521,24.482599],[120.920527,24.48359],[120.920802,24.484426],[120.920555,24.485265],[120.920429,24.486733],[120.919546,24.488645],[120.919625,24.489474],[120.919216,24.490284],[120.919908,24.491649],[120.919928,24.492595],[120.920284,24.492926],[120.92082,24.493938],[120.921209,24.495536],[120.922649,24.49558],[120.923745,24.496081],[120.924792,24.496022],[120.926162,24.496303],[120.926933,24.496246],[120.925525,24.497219],[120.924315,24.498854],[120.923037,24.499766],[120.92167,24.500505],[120.919601,24.501081],[120.914806,24.501108],[120.90931,24.503369],[120.907476,24.503398],[120.907044,24.503328],[120.906211,24.502897],[120.904871,24.503401],[120.903503,24.503561],[120.902825,24.503921],[120.90231,24.505025],[120.902494,24.506718],[120.90066,24.508869],[120.893697,24.509756],[120.891641,24.51038]]]},"properties":{"code":"10005170005","name":"豐林村","countyCode":"10005","countyName":"苗栗縣","townCode":"10005170","townName":"獅潭鄉","level":"village","unassigned":false,"note":"","label":[120.9066219902105,24.492393377705252],"bounds":[120.878814,24.475714,120.926933,24.511941],"focusBounds":[120.878814,24.475714,120.926933,24.511941],"color":"#c38cb8"}},{"type":"Feature","id":"10005170006","geometry":{"type":"Polygon","coordinates":[[[120.90732,24.475714],[120.907296,24.476774],[120.908119,24.478087],[120.908252,24.478964],[120.908029,24.479604],[120.906031,24.482549],[120.905547,24.482534],[120.90346,24.481363],[120.902578,24.481382],[120.900997,24.482412],[120.8999,24.483796],[120.898791,24.484647],[120.898475,24.48518],[120.898053,24.485534],[120.898033,24.487374],[120.897637,24.487988],[120.895205,24.488315],[120.894625,24.489033],[120.893562,24.48966],[120.892845,24.490817],[120.890743,24.491096],[120.886965,24.492816],[120.886543,24.49326],[120.886445,24.494181],[120.886015,24.494573],[120.883052,24.495222],[120.882168,24.495652],[120.881844,24.495966],[120.881167,24.495885],[120.880617,24.496665],[120.879829,24.498337],[120.878814,24.498868],[120.87838,24.498591],[120.877208,24.497488],[120.876415,24.497098],[120.875998,24.496431],[120.87594,24.495466],[120.876069,24.494991],[120.87578,24.49464],[120.875259,24.492951],[120.8755,24.491861],[120.873143,24.490874],[120.872877,24.490448],[120.872495,24.488954],[120.873083,24.487422],[120.874818,24.486443],[120.876601,24.485758],[120.878018,24.484492],[120.878656,24.482086],[120.879009,24.481326],[120.879141,24.480246],[120.879793,24.479503],[120.882405,24.478113],[120.883973,24.477823],[120.885951,24.477869],[120.886928,24.477473],[120.887055,24.476845],[120.887008,24.474127],[120.887698,24.473474],[120.88963,24.472645],[120.891405,24.472488],[120.892938,24.472709],[120.893982,24.473114],[120.894479,24.473156],[120.895446,24.472729],[120.897743,24.472176],[120.8992,24.472019],[120.90135,24.471445],[120.903025,24.471709],[120.904907,24.471237],[120.906419,24.471046],[120.90697,24.471428],[120.906888,24.473617],[120.907439,24.474909],[120.90732,24.475714]]]},"properties":{"code":"10005170006","name":"新豐村","countyCode":"10005","countyName":"苗栗縣","townCode":"10005170","townName":"獅潭鄉","level":"village","unassigned":false,"note":"","label":[120.89001094979875,24.4836456970953],"bounds":[120.872495,24.471046,120.908252,24.498868],"focusBounds":[120.872495,24.471046,120.908252,24.498868],"color":"#98b69b"}},{"type":"Feature","id":"10005170007","geometry":{"type":"Polygon","coordinates":[[[120.90732,24.475714],[120.907439,24.474909],[120.906888,24.473617],[120.90697,24.471428],[120.906419,24.471046],[120.904907,24.471237],[120.903025,24.471709],[120.90135,24.471445],[120.8992,24.472019],[120.897743,24.472176],[120.895446,24.472729],[120.894479,24.473156],[120.893982,24.473114],[120.892938,24.472709],[120.891405,24.472488],[120.88963,24.472645],[120.887698,24.473474],[120.887008,24.474127],[120.887055,24.476845],[120.886928,24.477473],[120.885951,24.477869],[120.883973,24.477823],[120.882405,24.478113],[120.879793,24.479503],[120.879141,24.480246],[120.879009,24.481326],[120.878656,24.482086],[120.878018,24.484492],[120.876601,24.485758],[120.874818,24.486443],[120.873083,24.487422],[120.8716,24.486339],[120.871018,24.484481],[120.871249,24.483763],[120.870928,24.482414],[120.870608,24.482062],[120.870357,24.481206],[120.869529,24.480389],[120.869339,24.479968],[120.868868,24.477957],[120.868081,24.476613],[120.867211,24.473679],[120.866658,24.472325],[120.866567,24.471454],[120.865928,24.469639],[120.866271,24.46872],[120.866513,24.466937],[120.86545,24.465776],[120.864699,24.464293],[120.865684,24.46416],[120.866588,24.46415],[120.8685,24.464446],[120.87456,24.466574],[120.87689,24.466883],[120.877688,24.465357],[120.877705,24.464456],[120.876847,24.461825],[120.874168,24.457304],[120.875483,24.456219],[120.876714,24.454364],[120.878417,24.453483],[120.881401,24.45085],[120.883365,24.449501],[120.883492,24.448932],[120.883219,24.448238],[120.885622,24.446345],[120.887372,24.445515],[120.889502,24.444891],[120.892025,24.444556],[120.893142,24.444559],[120.896135,24.445021],[120.898402,24.445],[120.899546,24.445303],[120.904131,24.447114],[120.906146,24.448064],[120.90794,24.449827],[120.90937,24.450822],[120.910489,24.45197],[120.911037,24.452738],[120.911194,24.453303],[120.911213,24.455979],[120.911284,24.45681],[120.911706,24.458376],[120.913502,24.462112],[120.914117,24.462902],[120.91633,24.465083],[120.916517,24.465473],[120.916167,24.466336],[120.915797,24.466737],[120.91501,24.467184],[120.914887,24.467639],[120.915528,24.467697],[120.916093,24.468209],[120.91647,24.469544],[120.916432,24.470318],[120.916672,24.471127],[120.916685,24.472422],[120.916333,24.473239],[120.91638,24.473494],[120.917333,24.475487],[120.917656,24.475771],[120.918347,24.476047],[120.917663,24.476268],[120.91454,24.476563],[120.912391,24.4763],[120.909481,24.476162],[120.90732,24.475714]]]},"properties":{"code":"10005170007","name":"竹木村","countyCode":"10005","countyName":"苗栗縣","townCode":"10005170","townName":"獅潭鄉","level":"village","unassigned":false,"note":"","label":[120.89359680940113,24.45879694794366],"bounds":[120.864699,24.444556,120.918347,24.487422],"focusBounds":[120.864699,24.444556,120.918347,24.487422],"color":"#58b99d"}}]}
