{"type":"FeatureCollection","features":[{"type":"Feature","id":"10007020001","geometry":{"type":"Polygon","coordinates":[[[120.434789,24.054478],[120.43385,24.05587],[120.432296,24.054995],[120.432201,24.053912],[120.432117,24.054358],[120.431727,24.054342],[120.431766,24.053685],[120.432117,24.053688],[120.432073,24.053572],[120.429958,24.053337],[120.430664,24.052042],[120.431354,24.052712],[120.432431,24.052213],[120.433344,24.053139],[120.433826,24.053432],[120.433778,24.054048],[120.434502,24.054313],[120.434789,24.054478]]]},"properties":{"code":"10007020001","name":"大有里","countyCode":"10007","countyName":"彰化縣","townCode":"10007020","townName":"鹿港鎮","level":"village","unassigned":false,"note":"","label":[120.43299193048335,24.05386456146115],"bounds":[120.429958,24.052042,120.434789,24.05587],"focusBounds":[120.429958,24.052042,120.434789,24.05587],"color":"#78a7e3"}},{"type":"Feature","id":"10007020002","geometry":{"type":"Polygon","coordinates":[[[120.435887,24.055333],[120.435125,24.056537],[120.434598,24.056255],[120.43385,24.05587],[120.434789,24.054478],[120.435887,24.055333]]]},"properties":{"code":"10007020002","name":"中興里","countyCode":"10007","countyName":"彰化縣","townCode":"10007020","townName":"鹿港鎮","level":"village","unassigned":false,"note":"","label":[120.43491050551654,24.05554376734714],"bounds":[120.43385,24.054478,120.435887,24.056537],"focusBounds":[120.43385,24.054478,120.435887,24.056537],"color":"#68bec9"}},{"type":"Feature","id":"10007020003","geometry":{"type":"Polygon","coordinates":[[[120.43385,24.05587],[120.433079,24.057237],[120.431478,24.058615],[120.431043,24.057964],[120.431618,24.057578],[120.430512,24.056231],[120.430158,24.056483],[120.42977,24.055963],[120.428935,24.055405],[120.429958,24.053337],[120.432073,24.053572],[120.432117,24.053688],[120.431766,24.053685],[120.431727,24.054342],[120.432117,24.054358],[120.432201,24.053912],[120.432296,24.054995],[120.43385,24.05587]]]},"properties":{"code":"10007020003","name":"洛津里","countyCode":"10007","countyName":"彰化縣","townCode":"10007020","townName":"鹿港鎮","level":"village","unassigned":false,"note":"","label":[120.43140145892846,24.055629179758128],"bounds":[120.428935,24.053337,120.43385,24.058615],"focusBounds":[120.428935,24.053337,120.43385,24.058615],"color":"#a49ad4"}},{"type":"Feature","id":"10007020004","geometry":{"type":"Polygon","coordinates":[[[120.433697,24.058867],[120.433815,24.059453],[120.433249,24.05972],[120.433777,24.060994],[120.43356,24.061066],[120.433279,24.060332],[120.432671,24.060682],[120.432616,24.060596],[120.432108,24.059751],[120.431946,24.059006],[120.431478,24.058615],[120.433079,24.057237],[120.43385,24.05587],[120.434598,24.056255],[120.433891,24.057128],[120.434166,24.057383],[120.433898,24.057654],[120.43403,24.057944],[120.433722,24.058495],[120.433697,24.058867]]]},"properties":{"code":"10007020004","name":"順興里","countyCode":"10007","countyName":"彰化縣","townCode":"10007020","townName":"鹿港鎮","level":"village","unassigned":false,"note":"","label":[120.43279727599258,24.05868985451237],"bounds":[120.431478,24.05587,120.434598,24.061066],"focusBounds":[120.431478,24.05587,120.434598,24.061066],"color":"#a8bf62"}},{"type":"Feature","id":"10007020005","geometry":{"type":"Polygon","coordinates":[[[120.455378,24.06297],[120.454795,24.063078],[120.454931,24.063665],[120.454776,24.063885],[120.45477,24.065261],[120.448612,24.065251],[120.448614,24.061873],[120.44654,24.061867],[120.44654,24.061699],[120.442435,24.061739],[120.442445,24.061179],[120.44163,24.060577],[120.441528,24.060315],[120.441478,24.059276],[120.441334,24.059276],[120.441398,24.057426],[120.446852,24.056503],[120.448613,24.057264],[120.451481,24.058869],[120.453684,24.061254],[120.4565,24.061244],[120.456425,24.062612],[120.456287,24.0628],[120.455378,24.06297]]]},"properties":{"code":"10007020005","name":"頂厝里","countyCode":"10007","countyName":"彰化縣","townCode":"10007020","townName":"鹿港鎮","level":"village","unassigned":false,"note":"","label":[120.44675103866956,24.05919388874598],"bounds":[120.441334,24.056503,120.4565,24.065261],"focusBounds":[120.441334,24.056503,120.4565,24.065261],"color":"#68bec9"}},{"type":"Feature","id":"10007020006","geometry":{"type":"Polygon","coordinates":[[[120.469176,24.065408],[120.468575,24.065501],[120.46762,24.066007],[120.464592,24.067869],[120.463819,24.068165],[120.463204,24.06813],[120.456077,24.063761],[120.455378,24.06297],[120.456287,24.0628],[120.456425,24.062612],[120.4565,24.061244],[120.453684,24.061254],[120.451481,24.058869],[120.448613,24.057264],[120.448671,24.05339],[120.450191,24.05283],[120.451649,24.05271],[120.451997,24.052459],[120.45274,24.05233],[120.455356,24.052157],[120.458108,24.052308],[120.460416,24.052102],[120.463112,24.052271],[120.464178,24.051977],[120.464471,24.05147],[120.465066,24.051354],[120.467156,24.051826],[120.468112,24.050177],[120.469143,24.049754],[120.470988,24.048885],[120.471253,24.048639],[120.471548,24.048605],[120.471911,24.048238],[120.473926,24.047693],[120.477583,24.047052],[120.478922,24.046533],[120.479576,24.04757],[120.47976,24.048373],[120.479656,24.049138],[120.479769,24.050402],[120.479974,24.052138],[120.480296,24.053317],[120.479735,24.053999],[120.478947,24.055055],[120.478481,24.056313],[120.478688,24.056467],[120.478485,24.05701],[120.479488,24.057257],[120.480824,24.057284],[120.480786,24.057718],[120.474588,24.060655],[120.471671,24.062486],[120.471651,24.064282],[120.471236,24.065421],[120.469176,24.065408]]]},"properties":{"code":"10007020006","name":"東崎里","countyCode":"10007","countyName":"彰化縣","townCode":"10007020","townName":"鹿港鎮","level":"village","unassigned":false,"note":"","label":[120.46590315593878,24.0585707214911],"bounds":[120.448613,24.046533,120.480824,24.068165],"focusBounds":[120.448613,24.046533,120.480824,24.068165],"color":"#df9f6a"}},{"type":"Feature","id":"10007020007","geometry":{"type":"Polygon","coordinates":[[[120.444617,24.069286],[120.440355,24.06931],[120.440359,24.068539],[120.437825,24.068535],[120.437471,24.067656],[120.435224,24.067592],[120.435198,24.069985],[120.425189,24.073426],[120.423931,24.070564],[120.42861,24.068948],[120.428587,24.068715],[120.432405,24.067814],[120.431312,24.064916],[120.432172,24.064002],[120.433792,24.062415],[120.432671,24.060682],[120.433279,24.060332],[120.43356,24.061066],[120.433777,24.060994],[120.433249,24.05972],[120.433815,24.059453],[120.433697,24.058867],[120.436319,24.058196],[120.437083,24.060168],[120.438327,24.06164],[120.441795,24.061739],[120.442432,24.062128],[120.442407,24.065134],[120.442703,24.065152],[120.44314,24.066335],[120.444617,24.069286]]]},"properties":{"code":"10007020007","name":"埔崙里","countyCode":"10007","countyName":"彰化縣","townCode":"10007020","townName":"鹿港鎮","level":"village","unassigned":false,"note":"","label":[120.43632431188001,24.06432676497564],"bounds":[120.423931,24.058196,120.444617,24.073426],"focusBounds":[120.423931,24.058196,120.444617,24.073426],"color":"#c38cb8"}},{"type":"Feature","id":"10007020008","geometry":{"type":"Polygon","coordinates":[[[120.425189,24.073426],[120.416397,24.076808],[120.371563,24.082036],[120.370825,24.081691],[120.365584,24.081492],[120.364496,24.081285],[120.36337,24.080848],[120.36272,24.079894],[120.36117,24.076288],[120.359194,24.074277],[120.357981,24.073587],[120.354854,24.072505],[120.352365,24.072193],[120.350188,24.071388],[120.347775,24.069617],[120.346574,24.068526],[120.345261,24.066779],[120.344561,24.065539],[120.343073,24.061794],[120.342086,24.060128],[120.34061,24.05976],[120.339734,24.059724],[120.339572,24.059368],[120.340673,24.057647],[120.341221,24.057441],[120.34215,24.055512],[120.342412,24.05472],[120.342443,24.053808],[120.356972,24.055752],[120.364923,24.05654],[120.372875,24.057134],[120.380828,24.057534],[120.388782,24.057738],[120.396737,24.057748],[120.403102,24.057588],[120.405186,24.057611],[120.406813,24.058153],[120.407544,24.058426],[120.409514,24.059661],[120.410694,24.059887],[120.414225,24.058353],[120.417101,24.056648],[120.418625,24.056743],[120.418925,24.05661],[120.418793,24.055547],[120.418912,24.054776],[120.419858,24.053794],[120.420869,24.053283],[120.421732,24.053372],[120.423946,24.055296],[120.424703,24.055503],[120.426598,24.055442],[120.42722,24.055825],[120.427585,24.057282],[120.427459,24.05758],[120.427594,24.060202],[120.425209,24.060648],[120.425644,24.06173],[120.426895,24.061585],[120.427811,24.061773],[120.428472,24.062379],[120.429516,24.06166],[120.429582,24.061819],[120.430279,24.061443],[120.430545,24.061879],[120.430602,24.061969],[120.430742,24.061851],[120.431656,24.062767],[120.431365,24.063336],[120.431526,24.063908],[120.432172,24.064002],[120.431312,24.064916],[120.432405,24.067814],[120.428587,24.068715],[120.42861,24.068948],[120.423931,24.070564],[120.425189,24.073426]]]},"properties":{"code":"10007020008","name":"東石里","countyCode":"10007","countyName":"彰化縣","townCode":"10007020","townName":"鹿港鎮","level":"village","unassigned":false,"note":"","label":[120.38515424016826,24.069048179581387],"bounds":[120.339572,24.053283,120.432405,24.082036],"focusBounds":[120.339572,24.053283,120.432405,24.082036],"color":"#98b69b"}},{"type":"Feature","id":"10007020009","geometry":{"type":"Polygon","coordinates":[[[120.432671,24.060682],[120.433792,24.062415],[120.432172,24.064002],[120.431526,24.063908],[120.431365,24.063336],[120.431656,24.062767],[120.430742,24.061851],[120.430602,24.061969],[120.430545,24.061879],[120.431915,24.060856],[120.431975,24.06094],[120.432616,24.060596],[120.432671,24.060682]]]},"properties":{"code":"10007020009","name":"郭厝里","countyCode":"10007","countyName":"彰化縣","townCode":"10007020","townName":"鹿港鎮","level":"village","unassigned":false,"note":"","label":[120.43239360170261,24.06210262324463],"bounds":[120.430545,24.060596,120.433792,24.064002],"focusBounds":[120.430545,24.060596,120.433792,24.064002],"color":"#58b99d"}},{"type":"Feature","id":"10007020010","geometry":{"type":"Polygon","coordinates":[[[120.431478,24.058615],[120.430537,24.059624],[120.428739,24.060196],[120.427594,24.060202],[120.427459,24.05758],[120.427585,24.057282],[120.42722,24.055825],[120.427844,24.05623],[120.428262,24.056238],[120.428628,24.055953],[120.428935,24.055405],[120.42977,24.055963],[120.430158,24.056483],[120.430512,24.056231],[120.431618,24.057578],[120.431043,24.057964],[120.431478,24.058615]]]},"properties":{"code":"10007020010","name":"新宮里","countyCode":"10007","countyName":"彰化縣","townCode":"10007020","townName":"鹿港鎮","level":"village","unassigned":false,"note":"","label":[120.4292772980956,24.05808058673961],"bounds":[120.42722,24.055405,120.431618,24.060202],"focusBounds":[120.42722,24.055405,120.431618,24.060202],"color":"#efb44f"}},{"type":"Feature","id":"10007020011","geometry":{"type":"Polygon","coordinates":[[[120.430545,24.061879],[120.430279,24.061443],[120.429582,24.061819],[120.429516,24.06166],[120.428472,24.062379],[120.427811,24.061773],[120.426895,24.061585],[120.425644,24.06173],[120.425209,24.060648],[120.427594,24.060202],[120.428739,24.060196],[120.430537,24.059624],[120.431478,24.058615],[120.431946,24.059006],[120.432108,24.059751],[120.432616,24.060596],[120.431975,24.06094],[120.431915,24.060856],[120.430545,24.061879]]]},"properties":{"code":"10007020011","name":"玉順里","countyCode":"10007","countyName":"彰化縣","townCode":"10007020","townName":"鹿港鎮","level":"village","unassigned":false,"note":"","label":[120.42953923061661,24.06082821437998],"bounds":[120.425209,24.058615,120.432616,24.062379],"focusBounds":[120.425209,24.058615,120.432616,24.062379],"color":"#78a7e3"}},{"type":"Feature","id":"10007020012","geometry":{"type":"Polygon","coordinates":[[[120.436319,24.058196],[120.433697,24.058867],[120.433722,24.058495],[120.43403,24.057944],[120.433898,24.057654],[120.434166,24.057383],[120.433891,24.057128],[120.434598,24.056255],[120.435125,24.056537],[120.435887,24.055333],[120.436158,24.054932],[120.435968,24.054789],[120.435352,24.054788],[120.435744,24.054339],[120.436213,24.054545],[120.436517,24.05423],[120.437448,24.054439],[120.437729,24.055494],[120.437631,24.056095],[120.437874,24.056144],[120.43771,24.056958],[120.43734,24.057679],[120.436319,24.058196]]]},"properties":{"code":"10007020012","name":"景福里","countyCode":"10007","countyName":"彰化縣","townCode":"10007020","townName":"鹿港鎮","level":"village","unassigned":false,"note":"","label":[120.4363771135175,24.056840603193272],"bounds":[120.433697,24.05423,120.437874,24.058867],"focusBounds":[120.433697,24.05423,120.437874,24.058867],"color":"#dd8590"}},{"type":"Feature","id":"10007020013","geometry":{"type":"Polygon","coordinates":[[[120.437448,24.054439],[120.436517,24.05423],[120.436213,24.054545],[120.435744,24.054339],[120.435352,24.054788],[120.435968,24.054789],[120.436158,24.054932],[120.435887,24.055333],[120.434789,24.054478],[120.436439,24.051765],[120.436613,24.050993],[120.436723,24.050381],[120.437535,24.049882],[120.439435,24.049047],[120.439678,24.04907],[120.438527,24.053699],[120.43754,24.054025],[120.437448,24.054439]]]},"properties":{"code":"10007020013","name":"泰興里","countyCode":"10007","countyName":"彰化縣","townCode":"10007020","townName":"鹿港鎮","level":"village","unassigned":false,"note":"","label":[120.43748947835113,24.05252617113331],"bounds":[120.434789,24.049047,120.439678,24.055333],"focusBounds":[120.434789,24.049047,120.439678,24.055333],"color":"#a49ad4"}},{"type":"Feature","id":"10007020014","geometry":{"type":"Polygon","coordinates":[[[120.436613,24.050993],[120.436439,24.051765],[120.434789,24.054478],[120.434502,24.054313],[120.434723,24.053746],[120.434886,24.05371],[120.435182,24.053247],[120.43527,24.052369],[120.435402,24.052441],[120.435696,24.052268],[120.436063,24.051803],[120.435878,24.051711],[120.43628,24.050955],[120.436613,24.050993]]]},"properties":{"code":"10007020014","name":"長興里","countyCode":"10007","countyName":"彰化縣","townCode":"10007020","townName":"鹿港鎮","level":"village","unassigned":false,"note":"","label":[120.43553407536491,24.052712171143497],"bounds":[120.434502,24.050955,120.436613,24.054478],"focusBounds":[120.434502,24.050955,120.436613,24.054478],"color":"#a8bf62"}},{"type":"Feature","id":"10007020015","geometry":{"type":"Polygon","coordinates":[[[120.43628,24.050955],[120.435016,24.050809],[120.434899,24.052674],[120.434776,24.052888],[120.434419,24.052791],[120.43432,24.053146],[120.433748,24.053047],[120.433717,24.052685],[120.433986,24.052682],[120.434102,24.051974],[120.434044,24.051166],[120.434474,24.051009],[120.434903,24.049074],[120.436043,24.049302],[120.435912,24.049987],[120.436818,24.050153],[120.436723,24.050381],[120.436613,24.050993],[120.43628,24.050955]]]},"properties":{"code":"10007020015","name":"龍山里","countyCode":"10007","countyName":"彰化縣","townCode":"10007020","townName":"鹿港鎮","level":"village","unassigned":false,"note":"","label":[120.43527213418602,24.05020439064694],"bounds":[120.433717,24.049074,120.436818,24.053146],"focusBounds":[120.433717,24.049074,120.436818,24.053146],"color":"#68bec9"}},{"type":"Feature","id":"10007020016","geometry":{"type":"Polygon","coordinates":[[[120.43628,24.050955],[120.435878,24.051711],[120.436063,24.051803],[120.435696,24.052268],[120.435402,24.052441],[120.43527,24.052369],[120.435182,24.053247],[120.434886,24.05371],[120.434723,24.053746],[120.434502,24.054313],[120.433778,24.054048],[120.433826,24.053432],[120.433344,24.053139],[120.433402,24.053019],[120.433748,24.053047],[120.43432,24.053146],[120.434419,24.052791],[120.434776,24.052888],[120.434899,24.052674],[120.435016,24.050809],[120.43628,24.050955]]]},"properties":{"code":"10007020016","name":"興化里","countyCode":"10007","countyName":"彰化縣","townCode":"10007020","townName":"鹿港鎮","level":"village","unassigned":false,"note":"","label":[120.43553043680257,24.051350037777453],"bounds":[120.433344,24.050809,120.43628,24.054313],"focusBounds":[120.433344,24.050809,120.43628,24.054313],"color":"#df9f6a"}},{"type":"Feature","id":"10007020017","geometry":{"type":"Polygon","coordinates":[[[120.433748,24.053047],[120.433402,24.053019],[120.433344,24.053139],[120.432431,24.052213],[120.431354,24.052712],[120.430664,24.052042],[120.433366,24.04856],[120.433402,24.048512],[120.434105,24.04916],[120.434903,24.049074],[120.434474,24.051009],[120.434044,24.051166],[120.434102,24.051974],[120.433986,24.052682],[120.433717,24.052685],[120.433748,24.053047]]]},"properties":{"code":"10007020017","name":"菜園里","countyCode":"10007","countyName":"彰化縣","townCode":"10007020","townName":"鹿港鎮","level":"village","unassigned":false,"note":"","label":[120.43287049367471,24.05112118694209],"bounds":[120.430664,24.048512,120.434903,24.053139],"focusBounds":[120.430664,24.048512,120.434903,24.053139],"color":"#c38cb8"}},{"type":"Feature","id":"10007020018","geometry":{"type":"Polygon","coordinates":[[[120.439678,24.04907],[120.439435,24.049047],[120.437535,24.049882],[120.436723,24.050381],[120.436818,24.050153],[120.435912,24.049987],[120.436043,24.049302],[120.434903,24.049074],[120.434105,24.04916],[120.433402,24.048512],[120.434351,24.047702],[120.437089,24.046566],[120.43843,24.045556],[120.43928,24.045129],[120.439974,24.044423],[120.440553,24.042865],[120.440748,24.042708],[120.442052,24.042448],[120.442523,24.042107],[120.443103,24.041474],[120.443399,24.040386],[120.444936,24.040171],[120.445188,24.041032],[120.444968,24.042302],[120.444271,24.042941],[120.443849,24.043725],[120.443439,24.044482],[120.439975,24.045992],[120.441319,24.047958],[120.441396,24.04859],[120.441321,24.048721],[120.439678,24.04907]]]},"properties":{"code":"10007020018","name":"街尾里","countyCode":"10007","countyName":"彰化縣","townCode":"10007020","townName":"鹿港鎮","level":"village","unassigned":false,"note":"","label":[120.438863231608,24.047318338047173],"bounds":[120.433402,24.040171,120.445188,24.050381],"focusBounds":[120.433402,24.040171,120.445188,24.050381],"color":"#98b69b"}},{"type":"Feature","id":"10007020019","geometry":{"type":"Polygon","coordinates":[[[120.485566,24.097888],[120.485261,24.097437],[120.484797,24.097704],[120.48486,24.098409],[120.484352,24.099014],[120.482771,24.098929],[120.48225,24.099054],[120.481908,24.097761],[120.482307,24.09765],[120.482723,24.097086],[120.482739,24.096805],[120.483247,24.096174],[120.483357,24.095528],[120.481244,24.095352],[120.481159,24.089429],[120.478424,24.088857],[120.478002,24.086746],[120.477483,24.085796],[120.477613,24.085234],[120.477461,24.085132],[120.478181,24.084127],[120.480109,24.085088],[120.480346,24.085759],[120.482199,24.084934],[120.484177,24.084527],[120.485675,24.08349],[120.487893,24.081125],[120.489032,24.080368],[120.488577,24.080989],[120.488454,24.082037],[120.489329,24.084052],[120.48932,24.085023],[120.489701,24.08595],[120.489631,24.087566],[120.490855,24.088343],[120.491313,24.089247],[120.49109,24.089927],[120.490408,24.090535],[120.48987,24.090723],[120.488585,24.09083],[120.488453,24.091487],[120.488688,24.0919],[120.48854,24.092407],[120.488426,24.092584],[120.487921,24.092622],[120.487849,24.093239],[120.487976,24.093737],[120.488674,24.094048],[120.488457,24.094369],[120.487879,24.094725],[120.486951,24.094653],[120.486547,24.094839],[120.486658,24.095479],[120.486173,24.097302],[120.485931,24.097795],[120.485566,24.097888]]]},"properties":{"code":"10007020019","name":"頂番里","countyCode":"10007","countyName":"彰化縣","townCode":"10007020","townName":"鹿港鎮","level":"village","unassigned":false,"note":"","label":[120.48522484689114,24.088425806421576],"bounds":[120.477461,24.080368,120.491313,24.099054],"focusBounds":[120.477461,24.080368,120.491313,24.099054],"color":"#58b99d"}},{"type":"Feature","id":"10007020020","geometry":{"type":"Polygon","coordinates":[[[120.48225,24.099054],[120.481655,24.099072],[120.4807,24.098714],[120.479788,24.099349],[120.478619,24.099826],[120.478651,24.1004],[120.478037,24.101162],[120.477406,24.102456],[120.475899,24.102298],[120.475181,24.10169],[120.476273,24.101495],[120.476097,24.100594],[120.475122,24.100795],[120.474746,24.099892],[120.474622,24.099077],[120.473255,24.099381],[120.472903,24.098159],[120.471668,24.096777],[120.471327,24.09594],[120.470101,24.095178],[120.468887,24.09392],[120.467936,24.091616],[120.467735,24.091395],[120.467084,24.091156],[120.466422,24.088863],[120.464795,24.085805],[120.46733,24.085443],[120.467772,24.08733],[120.468918,24.087653],[120.469056,24.087762],[120.469044,24.088244],[120.472571,24.087315],[120.472891,24.088223],[120.478002,24.086746],[120.478424,24.088857],[120.481159,24.089429],[120.481244,24.095352],[120.483357,24.095528],[120.483247,24.096174],[120.482739,24.096805],[120.482723,24.097086],[120.482307,24.09765],[120.481908,24.097761],[120.48225,24.099054]]]},"properties":{"code":"10007020020","name":"頭崙里","countyCode":"10007","countyName":"彰化縣","townCode":"10007020","townName":"鹿港鎮","level":"village","unassigned":false,"note":"","label":[120.4757079272391,24.093197931877995],"bounds":[120.464795,24.085443,120.483357,24.102456],"focusBounds":[120.464795,24.085443,120.483357,24.102456],"color":"#dd8590"}},{"type":"Feature","id":"10007020021","geometry":{"type":"Polygon","coordinates":[[[120.478002,24.086746],[120.472891,24.088223],[120.472571,24.087315],[120.469044,24.088244],[120.469056,24.087762],[120.468918,24.087653],[120.467772,24.08733],[120.46733,24.085443],[120.468402,24.085246],[120.468031,24.082145],[120.465516,24.08175],[120.465103,24.081854],[120.464621,24.082442],[120.464097,24.083516],[120.463184,24.084182],[120.459117,24.085569],[120.458831,24.082951],[120.458832,24.07698],[120.459074,24.077014],[120.459195,24.076825],[120.459272,24.076116],[120.458868,24.075324],[120.458858,24.071959],[120.454745,24.069156],[120.45477,24.065261],[120.454776,24.063885],[120.454931,24.063665],[120.454795,24.063078],[120.455378,24.06297],[120.456077,24.063761],[120.463204,24.06813],[120.463819,24.068165],[120.464592,24.067869],[120.46762,24.066007],[120.468575,24.065501],[120.469176,24.065408],[120.469156,24.067025],[120.472388,24.067087],[120.473156,24.06938],[120.473477,24.070973],[120.473379,24.071497],[120.473554,24.07206],[120.473722,24.074326],[120.474189,24.07678],[120.475323,24.079225],[120.47532,24.082532],[120.477166,24.083565],[120.476549,24.084407],[120.477461,24.085132],[120.477613,24.085234],[120.477483,24.085796],[120.478002,24.086746]]]},"properties":{"code":"10007020021","name":"廖厝里","countyCode":"10007","countyName":"彰化縣","townCode":"10007020","townName":"鹿港鎮","level":"village","unassigned":false,"note":"","label":[120.46655943573253,24.074815070842355],"bounds":[120.454745,24.06297,120.478002,24.088244],"focusBounds":[120.454745,24.06297,120.478002,24.088244],"color":"#78a7e3"}},{"type":"Feature","id":"10007020022","geometry":{"type":"Polygon","coordinates":[[[120.489032,24.080368],[120.487893,24.081125],[120.485675,24.08349],[120.484177,24.084527],[120.482199,24.084934],[120.480346,24.085759],[120.480109,24.085088],[120.478181,24.084127],[120.477461,24.085132],[120.476549,24.084407],[120.477166,24.083565],[120.47532,24.082532],[120.475323,24.079225],[120.474189,24.07678],[120.473722,24.074326],[120.473554,24.07206],[120.473379,24.071497],[120.473477,24.070973],[120.473156,24.06938],[120.472388,24.067087],[120.469156,24.067025],[120.469176,24.065408],[120.471236,24.065421],[120.471651,24.064282],[120.471671,24.062486],[120.474588,24.060655],[120.480786,24.057718],[120.481738,24.057336],[120.481738,24.058249],[120.481617,24.060779],[120.481694,24.068512],[120.479541,24.070923],[120.479397,24.0713],[120.479493,24.072251],[120.482432,24.072273],[120.489546,24.074663],[120.490837,24.074302],[120.491395,24.075612],[120.492766,24.077234],[120.492569,24.077723],[120.491895,24.078383],[120.490281,24.078856],[120.489032,24.080368]]]},"properties":{"code":"10007020022","name":"溝墘里","countyCode":"10007","countyName":"彰化縣","townCode":"10007020","townName":"鹿港鎮","level":"village","unassigned":false,"note":"","label":[120.48172240881834,24.078707226706694],"bounds":[120.469156,24.057336,120.492766,24.085759],"focusBounds":[120.469156,24.057336,120.492766,24.085759],"color":"#dd8590"}},{"type":"Feature","id":"10007020023","geometry":{"type":"Polygon","coordinates":[[[120.465919,24.108217],[120.463194,24.108419],[120.462555,24.108792],[120.46253,24.109146],[120.462969,24.109371],[120.46413,24.108838],[120.465177,24.108755],[120.466167,24.108928],[120.466322,24.109307],[120.463128,24.115873],[120.462061,24.116789],[120.458836,24.118837],[120.457985,24.116403],[120.457545,24.115758],[120.45729,24.11478],[120.457342,24.112583],[120.457765,24.11202],[120.457585,24.111114],[120.45652,24.110269],[120.455828,24.110593],[120.454576,24.11046],[120.451648,24.109786],[120.448969,24.109399],[120.447903,24.10896],[120.447443,24.107656],[120.445246,24.108004],[120.444354,24.104104],[120.443292,24.102423],[120.443925,24.102302],[120.444281,24.102052],[120.444733,24.101292],[120.445313,24.101648],[120.447444,24.101513],[120.449042,24.100071],[120.45193,24.102026],[120.453332,24.10217],[120.455807,24.10207],[120.456714,24.101816],[120.456962,24.101555],[120.45757,24.10078],[120.458966,24.098039],[120.460242,24.097113],[120.462888,24.095593],[120.464702,24.102199],[120.46512,24.103264],[120.463953,24.104619],[120.464771,24.104784],[120.464919,24.105097],[120.464655,24.106372],[120.466086,24.106365],[120.466151,24.10709],[120.465919,24.108217]]]},"properties":{"code":"10007020023","name":"草中里","countyCode":"10007","countyName":"彰化縣","townCode":"10007020","townName":"鹿港鎮","level":"village","unassigned":false,"note":"","label":[120.45794402223589,24.106101119068622],"bounds":[120.443292,24.095593,120.466322,24.118837],"focusBounds":[120.443292,24.095593,120.466322,24.118837],"color":"#a49ad4"}},{"type":"Feature","id":"10007020024","geometry":{"type":"Polygon","coordinates":[[[120.475899,24.102298],[120.473781,24.103012],[120.472528,24.104611],[120.471929,24.105073],[120.469387,24.106099],[120.46827,24.105762],[120.467441,24.105952],[120.467149,24.106322],[120.467278,24.107418],[120.466942,24.108003],[120.465919,24.108217],[120.466151,24.10709],[120.466086,24.106365],[120.464655,24.106372],[120.464919,24.105097],[120.464771,24.104784],[120.463953,24.104619],[120.46512,24.103264],[120.464702,24.102199],[120.462888,24.095593],[120.460242,24.097113],[120.458966,24.098039],[120.45757,24.10078],[120.456962,24.101555],[120.456408,24.098137],[120.45552,24.094889],[120.454673,24.093008],[120.454078,24.09078],[120.453923,24.088938],[120.454216,24.087731],[120.454716,24.087012],[120.455218,24.086571],[120.455804,24.086327],[120.459117,24.085569],[120.463184,24.084182],[120.464097,24.083516],[120.464621,24.082442],[120.465103,24.081854],[120.465516,24.08175],[120.468031,24.082145],[120.468402,24.085246],[120.46733,24.085443],[120.464795,24.085805],[120.466422,24.088863],[120.467084,24.091156],[120.467735,24.091395],[120.467936,24.091616],[120.468887,24.09392],[120.470101,24.095178],[120.471327,24.09594],[120.471668,24.096777],[120.472903,24.098159],[120.473255,24.099381],[120.474622,24.099077],[120.474746,24.099892],[120.475122,24.100795],[120.476097,24.100594],[120.476273,24.101495],[120.475181,24.10169],[120.475899,24.102298]]]},"properties":{"code":"10007020024","name":"頭南里","countyCode":"10007","countyName":"彰化縣","townCode":"10007020","townName":"鹿港鎮","level":"village","unassigned":false,"note":"","label":[120.4613551159341,24.090639708496457],"bounds":[120.453923,24.08175,120.476273,24.108217],"focusBounds":[120.453923,24.08175,120.476273,24.108217],"color":"#a8bf62"}},{"type":"Feature","id":"10007020025","geometry":{"type":"Polygon","coordinates":[[[120.457113,24.119361],[120.45677,24.119688],[120.45692,24.121137],[120.456504,24.122062],[120.452724,24.126315],[120.452233,24.126552],[120.44926,24.12638],[120.443947,24.12657],[120.443399,24.126353],[120.442054,24.125437],[120.441435,24.125207],[120.436093,24.124072],[120.435433,24.124111],[120.433928,24.124872],[120.433272,24.124954],[120.429611,24.123979],[120.398444,24.123669],[120.39726,24.121091],[120.396833,24.117493],[120.396235,24.116689],[120.395842,24.116735],[120.396039,24.116425],[120.394853,24.114832],[120.394441,24.114939],[120.394414,24.114728],[120.39466,24.114572],[120.393445,24.112938],[120.393223,24.113118],[120.392934,24.113046],[120.393283,24.112721],[120.392073,24.111094],[120.391798,24.111276],[120.391592,24.111241],[120.391538,24.111097],[120.391892,24.11085],[120.390638,24.109165],[120.390321,24.109383],[120.390153,24.109349],[120.390524,24.109011],[120.389529,24.107674],[120.38899,24.107943],[120.388976,24.107796],[120.389413,24.107517],[120.388423,24.106187],[120.387899,24.106446],[120.387931,24.106262],[120.38828,24.10601],[120.382772,24.09877],[120.382192,24.097808],[120.379944,24.095075],[120.37955,24.09429],[120.379695,24.093155],[120.379946,24.093052],[120.380112,24.092725],[120.380316,24.092736],[120.379941,24.093572],[120.380025,24.094491],[120.381818,24.096854],[120.383052,24.097024],[120.386346,24.097043],[120.432932,24.095049],[120.434372,24.096937],[120.435213,24.098352],[120.436623,24.099433],[120.441431,24.101447],[120.442927,24.102402],[120.443292,24.102423],[120.444354,24.104104],[120.445246,24.108004],[120.447443,24.107656],[120.447903,24.10896],[120.448969,24.109399],[120.451648,24.109786],[120.454576,24.11046],[120.455828,24.110593],[120.45652,24.110269],[120.457585,24.111114],[120.457765,24.11202],[120.457342,24.112583],[120.45729,24.11478],[120.457545,24.115758],[120.457985,24.116403],[120.458836,24.118837],[120.457113,24.119361]]]},"properties":{"code":"10007020025","name":"山崙里","countyCode":"10007","countyName":"彰化縣","townCode":"10007020","townName":"鹿港鎮","level":"village","unassigned":false,"note":"","label":[120.42137837361803,24.10972016773008],"bounds":[120.37955,24.092725,120.458836,24.12657],"focusBounds":[120.37955,24.092725,120.458836,24.12657],"color":"#68bec9"}},{"type":"Feature","id":"10007020026","geometry":{"type":"Polygon","coordinates":[[[120.447737,24.08848],[120.447598,24.088662],[120.445837,24.089119],[120.445531,24.089118],[120.444951,24.088765],[120.444293,24.088903],[120.444124,24.089043],[120.444322,24.089282],[120.444274,24.089857],[120.443276,24.090558],[120.439117,24.090623],[120.437965,24.090826],[120.434576,24.089648],[120.384783,24.090635],[120.384808,24.089165],[120.384171,24.087672],[120.382382,24.086477],[120.380294,24.085648],[120.378868,24.084924],[120.377267,24.083775],[120.375453,24.083015],[120.37419,24.082796],[120.371563,24.082036],[120.416397,24.076808],[120.425189,24.073426],[120.435198,24.069985],[120.435224,24.067592],[120.437471,24.067656],[120.437825,24.068535],[120.440359,24.068539],[120.440355,24.06931],[120.444617,24.069286],[120.445009,24.070087],[120.444432,24.070118],[120.444459,24.078046],[120.445004,24.083155],[120.445522,24.083774],[120.446377,24.083946],[120.446848,24.084691],[120.447259,24.085722],[120.447737,24.08848]]]},"properties":{"code":"10007020026","name":"海埔里","countyCode":"10007","countyName":"彰化縣","townCode":"10007020","townName":"鹿港鎮","level":"village","unassigned":false,"note":"","label":[120.42973841864016,24.080803026028363],"bounds":[120.371563,24.067592,120.447737,24.090826],"focusBounds":[120.371563,24.067592,120.447737,24.090826],"color":"#df9f6a"}},{"type":"Feature","id":"10007020027","geometry":{"type":"Polygon","coordinates":[[[120.454716,24.087012],[120.451218,24.087593],[120.447737,24.08848],[120.447259,24.085722],[120.446848,24.084691],[120.446377,24.083946],[120.445522,24.083774],[120.445004,24.083155],[120.444459,24.078046],[120.444432,24.070118],[120.445009,24.070087],[120.446391,24.069788],[120.448385,24.06992],[120.449562,24.070039],[120.452003,24.070662],[120.452905,24.070244],[120.453107,24.069876],[120.453209,24.068213],[120.454745,24.069156],[120.458858,24.071959],[120.458868,24.075324],[120.459272,24.076116],[120.459195,24.076825],[120.459074,24.077014],[120.458832,24.07698],[120.458831,24.082951],[120.459117,24.085569],[120.455804,24.086327],[120.455218,24.086571],[120.454716,24.087012]]]},"properties":{"code":"10007020027","name":"詔安里","countyCode":"10007","countyName":"彰化縣","townCode":"10007020","townName":"鹿港鎮","level":"village","unassigned":false,"note":"","label":[120.45162216852157,24.07819744888817],"bounds":[120.444432,24.068213,120.459272,24.08848],"focusBounds":[120.444432,24.068213,120.459272,24.08848],"color":"#c38cb8"}},{"type":"Feature","id":"10007020028","geometry":{"type":"Polygon","coordinates":[[[120.456962,24.101555],[120.456714,24.101816],[120.455807,24.10207],[120.453332,24.10217],[120.45193,24.102026],[120.449042,24.100071],[120.447444,24.101513],[120.445313,24.101648],[120.444733,24.101292],[120.444281,24.102052],[120.443925,24.102302],[120.443292,24.102423],[120.442927,24.102402],[120.441431,24.101447],[120.436623,24.099433],[120.435213,24.098352],[120.434372,24.096937],[120.432932,24.095049],[120.386346,24.097043],[120.386233,24.095033],[120.385821,24.092874],[120.38492,24.091897],[120.384783,24.090635],[120.434576,24.089648],[120.437965,24.090826],[120.439117,24.090623],[120.443276,24.090558],[120.444274,24.089857],[120.444322,24.089282],[120.444124,24.089043],[120.444293,24.088903],[120.444951,24.088765],[120.445531,24.089118],[120.445837,24.089119],[120.447598,24.088662],[120.447737,24.08848],[120.451218,24.087593],[120.454716,24.087012],[120.454216,24.087731],[120.453923,24.088938],[120.454078,24.09078],[120.454673,24.093008],[120.45552,24.094889],[120.456408,24.098137],[120.456962,24.101555]]]},"properties":{"code":"10007020028","name":"洋厝里","countyCode":"10007","countyName":"彰化縣","townCode":"10007020","townName":"鹿港鎮","level":"village","unassigned":false,"note":"","label":[120.44192834378227,24.09617165886359],"bounds":[120.384783,24.087012,120.456962,24.102423],"focusBounds":[120.384783,24.087012,120.456962,24.102423],"color":"#98b69b"}},{"type":"Feature","id":"10007020029","geometry":{"type":"Polygon","coordinates":[[[120.442435,24.061739],[120.442432,24.062128],[120.441795,24.061739],[120.438327,24.06164],[120.437083,24.060168],[120.436319,24.058196],[120.43734,24.057679],[120.43771,24.056958],[120.437874,24.056144],[120.437631,24.056095],[120.437729,24.055494],[120.437448,24.054439],[120.43754,24.054025],[120.438527,24.053699],[120.440704,24.053013],[120.441093,24.05377],[120.441562,24.053997],[120.441298,24.055007],[120.441398,24.057426],[120.441334,24.059276],[120.441478,24.059276],[120.441528,24.060315],[120.44163,24.060577],[120.442445,24.061179],[120.442435,24.061739]]]},"properties":{"code":"10007020029","name":"永安里","countyCode":"10007","countyName":"彰化縣","townCode":"10007020","townName":"鹿港鎮","level":"village","unassigned":false,"note":"","label":[120.43940116808642,24.057897218752544],"bounds":[120.436319,24.053013,120.442445,24.062128],"focusBounds":[120.436319,24.053013,120.442445,24.062128],"color":"#58b99d"}},{"type":"Feature","id":"10007020030","geometry":{"type":"Polygon","coordinates":[[[120.454745,24.069156],[120.453209,24.068213],[120.453107,24.069876],[120.452905,24.070244],[120.452003,24.070662],[120.449562,24.070039],[120.448385,24.06992],[120.446391,24.069788],[120.445009,24.070087],[120.444617,24.069286],[120.44314,24.066335],[120.442703,24.065152],[120.442407,24.065134],[120.442432,24.062128],[120.442435,24.061739],[120.44654,24.061699],[120.44654,24.061867],[120.448614,24.061873],[120.448612,24.065251],[120.45477,24.065261],[120.454745,24.069156]]]},"properties":{"code":"10007020030","name":"鹿和里","countyCode":"10007","countyName":"彰化縣","townCode":"10007020","townName":"鹿港鎮","level":"village","unassigned":false,"note":"","label":[120.44619935220712,24.06647216259647],"bounds":[120.442407,24.061699,120.45477,24.070662],"focusBounds":[120.442407,24.061699,120.45477,24.070662],"color":"#efb44f"}},{"type":"Feature","id":"10007020031","geometry":{"type":"Polygon","coordinates":[[[120.448613,24.057264],[120.446852,24.056503],[120.441398,24.057426],[120.441298,24.055007],[120.441562,24.053997],[120.443696,24.053567],[120.44781,24.053669],[120.448299,24.053389],[120.448671,24.05339],[120.448613,24.057264]]]},"properties":{"code":"10007020031","name":"鹿東里","countyCode":"10007","countyName":"彰化縣","townCode":"10007020","townName":"鹿港鎮","level":"village","unassigned":false,"note":"","label":[120.44489602810266,24.05521539424774],"bounds":[120.441298,24.053389,120.448671,24.057426],"focusBounds":[120.441298,24.053389,120.448671,24.057426],"color":"#78a7e3"}}]}
