{"type":"FeatureCollection","features":[{"type":"Feature","id":"10002030001","geometry":{"type":"Polygon","coordinates":[[[121.822709,24.65392],[121.818837,24.65375],[121.818568,24.65415],[121.818281,24.655343],[121.81815,24.655601],[121.817997,24.655605],[121.817212,24.654861],[121.816876,24.654967],[121.815519,24.654518],[121.815571,24.65418],[121.815375,24.653559],[121.814855,24.652884],[121.814056,24.653005],[121.814472,24.65216],[121.813999,24.651529],[121.815149,24.650737],[121.815374,24.650249],[121.815798,24.650156],[121.815686,24.649781],[121.816075,24.649657],[121.816427,24.64972],[121.817,24.648003],[121.817449,24.647905],[121.817472,24.647187],[121.81774,24.646961],[121.818124,24.644728],[121.81834,24.644407],[121.819001,24.644256],[121.819358,24.642673],[121.819723,24.642726],[121.819975,24.642389],[121.820947,24.64262],[121.822292,24.642665],[121.823437,24.640843],[121.824424,24.64031],[121.824796,24.638625],[121.825411,24.637748],[121.825954,24.636554],[121.825961,24.636262],[121.825351,24.636242],[121.825381,24.635862],[121.825599,24.632853],[121.822716,24.632599],[121.823163,24.627017],[121.822989,24.6268],[121.81809,24.626445],[121.818259,24.624295],[121.820501,24.621725],[121.82161,24.623134],[121.822285,24.623437],[121.823702,24.624729],[121.823952,24.625212],[121.824821,24.625781],[121.825351,24.626388],[121.825432,24.626888],[121.826779,24.628641],[121.828044,24.629837],[121.82877,24.630408],[121.829318,24.630473],[121.830519,24.63128],[121.831757,24.631436],[121.831965,24.631739],[121.831775,24.632658],[121.832187,24.632987],[121.833719,24.633203],[121.836305,24.63345],[121.831708,24.644613],[121.831676,24.645115],[121.831564,24.645078],[121.830393,24.648597],[121.830217,24.648716],[121.829746,24.648798],[121.825988,24.647416],[121.825426,24.647291],[121.825199,24.647387],[121.824158,24.650158],[121.823679,24.651013],[121.822709,24.65392]]]},"properties":{"code":"10002030001","name":"龍德里","countyCode":"10002","countyName":"宜蘭縣","townCode":"10002030","townName":"蘇澳鎮","level":"village","unassigned":false,"note":"","label":[121.82796310971197,24.642500059951516],"bounds":[121.813999,24.621725,121.836305,24.655605],"focusBounds":[121.813999,24.621725,121.836305,24.655605],"color":"#dd8590"}},{"type":"Feature","id":"10002030002","geometry":{"type":"Polygon","coordinates":[[[121.845172,24.644663],[121.84225,24.644065],[121.839128,24.643677],[121.837295,24.643156],[121.836584,24.643892],[121.836244,24.643088],[121.835659,24.642751],[121.835514,24.642828],[121.835723,24.643148],[121.835623,24.643418],[121.835473,24.643488],[121.835054,24.64326],[121.835138,24.644104],[121.834439,24.645949],[121.831676,24.645115],[121.831708,24.644613],[121.836305,24.63345],[121.840607,24.63367],[121.8452,24.633449],[121.848169,24.629916],[121.851141,24.630245],[121.850504,24.632106],[121.845172,24.644663]]]},"properties":{"code":"10002030002","name":"頂寮里","countyCode":"10002","countyName":"宜蘭縣","townCode":"10002030","townName":"蘇澳鎮","level":"village","unassigned":false,"note":"","label":[121.8415712410951,24.638802428684343],"bounds":[121.831676,24.629916,121.851141,24.645949],"focusBounds":[121.831676,24.629916,121.851141,24.645949],"color":"#a49ad4"}},{"type":"Feature","id":"10002030003","geometry":{"type":"Polygon","coordinates":[[[121.845115,24.619217],[121.843791,24.620958],[121.839153,24.624994],[121.833816,24.628739],[121.833719,24.633203],[121.832187,24.632987],[121.831775,24.632658],[121.831965,24.631739],[121.832035,24.629224],[121.832374,24.627629],[121.831213,24.626139],[121.833398,24.62453],[121.832351,24.623338],[121.832586,24.621313],[121.832163,24.619516],[121.831604,24.619571],[121.831549,24.61933],[121.831635,24.618621],[121.831353,24.618273],[121.832064,24.617839],[121.834312,24.61818],[121.83433,24.619622],[121.842158,24.618879],[121.843702,24.61906],[121.84432,24.618559],[121.845115,24.619217]]]},"properties":{"code":"10002030003","name":"永榮里","countyCode":"10002","countyName":"宜蘭縣","townCode":"10002030","townName":"蘇澳鎮","level":"village","unassigned":false,"note":"","label":[121.83637452734202,24.622870130643374],"bounds":[121.831213,24.617839,121.845115,24.633203],"focusBounds":[121.831213,24.617839,121.845115,24.633203],"color":"#a8bf62"}},{"type":"Feature","id":"10002030004","geometry":{"type":"Polygon","coordinates":[[[121.851141,24.630245],[121.848169,24.629916],[121.8452,24.633449],[121.840607,24.63367],[121.836305,24.63345],[121.833719,24.633203],[121.833816,24.628739],[121.839153,24.624994],[121.843791,24.620958],[121.845115,24.619217],[121.847414,24.619497],[121.847652,24.620194],[121.847973,24.620427],[121.849936,24.619626],[121.85014,24.619385],[121.851666,24.618593],[121.853932,24.617863],[121.854468,24.617443],[121.855431,24.616265],[121.856091,24.615103],[121.85644,24.614766],[121.857246,24.615082],[121.857756,24.617015],[121.857874,24.618514],[121.856617,24.620096],[121.856347,24.620849],[121.855416,24.621894],[121.85443,24.623748],[121.854305,24.624305],[121.853641,24.625278],[121.853326,24.626302],[121.852509,24.627773],[121.852125,24.627999],[121.851791,24.628857],[121.851876,24.629023],[121.851141,24.630245]]]},"properties":{"code":"10002030004","name":"存仁里","countyCode":"10002","countyName":"宜蘭縣","townCode":"10002030","townName":"蘇澳鎮","level":"village","unassigned":false,"note":"","label":[121.84587192041548,24.625430589003194],"bounds":[121.833719,24.614766,121.857874,24.63367],"focusBounds":[121.833719,24.614766,121.857874,24.63367],"color":"#68bec9"}},{"type":"Feature","id":"10002030005","geometry":{"type":"Polygon","coordinates":[[[121.857874,24.618514],[121.857756,24.617015],[121.857246,24.615082],[121.85644,24.614766],[121.856091,24.615103],[121.855431,24.616265],[121.854468,24.617443],[121.853932,24.617863],[121.851666,24.618593],[121.85014,24.619385],[121.849936,24.619626],[121.847973,24.620427],[121.847652,24.620194],[121.847414,24.619497],[121.845115,24.619217],[121.84432,24.618559],[121.843702,24.61906],[121.842158,24.618879],[121.842805,24.618195],[121.842992,24.618404],[121.843561,24.617947],[121.843785,24.618013],[121.844528,24.617291],[121.844803,24.616557],[121.845443,24.616334],[121.846506,24.615485],[121.846542,24.614899],[121.845979,24.614682],[121.844957,24.613982],[121.844217,24.612727],[121.843954,24.611844],[121.843676,24.609714],[121.843652,24.606235],[121.84377,24.605941],[121.843889,24.605647],[121.847202,24.603871],[121.847522,24.603832],[121.848524,24.6039],[121.850734,24.60484],[121.853693,24.604054],[121.855988,24.605768],[121.856511,24.606052],[121.857538,24.606306],[121.859323,24.606365],[121.86097,24.60676],[121.862011,24.606681],[121.86297,24.606382],[121.863892,24.606377],[121.864856,24.606811],[121.868866,24.6073],[121.872465,24.606474],[121.872742,24.605923],[121.87347,24.605547],[121.874294,24.6047],[121.874508,24.60426],[121.875157,24.604152],[121.876672,24.604647],[121.877377,24.604446],[121.878462,24.604381],[121.878996,24.604127],[121.879382,24.604393],[121.879462,24.604672],[121.880174,24.604842],[121.880593,24.603646],[121.881771,24.602428],[121.884133,24.600602],[121.885126,24.600002],[121.885982,24.599706],[121.886039,24.599813],[121.885787,24.599883],[121.885987,24.599945],[121.885901,24.600493],[121.884655,24.600637],[121.884206,24.601109],[121.883659,24.60138],[121.883743,24.602253],[121.88423,24.602747],[121.88451,24.602801],[121.884415,24.602957],[121.884977,24.603352],[121.88481,24.603494],[121.88514,24.603715],[121.884834,24.603776],[121.884567,24.603697],[121.884611,24.603611],[121.882833,24.603414],[121.882175,24.603513],[121.881514,24.60404],[121.880867,24.605559],[121.880216,24.605743],[121.878078,24.605135],[121.875321,24.605639],[121.874641,24.606103],[121.874184,24.607292],[121.874282,24.607905],[121.873795,24.608498],[121.873403,24.608731],[121.872926,24.608892],[121.871285,24.609017],[121.871005,24.609174],[121.870299,24.608717],[121.869523,24.60866],[121.868475,24.60892],[121.866131,24.609921],[121.862409,24.613592],[121.860946,24.614542],[121.85924,24.616194],[121.858766,24.616697],[121.858424,24.617823],[121.857874,24.618514]]]},"properties":{"code":"10002030005","name":"港邊里","countyCode":"10002","countyName":"宜蘭縣","townCode":"10002030","townName":"蘇澳鎮","level":"village","unassigned":false,"note":"","label":[121.85243106206687,24.610371585755964],"bounds":[121.842158,24.599706,121.886039,24.620427],"focusBounds":[121.842158,24.599706,121.886039,24.620427],"color":"#df9f6a"}},{"type":"Feature","id":"10002030007","geometry":{"type":"Polygon","coordinates":[[[121.842158,24.618879],[121.83433,24.619622],[121.834312,24.61818],[121.832064,24.617839],[121.83078,24.617627],[121.830117,24.616619],[121.829309,24.615744],[121.827589,24.61612],[121.826787,24.616051],[121.826981,24.615098],[121.826095,24.61437],[121.825856,24.614518],[121.826207,24.613088],[121.82744,24.611689],[121.832584,24.608144],[121.83385,24.607604],[121.83464,24.607562],[121.836294,24.608181],[121.83906,24.608495],[121.840342,24.608414],[121.84377,24.605941],[121.843652,24.606235],[121.843676,24.609714],[121.843954,24.611844],[121.844217,24.612727],[121.844957,24.613982],[121.845979,24.614682],[121.846542,24.614899],[121.846506,24.615485],[121.845443,24.616334],[121.844803,24.616557],[121.844528,24.617291],[121.843785,24.618013],[121.843561,24.617947],[121.842992,24.618404],[121.842805,24.618195],[121.842158,24.618879]]]},"properties":{"code":"10002030007","name":"隘丁里","countyCode":"10002","countyName":"宜蘭縣","townCode":"10002030","townName":"蘇澳鎮","level":"village","unassigned":false,"note":"","label":[121.83748993317649,24.613819418618085],"bounds":[121.825856,24.605941,121.846542,24.619622],"focusBounds":[121.825856,24.605941,121.846542,24.619622],"color":"#58b99d"}},{"type":"Feature","id":"10002030008","geometry":{"type":"Polygon","coordinates":[[[121.832064,24.617839],[121.831353,24.618273],[121.831635,24.618621],[121.831549,24.61933],[121.831604,24.619571],[121.832163,24.619516],[121.832586,24.621313],[121.832351,24.623338],[121.833398,24.62453],[121.831213,24.626139],[121.832374,24.627629],[121.832035,24.629224],[121.831965,24.631739],[121.831757,24.631436],[121.830519,24.63128],[121.829318,24.630473],[121.82877,24.630408],[121.828044,24.629837],[121.826779,24.628641],[121.825432,24.626888],[121.825351,24.626388],[121.824821,24.625781],[121.823952,24.625212],[121.823702,24.624729],[121.822285,24.623437],[121.82161,24.623134],[121.820501,24.621725],[121.818259,24.624295],[121.818274,24.624092],[121.816903,24.623988],[121.816926,24.623013],[121.815791,24.622412],[121.815142,24.622261],[121.814248,24.622269],[121.813422,24.622628],[121.81281,24.62272],[121.812357,24.622649],[121.811998,24.622284],[121.811494,24.621102],[121.811458,24.620297],[121.811257,24.620105],[121.811062,24.618698],[121.811153,24.618212],[121.811754,24.616985],[121.81141,24.616087],[121.811927,24.615686],[121.811926,24.615487],[121.811292,24.613879],[121.810584,24.613412],[121.810152,24.611936],[121.80991,24.611684],[121.808718,24.611134],[121.808636,24.610656],[121.808341,24.610231],[121.80852,24.609242],[121.808371,24.608518],[121.807672,24.608401],[121.806463,24.608645],[121.804978,24.60844],[121.803445,24.608434],[121.801973,24.608954],[121.801787,24.60883],[121.801437,24.608436],[121.801017,24.6066],[121.799891,24.60378],[121.799864,24.602346],[121.796899,24.602206],[121.796397,24.601938],[121.795859,24.601299],[121.797313,24.600508],[121.798251,24.59966],[121.798768,24.598182],[121.799274,24.597542],[121.800235,24.595356],[121.800694,24.595049],[121.802185,24.594691],[121.803834,24.593669],[121.806353,24.593136],[121.806821,24.592854],[121.807276,24.592041],[121.807498,24.589329],[121.808031,24.588732],[121.809481,24.588404],[121.809831,24.587882],[121.81097,24.587095],[121.812085,24.584687],[121.81254,24.582866],[121.813577,24.581824],[121.817468,24.583672],[121.819239,24.58498],[121.820614,24.586951],[121.821871,24.589325],[121.823044,24.59115],[121.818859,24.594359],[121.818827,24.59954],[121.818322,24.601996],[121.818225,24.605623],[121.818029,24.60621],[121.81988,24.607519],[121.821734,24.609193],[121.823438,24.61248],[121.825856,24.614518],[121.826095,24.61437],[121.826981,24.615098],[121.826787,24.616051],[121.827589,24.61612],[121.829309,24.615744],[121.830117,24.616619],[121.83078,24.617627],[121.832064,24.617839]]]},"properties":{"code":"10002030008","name":"新城里","countyCode":"10002","countyName":"宜蘭縣","townCode":"10002030","townName":"蘇澳鎮","level":"village","unassigned":false,"note":"","label":[121.81030598379044,24.600126650852218],"bounds":[121.795859,24.581824,121.833398,24.631739],"focusBounds":[121.795859,24.581824,121.833398,24.631739],"color":"#98b69b"}},{"type":"Feature","id":"10002030009","geometry":{"type":"Polygon","coordinates":[[[121.840168,24.595436],[121.836417,24.596157],[121.835279,24.59682],[121.834424,24.595192],[121.834748,24.595068],[121.833574,24.594412],[121.830878,24.589119],[121.828105,24.581086],[121.829391,24.582441],[121.831321,24.582753],[121.834083,24.583296],[121.83517,24.583831],[121.835715,24.587417],[121.838179,24.59048],[121.838194,24.592751],[121.840168,24.595436]]]},"properties":{"code":"10002030009","name":"聖湖里","countyCode":"10002","countyName":"宜蘭縣","townCode":"10002030","townName":"蘇澳鎮","level":"village","unassigned":false,"note":"","label":[121.83402828583026,24.589523956607543],"bounds":[121.828105,24.581086,121.840168,24.59682],"focusBounds":[121.828105,24.581086,121.840168,24.59682],"color":"#58b99d"}},{"type":"Feature","id":"10002030010","geometry":{"type":"Polygon","coordinates":[[[121.849796,24.595315],[121.849561,24.599485],[121.849376,24.599651],[121.848238,24.599427],[121.847489,24.598825],[121.847187,24.598104],[121.847222,24.596935],[121.846992,24.596881],[121.844647,24.597257],[121.844592,24.59711],[121.843843,24.596822],[121.843522,24.596872],[121.84299,24.597071],[121.84294,24.597559],[121.843184,24.598471],[121.842757,24.598454],[121.842141,24.59799],[121.841887,24.598476],[121.840983,24.596545],[121.840168,24.595436],[121.838194,24.592751],[121.838179,24.59048],[121.842289,24.589146],[121.84378,24.589587],[121.845725,24.589427],[121.84564,24.589919],[121.845784,24.590261],[121.846771,24.591382],[121.847485,24.591762],[121.848503,24.591749],[121.849077,24.591892],[121.849039,24.592237],[121.849489,24.592339],[121.849048,24.592592],[121.849013,24.595279],[121.849796,24.595315]]]},"properties":{"code":"10002030010","name":"蘇西里","countyCode":"10002","countyName":"宜蘭縣","townCode":"10002030","townName":"蘇澳鎮","level":"village","unassigned":false,"note":"","label":[121.84358159716695,24.59319547842827],"bounds":[121.838179,24.589146,121.849796,24.599651],"focusBounds":[121.838179,24.589146,121.849796,24.599651],"color":"#efb44f"}},{"type":"Feature","id":"10002030011","geometry":{"type":"Polygon","coordinates":[[[121.851792,24.597618],[121.852131,24.59836],[121.852884,24.599363],[121.853011,24.599813],[121.85346,24.600219],[121.854279,24.600512],[121.853483,24.600661],[121.854133,24.602024],[121.855742,24.602943],[121.855988,24.605768],[121.853693,24.604054],[121.850734,24.60484],[121.848524,24.6039],[121.847522,24.603832],[121.84471,24.602749],[121.843012,24.600649],[121.841887,24.598476],[121.842141,24.59799],[121.842757,24.598454],[121.843184,24.598471],[121.84294,24.597559],[121.84299,24.597071],[121.843522,24.596872],[121.843843,24.596822],[121.844592,24.59711],[121.844647,24.597257],[121.846992,24.596881],[121.847222,24.596935],[121.847187,24.598104],[121.847489,24.598825],[121.848238,24.599427],[121.849376,24.599651],[121.849561,24.599485],[121.849796,24.595315],[121.851471,24.595368],[121.851435,24.596083],[121.851935,24.596094],[121.851836,24.596676],[121.852418,24.597087],[121.852074,24.597676],[121.851792,24.597618]]]},"properties":{"code":"10002030011","name":"蘇北里","countyCode":"10002","countyName":"宜蘭縣","townCode":"10002030","townName":"蘇澳鎮","level":"village","unassigned":false,"note":"","label":[121.85086080100567,24.602000222471542],"bounds":[121.841887,24.595315,121.855988,24.605768],"focusBounds":[121.841887,24.595315,121.855988,24.605768],"color":"#78a7e3"}},{"type":"Feature","id":"10002030012","geometry":{"type":"Polygon","coordinates":[[[121.853929,24.595473],[121.85398,24.598408],[121.854376,24.599325],[121.855034,24.599666],[121.855028,24.600135],[121.853554,24.599526],[121.851792,24.597618],[121.852074,24.597676],[121.852418,24.597087],[121.851836,24.596676],[121.851935,24.596094],[121.851435,24.596083],[121.851471,24.595368],[121.853371,24.595449],[121.853929,24.595473]]]},"properties":{"code":"10002030012","name":"蘇南里","countyCode":"10002","countyName":"宜蘭縣","townCode":"10002030","townName":"蘇澳鎮","level":"village","unassigned":false,"note":"","label":[121.85310755939004,24.597649060961736],"bounds":[121.851435,24.595368,121.855034,24.600135],"focusBounds":[121.851435,24.595368,121.855034,24.600135],"color":"#dd8590"}},{"type":"Feature","id":"10002030013","geometry":{"type":"Polygon","coordinates":[[[121.885982,24.599706],[121.885126,24.600002],[121.884133,24.600602],[121.881771,24.602428],[121.880593,24.603646],[121.880174,24.604842],[121.879462,24.604672],[121.879382,24.604393],[121.878996,24.604127],[121.878462,24.604381],[121.877377,24.604446],[121.876672,24.604647],[121.875157,24.604152],[121.874508,24.60426],[121.874294,24.6047],[121.87347,24.605547],[121.872742,24.605923],[121.872465,24.606474],[121.868866,24.6073],[121.864856,24.606811],[121.863892,24.606377],[121.86297,24.606382],[121.862011,24.606681],[121.86097,24.60676],[121.859323,24.606365],[121.857538,24.606306],[121.856511,24.606052],[121.855988,24.605768],[121.855742,24.602943],[121.854133,24.602024],[121.853483,24.600661],[121.854279,24.600512],[121.85346,24.600219],[121.853011,24.599813],[121.852884,24.599363],[121.852131,24.59836],[121.851792,24.597618],[121.853554,24.599526],[121.855028,24.600135],[121.855034,24.599666],[121.854376,24.599325],[121.85398,24.598408],[121.853929,24.595473],[121.853896,24.595151],[121.855179,24.59522],[121.855502,24.594819],[121.855332,24.594301],[121.855675,24.593955],[121.856588,24.59395],[121.857097,24.594347],[121.857547,24.5943],[121.857532,24.593007],[121.858205,24.591249],[121.858505,24.590891],[121.858476,24.590511],[121.858702,24.589801],[121.859309,24.589284],[121.859559,24.588831],[121.862412,24.587337],[121.862633,24.587132],[121.86279,24.586523],[121.863987,24.58682],[121.868753,24.586756],[121.869783,24.58675],[121.869524,24.587803],[121.86967,24.588289],[121.870013,24.588382],[121.870503,24.590381],[121.870684,24.59038],[121.870186,24.58853],[121.870259,24.588076],[121.870964,24.586889],[121.872776,24.585886],[121.875138,24.586317],[121.879041,24.59115],[121.873458,24.596611],[121.876646,24.597916],[121.878232,24.598722],[121.878967,24.59879],[121.879269,24.599003],[121.879229,24.599122],[121.881456,24.598834],[121.881845,24.598631],[121.881637,24.598823],[121.882427,24.598759],[121.882138,24.598892],[121.882161,24.599169],[121.882298,24.599214],[121.883482,24.599394],[121.884013,24.59928],[121.884061,24.599486],[121.884503,24.599606],[121.885688,24.599433],[121.885982,24.599706]]]},"properties":{"code":"10002030013","name":"蘇東里","countyCode":"10002","countyName":"宜蘭縣","townCode":"10002030","townName":"蘇澳鎮","level":"village","unassigned":false,"note":"","label":[121.86526475555712,24.597808697994147],"bounds":[121.851792,24.585886,121.885982,24.6073],"focusBounds":[121.851792,24.585886,121.885982,24.6073],"color":"#a49ad4"}},{"type":"Feature","id":"10002030014","geometry":{"type":"Polygon","coordinates":[[[121.858476,24.590511],[121.858505,24.590891],[121.858205,24.591249],[121.857532,24.593007],[121.857547,24.5943],[121.857097,24.594347],[121.856588,24.59395],[121.855675,24.593955],[121.855332,24.594301],[121.855502,24.594819],[121.855179,24.59522],[121.853896,24.595151],[121.853929,24.595473],[121.853371,24.595449],[121.853385,24.594431],[121.852334,24.593087],[121.851696,24.591609],[121.851511,24.591177],[121.851835,24.590973],[121.852486,24.590973],[121.852551,24.59076],[121.851924,24.590419],[121.850676,24.589196],[121.850371,24.588021],[121.849907,24.58776],[121.849345,24.585589],[121.849768,24.582571],[121.850595,24.581674],[121.850683,24.579678],[121.853156,24.579628],[121.854005,24.580412],[121.854686,24.581626],[121.855378,24.581673],[121.857522,24.580629],[121.857937,24.580597],[121.859187,24.580838],[121.860588,24.581749],[121.861763,24.582089],[121.861492,24.582748],[121.861503,24.583386],[121.860672,24.58378],[121.860843,24.584372],[121.860657,24.584946],[121.862055,24.585657],[121.862174,24.585961],[121.862049,24.586588],[121.86189,24.586815],[121.861607,24.586878],[121.861346,24.586587],[121.861074,24.586515],[121.860749,24.586838],[121.86081,24.587634],[121.860515,24.587867],[121.860157,24.587903],[121.859839,24.588243],[121.859148,24.588281],[121.858998,24.588902],[121.858386,24.589673],[121.858476,24.590511]]]},"properties":{"code":"10002030014","name":"長安里","countyCode":"10002","countyName":"宜蘭縣","townCode":"10002030","townName":"蘇澳鎮","level":"village","unassigned":false,"note":"","label":[121.85506507900853,24.58623338544299],"bounds":[121.849345,24.579628,121.862174,24.595473],"focusBounds":[121.849345,24.579628,121.862174,24.595473],"color":"#a8bf62"}},{"type":"Feature","id":"10002030015","geometry":{"type":"Polygon","coordinates":[[[121.851696,24.591609],[121.852334,24.593087],[121.853385,24.594431],[121.853371,24.595449],[121.851471,24.595368],[121.849796,24.595315],[121.849013,24.595279],[121.849048,24.592592],[121.849489,24.592339],[121.849983,24.592315],[121.850908,24.591579],[121.851696,24.591609]]]},"properties":{"code":"10002030015","name":"永光里","countyCode":"10002","countyName":"宜蘭縣","townCode":"10002030","townName":"蘇澳鎮","level":"village","unassigned":false,"note":"","label":[121.85083528311273,24.59374220783446],"bounds":[121.849013,24.591579,121.853385,24.595449],"focusBounds":[121.849013,24.591579,121.853385,24.595449],"color":"#68bec9"}},{"type":"Feature","id":"10002030016","geometry":{"type":"Polygon","coordinates":[[[121.851696,24.591609],[121.850908,24.591579],[121.849983,24.592315],[121.849489,24.592339],[121.849039,24.592237],[121.849077,24.591892],[121.848503,24.591749],[121.847485,24.591762],[121.846771,24.591382],[121.845784,24.590261],[121.84564,24.589919],[121.845725,24.589427],[121.84378,24.589587],[121.842289,24.589146],[121.838179,24.59048],[121.835715,24.587417],[121.83517,24.583831],[121.834083,24.583296],[121.831321,24.582753],[121.831036,24.582132],[121.833502,24.581196],[121.834591,24.58105],[121.834672,24.581196],[121.835227,24.580314],[121.835184,24.579912],[121.836144,24.579687],[121.837224,24.579534],[121.837308,24.580046],[121.837034,24.581],[121.837595,24.58107],[121.839518,24.58106],[121.842475,24.580091],[121.845196,24.579746],[121.845678,24.579816],[121.846157,24.579631],[121.846075,24.573404],[121.846664,24.57156],[121.847616,24.570273],[121.848051,24.569428],[121.845636,24.567683],[121.845707,24.566218],[121.846384,24.565701],[121.853818,24.557601],[121.854802,24.556298],[121.857093,24.552646],[121.860203,24.546651],[121.861544,24.544485],[121.86243,24.543478],[121.865053,24.539788],[121.866377,24.53861],[121.867612,24.53836],[121.869137,24.537753],[121.870187,24.538235],[121.871449,24.538246],[121.872512,24.538728],[121.872311,24.541484],[121.872415,24.542006],[121.874107,24.545494],[121.87385,24.546069],[121.872893,24.547156],[121.872523,24.549648],[121.872075,24.551157],[121.871216,24.552374],[121.871265,24.553037],[121.870923,24.555213],[121.871037,24.555636],[121.870886,24.556351],[121.871026,24.556831],[121.870778,24.557887],[121.870888,24.558792],[121.870702,24.560304],[121.870864,24.562006],[121.87121,24.563431],[121.870941,24.564649],[121.870985,24.566027],[121.870727,24.566463],[121.870306,24.569236],[121.869223,24.571275],[121.869229,24.571915],[121.866294,24.571593],[121.866163,24.571689],[121.86586,24.572294],[121.865807,24.573604],[121.865428,24.574253],[121.866208,24.575481],[121.866566,24.576385],[121.866503,24.57659],[121.865863,24.577061],[121.864685,24.576321],[121.863748,24.576197],[121.862693,24.577235],[121.861881,24.577681],[121.860752,24.578755],[121.860548,24.579885],[121.860622,24.580709],[121.860757,24.581184],[121.860946,24.581395],[121.861653,24.581656],[121.861763,24.582089],[121.860588,24.581749],[121.859187,24.580838],[121.857937,24.580597],[121.857522,24.580629],[121.855378,24.581673],[121.854686,24.581626],[121.854005,24.580412],[121.853156,24.579628],[121.850683,24.579678],[121.850595,24.581674],[121.849768,24.582571],[121.849345,24.585589],[121.849907,24.58776],[121.850371,24.588021],[121.850676,24.589196],[121.851924,24.590419],[121.852551,24.59076],[121.852486,24.590973],[121.851835,24.590973],[121.851511,24.591177],[121.851696,24.591609]]]},"properties":{"code":"10002030016","name":"永春里","countyCode":"10002","countyName":"宜蘭縣","townCode":"10002030","townName":"蘇澳鎮","level":"village","unassigned":false,"note":"","label":[121.85781106636544,24.566942455014093],"bounds":[121.831036,24.537753,121.874107,24.592339],"focusBounds":[121.831036,24.537753,121.874107,24.592339],"color":"#df9f6a"}},{"type":"Feature","id":"10002030017","geometry":{"type":"Polygon","coordinates":[[[121.86243,24.543478],[121.861544,24.544485],[121.860203,24.546651],[121.857093,24.552646],[121.854802,24.556298],[121.853818,24.557601],[121.846384,24.565701],[121.845707,24.566218],[121.845636,24.567683],[121.848051,24.569428],[121.847616,24.570273],[121.846664,24.57156],[121.846075,24.573404],[121.846157,24.579631],[121.845678,24.579816],[121.845196,24.579746],[121.842475,24.580091],[121.839518,24.58106],[121.837595,24.58107],[121.837034,24.581],[121.837308,24.580046],[121.837224,24.579534],[121.836144,24.579687],[121.835184,24.579912],[121.835227,24.580314],[121.834672,24.581196],[121.834591,24.58105],[121.833502,24.581196],[121.831036,24.582132],[121.831321,24.582753],[121.829391,24.582441],[121.828105,24.581086],[121.828752,24.575906],[121.827993,24.57559],[121.824646,24.577701],[121.823321,24.57774],[121.822374,24.578151],[121.822299,24.577878],[121.821707,24.577592],[121.820671,24.577404],[121.820061,24.577444],[121.818415,24.577094],[121.817292,24.576265],[121.815265,24.575504],[121.812791,24.5753],[121.812982,24.574292],[121.81361,24.573512],[121.814352,24.573023],[121.814729,24.571806],[121.814636,24.569637],[121.814125,24.568321],[121.814024,24.567303],[121.814278,24.56637],[121.814309,24.564588],[121.81459,24.563859],[121.814497,24.563263],[121.814705,24.562858],[121.815167,24.562584],[121.815384,24.561799],[121.815112,24.561296],[121.81473,24.561071],[121.814608,24.559227],[121.814739,24.558934],[121.815565,24.558538],[121.816036,24.556934],[121.817722,24.554812],[121.818517,24.553462],[121.819737,24.552986],[121.820852,24.552749],[121.822252,24.552041],[121.823196,24.551339],[121.823739,24.551192],[121.824682,24.551188],[121.825569,24.551642],[121.826445,24.55241],[121.827372,24.552216],[121.828799,24.552181],[121.829497,24.552469],[121.831322,24.552625],[121.832014,24.552138],[121.832926,24.552052],[121.834068,24.551207],[121.834681,24.551094],[121.836187,24.548545],[121.836965,24.548047],[121.837311,24.547565],[121.839613,24.543231],[121.840044,24.543064],[121.84292,24.542862],[121.843742,24.54261],[121.844028,24.542339],[121.844469,24.540575],[121.845471,24.539258],[121.846314,24.538836],[121.847759,24.538474],[121.848464,24.537852],[121.84897,24.537837],[121.849546,24.53803],[121.849772,24.537948],[121.850975,24.539138],[121.857425,24.537697],[121.859802,24.539982],[121.86243,24.543478]]]},"properties":{"code":"10002030017","name":"永樂里","countyCode":"10002","countyName":"宜蘭縣","townCode":"10002030","townName":"蘇澳鎮","level":"village","unassigned":false,"note":"","label":[121.83300057839662,24.56443530017741],"bounds":[121.812791,24.537697,121.86243,24.582753],"focusBounds":[121.812791,24.537697,121.86243,24.582753],"color":"#98b69b"}},{"type":"Feature","id":"10002030018","geometry":{"type":"Polygon","coordinates":[[[121.868753,24.586756],[121.863987,24.58682],[121.86279,24.586523],[121.863607,24.585188],[121.864748,24.58415],[121.865052,24.582107],[121.86748,24.582419],[121.870107,24.582756],[121.868753,24.586756]]]},"properties":{"code":"10002030018","name":"南安里","countyCode":"10002","countyName":"宜蘭縣","townCode":"10002030","townName":"蘇澳鎮","level":"village","unassigned":false,"note":"","label":[121.86698240453966,24.58456753563674],"bounds":[121.86279,24.582107,121.870107,24.58682],"focusBounds":[121.86279,24.582107,121.870107,24.58682],"color":"#98b69b"}},{"type":"Feature","id":"10002030019","geometry":{"type":"Polygon","coordinates":[[[121.86279,24.586523],[121.862633,24.587132],[121.862412,24.587337],[121.859559,24.588831],[121.859309,24.589284],[121.858702,24.589801],[121.858476,24.590511],[121.858386,24.589673],[121.858998,24.588902],[121.859148,24.588281],[121.859839,24.588243],[121.860157,24.587903],[121.860515,24.587867],[121.86081,24.587634],[121.860749,24.586838],[121.861074,24.586515],[121.861346,24.586587],[121.861607,24.586878],[121.86189,24.586815],[121.862049,24.586588],[121.862174,24.585961],[121.862055,24.585657],[121.860657,24.584946],[121.860843,24.584372],[121.860672,24.58378],[121.861503,24.583386],[121.861492,24.582748],[121.861763,24.582089],[121.861653,24.581656],[121.860946,24.581395],[121.860757,24.581184],[121.860622,24.580709],[121.865269,24.581312],[121.865052,24.582107],[121.864748,24.58415],[121.863607,24.585188],[121.86279,24.586523]]]},"properties":{"code":"10002030019","name":"南正里","countyCode":"10002","countyName":"宜蘭縣","townCode":"10002030","townName":"蘇澳鎮","level":"village","unassigned":false,"note":"","label":[121.86312933966506,24.583344915322975],"bounds":[121.858386,24.580709,121.865269,24.590511],"focusBounds":[121.858386,24.580709,121.865269,24.590511],"color":"#58b99d"}},{"type":"Feature","id":"10002030020","geometry":{"type":"Polygon","coordinates":[[[121.86588,24.578394],[121.865269,24.581312],[121.860622,24.580709],[121.860548,24.579885],[121.860752,24.578755],[121.861881,24.577681],[121.862693,24.577235],[121.863748,24.576197],[121.864685,24.576321],[121.865863,24.577061],[121.86588,24.578394]]]},"properties":{"code":"10002030020","name":"南成里","countyCode":"10002","countyName":"宜蘭縣","townCode":"10002030","townName":"蘇澳鎮","level":"village","unassigned":false,"note":"","label":[121.86352796186056,24.579054536371153],"bounds":[121.860548,24.576197,121.86588,24.581312],"focusBounds":[121.860548,24.576197,121.86588,24.581312],"color":"#efb44f"}},{"type":"Feature","id":"10002030021","geometry":{"type":"Polygon","coordinates":[[[121.868376,24.579158],[121.868046,24.580037],[121.867894,24.580109],[121.86748,24.582419],[121.865052,24.582107],[121.865269,24.581312],[121.86588,24.578394],[121.866581,24.578643],[121.866557,24.578962],[121.867366,24.578632],[121.867827,24.579008],[121.868081,24.579035],[121.868184,24.578875],[121.868376,24.579158]]]},"properties":{"code":"10002030021","name":"南興里","countyCode":"10002","countyName":"宜蘭縣","townCode":"10002030","townName":"蘇澳鎮","level":"village","unassigned":false,"note":"","label":[121.86662753943098,24.58052667540329],"bounds":[121.865052,24.578394,121.868376,24.582419],"focusBounds":[121.865052,24.578394,121.868376,24.582419],"color":"#78a7e3"}},{"type":"Feature","id":"10002030022","geometry":{"type":"Polygon","coordinates":[[[121.868376,24.579158],[121.868505,24.57949],[121.868912,24.579855],[121.86949,24.579771],[121.869603,24.57992],[121.869953,24.579747],[121.87102,24.579674],[121.871353,24.580441],[121.870107,24.582756],[121.86748,24.582419],[121.867894,24.580109],[121.868046,24.580037],[121.868376,24.579158]]]},"properties":{"code":"10002030022","name":"南寧里","countyCode":"10002","countyName":"宜蘭縣","townCode":"10002030","townName":"蘇澳鎮","level":"village","unassigned":false,"note":"","label":[121.86917112842279,24.581226838534327],"bounds":[121.86748,24.579158,121.871353,24.582756],"focusBounds":[121.86748,24.579158,121.871353,24.582756],"color":"#dd8590"}},{"type":"Feature","id":"10002030023","geometry":{"type":"Polygon","coordinates":[[[121.869229,24.571915],[121.869238,24.572748],[121.869833,24.576082],[121.870159,24.576218],[121.871049,24.577439],[121.872077,24.578179],[121.872406,24.578191],[121.872428,24.578061],[121.872997,24.577915],[121.873381,24.577232],[121.875215,24.577574],[121.875235,24.577386],[121.875531,24.577159],[121.875971,24.577458],[121.875774,24.577593],[121.875563,24.577521],[121.875274,24.578284],[121.875358,24.578756],[121.875705,24.579007],[121.876485,24.579017],[121.876779,24.578848],[121.876685,24.578379],[121.876793,24.578189],[121.876936,24.578264],[121.876983,24.57808],[121.878431,24.578485],[121.87861,24.578692],[121.878962,24.578617],[121.879021,24.578967],[121.879381,24.579145],[121.879792,24.579663],[121.879511,24.579947],[121.878875,24.579886],[121.878289,24.580025],[121.877282,24.579758],[121.876966,24.580266],[121.877177,24.580503],[121.876944,24.580946],[121.8766,24.581031],[121.87661,24.581248],[121.876207,24.581384],[121.875266,24.581386],[121.875061,24.581584],[121.875097,24.582273],[121.875639,24.58261],[121.875695,24.582823],[121.875629,24.582919],[121.875351,24.582715],[121.874823,24.582783],[121.874167,24.583264],[121.873832,24.583832],[121.874061,24.584305],[121.874005,24.584565],[121.873699,24.584531],[121.872782,24.583667],[121.872454,24.583776],[121.872217,24.584166],[121.872447,24.58433],[121.872395,24.58484],[121.872652,24.585248],[121.873266,24.58528],[121.873878,24.585619],[121.874187,24.585616],[121.874482,24.58526],[121.874626,24.585313],[121.874729,24.585701],[121.87535,24.585859],[121.875916,24.586628],[121.876214,24.58649],[121.876346,24.58667],[121.876357,24.587405],[121.879242,24.591035],[121.879041,24.59115],[121.875138,24.586317],[121.872776,24.585886],[121.870964,24.586889],[121.870259,24.588076],[121.870186,24.58853],[121.870684,24.59038],[121.870503,24.590381],[121.870013,24.588382],[121.86967,24.588289],[121.869524,24.587803],[121.869783,24.58675],[121.868753,24.586756],[121.870107,24.582756],[121.871353,24.580441],[121.87102,24.579674],[121.869953,24.579747],[121.869603,24.57992],[121.86949,24.579771],[121.868912,24.579855],[121.868505,24.57949],[121.868376,24.579158],[121.868184,24.578875],[121.868081,24.579035],[121.867827,24.579008],[121.867366,24.578632],[121.866557,24.578962],[121.866581,24.578643],[121.86588,24.578394],[121.865863,24.577061],[121.866503,24.57659],[121.866566,24.576385],[121.866208,24.575481],[121.865428,24.574253],[121.865807,24.573604],[121.86586,24.572294],[121.866163,24.571689],[121.866294,24.571593],[121.869229,24.571915]]]},"properties":{"code":"10002030023","name":"南建里","countyCode":"10002","countyName":"宜蘭縣","townCode":"10002030","townName":"蘇澳鎮","level":"village","unassigned":false,"note":"","label":[121.87302698611269,24.581532349982695],"bounds":[121.865428,24.571593,121.879792,24.59115],"focusBounds":[121.865428,24.571593,121.879792,24.59115],"color":"#a8bf62"}},{"type":"Feature","id":"10002030024","geometry":{"type":"Polygon","coordinates":[[[121.872512,24.538728],[121.871449,24.538246],[121.870187,24.538235],[121.869137,24.537753],[121.867612,24.53836],[121.866377,24.53861],[121.865053,24.539788],[121.86243,24.543478],[121.859802,24.539982],[121.857425,24.537697],[121.850975,24.539138],[121.849772,24.537948],[121.849722,24.537667],[121.848982,24.537031],[121.848118,24.533795],[121.847416,24.532343],[121.846856,24.531621],[121.846368,24.531261],[121.845168,24.531096],[121.843741,24.530607],[121.841341,24.530506],[121.840648,24.530288],[121.839408,24.529006],[121.838001,24.52787],[121.837462,24.526026],[121.835488,24.52267],[121.833223,24.52043],[121.829713,24.516155],[121.829572,24.515474],[121.829097,24.514624],[121.828983,24.513894],[121.829124,24.511899],[121.829011,24.510467],[121.829446,24.508482],[121.829461,24.507732],[121.828476,24.506447],[121.827259,24.503065],[121.825649,24.500503],[121.825383,24.499279],[121.825853,24.498098],[121.82593,24.496875],[121.824646,24.495527],[121.823544,24.493374],[121.831466,24.48503],[121.833701,24.484138],[121.835081,24.482959],[121.837319,24.482458],[121.838803,24.480887],[121.840186,24.480293],[121.84354,24.476677],[121.843921,24.476861],[121.846118,24.476934],[121.848586,24.479001],[121.849035,24.479196],[121.849721,24.47937],[121.851594,24.4795],[121.853366,24.480157],[121.85545,24.480585],[121.856488,24.480107],[121.857296,24.47945],[121.858653,24.478761],[121.85969,24.478557],[121.861423,24.47966],[121.862133,24.480394],[121.862418,24.481196],[121.861464,24.482648],[121.860225,24.483641],[121.859238,24.48388],[121.858581,24.483853],[121.856694,24.483372],[121.85498,24.483606],[121.852539,24.483652],[121.851659,24.483895],[121.851167,24.484275],[121.850727,24.484891],[121.850493,24.485742],[121.850501,24.486184],[121.850914,24.487291],[121.850413,24.487803],[121.850205,24.490069],[121.850291,24.490568],[121.849655,24.492202],[121.849757,24.492637],[121.85032,24.492858],[121.850805,24.493385],[121.851028,24.494118],[121.850503,24.494673],[121.850795,24.495155],[121.850736,24.495343],[121.850414,24.495166],[121.850214,24.494719],[121.849209,24.495207],[121.849005,24.495606],[121.848527,24.49583],[121.848046,24.495809],[121.847757,24.496651],[121.847991,24.497094],[121.84767,24.497413],[121.847222,24.497263],[121.846437,24.496581],[121.845024,24.497264],[121.843537,24.497467],[121.842373,24.497389],[121.841298,24.497578],[121.840235,24.498035],[121.839019,24.499607],[121.838581,24.500759],[121.838354,24.503277],[121.838241,24.506536],[121.83834,24.508465],[121.838924,24.512311],[121.83993,24.516527],[121.840293,24.517393],[121.841913,24.520247],[121.843204,24.521182],[121.84497,24.521682],[121.849652,24.522063],[121.85113,24.522826],[121.856264,24.523937],[121.857267,24.524838],[121.859134,24.525715],[121.860926,24.527174],[121.86567,24.527361],[121.866861,24.527953],[121.867536,24.527837],[121.867811,24.527563],[121.868575,24.527653],[121.869264,24.528109],[121.869721,24.52809],[121.869829,24.528253],[121.869498,24.529061],[121.869549,24.529338],[121.870126,24.530007],[121.872574,24.531097],[121.87248,24.532815],[121.87285,24.533318],[121.873115,24.533219],[121.873045,24.533409],[121.873504,24.534243],[121.87369,24.534156],[121.873726,24.53425],[121.873423,24.535965],[121.87362,24.536048],[121.873256,24.536638],[121.872918,24.538144],[121.872512,24.538728]]]},"properties":{"code":"10002030024","name":"東澳里","countyCode":"10002","countyName":"宜蘭縣","townCode":"10002030","townName":"蘇澳鎮","level":"village","unassigned":false,"note":"","label":[121.84258248010352,24.488887341141346],"bounds":[121.823544,24.476677,121.873726,24.543478],"focusBounds":[121.823544,24.476677,121.873726,24.543478],"color":"#a8bf62"}},{"type":"Feature","id":"10002030025","geometry":{"type":"Polygon","coordinates":[[[121.788454,24.460065],[121.790549,24.459312],[121.791654,24.459077],[121.792632,24.458632],[121.793214,24.458151],[121.794126,24.457153],[121.794937,24.456613],[121.795412,24.45577],[121.795534,24.455272],[121.796504,24.453547],[121.796681,24.451807],[121.798527,24.449925],[121.8014,24.448687],[121.801964,24.448703],[121.8026,24.450266],[121.802583,24.45084],[121.803628,24.451044],[121.804257,24.451442],[121.806763,24.454888],[121.806768,24.455633],[121.809294,24.462441],[121.808526,24.463712],[121.808823,24.465838],[121.811107,24.468414],[121.812371,24.468752],[121.815351,24.470827],[121.816869,24.473529],[121.817195,24.474406],[121.818307,24.476213],[121.817344,24.475706],[121.819276,24.477454],[121.82017,24.479805],[121.820155,24.480274],[121.819637,24.479101],[121.818474,24.478565],[121.818295,24.478204],[121.818202,24.477853],[121.817458,24.477447],[121.816897,24.476932],[121.816755,24.476424],[121.816947,24.475729],[121.815687,24.474894],[121.814782,24.473689],[121.814725,24.472679],[121.814261,24.471939],[121.813103,24.471131],[121.811971,24.470681],[121.810773,24.469262],[121.810372,24.469325],[121.809854,24.469948],[121.809387,24.47022],[121.808941,24.470271],[121.808204,24.470046],[121.807625,24.46963],[121.807458,24.468576],[121.807052,24.467936],[121.804914,24.46637],[121.803323,24.465415],[121.79928,24.464088],[121.79076,24.461775],[121.78921,24.460914],[121.788454,24.460065]]]},"properties":{"code":"10002030025","name":"南強里","countyCode":"10002","countyName":"宜蘭縣","townCode":"10002030","townName":"蘇澳鎮","level":"village","unassigned":false,"note":"","label":[121.8012026550764,24.458187067272416],"bounds":[121.788454,24.448687,121.82017,24.480274],"focusBounds":[121.788454,24.448687,121.82017,24.480274],"color":"#68bec9"}},{"type":"Feature","id":"10002030026","geometry":{"type":"Polygon","coordinates":[[[121.84354,24.476677],[121.840186,24.480293],[121.838803,24.480887],[121.837319,24.482458],[121.835081,24.482959],[121.833701,24.484138],[121.831466,24.48503],[121.823544,24.493374],[121.823008,24.492653],[121.819206,24.491754],[121.819819,24.489684],[121.819528,24.488206],[121.819681,24.486406],[121.820074,24.485188],[121.820264,24.483518],[121.82004,24.482481],[121.820155,24.480274],[121.82017,24.479805],[121.819276,24.477454],[121.817344,24.475706],[121.818307,24.476213],[121.817195,24.474406],[121.816869,24.473529],[121.815351,24.470827],[121.812371,24.468752],[121.811107,24.468414],[121.808823,24.465838],[121.808526,24.463712],[121.809294,24.462441],[121.806768,24.455633],[121.806763,24.454888],[121.804257,24.451442],[121.803628,24.451044],[121.802583,24.45084],[121.8026,24.450266],[121.801964,24.448703],[121.8014,24.448687],[121.798527,24.449925],[121.796681,24.451807],[121.796504,24.453547],[121.795534,24.455272],[121.795412,24.45577],[121.794937,24.456613],[121.794126,24.457153],[121.793214,24.458151],[121.792632,24.458632],[121.791654,24.459077],[121.790549,24.459312],[121.788454,24.460065],[121.788428,24.460029],[121.787461,24.458962],[121.787109,24.458917],[121.785789,24.459263],[121.78408,24.459204],[121.782654,24.458748],[121.781209,24.457903],[121.780684,24.45741],[121.779175,24.45541],[121.779335,24.454853],[121.780007,24.453857],[121.781775,24.452192],[121.783314,24.449023],[121.78394,24.448183],[121.78452,24.447878],[121.785375,24.446731],[121.785871,24.444842],[121.786809,24.443145],[121.787033,24.442304],[121.787353,24.441779],[121.78786,24.441203],[121.789825,24.440325],[121.790748,24.439558],[121.791509,24.436938],[121.792752,24.436328],[121.793436,24.435698],[121.79512,24.433012],[121.800484,24.431364],[121.801864,24.434337],[121.803395,24.436161],[121.807844,24.439745],[121.810836,24.441447],[121.812182,24.442687],[121.812357,24.443527],[121.814784,24.446519],[121.815601,24.447893],[121.816255,24.446613],[121.816554,24.446739],[121.817149,24.448333],[121.817169,24.450211],[121.818052,24.451509],[121.820184,24.453798],[121.821092,24.454071],[121.821807,24.455647],[121.821772,24.456382],[121.821333,24.457077],[121.820374,24.458029],[121.820029,24.458726],[121.819939,24.45948],[121.820227,24.459677],[121.820378,24.461421],[121.820861,24.462089],[121.821308,24.462421],[121.82274,24.462889],[121.823563,24.463337],[121.824336,24.464072],[121.824671,24.464611],[121.826868,24.4652],[121.827616,24.465808],[121.829886,24.466672],[121.831771,24.467089],[121.832657,24.467423],[121.833342,24.467951],[121.834237,24.469625],[121.836169,24.47074],[121.836892,24.471463],[121.83698,24.471834],[121.838308,24.472258],[121.838274,24.472626],[121.838511,24.473001],[121.839882,24.474035],[121.841226,24.475583],[121.84354,24.476677]]]},"properties":{"code":"10002030026","name":"朝陽里","countyCode":"10002","countyName":"宜蘭縣","townCode":"10002030","townName":"蘇澳鎮","level":"village","unassigned":false,"note":"","label":[121.81378790882346,24.456055576484832],"bounds":[121.779175,24.431364,121.84354,24.493374],"focusBounds":[121.779175,24.431364,121.84354,24.493374],"color":"#df9f6a"}},{"type":"Feature","id":"10002030027","geometry":{"type":"Polygon","coordinates":[[[121.84377,24.605941],[121.840342,24.608414],[121.83906,24.608495],[121.836294,24.608181],[121.83464,24.607562],[121.83385,24.607604],[121.832584,24.608144],[121.82744,24.611689],[121.826207,24.613088],[121.825856,24.614518],[121.823438,24.61248],[121.821734,24.609193],[121.81988,24.607519],[121.818029,24.60621],[121.818225,24.605623],[121.818322,24.601996],[121.818827,24.59954],[121.818859,24.594359],[121.823044,24.59115],[121.821871,24.589325],[121.820614,24.586951],[121.819239,24.58498],[121.817468,24.583672],[121.813577,24.581824],[121.81492,24.58034],[121.815187,24.579259],[121.814777,24.578291],[121.81407,24.577366],[121.813222,24.576673],[121.812964,24.576285],[121.812791,24.5753],[121.815265,24.575504],[121.817292,24.576265],[121.818415,24.577094],[121.820061,24.577444],[121.820671,24.577404],[121.821707,24.577592],[121.822299,24.577878],[121.822374,24.578151],[121.823321,24.57774],[121.824646,24.577701],[121.827993,24.57559],[121.828752,24.575906],[121.828105,24.581086],[121.830878,24.589119],[121.833574,24.594412],[121.834748,24.595068],[121.834424,24.595192],[121.835279,24.59682],[121.836417,24.596157],[121.840168,24.595436],[121.840983,24.596545],[121.841887,24.598476],[121.843012,24.600649],[121.84471,24.602749],[121.847522,24.603832],[121.847202,24.603871],[121.843889,24.605647],[121.84377,24.605941]]]},"properties":{"code":"10002030027","name":"聖愛里","countyCode":"10002","countyName":"宜蘭縣","townCode":"10002030","townName":"蘇澳鎮","level":"village","unassigned":false,"note":"","label":[121.8276249771536,24.600730498273784],"bounds":[121.812791,24.5753,121.847522,24.614518],"focusBounds":[121.812791,24.5753,121.847522,24.614518],"color":"#c38cb8"}}]}
