{"type":"FeatureCollection","features":[{"type":"Feature","id":"10007260001","geometry":{"type":"Polygon","coordinates":[[[120.48853,23.853825],[120.488052,23.854189],[120.484639,23.852335],[120.482977,23.851008],[120.482434,23.850317],[120.482445,23.849867],[120.480818,23.849992],[120.480105,23.849828],[120.479789,23.849398],[120.478501,23.849494],[120.475391,23.850607],[120.475703,23.848245],[120.475535,23.847614],[120.47381,23.846021],[120.471919,23.843384],[120.471088,23.841955],[120.470831,23.840352],[120.47032,23.83983],[120.469851,23.837088],[120.469187,23.835689],[120.468822,23.834086],[120.468831,23.833785],[120.469504,23.832907],[120.470887,23.831017],[120.470935,23.831722],[120.471317,23.832516],[120.471966,23.834777],[120.474042,23.834693],[120.474126,23.834257],[120.489187,23.833778],[120.489506,23.833752],[120.489573,23.833374],[120.493688,23.833648],[120.493939,23.834579],[120.494406,23.838124],[120.495118,23.841162],[120.49538,23.843255],[120.495165,23.845149],[120.495095,23.845316],[120.490266,23.845596],[120.490222,23.847278],[120.489435,23.851513],[120.489102,23.852764],[120.48853,23.853825]]]},"properties":{"code":"10007260001","name":"溪厝村","countyCode":"10007","countyName":"彰化縣","townCode":"10007260","townName":"溪州鄉","level":"village","unassigned":false,"note":"","label":[120.48306188829885,23.841765422872825],"bounds":[120.468822,23.831017,120.49538,23.854189],"focusBounds":[120.468822,23.831017,120.49538,23.854189],"color":"#efb44f"}},{"type":"Feature","id":"10007260002","geometry":{"type":"Polygon","coordinates":[[[120.510653,23.86579],[120.510132,23.865432],[120.509242,23.865874],[120.508353,23.865502],[120.503808,23.861563],[120.503393,23.860882],[120.503205,23.860212],[120.503886,23.858153],[120.504611,23.856176],[120.504749,23.852858],[120.506345,23.850605],[120.506938,23.850438],[120.507009,23.849945],[120.509142,23.849037],[120.510396,23.848026],[120.509999,23.847243],[120.51067,23.846438],[120.512208,23.843695],[120.512814,23.842995],[120.514815,23.842218],[120.515659,23.84278],[120.517352,23.842829],[120.518104,23.843395],[120.518477,23.844262],[120.518661,23.846166],[120.519201,23.846985],[120.519343,23.848284],[120.518765,23.849288],[120.51839,23.85094],[120.517559,23.851576],[120.516558,23.85304],[120.51744,23.853378],[120.517834,23.854353],[120.518186,23.854648],[120.523043,23.857414],[120.523345,23.858131],[120.522677,23.858772],[120.521863,23.860006],[120.520421,23.862119],[120.518473,23.864232],[120.516317,23.864565],[120.515023,23.863927],[120.512445,23.863777],[120.511521,23.864525],[120.511268,23.864816],[120.511077,23.865427],[120.510653,23.86579]]]},"properties":{"code":"10007260002","name":"舊眉村","countyCode":"10007","countyName":"彰化縣","townCode":"10007260","townName":"溪州鄉","level":"village","unassigned":false,"note":"","label":[120.51128974292314,23.856892721549944],"bounds":[120.503205,23.842218,120.523345,23.865874],"focusBounds":[120.503205,23.842218,120.523345,23.865874],"color":"#78a7e3"}},{"type":"Feature","id":"10007260003","geometry":{"type":"Polygon","coordinates":[[[120.543239,23.831094],[120.542439,23.829049],[120.542427,23.828259],[120.537993,23.83185],[120.537884,23.830689],[120.537546,23.830105],[120.538085,23.829315],[120.538262,23.828483],[120.53825,23.828174],[120.537916,23.827772],[120.535695,23.826342],[120.533676,23.825725],[120.532803,23.824652],[120.532391,23.823312],[120.528132,23.823582],[120.528264,23.820599],[120.528784,23.81014],[120.527891,23.799061],[120.529109,23.799191],[120.534456,23.801135],[120.536337,23.801323],[120.536484,23.801398],[120.537552,23.804245],[120.538261,23.807593],[120.538258,23.808527],[120.538997,23.810075],[120.539258,23.811373],[120.539143,23.81346],[120.539238,23.817607],[120.539137,23.817975],[120.538554,23.818305],[120.538138,23.818859],[120.538428,23.819786],[120.538348,23.820668],[120.538599,23.821338],[120.538685,23.822253],[120.539258,23.822934],[120.541702,23.823978],[120.54182,23.825498],[120.542149,23.8266],[120.542122,23.827681],[120.543334,23.827581],[120.546872,23.826611],[120.548841,23.829561],[120.547162,23.83115],[120.54509,23.82984],[120.543239,23.831094]]]},"properties":{"code":"10007260003","name":"柑園村","countyCode":"10007","countyName":"彰化縣","townCode":"10007260","townName":"溪州鄉","level":"village","unassigned":false,"note":"","label":[120.53383906428039,23.8157236041152],"bounds":[120.527891,23.799061,120.548841,23.83185],"focusBounds":[120.527891,23.799061,120.548841,23.83185],"color":"#a49ad4"}},{"type":"Feature","id":"10007260004","geometry":{"type":"Polygon","coordinates":[[[120.469504,23.832907],[120.469386,23.832396],[120.468552,23.832141],[120.468623,23.831828],[120.468463,23.831323],[120.467589,23.830538],[120.467452,23.829602],[120.467707,23.828965],[120.466834,23.828122],[120.466245,23.827044],[120.465556,23.826653],[120.46422,23.825368],[120.463725,23.826171],[120.463112,23.827761],[120.460995,23.83213],[120.459652,23.833655],[120.45884,23.83511],[120.457361,23.833388],[120.454926,23.831174],[120.454797,23.830919],[120.455316,23.823246],[120.455338,23.816663],[120.456499,23.816506],[120.457445,23.816138],[120.457904,23.816104],[120.458124,23.816124],[120.461297,23.81477],[120.462671,23.814176],[120.463946,23.815432],[120.467693,23.820346],[120.468336,23.820673],[120.472573,23.821499],[120.473732,23.822297],[120.476302,23.823635],[120.476877,23.824101],[120.475236,23.825432],[120.474584,23.826388],[120.474238,23.82743],[120.474525,23.832007],[120.474126,23.834257],[120.474042,23.834693],[120.471966,23.834777],[120.471317,23.832516],[120.470935,23.831722],[120.470887,23.831017],[120.469504,23.832907]]]},"properties":{"code":"10007260004","name":"水尾村","countyCode":"10007","countyName":"彰化縣","townCode":"10007260","townName":"溪州鄉","level":"village","unassigned":false,"note":"","label":[120.46114216822468,23.82082186367379],"bounds":[120.454797,23.814176,120.476877,23.83511],"focusBounds":[120.454797,23.814176,120.476877,23.83511],"color":"#a49ad4"}},{"type":"Feature","id":"10007260005","geometry":{"type":"Polygon","coordinates":[[[120.482434,23.850317],[120.480576,23.851271],[120.48082,23.853823],[120.480601,23.855824],[120.480761,23.856252],[120.482168,23.85802],[120.48211,23.858418],[120.481359,23.858582],[120.481317,23.858172],[120.480275,23.858362],[120.47922,23.857963],[120.477944,23.857714],[120.475371,23.857616],[120.475233,23.857528],[120.475334,23.857146],[120.475139,23.856208],[120.475404,23.85503],[120.47558,23.852811],[120.475271,23.852713],[120.475391,23.850607],[120.478501,23.849494],[120.479789,23.849398],[120.480105,23.849828],[120.480818,23.849992],[120.482445,23.849867],[120.482434,23.850317]]]},"properties":{"code":"10007260005","name":"坑厝村","countyCode":"10007","countyName":"彰化縣","townCode":"10007260","townName":"溪州鄉","level":"village","unassigned":false,"note":"","label":[120.47806126216132,23.85390288890879],"bounds":[120.475139,23.849398,120.482445,23.858582],"focusBounds":[120.475139,23.849398,120.482445,23.858582],"color":"#a8bf62"}},{"type":"Feature","id":"10007260006","geometry":{"type":"Polygon","coordinates":[[[120.535322,23.841537],[120.532116,23.843208],[120.530669,23.845446],[120.5289,23.846725],[120.528529,23.847579],[120.526933,23.849736],[120.523144,23.853622],[120.521844,23.854453],[120.523043,23.857414],[120.518186,23.854648],[120.517834,23.854353],[120.51744,23.853378],[120.516558,23.85304],[120.517559,23.851576],[120.51839,23.85094],[120.518765,23.849288],[120.519343,23.848284],[120.519201,23.846985],[120.518661,23.846166],[120.518477,23.844262],[120.518104,23.843395],[120.517352,23.842829],[120.515659,23.84278],[120.514815,23.842218],[120.512814,23.842995],[120.512208,23.843695],[120.51165,23.842934],[120.511593,23.842288],[120.512339,23.840633],[120.512335,23.839895],[120.511935,23.838524],[120.510817,23.836999],[120.509226,23.835885],[120.508841,23.833336],[120.507273,23.830761],[120.507742,23.829671],[120.508065,23.829297],[120.510232,23.829147],[120.516758,23.825404],[120.516514,23.824664],[120.514402,23.821352],[120.514395,23.821194],[120.528264,23.820599],[120.528132,23.823582],[120.529343,23.82579],[120.52927,23.827184],[120.528995,23.828221],[120.529059,23.829192],[120.528529,23.829961],[120.528744,23.830286],[120.529028,23.830386],[120.530016,23.830464],[120.530231,23.831152],[120.529317,23.832808],[120.529166,23.833417],[120.529383,23.835757],[120.530774,23.838105],[120.531126,23.837975],[120.533102,23.83631],[120.533616,23.836224],[120.5343,23.836576],[120.535332,23.838084],[120.535465,23.838622],[120.535337,23.839854],[120.535683,23.840639],[120.535322,23.841537]]]},"properties":{"code":"10007260006","name":"圳寮村","countyCode":"10007","countyName":"彰化縣","townCode":"10007260","townName":"溪州鄉","level":"village","unassigned":false,"note":"","label":[120.5204681060096,23.834566505624043],"bounds":[120.507273,23.820599,120.535683,23.857414],"focusBounds":[120.507273,23.820599,120.535683,23.857414],"color":"#68bec9"}},{"type":"Feature","id":"10007260007","geometry":{"type":"Polygon","coordinates":[[[120.528264,23.820599],[120.514395,23.821194],[120.514321,23.816805],[120.516554,23.816744],[120.516178,23.81309],[120.517273,23.813021],[120.517372,23.810062],[120.514828,23.81061],[120.513362,23.81071],[120.51292,23.810413],[120.512007,23.809336],[120.51213,23.804894],[120.511992,23.801108],[120.512162,23.800039],[120.513373,23.799983],[120.517614,23.799798],[120.521225,23.799779],[120.526252,23.799215],[120.527891,23.799061],[120.528784,23.81014],[120.528264,23.820599]]]},"properties":{"code":"10007260007","name":"潮洋村","countyCode":"10007","countyName":"彰化縣","townCode":"10007260","townName":"溪州鄉","level":"village","unassigned":false,"note":"","label":[120.52290774824584,23.808770124296263],"bounds":[120.511992,23.799061,120.528784,23.821194],"focusBounds":[120.511992,23.799061,120.528784,23.821194],"color":"#df9f6a"}},{"type":"Feature","id":"10007260008","geometry":{"type":"Polygon","coordinates":[[[120.486753,23.867703],[120.48628,23.867839],[120.485993,23.867644],[120.485573,23.863197],[120.486061,23.861208],[120.485708,23.85944],[120.48599,23.858599],[120.486507,23.857848],[120.486182,23.856396],[120.487666,23.855275],[120.488029,23.85465],[120.488052,23.854189],[120.48853,23.853825],[120.49535,23.852798],[120.495754,23.85481],[120.495559,23.854905],[120.495732,23.855091],[120.495718,23.856882],[120.496205,23.86168],[120.497066,23.863379],[120.49851,23.867279],[120.498175,23.867132],[120.497325,23.867209],[120.496456,23.867052],[120.494414,23.866396],[120.492217,23.866349],[120.486753,23.867703]]]},"properties":{"code":"10007260008","name":"瓦厝村","countyCode":"10007","countyName":"彰化縣","townCode":"10007260","townName":"溪州鄉","level":"village","unassigned":false,"note":"","label":[120.49121615564596,23.860748269515124],"bounds":[120.485573,23.852798,120.49851,23.867839],"focusBounds":[120.485573,23.852798,120.49851,23.867839],"color":"#98b69b"}},{"type":"Feature","id":"10007260009","geometry":{"type":"Polygon","coordinates":[[[120.538546,23.852145],[120.535951,23.85243],[120.531111,23.852465],[120.535462,23.841481],[120.535322,23.841537],[120.535683,23.840639],[120.535337,23.839854],[120.535465,23.838622],[120.535332,23.838084],[120.5343,23.836576],[120.533616,23.836224],[120.533102,23.83631],[120.531126,23.837975],[120.530774,23.838105],[120.529383,23.835757],[120.529166,23.833417],[120.529317,23.832808],[120.530231,23.831152],[120.530016,23.830464],[120.529028,23.830386],[120.528744,23.830286],[120.528529,23.829961],[120.529059,23.829192],[120.528995,23.828221],[120.52927,23.827184],[120.529343,23.82579],[120.528132,23.823582],[120.532391,23.823312],[120.532803,23.824652],[120.533676,23.825725],[120.535695,23.826342],[120.537916,23.827772],[120.53825,23.828174],[120.538262,23.828483],[120.538085,23.829315],[120.537546,23.830105],[120.537884,23.830689],[120.537993,23.83185],[120.542427,23.828259],[120.542439,23.829049],[120.543239,23.831094],[120.543893,23.832696],[120.544534,23.833306],[120.544658,23.834164],[120.546266,23.835235],[120.548267,23.836871],[120.548789,23.837116],[120.549344,23.837066],[120.5517,23.836688],[120.553339,23.83626],[120.554241,23.836263],[120.559823,23.840595],[120.559855,23.840961],[120.557582,23.842338],[120.556872,23.843472],[120.555722,23.844177],[120.555274,23.843879],[120.553443,23.845034],[120.552485,23.844995],[120.552228,23.845212],[120.5518,23.844775],[120.551318,23.845222],[120.549387,23.846042],[120.54888,23.846157],[120.548045,23.846076],[120.547376,23.846719],[120.543549,23.848517],[120.54215,23.850898],[120.538546,23.852145]]]},"properties":{"code":"10007260009","name":"西畔村","countyCode":"10007","countyName":"彰化縣","townCode":"10007260","townName":"溪州鄉","level":"village","unassigned":false,"note":"","label":[120.54261051833333,23.841243241252233],"bounds":[120.528132,23.823312,120.559855,23.852465],"focusBounds":[120.528132,23.823312,120.559855,23.852465],"color":"#98b69b"}},{"type":"Feature","id":"10007260010","geometry":{"type":"Polygon","coordinates":[[[120.514402,23.821352],[120.512626,23.82209],[120.510935,23.817792],[120.509718,23.812692],[120.508871,23.813112],[120.508289,23.813678],[120.50685,23.811266],[120.504338,23.807866],[120.500962,23.804564],[120.499771,23.80309],[120.501174,23.802555],[120.507512,23.800741],[120.510001,23.8002],[120.512162,23.800039],[120.511992,23.801108],[120.51213,23.804894],[120.512007,23.809336],[120.51292,23.810413],[120.513362,23.81071],[120.514828,23.81061],[120.517372,23.810062],[120.517273,23.813021],[120.516178,23.81309],[120.516554,23.816744],[120.514321,23.816805],[120.514395,23.821194],[120.514402,23.821352]]]},"properties":{"code":"10007260010","name":"張厝村","countyCode":"10007","countyName":"彰化縣","townCode":"10007260","townName":"溪州鄉","level":"village","unassigned":false,"note":"","label":[120.508087091621,23.806177872134],"bounds":[120.499771,23.800039,120.517372,23.82209],"focusBounds":[120.499771,23.800039,120.517372,23.82209],"color":"#58b99d"}},{"type":"Feature","id":"10007260011","geometry":{"type":"Polygon","coordinates":[[[120.49535,23.852798],[120.48853,23.853825],[120.489102,23.852764],[120.489435,23.851513],[120.490222,23.847278],[120.490266,23.845596],[120.495095,23.845316],[120.495165,23.845149],[120.49538,23.843255],[120.495118,23.841162],[120.494406,23.838124],[120.493939,23.834579],[120.496211,23.834434],[120.497831,23.83402],[120.506413,23.830946],[120.507273,23.830761],[120.508841,23.833336],[120.509226,23.835885],[120.510817,23.836999],[120.505574,23.841279],[120.503461,23.842254],[120.50292,23.842898],[120.50283,23.84318],[120.503227,23.844542],[120.503137,23.844898],[120.502309,23.845824],[120.502201,23.849105],[120.498374,23.85104],[120.497402,23.851708],[120.496675,23.852542],[120.49535,23.852798]]]},"properties":{"code":"10007260011","name":"溪州村","countyCode":"10007","countyName":"彰化縣","townCode":"10007260","townName":"溪州鄉","level":"village","unassigned":false,"note":"","label":[120.50012728268852,23.83863642910162],"bounds":[120.48853,23.830761,120.510817,23.853825],"focusBounds":[120.48853,23.830761,120.510817,23.853825],"color":"#78a7e3"}},{"type":"Feature","id":"10007260012","geometry":{"type":"Polygon","coordinates":[[[120.567047,23.838689],[120.56277,23.843269],[120.559855,23.840961],[120.559823,23.840595],[120.554241,23.836263],[120.553339,23.83626],[120.5517,23.836688],[120.549344,23.837066],[120.548789,23.837116],[120.548267,23.836871],[120.546266,23.835235],[120.544658,23.834164],[120.544534,23.833306],[120.543893,23.832696],[120.543239,23.831094],[120.54509,23.82984],[120.547162,23.83115],[120.548841,23.829561],[120.546872,23.826611],[120.543334,23.827581],[120.542122,23.827681],[120.542149,23.8266],[120.54182,23.825498],[120.541702,23.823978],[120.539258,23.822934],[120.538685,23.822253],[120.538599,23.821338],[120.538348,23.820668],[120.538428,23.819786],[120.538138,23.818859],[120.538554,23.818305],[120.539137,23.817975],[120.539238,23.817607],[120.539143,23.81346],[120.539258,23.811373],[120.538997,23.810075],[120.538258,23.808527],[120.538261,23.807593],[120.537552,23.804245],[120.536484,23.801398],[120.536337,23.801323],[120.540605,23.801016],[120.543457,23.80123],[120.545922,23.801479],[120.54878,23.80112],[120.550954,23.801153],[120.554603,23.804412],[120.55514,23.805194],[120.555879,23.807401],[120.555825,23.81567],[120.555747,23.815842],[120.554893,23.816165],[120.5555,23.817686],[120.556346,23.817704],[120.55638,23.819743],[120.554868,23.821009],[120.554053,23.822072],[120.555474,23.823062],[120.555719,23.823467],[120.555916,23.824444],[120.555912,23.825893],[120.556215,23.827147],[120.555972,23.82798],[120.554909,23.829203],[120.567047,23.838689]]]},"properties":{"code":"10007260012","name":"成功村","countyCode":"10007","countyName":"彰化縣","townCode":"10007260","townName":"溪州鄉","level":"village","unassigned":false,"note":"","label":[120.54694349129743,23.818222090700367],"bounds":[120.536337,23.801016,120.567047,23.843269],"focusBounds":[120.536337,23.801016,120.567047,23.843269],"color":"#78a7e3"}},{"type":"Feature","id":"10007260013","geometry":{"type":"Polygon","coordinates":[[[120.501256,23.824095],[120.495666,23.824975],[120.493781,23.824905],[120.491373,23.823973],[120.491327,23.824078],[120.49096,23.823948],[120.486802,23.822132],[120.485079,23.821945],[120.484953,23.821849],[120.484953,23.821428],[120.483608,23.821349],[120.481548,23.820883],[120.480473,23.822341],[120.479626,23.823157],[120.47697,23.822806],[120.476541,23.823045],[120.476302,23.823635],[120.473732,23.822297],[120.472573,23.821499],[120.468336,23.820673],[120.467693,23.820346],[120.463946,23.815432],[120.462671,23.814176],[120.464987,23.813186],[120.466674,23.812502],[120.469031,23.811585],[120.475263,23.809035],[120.483849,23.806455],[120.493543,23.804468],[120.497798,23.803742],[120.499771,23.80309],[120.500962,23.804564],[120.504338,23.807866],[120.50685,23.811266],[120.508289,23.813678],[120.508871,23.813112],[120.509718,23.812692],[120.510935,23.817792],[120.512626,23.82209],[120.507833,23.824234],[120.501256,23.824095]]]},"properties":{"code":"10007260013","name":"菜公村","countyCode":"10007","countyName":"彰化縣","townCode":"10007260","townName":"溪州鄉","level":"village","unassigned":false,"note":"","label":[120.49525849351859,23.814567510299508],"bounds":[120.462671,23.80309,120.512626,23.824975],"focusBounds":[120.462671,23.80309,120.512626,23.824975],"color":"#dd8590"}},{"type":"Feature","id":"10007260014","geometry":{"type":"Polygon","coordinates":[[[120.510572,23.870668],[120.508261,23.87077],[120.507323,23.871083],[120.507274,23.870008],[120.505399,23.869327],[120.505052,23.868841],[120.503836,23.869229],[120.503596,23.868825],[120.502092,23.867809],[120.500545,23.86729],[120.49851,23.867279],[120.497066,23.863379],[120.496205,23.86168],[120.495718,23.856882],[120.495732,23.855091],[120.495559,23.854905],[120.495754,23.85481],[120.49535,23.852798],[120.496675,23.852542],[120.497402,23.851708],[120.498374,23.85104],[120.502201,23.849105],[120.502345,23.851031],[120.50221,23.856391],[120.503886,23.858153],[120.503205,23.860212],[120.503393,23.860882],[120.503808,23.861563],[120.508353,23.865502],[120.509242,23.865874],[120.510132,23.865432],[120.510653,23.86579],[120.510518,23.865982],[120.514029,23.86988],[120.513888,23.870164],[120.512934,23.87051],[120.510572,23.870668]]]},"properties":{"code":"10007260014","name":"尾厝村","countyCode":"10007","countyName":"彰化縣","townCode":"10007260","townName":"溪州鄉","level":"village","unassigned":false,"note":"","label":[120.50008110920002,23.861703860804504],"bounds":[120.49535,23.849105,120.514029,23.871083],"focusBounds":[120.49535,23.849105,120.514029,23.871083],"color":"#a49ad4"}},{"type":"Feature","id":"10007260015","geometry":{"type":"Polygon","coordinates":[[[120.57224,23.833024],[120.567047,23.838689],[120.554909,23.829203],[120.555972,23.82798],[120.556215,23.827147],[120.555912,23.825893],[120.555916,23.824444],[120.555719,23.823467],[120.555474,23.823062],[120.554053,23.822072],[120.554868,23.821009],[120.55638,23.819743],[120.556346,23.817704],[120.5555,23.817686],[120.554893,23.816165],[120.555747,23.815842],[120.555825,23.81567],[120.555879,23.807401],[120.55514,23.805194],[120.554603,23.804412],[120.550954,23.801153],[120.554796,23.800342],[120.558182,23.799434],[120.560288,23.798145],[120.573857,23.796259],[120.578821,23.795049],[120.582693,23.793761],[120.583643,23.793268],[120.583654,23.797679],[120.583362,23.799298],[120.582261,23.801434],[120.581893,23.802467],[120.581869,23.80306],[120.583141,23.805233],[120.585617,23.807062],[120.584723,23.807782],[120.583973,23.809414],[120.583157,23.810559],[120.583003,23.810996],[120.581788,23.812302],[120.580082,23.813032],[120.576974,23.813662],[120.573802,23.813251],[120.573191,23.813815],[120.572626,23.8141],[120.569927,23.814828],[120.571568,23.825244],[120.57224,23.833024]]]},"properties":{"code":"10007260015","name":"大庄村","countyCode":"10007","countyName":"彰化縣","townCode":"10007260","townName":"溪州鄉","level":"village","unassigned":false,"note":"","label":[120.56446631021042,23.80766452320128],"bounds":[120.550954,23.793268,120.585617,23.838689],"focusBounds":[120.550954,23.793268,120.585617,23.838689],"color":"#68bec9"}},{"type":"Feature","id":"10007260016","geometry":{"type":"Polygon","coordinates":[[[120.507273,23.830761],[120.506413,23.830946],[120.497831,23.83402],[120.496211,23.834434],[120.493939,23.834579],[120.493688,23.833648],[120.489573,23.833374],[120.489445,23.830821],[120.492083,23.830722],[120.491833,23.828705],[120.49225,23.828641],[120.492261,23.828006],[120.493528,23.828072],[120.493651,23.828715],[120.495387,23.82924],[120.495897,23.829085],[120.49793,23.829008],[120.49869,23.829727],[120.500707,23.829622],[120.501273,23.827855],[120.501711,23.825389],[120.501603,23.824716],[120.501256,23.824095],[120.507833,23.824234],[120.512626,23.82209],[120.514402,23.821352],[120.516514,23.824664],[120.516758,23.825404],[120.510232,23.829147],[120.508065,23.829297],[120.507742,23.829671],[120.507273,23.830761]]]},"properties":{"code":"10007260016","name":"三圳村","countyCode":"10007","countyName":"彰化縣","townCode":"10007260","townName":"溪州鄉","level":"village","unassigned":false,"note":"","label":[120.50481519521608,23.82784402406709],"bounds":[120.489445,23.821352,120.516758,23.834579],"focusBounds":[120.489445,23.821352,120.516758,23.834579],"color":"#df9f6a"}},{"type":"Feature","id":"10007260017","geometry":{"type":"Polygon","coordinates":[[[120.512208,23.843695],[120.51067,23.846438],[120.509999,23.847243],[120.510396,23.848026],[120.509142,23.849037],[120.507009,23.849945],[120.506938,23.850438],[120.506345,23.850605],[120.504749,23.852858],[120.504611,23.856176],[120.503886,23.858153],[120.50221,23.856391],[120.502345,23.851031],[120.502201,23.849105],[120.502309,23.845824],[120.503137,23.844898],[120.503227,23.844542],[120.50283,23.84318],[120.50292,23.842898],[120.503461,23.842254],[120.505574,23.841279],[120.510817,23.836999],[120.511935,23.838524],[120.512335,23.839895],[120.512339,23.840633],[120.511593,23.842288],[120.51165,23.842934],[120.512208,23.843695]]]},"properties":{"code":"10007260017","name":"東州村","countyCode":"10007","countyName":"彰化縣","townCode":"10007260","townName":"溪州鄉","level":"village","unassigned":false,"note":"","label":[120.5066125599812,23.845940919282622],"bounds":[120.502201,23.836999,120.512339,23.858153],"focusBounds":[120.502201,23.836999,120.512339,23.858153],"color":"#df9f6a"}},{"type":"Feature","id":"10007260018","geometry":{"type":"Polygon","coordinates":[[[120.574492,23.833067],[120.57249,23.835228],[120.57224,23.833024],[120.571568,23.825244],[120.569927,23.814828],[120.572626,23.8141],[120.573191,23.813815],[120.573802,23.813251],[120.576974,23.813662],[120.580082,23.813032],[120.581788,23.812302],[120.583003,23.810996],[120.583157,23.810559],[120.583973,23.809414],[120.584723,23.807782],[120.585617,23.807062],[120.587043,23.808131],[120.587559,23.808869],[120.588196,23.810268],[120.589464,23.810773],[120.589908,23.811785],[120.591083,23.811843],[120.592155,23.811559],[120.592539,23.812163],[120.59225,23.812169],[120.592201,23.812347],[120.594847,23.81254],[120.595567,23.812983],[120.595341,23.813247],[120.595734,23.813811],[120.596536,23.813774],[120.598102,23.814668],[120.599034,23.815518],[120.599549,23.816583],[120.601279,23.818652],[120.602805,23.819899],[120.601831,23.820577],[120.595995,23.81928],[120.593628,23.819631],[120.59172,23.82019],[120.587743,23.82324],[120.583142,23.828078],[120.580718,23.826143],[120.574492,23.833067]]]},"properties":{"code":"10007260018","name":"榮光村","countyCode":"10007","countyName":"彰化縣","townCode":"10007260","townName":"溪州鄉","level":"village","unassigned":false,"note":"","label":[120.58161696346514,23.819618175049232],"bounds":[120.569927,23.807062,120.602805,23.835228],"focusBounds":[120.569927,23.807062,120.602805,23.835228],"color":"#58b99d"}},{"type":"Feature","id":"10007260019","geometry":{"type":"Polygon","coordinates":[[[120.489573,23.833374],[120.489506,23.833752],[120.489187,23.833778],[120.474126,23.834257],[120.474525,23.832007],[120.474238,23.82743],[120.474584,23.826388],[120.475236,23.825432],[120.476877,23.824101],[120.476302,23.823635],[120.476541,23.823045],[120.47697,23.822806],[120.479626,23.823157],[120.480473,23.822341],[120.481548,23.820883],[120.483608,23.821349],[120.484953,23.821428],[120.484953,23.821849],[120.485079,23.821945],[120.486802,23.822132],[120.49096,23.823948],[120.491327,23.824078],[120.491373,23.823973],[120.493781,23.824905],[120.495666,23.824975],[120.501256,23.824095],[120.501603,23.824716],[120.501711,23.825389],[120.501273,23.827855],[120.500707,23.829622],[120.49869,23.829727],[120.49793,23.829008],[120.495897,23.829085],[120.495387,23.82924],[120.493651,23.828715],[120.493528,23.828072],[120.492261,23.828006],[120.49225,23.828641],[120.491833,23.828705],[120.492083,23.830722],[120.489445,23.830821],[120.489573,23.833374]]]},"properties":{"code":"10007260019","name":"三條村","countyCode":"10007","countyName":"彰化縣","townCode":"10007260","townName":"溪州鄉","level":"village","unassigned":false,"note":"","label":[120.4843881484612,23.827662531320673],"bounds":[120.474126,23.820883,120.501711,23.834257],"focusBounds":[120.474126,23.820883,120.501711,23.834257],"color":"#98b69b"}}]}
