{"type":"FeatureCollection","features":[{"type":"Feature","id":"10010170001","geometry":{"type":"Polygon","coordinates":[[[120.615497,23.277776],[120.61579,23.278912],[120.616907,23.280489],[120.617297,23.281618],[120.617208,23.282399],[120.61564,23.285518],[120.615697,23.286297],[120.615943,23.286647],[120.61715,23.287257],[120.617557,23.287742],[120.617715,23.288268],[120.617597,23.288805],[120.616691,23.289798],[120.614692,23.291193],[120.613131,23.292063],[120.611995,23.292096],[120.611425,23.291831],[120.609888,23.291886],[120.60903,23.292703],[120.609124,23.292997],[120.608189,23.294552],[120.607746,23.295036],[120.606993,23.295452],[120.606767,23.295804],[120.606183,23.295904],[120.605959,23.296766],[120.604745,23.297286],[120.603468,23.298667],[120.603141,23.298718],[120.602671,23.298482],[120.601746,23.298412],[120.601038,23.298896],[120.600566,23.299012],[120.599785,23.299597],[120.599603,23.299998],[120.599385,23.300097],[120.598732,23.300095],[120.597825,23.300411],[120.596285,23.300023],[120.59568,23.300679],[120.595213,23.30084],[120.594688,23.300672],[120.594254,23.300352],[120.594056,23.3],[120.593585,23.299849],[120.592912,23.300651],[120.592079,23.301175],[120.591681,23.301138],[120.591352,23.300731],[120.590917,23.300696],[120.590553,23.301332],[120.588793,23.301273],[120.586823,23.302277],[120.585919,23.301884],[120.583022,23.301178],[120.582329,23.300843],[120.581697,23.300396],[120.5809,23.298965],[120.583032,23.297946],[120.584412,23.29762],[120.585497,23.29681],[120.587839,23.295782],[120.592101,23.295498],[120.594873,23.295633],[120.595689,23.295412],[120.598119,23.290567],[120.599513,23.288701],[120.600151,23.288144],[120.602444,23.287566],[120.60347,23.287679],[120.60498,23.287406],[120.60721,23.286176],[120.608005,23.285266],[120.608097,23.284932],[120.607224,23.283953],[120.607015,23.283367],[120.607046,23.282893],[120.607321,23.281919],[120.607745,23.281222],[120.609652,23.279358],[120.61062,23.278886],[120.611858,23.278639],[120.612936,23.278743],[120.614243,23.278421],[120.615497,23.277776]]]},"properties":{"code":"10010170001","name":"大埔村","countyCode":"10010","countyName":"嘉義縣","townCode":"10010170","townName":"大埔鄉","level":"village","unassigned":false,"note":"","label":[120.60322093384694,23.292342019510144],"bounds":[120.5809,23.277776,120.617715,23.302277],"focusBounds":[120.5809,23.277776,120.617715,23.302277],"color":"#98b69b"}},{"type":"Feature","id":"10010170002","geometry":{"type":"Polygon","coordinates":[[[120.659161,23.351095],[120.658839,23.35139],[120.658448,23.352259],[120.6583,23.354554],[120.656787,23.357107],[120.656387,23.357305],[120.655532,23.35726],[120.654842,23.357405],[120.6541,23.358265],[120.652829,23.357677],[120.6524,23.357631],[120.652015,23.357781],[120.651014,23.358727],[120.649521,23.358795],[120.649324,23.358912],[120.648435,23.361283],[120.64639,23.363999],[120.646061,23.364643],[120.645999,23.365731],[120.646346,23.366711],[120.646319,23.367074],[120.64528,23.366982],[120.643705,23.366501],[120.642169,23.365244],[120.641449,23.363727],[120.64106,23.360975],[120.640411,23.35986],[120.639577,23.35944],[120.6391,23.358593],[120.639221,23.357638],[120.639112,23.35734],[120.637966,23.35608],[120.63657,23.355139],[120.635034,23.353236],[120.634886,23.352617],[120.634893,23.350631],[120.63563,23.348495],[120.636965,23.346042],[120.638001,23.345069],[120.638445,23.344308],[120.638248,23.344096],[120.63758,23.344425],[120.637046,23.344266],[120.63581,23.344424],[120.635219,23.344306],[120.634938,23.343901],[120.634566,23.342567],[120.633787,23.34181],[120.632004,23.341165],[120.631324,23.341232],[120.630568,23.341595],[120.629847,23.34149],[120.628832,23.341906],[120.62806,23.341811],[120.627299,23.341409],[120.626854,23.34133],[120.626042,23.341758],[120.625738,23.341766],[120.624546,23.34132],[120.623827,23.341243],[120.623002,23.340558],[120.621959,23.340524],[120.620664,23.340103],[120.620022,23.339726],[120.619723,23.340353],[120.61899,23.340183],[120.619065,23.341262],[120.618426,23.341742],[120.618261,23.342563],[120.616497,23.342683],[120.615244,23.343101],[120.612841,23.342836],[120.610654,23.343537],[120.609266,23.343421],[120.608356,23.34383],[120.607948,23.344455],[120.607582,23.345813],[120.607029,23.34697],[120.606384,23.347033],[120.605208,23.346886],[120.604286,23.347838],[120.603328,23.34759],[120.601164,23.347602],[120.599601,23.347372],[120.598523,23.347014],[120.598156,23.346624],[120.597717,23.345487],[120.5977,23.34276],[120.598723,23.338036],[120.599367,23.336947],[120.600181,23.335994],[120.600159,23.335177],[120.599743,23.334607],[120.598146,23.333763],[120.592222,23.331474],[120.591191,23.330928],[120.59052,23.33026],[120.589795,23.328976],[120.589703,23.327862],[120.590245,23.32629],[120.59165,23.324641],[120.593847,23.323164],[120.594102,23.322756],[120.593386,23.321025],[120.591706,23.315341],[120.591366,23.313703],[120.59147,23.312069],[120.590124,23.309792],[120.589367,23.30795],[120.588758,23.305858],[120.58852,23.30329],[120.587783,23.30297],[120.586823,23.302277],[120.588793,23.301273],[120.590553,23.301332],[120.590917,23.300696],[120.591352,23.300731],[120.591681,23.301138],[120.592079,23.301175],[120.592912,23.300651],[120.593585,23.299849],[120.594056,23.3],[120.594254,23.300352],[120.594688,23.300672],[120.595213,23.30084],[120.59568,23.300679],[120.596285,23.300023],[120.597825,23.300411],[120.598732,23.300095],[120.599385,23.300097],[120.599603,23.299998],[120.599785,23.299597],[120.600566,23.299012],[120.601038,23.298896],[120.601746,23.298412],[120.602671,23.298482],[120.603141,23.298718],[120.603468,23.298667],[120.604745,23.297286],[120.605959,23.296766],[120.606183,23.295904],[120.606767,23.295804],[120.606993,23.295452],[120.607746,23.295036],[120.608189,23.294552],[120.609124,23.292997],[120.60903,23.292703],[120.609888,23.291886],[120.611425,23.291831],[120.611995,23.292096],[120.613131,23.292063],[120.614692,23.291193],[120.616691,23.289798],[120.617597,23.288805],[120.617715,23.288268],[120.617557,23.287742],[120.61715,23.287257],[120.615943,23.286647],[120.615697,23.286297],[120.61564,23.285518],[120.617208,23.282399],[120.617297,23.281618],[120.616907,23.280489],[120.61579,23.278912],[120.615497,23.277776],[120.616269,23.277117],[120.617967,23.274416],[120.61836,23.27411],[120.618693,23.274054],[120.620532,23.274756],[120.621015,23.274674],[120.621408,23.274395],[120.621742,23.273588],[120.621264,23.272054],[120.621538,23.2713],[120.62184,23.270994],[120.622384,23.270828],[120.623681,23.270998],[120.624165,23.270862],[120.624772,23.269525],[120.625287,23.268855],[120.625771,23.268606],[120.62734,23.268526],[120.630023,23.269898],[120.630867,23.270097],[120.633402,23.270243],[120.635817,23.270079],[120.636511,23.270137],[120.638229,23.270877],[120.638994,23.270836],[120.639362,23.270639],[120.640537,23.270736],[120.64109,23.271024],[120.641243,23.271513],[120.640611,23.273488],[120.640632,23.274165],[120.64097,23.274455],[120.641871,23.274644],[120.642401,23.275437],[120.643153,23.27598],[120.643004,23.276838],[120.642266,23.277263],[120.642008,23.277602],[120.641913,23.278542],[120.642492,23.280023],[120.643744,23.281276],[120.643999,23.281673],[120.644051,23.282228],[120.643414,23.284307],[120.643222,23.286262],[120.64284,23.286742],[120.642116,23.287053],[120.641857,23.287476],[120.642015,23.287941],[120.643411,23.288895],[120.643723,23.289437],[120.643668,23.290072],[120.643269,23.290687],[120.642923,23.291699],[120.642102,23.292455],[120.642033,23.292686],[120.642072,23.293109],[120.64241,23.29378],[120.643254,23.294724],[120.643585,23.295933],[120.644059,23.296265],[120.645741,23.296889],[120.646453,23.297411],[120.647024,23.297439],[120.647569,23.296812],[120.649054,23.293417],[120.649453,23.292903],[120.650645,23.291742],[120.651983,23.291176],[120.653197,23.295114],[120.653137,23.296561],[120.653369,23.29769],[120.654239,23.299824],[120.653778,23.302501],[120.653858,23.304169],[120.654307,23.306194],[120.654909,23.307522],[120.655242,23.309024],[120.656211,23.309721],[120.658337,23.312882],[120.658551,23.313855],[120.65823,23.315982],[120.658205,23.319403],[120.658542,23.323233],[120.657511,23.325971],[120.657019,23.326392],[120.656089,23.326806],[120.656201,23.328726],[120.65552,23.330089],[120.655873,23.332757],[120.65641,23.335213],[120.656822,23.336031],[120.657647,23.33703],[120.658771,23.339412],[120.659009,23.33962],[120.660115,23.339679],[120.660772,23.339967],[120.661167,23.340667],[120.661834,23.341361],[120.662142,23.342152],[120.662922,23.342963],[120.662926,23.344059],[120.662469,23.34534],[120.66157,23.346002],[120.661704,23.346878],[120.661629,23.348128],[120.660889,23.350021],[120.660343,23.350655],[120.659161,23.351095]]]},"properties":{"code":"10010170002","name":"和平村","countyCode":"10010","countyName":"嘉義縣","townCode":"10010170","townName":"大埔鄉","level":"village","unassigned":false,"note":"","label":[120.62729168529435,23.31539438726132],"bounds":[120.586823,23.268526,120.662926,23.367074],"focusBounds":[120.586823,23.268526,120.662926,23.367074],"color":"#58b99d"}},{"type":"Feature","id":"10010170003","geometry":{"type":"Polygon","coordinates":[[[120.587131,23.361847],[120.586428,23.361858],[120.584738,23.361554],[120.583968,23.362044],[120.582778,23.362364],[120.581936,23.361749],[120.581525,23.361647],[120.579169,23.362323],[120.577118,23.36174],[120.576047,23.363206],[120.574784,23.363252],[120.572085,23.359836],[120.570111,23.358058],[120.569189,23.357427],[120.567929,23.356032],[120.566114,23.35494],[120.565694,23.354697],[120.564683,23.354698],[120.561941,23.354038],[120.561377,23.353387],[120.559563,23.352219],[120.55912,23.351541],[120.558912,23.350422],[120.558594,23.349666],[120.556511,23.346544],[120.554927,23.345352],[120.551489,23.343828],[120.550446,23.343066],[120.549568,23.342853],[120.548542,23.342312],[120.547165,23.342212],[120.547293,23.341366],[120.547153,23.339811],[120.543783,23.339612],[120.542787,23.340062],[120.541621,23.340032],[120.540557,23.339253],[120.538992,23.338772],[120.538167,23.337961],[120.537535,23.338061],[120.536625,23.337733],[120.535481,23.33824],[120.534273,23.337611],[120.534039,23.337275],[120.533948,23.33666],[120.533723,23.336471],[120.534284,23.335518],[120.536814,23.333263],[120.537234,23.332453],[120.537478,23.331543],[120.538202,23.330832],[120.538373,23.330052],[120.539098,23.329253],[120.539996,23.32787],[120.539386,23.327478],[120.537056,23.326538],[120.536782,23.326198],[120.535956,23.324254],[120.535425,23.32363],[120.535084,23.320289],[120.534595,23.319764],[120.534679,23.318979],[120.534291,23.318528],[120.533793,23.319163],[120.533379,23.319298],[120.533137,23.319033],[120.533588,23.317528],[120.533178,23.316267],[120.5333,23.316187],[120.533592,23.316397],[120.534109,23.317133],[120.534597,23.314497],[120.535475,23.313825],[120.536115,23.314253],[120.536486,23.314801],[120.536684,23.316332],[120.537011,23.316394],[120.537234,23.316738],[120.537357,23.316567],[120.537059,23.315642],[120.53755,23.313894],[120.537616,23.311066],[120.538095,23.310376],[120.538061,23.309103],[120.537802,23.308603],[120.537494,23.308487],[120.537068,23.309109],[120.535747,23.309157],[120.535581,23.308694],[120.535797,23.308184],[120.536809,23.307715],[120.539797,23.308029],[120.543002,23.307946],[120.544395,23.30774],[120.545379,23.307203],[120.545632,23.306761],[120.546731,23.305891],[120.546778,23.305374],[120.546962,23.305131],[120.546918,23.304625],[120.547663,23.304386],[120.547686,23.303814],[120.548202,23.303622],[120.548665,23.303745],[120.54926,23.30432],[120.549579,23.304265],[120.550142,23.303645],[120.553282,23.302011],[120.553639,23.302116],[120.553887,23.301737],[120.55411,23.301702],[120.554629,23.301945],[120.555906,23.302876],[120.556543,23.303002],[120.556912,23.302787],[120.557049,23.302218],[120.557463,23.301838],[120.559165,23.301129],[120.561457,23.301106],[120.561803,23.301209],[120.562149,23.301551],[120.56292,23.301501],[120.562955,23.301038],[120.561997,23.296748],[120.562402,23.295853],[120.562304,23.294943],[120.563125,23.294456],[120.564088,23.293487],[120.564423,23.292847],[120.565218,23.289558],[120.565585,23.288758],[120.566098,23.288195],[120.575213,23.295268],[120.580344,23.29881],[120.5809,23.298965],[120.581697,23.300396],[120.582329,23.300843],[120.583022,23.301178],[120.585919,23.301884],[120.586823,23.302277],[120.587783,23.30297],[120.58852,23.30329],[120.588758,23.305858],[120.589367,23.30795],[120.590124,23.309792],[120.59147,23.312069],[120.591366,23.313703],[120.591706,23.315341],[120.593386,23.321025],[120.594102,23.322756],[120.593847,23.323164],[120.59165,23.324641],[120.590245,23.32629],[120.589703,23.327862],[120.589795,23.328976],[120.59052,23.33026],[120.591191,23.330928],[120.592222,23.331474],[120.598146,23.333763],[120.599743,23.334607],[120.600159,23.335177],[120.600181,23.335994],[120.599367,23.336947],[120.598723,23.338036],[120.5977,23.34276],[120.597717,23.345487],[120.598156,23.346624],[120.598523,23.347014],[120.598289,23.346992],[120.597338,23.348225],[120.59636,23.349028],[120.595288,23.349538],[120.594476,23.350735],[120.59377,23.351115],[120.593379,23.351663],[120.592503,23.351893],[120.592506,23.35275],[120.591844,23.353475],[120.590734,23.354039],[120.589631,23.353903],[120.589708,23.355011],[120.590355,23.355714],[120.590148,23.358305],[120.589903,23.358622],[120.588822,23.359209],[120.587947,23.360113],[120.587131,23.361847]]]},"properties":{"code":"10010170003","name":"永樂村","countyCode":"10010","countyName":"嘉義縣","townCode":"10010170","townName":"大埔鄉","level":"village","unassigned":false,"note":"","label":[120.56602880155495,23.324631061579236],"bounds":[120.533137,23.288195,120.600181,23.363252],"focusBounds":[120.533137,23.288195,120.600181,23.363252],"color":"#efb44f"}},{"type":"Feature","id":"10010170004","geometry":{"type":"Polygon","coordinates":[[[120.615497,23.277776],[120.614243,23.278421],[120.612936,23.278743],[120.611858,23.278639],[120.61062,23.278886],[120.609652,23.279358],[120.607745,23.281222],[120.607321,23.281919],[120.607046,23.282893],[120.607015,23.283367],[120.607224,23.283953],[120.608097,23.284932],[120.608005,23.285266],[120.60721,23.286176],[120.60498,23.287406],[120.60347,23.287679],[120.602444,23.287566],[120.600151,23.288144],[120.599513,23.288701],[120.598119,23.290567],[120.595689,23.295412],[120.594873,23.295633],[120.592101,23.295498],[120.587839,23.295782],[120.585497,23.29681],[120.584412,23.29762],[120.583032,23.297946],[120.5809,23.298965],[120.580344,23.29881],[120.575213,23.295268],[120.566098,23.288195],[120.567653,23.286054],[120.568071,23.284631],[120.568981,23.275095],[120.568838,23.273688],[120.567902,23.271245],[120.568112,23.270388],[120.568429,23.26991],[120.568827,23.269636],[120.569877,23.269621],[120.575332,23.271309],[120.578325,23.272057],[120.580164,23.272281],[120.58115,23.272259],[120.585145,23.271052],[120.58585,23.270436],[120.586074,23.269737],[120.585912,23.267023],[120.586344,23.265667],[120.586245,23.264956],[120.586451,23.263204],[120.587057,23.262174],[120.587514,23.262175],[120.588073,23.261838],[120.588843,23.261633],[120.588588,23.261158],[120.588847,23.260479],[120.587714,23.258796],[120.587125,23.25761],[120.586934,23.256763],[120.587141,23.256038],[120.588383,23.255315],[120.588628,23.254672],[120.588098,23.253799],[120.587977,23.253137],[120.587748,23.252798],[120.588076,23.252178],[120.590351,23.250227],[120.591578,23.248889],[120.591662,23.248129],[120.592246,23.247712],[120.59342,23.245988],[120.593533,23.24532],[120.594404,23.243291],[120.594477,23.242551],[120.594248,23.241934],[120.592455,23.240078],[120.592483,23.239849],[120.592973,23.239802],[120.593796,23.239419],[120.594618,23.238505],[120.595793,23.236727],[120.596549,23.234366],[120.596622,23.233115],[120.596386,23.231719],[120.596851,23.230567],[120.596886,23.229738],[120.59724,23.229042],[120.598776,23.227985],[120.600305,23.227558],[120.602722,23.22608],[120.606518,23.225777],[120.608172,23.224678],[120.609825,23.222636],[120.610588,23.222832],[120.611649,23.222815],[120.612852,23.223953],[120.613078,23.223995],[120.615299,23.223526],[120.616125,23.223776],[120.616762,23.223545],[120.617511,23.224337],[120.617909,23.225336],[120.618389,23.225645],[120.619824,23.225832],[120.621841,23.22653],[120.623192,23.226733],[120.624764,23.227175],[120.625229,23.227781],[120.626186,23.228557],[120.62838,23.229447],[120.629567,23.229056],[120.631206,23.229511],[120.63202,23.228886],[120.63256,23.228872],[120.633298,23.228624],[120.633483,23.228691],[120.633794,23.229193],[120.634109,23.229225],[120.635823,23.2283],[120.63713,23.228287],[120.637976,23.227907],[120.638906,23.227949],[120.639755,23.22732],[120.640523,23.227039],[120.641044,23.226509],[120.642106,23.22607],[120.642423,23.225724],[120.644174,23.225317],[120.645056,23.225901],[120.645394,23.226366],[120.646908,23.227133],[120.647934,23.226738],[120.648094,23.226472],[120.648001,23.225812],[120.648233,23.225544],[120.649292,23.22502],[120.650647,23.224611],[120.651383,23.224086],[120.651884,23.224038],[120.652769,23.224213],[120.653445,23.224538],[120.651848,23.226244],[120.650294,23.227405],[120.649626,23.228215],[120.649484,23.228639],[120.649679,23.229287],[120.64955,23.230651],[120.649992,23.231222],[120.649946,23.232138],[120.650467,23.232963],[120.650408,23.233204],[120.650088,23.233381],[120.650353,23.23465],[120.651311,23.235819],[120.650664,23.235853],[120.650676,23.236239],[120.651161,23.236652],[120.65052,23.23709],[120.650851,23.237992],[120.65,23.239559],[120.649531,23.239907],[120.649435,23.240233],[120.649207,23.240405],[120.649227,23.241251],[120.649403,23.241575],[120.649071,23.242095],[120.649168,23.24271],[120.648778,23.242837],[120.648644,23.243049],[120.648831,23.243594],[120.648554,23.243989],[120.648641,23.244444],[120.648131,23.244323],[120.647893,23.244628],[120.648023,23.244901],[120.648457,23.245109],[120.648534,23.245969],[120.649234,23.246909],[120.648058,23.248463],[120.648504,23.248949],[120.64845,23.249252],[120.647729,23.249593],[120.647563,23.250063],[120.646505,23.251191],[120.645958,23.252286],[120.644373,23.253685],[120.644098,23.25462],[120.643567,23.255203],[120.642976,23.255568],[120.642083,23.256809],[120.641897,23.257738],[120.642089,23.261029],[120.641848,23.26208],[120.641038,23.264044],[120.640691,23.266516],[120.640428,23.266994],[120.639711,23.267453],[120.638285,23.269176],[120.638291,23.269497],[120.638692,23.270075],[120.639362,23.270639],[120.638994,23.270836],[120.638229,23.270877],[120.636511,23.270137],[120.635817,23.270079],[120.633402,23.270243],[120.630867,23.270097],[120.630023,23.269898],[120.62734,23.268526],[120.625771,23.268606],[120.625287,23.268855],[120.624772,23.269525],[120.624165,23.270862],[120.623681,23.270998],[120.622384,23.270828],[120.62184,23.270994],[120.621538,23.2713],[120.621264,23.272054],[120.621742,23.273588],[120.621408,23.274395],[120.621015,23.274674],[120.620532,23.274756],[120.618693,23.274054],[120.61836,23.27411],[120.617967,23.274416],[120.616269,23.277117],[120.615497,23.277776]]]},"properties":{"code":"10010170004","name":"茄苳村","countyCode":"10010","countyName":"嘉義縣","townCode":"10010170","townName":"大埔鄉","level":"village","unassigned":false,"note":"","label":[120.61374780797212,23.251198323290986],"bounds":[120.566098,23.222636,120.653445,23.298965],"focusBounds":[120.566098,23.222636,120.653445,23.298965],"color":"#78a7e3"}},{"type":"Feature","id":"10010170005","geometry":{"type":"Polygon","coordinates":[[[120.566098,23.288195],[120.565585,23.288758],[120.565218,23.289558],[120.564423,23.292847],[120.564088,23.293487],[120.563125,23.294456],[120.562304,23.294943],[120.562402,23.295853],[120.561997,23.296748],[120.562955,23.301038],[120.56292,23.301501],[120.562149,23.301551],[120.561803,23.301209],[120.561457,23.301106],[120.559165,23.301129],[120.557463,23.301838],[120.557049,23.302218],[120.556912,23.302787],[120.556543,23.303002],[120.555906,23.302876],[120.554629,23.301945],[120.55411,23.301702],[120.553887,23.301737],[120.553639,23.302116],[120.553282,23.302011],[120.550142,23.303645],[120.549579,23.304265],[120.54926,23.30432],[120.548665,23.303745],[120.548202,23.303622],[120.547686,23.303814],[120.547663,23.304386],[120.546918,23.304625],[120.546962,23.305131],[120.546778,23.305374],[120.546731,23.305891],[120.545632,23.306761],[120.545379,23.307203],[120.544395,23.30774],[120.543002,23.307946],[120.539797,23.308029],[120.536809,23.307715],[120.535797,23.308184],[120.535581,23.308694],[120.535747,23.309157],[120.537068,23.309109],[120.537494,23.308487],[120.537802,23.308603],[120.538061,23.309103],[120.538095,23.310376],[120.537616,23.311066],[120.53755,23.313894],[120.537059,23.315642],[120.537357,23.316567],[120.537234,23.316738],[120.537011,23.316394],[120.536684,23.316332],[120.536486,23.314801],[120.536115,23.314253],[120.535475,23.313825],[120.534597,23.314497],[120.534109,23.317133],[120.533592,23.316397],[120.5333,23.316187],[120.533178,23.316267],[120.533588,23.317528],[120.533137,23.319033],[120.533379,23.319298],[120.533793,23.319163],[120.534291,23.318528],[120.534679,23.318979],[120.534595,23.319764],[120.535084,23.320289],[120.535425,23.32363],[120.53378,23.321976],[120.53285,23.321792],[120.53195,23.321148],[120.531818,23.319769],[120.531546,23.319024],[120.531562,23.318097],[120.530853,23.317107],[120.530492,23.317053],[120.530069,23.317255],[120.528345,23.315931],[120.527281,23.314636],[120.526074,23.314291],[120.523891,23.313346],[120.523178,23.312766],[120.52313,23.312323],[120.522551,23.311754],[120.522762,23.310086],[120.523345,23.30881],[120.52328,23.308276],[120.523484,23.307159],[120.523342,23.306494],[120.523786,23.3042],[120.524086,23.303365],[120.52388,23.302391],[120.52454,23.301272],[120.524597,23.300245],[120.524961,23.299965],[120.525183,23.299177],[120.52568,23.29824],[120.526043,23.297063],[120.526279,23.295334],[120.526009,23.292226],[120.525621,23.291923],[120.524463,23.291543],[120.524027,23.290924],[120.523773,23.290103],[120.523075,23.289758],[120.522576,23.28932],[120.521897,23.28821],[120.521979,23.287395],[120.522186,23.286132],[120.522951,23.284461],[120.522617,23.283115],[120.522943,23.28206],[120.522705,23.281419],[120.521131,23.279925],[120.521004,23.279536],[120.521278,23.279006],[120.521414,23.278049],[120.521822,23.276942],[120.521711,23.275831],[120.522329,23.274382],[120.522221,23.273964],[120.520451,23.271838],[120.520627,23.271535],[120.521426,23.270732],[120.522159,23.270297],[120.522438,23.269375],[120.523494,23.268317],[120.524288,23.267906],[120.526092,23.266489],[120.526225,23.265029],[120.526617,23.264148],[120.527903,23.26309],[120.528531,23.261957],[120.528744,23.260198],[120.529268,23.25922],[120.52932,23.257874],[120.530564,23.257294],[120.53072,23.256953],[120.530791,23.255916],[120.532022,23.255434],[120.532295,23.255052],[120.532179,23.254302],[120.531544,23.253433],[120.531536,23.251986],[120.530878,23.251071],[120.530319,23.248526],[120.52997,23.247949],[120.52912,23.247263],[120.527909,23.24536],[120.524164,23.241998],[120.522714,23.241155],[120.520894,23.240435],[120.519439,23.239486],[120.519037,23.239256],[120.519047,23.239055],[120.51943,23.238747],[120.519445,23.238292],[120.519656,23.237895],[120.520605,23.237641],[120.520902,23.236865],[120.521459,23.236579],[120.521858,23.236052],[120.522315,23.235849],[120.522881,23.235298],[120.523476,23.234113],[120.524381,23.233226],[120.524607,23.232628],[120.526295,23.231132],[120.52682,23.230933],[120.527022,23.230994],[120.527545,23.231789],[120.529679,23.232548],[120.530499,23.231974],[120.531327,23.231726],[120.531737,23.229995],[120.531958,23.229665],[120.53355,23.229276],[120.534051,23.228988],[120.535331,23.229037],[120.53599,23.229236],[120.53719,23.228624],[120.538809,23.228133],[120.53976,23.227668],[120.540212,23.227812],[120.541508,23.227829],[120.541616,23.22755],[120.54209,23.227159],[120.543988,23.226583],[120.546381,23.225095],[120.548534,23.223988],[120.548889,23.223534],[120.549785,23.221338],[120.55052,23.220731],[120.551267,23.220691],[120.552506,23.220266],[120.553502,23.218901],[120.55431,23.218746],[120.554981,23.217473],[120.557501,23.217235],[120.558077,23.216823],[120.560005,23.21729],[120.561372,23.217414],[120.563784,23.220216],[120.565288,23.22098],[120.567333,23.219828],[120.569248,23.219365],[120.570395,23.218506],[120.571025,23.218215],[120.572506,23.217806],[120.574874,23.217698],[120.576217,23.216603],[120.577452,23.215893],[120.57824,23.214798],[120.579288,23.217093],[120.579681,23.218991],[120.580374,23.21958],[120.58131,23.219664],[120.581779,23.219925],[120.582927,23.221362],[120.583767,23.222003],[120.584898,23.223246],[120.586613,23.224164],[120.588875,23.230057],[120.590034,23.231664],[120.590248,23.234332],[120.590764,23.235177],[120.591495,23.235785],[120.591966,23.236716],[120.59233,23.238581],[120.59235,23.239741],[120.592483,23.239849],[120.592455,23.240078],[120.594248,23.241934],[120.594477,23.242551],[120.594404,23.243291],[120.593533,23.24532],[120.59342,23.245988],[120.592246,23.247712],[120.591662,23.248129],[120.591578,23.248889],[120.590351,23.250227],[120.588076,23.252178],[120.587748,23.252798],[120.587977,23.253137],[120.588098,23.253799],[120.588628,23.254672],[120.588383,23.255315],[120.587141,23.256038],[120.586934,23.256763],[120.587125,23.25761],[120.587714,23.258796],[120.588847,23.260479],[120.588588,23.261158],[120.588843,23.261633],[120.588073,23.261838],[120.587514,23.262175],[120.587057,23.262174],[120.586451,23.263204],[120.586245,23.264956],[120.586344,23.265667],[120.585912,23.267023],[120.586074,23.269737],[120.58585,23.270436],[120.585145,23.271052],[120.58115,23.272259],[120.580164,23.272281],[120.578325,23.272057],[120.575332,23.271309],[120.569877,23.269621],[120.568827,23.269636],[120.568429,23.26991],[120.568112,23.270388],[120.567902,23.271245],[120.568838,23.273688],[120.568981,23.275095],[120.568071,23.284631],[120.567653,23.286054],[120.566098,23.288195]]]},"properties":{"code":"10010170005","name":"西興村","countyCode":"10010","countyName":"嘉義縣","townCode":"10010170","townName":"大埔鄉","level":"village","unassigned":false,"note":"","label":[120.55622571937856,23.24804119457265],"bounds":[120.519037,23.214798,120.594477,23.32363],"focusBounds":[120.519037,23.214798,120.594477,23.32363],"color":"#dd8590"}}]}
