{"type":"FeatureCollection","features":[{"type":"Feature","id":"10017050001","geometry":{"type":"Polygon","coordinates":[[[121.737582,25.129943],[121.737262,25.129856],[121.736834,25.130098],[121.736731,25.129938],[121.736449,25.130118],[121.735961,25.130516],[121.736146,25.130697],[121.735553,25.131411],[121.735371,25.131483],[121.734953,25.131173],[121.735193,25.130593],[121.736414,25.129304],[121.737331,25.128782],[121.737528,25.128793],[121.737582,25.129943]]]},"properties":{"code":"10017050001","name":"新建里","countyCode":"10017","countyName":"基隆市","townCode":"10017050","townName":"中山區","level":"village","unassigned":false,"note":"","label":[121.73688864566962,25.129550129089218],"bounds":[121.734953,25.128782,121.737582,25.131483],"focusBounds":[121.734953,25.128782,121.737582,25.131483],"color":"#dd8590"}},{"type":"Feature","id":"10017050002","geometry":{"type":"Polygon","coordinates":[[[121.737968,25.131],[121.737592,25.131196],[121.736857,25.131293],[121.73683,25.131713],[121.736333,25.132478],[121.735705,25.131943],[121.7357,25.131705],[121.735456,25.131612],[121.735021,25.131807],[121.734953,25.131173],[121.735371,25.131483],[121.735553,25.131411],[121.736146,25.130697],[121.735961,25.130516],[121.736449,25.130118],[121.736731,25.129938],[121.736834,25.130098],[121.737262,25.129856],[121.737582,25.129943],[121.737968,25.131]]]},"properties":{"code":"10017050002","name":"安民里","countyCode":"10017","countyName":"基隆市","townCode":"10017050","townName":"中山區","level":"village","unassigned":false,"note":"","label":[121.73683920737773,25.130693524297918],"bounds":[121.734953,25.129856,121.737968,25.132478],"focusBounds":[121.734953,25.129856,121.737968,25.132478],"color":"#a49ad4"}},{"type":"Feature","id":"10017050003","geometry":{"type":"Polygon","coordinates":[[[121.738499,25.131811],[121.737077,25.133908],[121.736943,25.134019],[121.736521,25.133873],[121.736547,25.133499],[121.736333,25.132478],[121.73683,25.131713],[121.736857,25.131293],[121.737592,25.131196],[121.737968,25.131],[121.738079,25.13117],[121.738499,25.131811]]]},"properties":{"code":"10017050003","name":"安平里","countyCode":"10017","countyName":"基隆市","townCode":"10017050","townName":"中山區","level":"village","unassigned":false,"note":"","label":[121.73728476033746,25.13232034255845],"bounds":[121.736333,25.131,121.738499,25.134019],"focusBounds":[121.736333,25.131,121.738499,25.134019],"color":"#a8bf62"}},{"type":"Feature","id":"10017050004","geometry":{"type":"Polygon","coordinates":[[[121.736338,25.136936],[121.736216,25.136963],[121.7362,25.13662],[121.735974,25.136502],[121.73593,25.13592],[121.736521,25.133873],[121.736943,25.134019],[121.737077,25.133908],[121.738499,25.131811],[121.739959,25.134039],[121.739048,25.134453],[121.738846,25.134781],[121.73751,25.135062],[121.737743,25.135545],[121.736625,25.135833],[121.736338,25.136936]]]},"properties":{"code":"10017050004","name":"中山里","countyCode":"10017","countyName":"基隆市","townCode":"10017050","townName":"中山區","level":"village","unassigned":false,"note":"","label":[121.73818204510508,25.133965656450464],"bounds":[121.73593,25.131811,121.739959,25.136963],"focusBounds":[121.73593,25.131811,121.739959,25.136963],"color":"#68bec9"}},{"type":"Feature","id":"10017050005","geometry":{"type":"Polygon","coordinates":[[[121.741864,25.135415],[121.740597,25.136337],[121.74058,25.136479],[121.740337,25.136473],[121.740284,25.136723],[121.739531,25.136831],[121.739167,25.13626],[121.738951,25.136529],[121.738429,25.136767],[121.737262,25.136881],[121.73658,25.137101],[121.736338,25.136936],[121.736625,25.135833],[121.737743,25.135545],[121.73751,25.135062],[121.738846,25.134781],[121.739048,25.134453],[121.739959,25.134039],[121.741054,25.135712],[121.741812,25.135337],[121.741864,25.135415]]]},"properties":{"code":"10017050005","name":"民治里","countyCode":"10017","countyName":"基隆市","townCode":"10017050","townName":"中山區","level":"village","unassigned":false,"note":"","label":[121.73937884637712,25.135447478468787],"bounds":[121.736338,25.134039,121.741864,25.137101],"focusBounds":[121.736338,25.134039,121.741864,25.137101],"color":"#58b99d"}},{"type":"Feature","id":"10017050006","geometry":{"type":"Polygon","coordinates":[[[121.741864,25.135415],[121.743707,25.138209],[121.743271,25.138466],[121.741951,25.138517],[121.741964,25.138802],[121.74173,25.138834],[121.741049,25.140232],[121.739837,25.139797],[121.739559,25.139185],[121.739286,25.139216],[121.738684,25.138986],[121.737591,25.139463],[121.735823,25.139636],[121.734712,25.140014],[121.735014,25.138801],[121.735879,25.138657],[121.736107,25.138236],[121.735869,25.13717],[121.736216,25.136963],[121.736338,25.136936],[121.73658,25.137101],[121.737262,25.136881],[121.738429,25.136767],[121.738951,25.136529],[121.739167,25.13626],[121.739531,25.136831],[121.740284,25.136723],[121.740337,25.136473],[121.74058,25.136479],[121.740597,25.136337],[121.741864,25.135415]]]},"properties":{"code":"10017050006","name":"中興里","countyCode":"10017","countyName":"基隆市","townCode":"10017050","townName":"中山區","level":"village","unassigned":false,"note":"","label":[121.73951734129561,25.137999469911286],"bounds":[121.734712,25.135415,121.743707,25.140232],"focusBounds":[121.734712,25.135415,121.743707,25.140232],"color":"#c38cb8"}},{"type":"Feature","id":"10017050007","geometry":{"type":"Polygon","coordinates":[[[121.742226,25.141429],[121.741827,25.142248],[121.739015,25.141398],[121.738483,25.141689],[121.738341,25.14155],[121.737167,25.141534],[121.736789,25.141234],[121.735876,25.141379],[121.735757,25.140981],[121.735299,25.140658],[121.733544,25.141123],[121.733334,25.141019],[121.734118,25.14027],[121.734712,25.140014],[121.735823,25.139636],[121.737591,25.139463],[121.738684,25.138986],[121.739286,25.139216],[121.739559,25.139185],[121.739837,25.139797],[121.741049,25.140232],[121.74076,25.140826],[121.742226,25.141429]]]},"properties":{"code":"10017050007","name":"仁正里","countyCode":"10017","countyName":"基隆市","townCode":"10017050","townName":"中山區","level":"village","unassigned":false,"note":"","label":[121.73848262588683,25.140380931144932],"bounds":[121.733334,25.138986,121.742226,25.142248],"focusBounds":[121.733334,25.138986,121.742226,25.142248],"color":"#98b69b"}},{"type":"Feature","id":"10017050008","geometry":{"type":"Polygon","coordinates":[[[121.740968,25.144053],[121.738716,25.144053],[121.738067,25.144612],[121.737422,25.144184],[121.735698,25.143404],[121.733544,25.141123],[121.735299,25.140658],[121.735757,25.140981],[121.735876,25.141379],[121.736789,25.141234],[121.737167,25.141534],[121.738341,25.14155],[121.738483,25.141689],[121.739015,25.141398],[121.741827,25.142248],[121.740968,25.144053]]]},"properties":{"code":"10017050008","name":"健民里","countyCode":"10017","countyName":"基隆市","townCode":"10017050","townName":"中山區","level":"village","unassigned":false,"note":"","label":[121.73792818110411,25.142844133653682],"bounds":[121.733544,25.140658,121.741827,25.144612],"focusBounds":[121.733544,25.140658,121.741827,25.144612],"color":"#58b99d"}},{"type":"Feature","id":"10017050009","geometry":{"type":"Polygon","coordinates":[[[121.742489,25.14767],[121.742472,25.149067],[121.741884,25.150271],[121.739078,25.146561],[121.738491,25.146746],[121.738292,25.146384],[121.737702,25.146733],[121.737016,25.146757],[121.73699,25.146586],[121.73732,25.146484],[121.737394,25.146147],[121.737789,25.146145],[121.737924,25.14584],[121.737228,25.145613],[121.737126,25.145059],[121.737422,25.144184],[121.738067,25.144612],[121.738716,25.144053],[121.740968,25.144053],[121.741669,25.14405],[121.742408,25.143186],[121.743036,25.141926],[121.743012,25.141319],[121.743474,25.141475],[121.743649,25.142712],[121.744236,25.143749],[121.744238,25.146144],[121.742605,25.147215],[121.742489,25.14767]]]},"properties":{"code":"10017050009","name":"通化里","countyCode":"10017","countyName":"基隆市","townCode":"10017050","townName":"中山區","level":"village","unassigned":false,"note":"","label":[121.74098270840942,25.145906959689086],"bounds":[121.73699,25.141319,121.744238,25.150271],"focusBounds":[121.73699,25.141319,121.744238,25.150271],"color":"#efb44f"}},{"type":"Feature","id":"10017050010","geometry":{"type":"Polygon","coordinates":[[[121.735699,25.147672],[121.73422,25.149005],[121.734142,25.149434],[121.733037,25.149421],[121.729885,25.145614],[121.729879,25.144803],[121.729888,25.143831],[121.731023,25.144095],[121.731968,25.143543],[121.732138,25.14249],[121.731478,25.141896],[121.732197,25.140433],[121.732599,25.140839],[121.733334,25.141019],[121.733544,25.141123],[121.735698,25.143404],[121.737422,25.144184],[121.737126,25.145059],[121.737228,25.145613],[121.737924,25.14584],[121.737789,25.146145],[121.737394,25.146147],[121.73732,25.146484],[121.73699,25.146586],[121.737016,25.146757],[121.736178,25.146877],[121.735527,25.146718],[121.735699,25.147672]]]},"properties":{"code":"10017050010","name":"居仁里","countyCode":"10017","countyName":"基隆市","townCode":"10017050","townName":"中山區","level":"village","unassigned":false,"note":"","label":[121.73359918263603,25.145304548339883],"bounds":[121.729879,25.140433,121.737924,25.149434],"focusBounds":[121.729879,25.140433,121.737924,25.149434],"color":"#78a7e3"}},{"type":"Feature","id":"10017050011","geometry":{"type":"Polygon","coordinates":[[[121.741884,25.150271],[121.73931,25.151256],[121.738969,25.1509],[121.739103,25.150787],[121.738697,25.150439],[121.737571,25.150543],[121.736482,25.151209],[121.73632,25.150663],[121.737122,25.149696],[121.736797,25.149089],[121.737023,25.148715],[121.735699,25.147672],[121.735527,25.146718],[121.736178,25.146877],[121.737016,25.146757],[121.737702,25.146733],[121.738292,25.146384],[121.738491,25.146746],[121.739078,25.146561],[121.741884,25.150271]]]},"properties":{"code":"10017050011","name":"通明里","countyCode":"10017","countyName":"基隆市","townCode":"10017050","townName":"中山區","level":"village","unassigned":false,"note":"","label":[121.73863249525739,25.148717698942278],"bounds":[121.735527,25.146384,121.741884,25.151256],"focusBounds":[121.735527,25.146384,121.741884,25.151256],"color":"#dd8590"}},{"type":"Feature","id":"10017050012","geometry":{"type":"Polygon","coordinates":[[[121.743059,25.157167],[121.742629,25.157267],[121.739671,25.159521],[121.739936,25.16033],[121.739286,25.16044],[121.738902,25.160943],[121.738517,25.161008],[121.73818,25.160921],[121.737338,25.160308],[121.736641,25.15928],[121.736438,25.159386],[121.735595,25.159328],[121.735533,25.159434],[121.735504,25.159266],[121.734784,25.158944],[121.734675,25.158619],[121.734412,25.158546],[121.734172,25.158181],[121.734053,25.158234],[121.734077,25.15857],[121.7339,25.158366],[121.733766,25.158453],[121.733911,25.158678],[121.733815,25.158752],[121.733603,25.158572],[121.733603,25.159029],[121.734246,25.158633],[121.734319,25.1587],[121.733884,25.159015],[121.734067,25.159454],[121.734333,25.159878],[121.734615,25.159849],[121.734404,25.159992],[121.734556,25.160228],[121.734997,25.160023],[121.735098,25.160167],[121.734763,25.16035],[121.734849,25.160522],[121.733936,25.161455],[121.732976,25.161876],[121.732734,25.16165],[121.7323,25.162066],[121.732122,25.162704],[121.731266,25.162693],[121.73082,25.163263],[121.730685,25.163693],[121.73028,25.164],[121.729478,25.163592],[121.72893,25.163693],[121.728322,25.164123],[121.727444,25.164061],[121.726836,25.164246],[121.726037,25.164637],[121.725351,25.165536],[121.724676,25.165781],[121.723663,25.165167],[121.717383,25.165966],[121.717451,25.166949],[121.716978,25.167317],[121.716371,25.167133],[121.715763,25.166089],[121.713872,25.165966],[121.713737,25.166335],[121.712724,25.166028],[121.712631,25.165689],[121.713123,25.164638],[121.714399,25.163224],[121.71614,25.163014],[121.716703,25.162367],[121.71716,25.162336],[121.717412,25.162449],[121.717462,25.162864],[121.717604,25.162921],[121.717824,25.162891],[121.718012,25.162618],[121.718453,25.162573],[121.719621,25.163069],[121.721415,25.162946],[121.721701,25.163288],[121.721937,25.163273],[121.722047,25.163229],[121.721951,25.163101],[121.721604,25.16293],[121.721682,25.162744],[121.72256,25.162166],[121.722651,25.161478],[121.723263,25.161188],[121.723701,25.160756],[121.723891,25.160898],[121.723769,25.161573],[121.723975,25.161844],[121.724701,25.162127],[121.724906,25.162069],[121.725452,25.161249],[121.725829,25.161104],[121.72701,25.161041],[121.727416,25.161698],[121.728085,25.161951],[121.730706,25.159477],[121.731173,25.159872],[121.731712,25.158744],[121.731934,25.156969],[121.732481,25.156365],[121.732494,25.156118],[121.733153,25.155141],[121.733487,25.153959],[121.735319,25.153127],[121.736264,25.15241],[121.736634,25.151846],[121.736482,25.151209],[121.737571,25.150543],[121.738697,25.150439],[121.739103,25.150787],[121.738969,25.1509],[121.73931,25.151256],[121.741884,25.150271],[121.741516,25.151012],[121.740728,25.153578],[121.740545,25.153722],[121.740547,25.154081],[121.741105,25.155165],[121.741633,25.155819],[121.743059,25.157167]]]},"properties":{"code":"10017050012","name":"協和里","countyCode":"10017","countyName":"基隆市","townCode":"10017050","townName":"中山區","level":"village","unassigned":false,"note":"","label":[121.73717049690056,25.156116105288106],"bounds":[121.712631,25.150271,121.743059,25.167317],"focusBounds":[121.712631,25.150271,121.743059,25.167317],"color":"#a49ad4"}},{"type":"Feature","id":"10017050013","geometry":{"type":"Polygon","coordinates":[[[121.736482,25.151209],[121.736634,25.151846],[121.736264,25.15241],[121.735319,25.153127],[121.733487,25.153959],[121.733153,25.155141],[121.732494,25.156118],[121.732481,25.156365],[121.731934,25.156969],[121.731712,25.158744],[121.731173,25.159872],[121.730706,25.159477],[121.728085,25.161951],[121.727416,25.161698],[121.72701,25.161041],[121.727586,25.160393],[121.726862,25.15846],[121.727086,25.156066],[121.727542,25.155017],[121.728585,25.153884],[121.728824,25.153434],[121.729053,25.152194],[121.728706,25.15177],[121.729206,25.151628],[121.731916,25.149408],[121.733037,25.149421],[121.734142,25.149434],[121.73422,25.149005],[121.735699,25.147672],[121.737023,25.148715],[121.736797,25.149089],[121.737122,25.149696],[121.73632,25.150663],[121.736482,25.151209]]]},"properties":{"code":"10017050013","name":"文化里","countyCode":"10017","countyName":"基隆市","townCode":"10017050","townName":"中山區","level":"village","unassigned":false,"note":"","label":[121.73100656284149,25.154242861102347],"bounds":[121.726862,25.147672,121.737122,25.161951],"focusBounds":[121.726862,25.147672,121.737122,25.161951],"color":"#a8bf62"}},{"type":"Feature","id":"10017050014","geometry":{"type":"Polygon","coordinates":[[[121.753641,25.145119],[121.753112,25.148203],[121.752936,25.148239],[121.750333,25.146918],[121.749183,25.148824],[121.746089,25.148261],[121.745817,25.148509],[121.7451,25.148401],[121.742489,25.14767],[121.742605,25.147215],[121.744238,25.146144],[121.747228,25.144387],[121.748551,25.144955],[121.748491,25.145194],[121.748857,25.145357],[121.749144,25.145084],[121.749379,25.145212],[121.749617,25.144957],[121.753641,25.145119]]]},"properties":{"code":"10017050014","name":"仙洞里","countyCode":"10017","countyName":"基隆市","townCode":"10017050","townName":"中山區","level":"village","unassigned":false,"note":"","label":[121.7472164553429,25.146429726013665],"bounds":[121.742489,25.144387,121.753641,25.148824],"focusBounds":[121.742489,25.144387,121.753641,25.148824],"color":"#68bec9"}},{"type":"Feature","id":"10017050015","geometry":{"type":"Polygon","coordinates":[[[121.749725,25.156866],[121.748502,25.15625],[121.747406,25.156661],[121.747069,25.157259],[121.746344,25.15693],[121.745297,25.156809],[121.744843,25.156909],[121.744332,25.157392],[121.743989,25.157487],[121.743943,25.157322],[121.744311,25.156995],[121.743878,25.156571],[121.743522,25.156476],[121.743517,25.156623],[121.743977,25.156865],[121.743736,25.157045],[121.743059,25.157167],[121.741633,25.155819],[121.741105,25.155165],[121.740547,25.154081],[121.740545,25.153722],[121.740728,25.153578],[121.741516,25.151012],[121.741884,25.150271],[121.742472,25.149067],[121.742489,25.14767],[121.7451,25.148401],[121.745817,25.148509],[121.746089,25.148261],[121.749183,25.148824],[121.752615,25.150504],[121.751558,25.152361],[121.747099,25.150237],[121.7458,25.150955],[121.745517,25.150818],[121.745472,25.150905],[121.744828,25.150452],[121.74451,25.150827],[121.749897,25.154613],[121.751974,25.154335],[121.752141,25.155231],[121.752877,25.155064],[121.752841,25.155367],[121.750422,25.155659],[121.749725,25.156866]]]},"properties":{"code":"10017050015","name":"太白里","countyCode":"10017","countyName":"基隆市","townCode":"10017050","townName":"中山區","level":"village","unassigned":false,"note":"","label":[121.74421424706075,25.15392818144381],"bounds":[121.740545,25.14767,121.752877,25.157487],"focusBounds":[121.740545,25.14767,121.752877,25.157487],"color":"#c38cb8"}},{"type":"Feature","id":"10017050016","geometry":{"type":"Polygon","coordinates":[[[121.736547,25.133499],[121.735255,25.1333],[121.734934,25.133988],[121.734711,25.133842],[121.734915,25.133439],[121.735021,25.131807],[121.735456,25.131612],[121.7357,25.131705],[121.735705,25.131943],[121.736333,25.132478],[121.736547,25.133499]]]},"properties":{"code":"10017050016","name":"西榮里","countyCode":"10017","countyName":"基隆市","townCode":"10017050","townName":"中山區","level":"village","unassigned":false,"note":"","label":[121.73560317993935,25.13271923800909],"bounds":[121.734711,25.131612,121.736547,25.133988],"focusBounds":[121.734711,25.131612,121.736547,25.133988],"color":"#c38cb8"}},{"type":"Feature","id":"10017050017","geometry":{"type":"Polygon","coordinates":[[[121.735869,25.13717],[121.734223,25.137872],[121.733549,25.137969],[121.732935,25.137731],[121.732847,25.136633],[121.732441,25.13648],[121.732495,25.136327],[121.732625,25.135736],[121.733589,25.135121],[121.734711,25.133842],[121.734934,25.133988],[121.735255,25.1333],[121.736547,25.133499],[121.736521,25.133873],[121.73593,25.13592],[121.735974,25.136502],[121.7362,25.13662],[121.736216,25.136963],[121.735869,25.13717]]]},"properties":{"code":"10017050017","name":"西華里","countyCode":"10017","countyName":"基隆市","townCode":"10017050","townName":"中山區","level":"village","unassigned":false,"note":"","label":[121.73459770414664,25.135958785854157],"bounds":[121.732441,25.1333,121.736547,25.137969],"focusBounds":[121.732441,25.1333,121.736547,25.137969],"color":"#98b69b"}},{"type":"Feature","id":"10017050018","geometry":{"type":"Polygon","coordinates":[[[121.733334,25.141019],[121.732599,25.140839],[121.732197,25.140433],[121.731478,25.141896],[121.731031,25.140834],[121.730766,25.141017],[121.73053,25.140622],[121.730565,25.140265],[121.730232,25.139538],[121.730187,25.138691],[121.729663,25.138459],[121.731271,25.137617],[121.732441,25.13648],[121.732847,25.136633],[121.732935,25.137731],[121.733549,25.137969],[121.734223,25.137872],[121.735869,25.13717],[121.736107,25.138236],[121.735879,25.138657],[121.735014,25.138801],[121.734712,25.140014],[121.734118,25.14027],[121.733334,25.141019]]]},"properties":{"code":"10017050018","name":"西定里","countyCode":"10017","countyName":"基隆市","townCode":"10017050","townName":"中山區","level":"village","unassigned":false,"note":"","label":[121.7327586173866,25.139178483283594],"bounds":[121.729663,25.13648,121.736107,25.141896],"focusBounds":[121.729663,25.13648,121.736107,25.141896],"color":"#58b99d"}},{"type":"Feature","id":"10017050019","geometry":{"type":"Polygon","coordinates":[[[121.729879,25.144803],[121.729596,25.144727],[121.729483,25.144168],[121.729183,25.143969],[121.72794,25.144119],[121.727261,25.143764],[121.726868,25.14388],[121.726687,25.144455],[121.725997,25.14444],[121.726053,25.144585],[121.725176,25.145235],[121.72515,25.144894],[121.72558,25.144598],[121.725561,25.14437],[121.725409,25.144126],[121.725709,25.144077],[121.725762,25.143868],[121.725356,25.143827],[121.725461,25.142929],[121.725536,25.142428],[121.72592,25.141759],[121.726691,25.141247],[121.726975,25.140446],[121.727667,25.140151],[121.72846,25.139514],[121.72894,25.139269],[121.729663,25.138459],[121.730187,25.138691],[121.730232,25.139538],[121.730565,25.140265],[121.73053,25.140622],[121.730766,25.141017],[121.731031,25.140834],[121.731478,25.141896],[121.732138,25.14249],[121.731968,25.143543],[121.731023,25.144095],[121.729888,25.143831],[121.729879,25.144803]]]},"properties":{"code":"10017050019","name":"西康里","countyCode":"10017","countyName":"基隆市","townCode":"10017050","townName":"中山區","level":"village","unassigned":false,"note":"","label":[121.72873092668696,25.142017102369906],"bounds":[121.72515,25.138459,121.732138,25.145235],"focusBounds":[121.72515,25.138459,121.732138,25.145235],"color":"#efb44f"}},{"type":"Feature","id":"10017050020","geometry":{"type":"Polygon","coordinates":[[[121.733037,25.149421],[121.731916,25.149408],[121.729206,25.151628],[121.728706,25.15177],[121.72756,25.150047],[121.725836,25.148639],[121.725083,25.150226],[121.724202,25.149391],[121.722722,25.146951],[121.722387,25.146373],[121.722437,25.145865],[121.722597,25.145604],[121.722572,25.145266],[121.723316,25.144079],[121.724297,25.143866],[121.725045,25.143895],[121.725188,25.144291],[121.725561,25.14437],[121.72558,25.144598],[121.72515,25.144894],[121.725176,25.145235],[121.726053,25.144585],[121.725997,25.14444],[121.726687,25.144455],[121.726868,25.14388],[121.727261,25.143764],[121.72794,25.144119],[121.729183,25.143969],[121.729483,25.144168],[121.729596,25.144727],[121.729879,25.144803],[121.729885,25.145614],[121.733037,25.149421]]]},"properties":{"code":"10017050020","name":"德和里","countyCode":"10017","countyName":"基隆市","townCode":"10017050","townName":"中山區","level":"village","unassigned":false,"note":"","label":[121.72770333275355,25.146886691922774],"bounds":[121.722387,25.143764,121.733037,25.15177],"focusBounds":[121.722387,25.143764,121.733037,25.15177],"color":"#a49ad4"}},{"type":"Feature","id":"10017050021","geometry":{"type":"Polygon","coordinates":[[[121.723701,25.160756],[121.723263,25.161188],[121.722651,25.161478],[121.72256,25.162166],[121.721682,25.162744],[121.721604,25.16293],[121.721951,25.163101],[121.722047,25.163229],[121.721937,25.163273],[121.721701,25.163288],[121.721415,25.162946],[121.719621,25.163069],[121.718453,25.162573],[121.718012,25.162618],[121.717824,25.162891],[121.717604,25.162921],[121.717462,25.162864],[121.717412,25.162449],[121.71716,25.162336],[121.716703,25.162367],[121.71614,25.163014],[121.714399,25.163224],[121.715059,25.162344],[121.715033,25.161273],[121.714833,25.160918],[121.713746,25.160071],[121.712434,25.159365],[121.710541,25.15855],[121.709851,25.158535],[121.710033,25.156987],[121.710348,25.156679],[121.710936,25.155187],[121.711397,25.154624],[121.710755,25.153839],[121.710779,25.153107],[121.711102,25.152635],[121.711887,25.152256],[121.712791,25.151975],[121.713482,25.152052],[121.715262,25.151634],[121.716322,25.151625],[121.716495,25.151197],[121.716781,25.150998],[121.717135,25.151275],[121.717652,25.151151],[121.718063,25.149278],[121.718436,25.148987],[121.718818,25.148959],[121.718805,25.148288],[121.719115,25.147773],[121.718003,25.147275],[121.717585,25.147472],[121.717205,25.147216],[121.716805,25.147253],[121.716356,25.147865],[121.715044,25.146985],[121.715405,25.145783],[121.715389,25.145216],[121.715974,25.144686],[121.715956,25.143641],[121.716209,25.143318],[121.716889,25.142937],[121.717319,25.14208],[121.717831,25.141786],[121.718409,25.141127],[121.720985,25.139353],[121.721122,25.139614],[121.720966,25.140313],[121.721085,25.141207],[121.721375,25.141694],[121.722731,25.139914],[121.723428,25.140547],[121.72355,25.140903],[121.723156,25.141294],[121.724054,25.141794],[121.724013,25.14202],[121.724227,25.141991],[121.724468,25.142165],[121.724914,25.141927],[121.72488,25.141795],[121.72592,25.141759],[121.725536,25.142428],[121.725461,25.142929],[121.725356,25.143827],[121.725762,25.143868],[121.725709,25.144077],[121.725409,25.144126],[121.725561,25.14437],[121.725188,25.144291],[121.725045,25.143895],[121.724297,25.143866],[121.723316,25.144079],[121.722572,25.145266],[121.722597,25.145604],[121.722437,25.145865],[121.722387,25.146373],[121.722722,25.146951],[121.722469,25.147307],[121.722648,25.148204],[121.722412,25.149032],[121.719614,25.152951],[121.719521,25.153437],[121.719714,25.154594],[121.719589,25.156292],[121.71877,25.157292],[121.718873,25.157436],[121.719312,25.157487],[121.71946,25.157799],[121.719344,25.158693],[121.719554,25.159436],[121.719152,25.160127],[121.71906,25.160648],[121.719395,25.160748],[121.719651,25.161094],[121.720229,25.161195],[121.722674,25.159744],[121.723395,25.159753],[121.723701,25.160756]]]},"properties":{"code":"10017050021","name":"中和里","countyCode":"10017","countyName":"基隆市","townCode":"10017050","townName":"中山區","level":"village","unassigned":false,"note":"","label":[121.71520072579067,25.155927083899723],"bounds":[121.709851,25.139353,121.72592,25.163288],"focusBounds":[121.709851,25.139353,121.72592,25.163288],"color":"#dd8590"}},{"type":"Feature","id":"10017050022","geometry":{"type":"Polygon","coordinates":[[[121.72701,25.161041],[121.725829,25.161104],[121.725452,25.161249],[121.724906,25.162069],[121.724701,25.162127],[121.723975,25.161844],[121.723769,25.161573],[121.723891,25.160898],[121.723701,25.160756],[121.723395,25.159753],[121.722674,25.159744],[121.720229,25.161195],[121.719651,25.161094],[121.719395,25.160748],[121.71906,25.160648],[121.719152,25.160127],[121.719554,25.159436],[121.719344,25.158693],[121.71946,25.157799],[121.719312,25.157487],[121.718873,25.157436],[121.71877,25.157292],[121.719589,25.156292],[121.719714,25.154594],[121.719521,25.153437],[121.719614,25.152951],[121.722412,25.149032],[121.722648,25.148204],[121.722469,25.147307],[121.722722,25.146951],[121.724202,25.149391],[121.725083,25.150226],[121.725836,25.148639],[121.72756,25.150047],[121.728706,25.15177],[121.729053,25.152194],[121.728824,25.153434],[121.728585,25.153884],[121.727542,25.155017],[121.727086,25.156066],[121.726862,25.15846],[121.727586,25.160393],[121.72701,25.161041]]]},"properties":{"code":"10017050022","name":"德安里","countyCode":"10017","countyName":"基隆市","townCode":"10017050","townName":"中山區","level":"village","unassigned":false,"note":"","label":[121.72371691323649,25.154091461700904],"bounds":[121.71877,25.146951,121.729053,25.162127],"focusBounds":[121.71877,25.146951,121.729053,25.162127],"color":"#68bec9"}},{"type":"Feature","id":"10017050023","geometry":{"type":"Polygon","coordinates":[[[121.753641,25.145119],[121.749617,25.144957],[121.749379,25.145212],[121.749144,25.145084],[121.748857,25.145357],[121.748491,25.145194],[121.748551,25.144955],[121.747228,25.144387],[121.744238,25.146144],[121.744236,25.143749],[121.743649,25.142712],[121.743474,25.141475],[121.743012,25.141319],[121.743036,25.141926],[121.742408,25.143186],[121.741669,25.14405],[121.740968,25.144053],[121.741827,25.142248],[121.742226,25.141429],[121.742535,25.140807],[121.744687,25.139639],[121.746204,25.140237],[121.747418,25.141065],[121.747542,25.140927],[121.753641,25.145119]]]},"properties":{"code":"10017050023","name":"和平里","countyCode":"10017","countyName":"基隆市","townCode":"10017050","townName":"中山區","level":"village","unassigned":false,"note":"","label":[121.74600699092386,25.142631828058022],"bounds":[121.740968,25.139639,121.753641,25.146144],"focusBounds":[121.740968,25.139639,121.753641,25.146144],"color":"#a8bf62"}},{"type":"Feature","id":"10017050024","geometry":{"type":"Polygon","coordinates":[[[121.715044,25.146985],[121.716356,25.147865],[121.716805,25.147253],[121.717205,25.147216],[121.717585,25.147472],[121.718003,25.147275],[121.719115,25.147773],[121.718805,25.148288],[121.718818,25.148959],[121.718436,25.148987],[121.718063,25.149278],[121.717652,25.151151],[121.717135,25.151275],[121.716781,25.150998],[121.716495,25.151197],[121.716322,25.151625],[121.715262,25.151634],[121.713482,25.152052],[121.712791,25.151975],[121.711887,25.152256],[121.712103,25.151201],[121.712149,25.14974],[121.712478,25.148894],[121.712667,25.148676],[121.713543,25.148592],[121.714797,25.147972],[121.715044,25.146985]]]},"properties":{"code":"10017050024","name":"和慶里","countyCode":"10017","countyName":"基隆市","townCode":"10017050","townName":"中山區","level":"village","unassigned":false,"note":"","label":[121.7152546153657,25.14979380296102],"bounds":[121.711887,25.146985,121.719115,25.152256],"focusBounds":[121.711887,25.146985,121.719115,25.152256],"color":"#68bec9"}},{"type":"Feature","id":"10017050P01","geometry":{"type":"Polygon","coordinates":[[[121.74349,25.134508],[121.744846,25.136886],[121.745887,25.138079],[121.751365,25.141321],[121.753703,25.143144],[121.754693,25.144305],[121.755782,25.146586],[121.756383,25.148584],[121.756674,25.150637],[121.756584,25.151383],[121.755357,25.154139],[121.753382,25.15927],[121.752991,25.158512],[121.749725,25.156866],[121.750422,25.155659],[121.752841,25.155367],[121.752877,25.155064],[121.752141,25.155231],[121.751974,25.154335],[121.749897,25.154613],[121.74451,25.150827],[121.744828,25.150452],[121.745472,25.150905],[121.745517,25.150818],[121.7458,25.150955],[121.747099,25.150237],[121.751558,25.152361],[121.752615,25.150504],[121.749183,25.148824],[121.750333,25.146918],[121.752936,25.148239],[121.753112,25.148203],[121.753641,25.145119],[121.747542,25.140927],[121.747418,25.141065],[121.746204,25.140237],[121.744687,25.139639],[121.742535,25.140807],[121.742226,25.141429],[121.74076,25.140826],[121.741049,25.140232],[121.74173,25.138834],[121.741964,25.138802],[121.741951,25.138517],[121.743271,25.138466],[121.743707,25.138209],[121.741864,25.135415],[121.741812,25.135337],[121.74349,25.134508]]]},"properties":{"code":"10017050P01","name":"未編定村里","countyCode":"10017","countyName":"基隆市","townCode":"10017050","townName":"中山區","level":"village","unassigned":true,"note":"未編定村里","label":[121.75381669116656,25.15251686624299],"bounds":[121.74076,25.134508,121.756674,25.15927],"focusBounds":[121.74076,25.134508,121.756674,25.15927],"color":"#df9f6a"}}]}
