{"type":"FeatureCollection","features":[{"type":"Feature","id":"10013030001","geometry":{"type":"Polygon","coordinates":[[[120.454748,22.468697],[120.454048,22.469705],[120.452994,22.47037],[120.451428,22.469401],[120.449916,22.466887],[120.452606,22.465558],[120.45643,22.464419],[120.45665,22.464469],[120.456391,22.465934],[120.454748,22.468697]]]},"properties":{"code":"10013030001","name":"新勝里","countyCode":"10013","countyName":"屏東縣","townCode":"10013030","townName":"東港鎮","level":"village","unassigned":false,"note":"","label":[120.45309767062729,22.467552197599716],"bounds":[120.449916,22.464419,120.45665,22.47037],"focusBounds":[120.449916,22.464419,120.45665,22.47037],"color":"#c38cb8"}},{"type":"Feature","id":"10013030003","geometry":{"type":"Polygon","coordinates":[[[120.452994,22.47037],[120.450756,22.472624],[120.449628,22.472411],[120.447293,22.471938],[120.445938,22.471525],[120.445814,22.47138],[120.447149,22.468383],[120.448506,22.467616],[120.449916,22.466887],[120.451428,22.469401],[120.452994,22.47037]]]},"properties":{"code":"10013030003","name":"頂中里","countyCode":"10013","countyName":"屏東縣","townCode":"10013030","townName":"東港鎮","level":"village","unassigned":false,"note":"","label":[120.44925502262325,22.470108534320165],"bounds":[120.445814,22.466887,120.452994,22.472624],"focusBounds":[120.445814,22.466887,120.452994,22.472624],"color":"#df9f6a"}},{"type":"Feature","id":"10013030007","geometry":{"type":"Polygon","coordinates":[[[120.448506,22.467616],[120.447149,22.468383],[120.445814,22.47138],[120.445036,22.469477],[120.444005,22.468496],[120.442374,22.467714],[120.440387,22.467241],[120.438019,22.465756],[120.437286,22.46547],[120.437289,22.464949],[120.438312,22.465307],[120.438421,22.465147],[120.438375,22.465343],[120.440861,22.467059],[120.443181,22.467417],[120.44364,22.46731],[120.443499,22.466682],[120.442949,22.466788],[120.442887,22.466531],[120.443707,22.466349],[120.444519,22.46585],[120.444743,22.466009],[120.444906,22.465842],[120.444844,22.465583],[120.445195,22.465509],[120.445318,22.465334],[120.445223,22.46525],[120.445819,22.464624],[120.445657,22.464413],[120.4457,22.464335],[120.447355,22.465528],[120.448506,22.467616]]]},"properties":{"code":"10013030007","name":"朝安里","countyCode":"10013","countyName":"屏東縣","townCode":"10013030","townName":"東港鎮","level":"village","unassigned":false,"note":"","label":[120.44588606001481,22.46733329305444],"bounds":[120.437286,22.464335,120.448506,22.47138],"focusBounds":[120.437286,22.464335,120.448506,22.47138],"color":"#98b69b"}},{"type":"Feature","id":"10013030009","geometry":{"type":"Polygon","coordinates":[[[120.45017,22.461359],[120.450615,22.46246],[120.450553,22.463481],[120.451638,22.463549],[120.451533,22.465036],[120.448688,22.464666],[120.447784,22.464371],[120.447487,22.463966],[120.447054,22.462366],[120.447814,22.462123],[120.449575,22.461668],[120.45017,22.461359]]]},"properties":{"code":"10013030009","name":"東隆里","countyCode":"10013","countyName":"屏東縣","townCode":"10013030","townName":"東港鎮","level":"village","unassigned":false,"note":"","label":[120.44912634096579,22.46325330735795],"bounds":[120.447054,22.461359,120.451638,22.465036],"focusBounds":[120.447054,22.461359,120.451638,22.465036],"color":"#98b69b"}},{"type":"Feature","id":"10013030010","geometry":{"type":"Polygon","coordinates":[[[120.445657,22.464413],[120.445569,22.464298],[120.445352,22.464589],[120.444459,22.465012],[120.444082,22.464844],[120.443802,22.465069],[120.44331,22.464507],[120.442479,22.465107],[120.442649,22.465392],[120.441386,22.466356],[120.440918,22.466323],[120.440048,22.465525],[120.440095,22.464914],[120.441245,22.463967],[120.441579,22.462694],[120.442099,22.461692],[120.442264,22.46178],[120.442554,22.461314],[120.444094,22.462668],[120.4457,22.464335],[120.445657,22.464413]]]},"properties":{"code":"10013030010","name":"豐漁里","countyCode":"10013","countyName":"屏東縣","townCode":"10013030","townName":"東港鎮","level":"village","unassigned":false,"note":"","label":[120.44267310711537,22.46344955389295],"bounds":[120.440048,22.461314,120.4457,22.466356],"focusBounds":[120.440048,22.461314,120.4457,22.466356],"color":"#58b99d"}},{"type":"Feature","id":"10013030011","geometry":{"type":"Polygon","coordinates":[[[120.447054,22.462366],[120.446418,22.462603],[120.446059,22.46299],[120.4457,22.464335],[120.444094,22.462668],[120.445508,22.461417],[120.44603,22.460656],[120.446781,22.460783],[120.446956,22.460311],[120.445448,22.459927],[120.445534,22.459717],[120.445263,22.459242],[120.4465,22.457998],[120.447445,22.458064],[120.447258,22.459134],[120.447677,22.460122],[120.447801,22.460499],[120.447532,22.461521],[120.447742,22.461587],[120.447814,22.462123],[120.447054,22.462366]]]},"properties":{"code":"10013030011","name":"盛漁里","countyCode":"10013","countyName":"屏東縣","townCode":"10013030","townName":"東港鎮","level":"village","unassigned":false,"note":"","label":[120.44641612135571,22.461663320247702],"bounds":[120.444094,22.457998,120.447814,22.464335],"focusBounds":[120.444094,22.457998,120.447814,22.464335],"color":"#efb44f"}},{"type":"Feature","id":"10013030012","geometry":{"type":"Polygon","coordinates":[[[120.45017,22.461359],[120.449575,22.461668],[120.447814,22.462123],[120.447742,22.461587],[120.447532,22.461521],[120.447801,22.460499],[120.447677,22.460122],[120.44981,22.459257],[120.450609,22.459114],[120.451149,22.459955],[120.450705,22.460423],[120.45017,22.461359]]]},"properties":{"code":"10013030012","name":"興漁里","countyCode":"10013","countyName":"屏東縣","townCode":"10013030","townName":"東港鎮","level":"village","unassigned":false,"note":"","label":[120.44927317713456,22.460610308305373],"bounds":[120.447532,22.459114,120.451149,22.462123],"focusBounds":[120.447532,22.459114,120.451149,22.462123],"color":"#78a7e3"}},{"type":"Feature","id":"10013030013","geometry":{"type":"Polygon","coordinates":[[[120.444094,22.462668],[120.442554,22.461314],[120.442264,22.46178],[120.442099,22.461692],[120.441579,22.462694],[120.441245,22.463967],[120.440095,22.464914],[120.438426,22.46459],[120.439173,22.464592],[120.43917,22.463739],[120.436868,22.463593],[120.435458,22.464387],[120.435332,22.464184],[120.436743,22.463373],[120.438714,22.463638],[120.438658,22.463272],[120.439196,22.46224],[120.439451,22.462367],[120.440972,22.460065],[120.442816,22.457883],[120.446281,22.454491],[120.447089,22.455087],[120.447971,22.455066],[120.447445,22.458064],[120.4465,22.457998],[120.445263,22.459242],[120.445534,22.459717],[120.445448,22.459927],[120.446956,22.460311],[120.446781,22.460783],[120.44603,22.460656],[120.445508,22.461417],[120.444094,22.462668]]]},"properties":{"code":"10013030013","name":"鎮海里","countyCode":"10013","countyName":"屏東縣","townCode":"10013030","townName":"東港鎮","level":"village","unassigned":false,"note":"","label":[120.44356436234966,22.459676117829325],"bounds":[120.435332,22.454491,120.447971,22.464914],"focusBounds":[120.435332,22.454491,120.447971,22.464914],"color":"#dd8590"}},{"type":"Feature","id":"10013030014","geometry":{"type":"Polygon","coordinates":[[[120.460097,22.459672],[120.458317,22.460149],[120.455715,22.460398],[120.454197,22.461101],[120.453281,22.460746],[120.452348,22.460131],[120.451149,22.459955],[120.450609,22.459114],[120.44981,22.459257],[120.447677,22.460122],[120.447258,22.459134],[120.447445,22.458064],[120.447971,22.455066],[120.447089,22.455087],[120.446281,22.454491],[120.451407,22.449356],[120.451836,22.448662],[120.45201,22.448042],[120.451311,22.447572],[120.451407,22.447442],[120.453009,22.44833],[120.454225,22.449251],[120.454734,22.448731],[120.458322,22.452066],[120.458543,22.452602],[120.458581,22.453905],[120.460211,22.456001],[120.46094,22.456388],[120.460302,22.456611],[120.45958,22.456638],[120.459543,22.456749],[120.460097,22.459672]]]},"properties":{"code":"10013030014","name":"嘉蓮里","countyCode":"10013","countyName":"屏東縣","townCode":"10013030","townName":"東港鎮","level":"village","unassigned":false,"note":"","label":[120.45340641798198,22.45471272494343],"bounds":[120.446281,22.447442,120.46094,22.461101],"focusBounds":[120.446281,22.447442,120.46094,22.461101],"color":"#a49ad4"}},{"type":"Feature","id":"10013030015","geometry":{"type":"Polygon","coordinates":[[[120.472006,22.453941],[120.469413,22.454255],[120.463257,22.455429],[120.46094,22.456388],[120.460211,22.456001],[120.458581,22.453905],[120.458543,22.452602],[120.458322,22.452066],[120.454734,22.448731],[120.454997,22.448463],[120.453975,22.447708],[120.454039,22.447586],[120.452258,22.446101],[120.452369,22.445971],[120.453423,22.446918],[120.453779,22.446973],[120.455249,22.446202],[120.457374,22.444845],[120.457807,22.444402],[120.460048,22.443346],[120.462301,22.441577],[120.463611,22.440863],[120.464226,22.440325],[120.470872,22.436186],[120.482196,22.43003],[120.482767,22.430992],[120.482265,22.431304],[120.482293,22.431814],[120.483297,22.431322],[120.483668,22.432007],[120.483445,22.432109],[120.483933,22.432781],[120.48377,22.432971],[120.484146,22.433428],[120.485209,22.434507],[120.487356,22.436165],[120.486709,22.437231],[120.487229,22.437725],[120.487616,22.43842],[120.489096,22.442525],[120.485545,22.444238],[120.479375,22.447932],[120.47438,22.45156],[120.472006,22.453941]]]},"properties":{"code":"10013030015","name":"南平里","countyCode":"10013","countyName":"屏東縣","townCode":"10013030","townName":"東港鎮","level":"village","unassigned":false,"note":"","label":[120.47029512392427,22.44534677317521],"bounds":[120.452258,22.43003,120.489096,22.456388],"focusBounds":[120.452258,22.43003,120.489096,22.456388],"color":"#a8bf62"}},{"type":"Feature","id":"10013030016","geometry":{"type":"Polygon","coordinates":[[[120.484695,22.47102],[120.484458,22.471916],[120.484781,22.472163],[120.484767,22.472323],[120.480508,22.471535],[120.46375,22.46843],[120.463703,22.467763],[120.460984,22.45942],[120.460097,22.459672],[120.459543,22.456749],[120.45958,22.456638],[120.460302,22.456611],[120.46094,22.456388],[120.463257,22.455429],[120.469413,22.454255],[120.472006,22.453941],[120.47282,22.455675],[120.473183,22.456923],[120.473756,22.457812],[120.474171,22.45929],[120.479567,22.457636],[120.480676,22.458459],[120.480252,22.458886],[120.479798,22.459735],[120.480304,22.459598],[120.481052,22.459827],[120.482884,22.459996],[120.484082,22.460717],[120.484141,22.460839],[120.483235,22.461637],[120.482735,22.462745],[120.482291,22.463136],[120.482146,22.465194],[120.48133,22.465665],[120.481132,22.46722],[120.48046,22.467895],[120.48031,22.468445],[120.484695,22.47102]]]},"properties":{"code":"10013030016","name":"船頭里","countyCode":"10013","countyName":"屏東縣","townCode":"10013030","townName":"東港鎮","level":"village","unassigned":false,"note":"","label":[120.46959440152133,22.463312177248497],"bounds":[120.459543,22.453941,120.484781,22.472323],"focusBounds":[120.459543,22.453941,120.484781,22.472323],"color":"#68bec9"}},{"type":"Feature","id":"10013030017","geometry":{"type":"Polygon","coordinates":[[[120.501677,22.460463],[120.501571,22.46256],[120.501729,22.463029],[120.50153,22.465327],[120.502027,22.465436],[120.501969,22.466444],[120.501912,22.466782],[120.501637,22.466788],[120.501402,22.468169],[120.500678,22.468311],[120.500485,22.468528],[120.500488,22.469766],[120.501283,22.471736],[120.501247,22.473277],[120.501365,22.47374],[120.50064,22.474072],[120.500138,22.474069],[120.499867,22.474378],[120.499026,22.474376],[120.498824,22.475791],[120.498715,22.475773],[120.494908,22.475112],[120.491674,22.474771],[120.491298,22.47457],[120.49137,22.473613],[120.490265,22.473349],[120.490259,22.472683],[120.489323,22.472303],[120.487658,22.472007],[120.487047,22.471757],[120.486616,22.472026],[120.485868,22.471527],[120.484695,22.47102],[120.48031,22.468445],[120.48046,22.467895],[120.481132,22.46722],[120.48133,22.465665],[120.482146,22.465194],[120.482291,22.463136],[120.482735,22.462745],[120.483235,22.461637],[120.484141,22.460839],[120.484082,22.460717],[120.485669,22.45923],[120.485741,22.459391],[120.487997,22.460505],[120.489363,22.459267],[120.489939,22.459549],[120.490704,22.459342],[120.491048,22.459402],[120.491372,22.459579],[120.491422,22.459954],[120.491785,22.460327],[120.492628,22.460014],[120.493663,22.460523],[120.495863,22.460618],[120.496686,22.46081],[120.497402,22.460704],[120.498698,22.461203],[120.498924,22.461122],[120.499413,22.460451],[120.49976,22.460225],[120.500146,22.460182],[120.501677,22.460463]]]},"properties":{"code":"10013030017","name":"下廍里","countyCode":"10013","countyName":"屏東縣","townCode":"10013030","townName":"東港鎮","level":"village","unassigned":false,"note":"","label":[120.49140327084326,22.46659994836154],"bounds":[120.48031,22.45923,120.502027,22.475791],"focusBounds":[120.48031,22.45923,120.502027,22.475791],"color":"#df9f6a"}},{"type":"Feature","id":"10013030018","geometry":{"type":"Polygon","coordinates":[[[120.49976,22.460225],[120.499413,22.460451],[120.498924,22.461122],[120.498698,22.461203],[120.497402,22.460704],[120.496686,22.46081],[120.495863,22.460618],[120.493663,22.460523],[120.492628,22.460014],[120.491785,22.460327],[120.491422,22.459954],[120.491372,22.459579],[120.491048,22.459402],[120.490704,22.459342],[120.489939,22.459549],[120.489363,22.459267],[120.487997,22.460505],[120.485741,22.459391],[120.485669,22.45923],[120.484082,22.460717],[120.482884,22.459996],[120.481052,22.459827],[120.480304,22.459598],[120.479798,22.459735],[120.480252,22.458886],[120.480676,22.458459],[120.479567,22.457636],[120.474171,22.45929],[120.473756,22.457812],[120.473183,22.456923],[120.47282,22.455675],[120.472006,22.453941],[120.47438,22.45156],[120.479375,22.447932],[120.485545,22.444238],[120.489096,22.442525],[120.487616,22.43842],[120.487229,22.437725],[120.486709,22.437231],[120.487356,22.436165],[120.487577,22.436108],[120.487858,22.435544],[120.488283,22.435302],[120.488932,22.435161],[120.48925,22.435352],[120.490961,22.434679],[120.49164,22.434224],[120.492092,22.435169],[120.493131,22.4351],[120.495778,22.435913],[120.496236,22.436293],[120.497307,22.440494],[120.497557,22.441637],[120.498095,22.442453],[120.498306,22.443683],[120.498604,22.444341],[120.50098,22.44721],[120.501303,22.44795],[120.501693,22.448263],[120.503452,22.448379],[120.503575,22.449727],[120.501737,22.449716],[120.501051,22.450901],[120.499803,22.451507],[120.49951,22.452966],[120.499627,22.4553],[120.499004,22.455896],[120.49706,22.455699],[120.497339,22.456565],[120.497958,22.45724],[120.499512,22.46018],[120.49976,22.460225]]]},"properties":{"code":"10013030018","name":"大潭里","countyCode":"10013","countyName":"屏東縣","townCode":"10013030","townName":"東港鎮","level":"village","unassigned":false,"note":"","label":[120.48921734239757,22.450953032568194],"bounds":[120.472006,22.434224,120.503575,22.461203],"focusBounds":[120.472006,22.434224,120.503575,22.461203],"color":"#c38cb8"}},{"type":"Feature","id":"10013030020","geometry":{"type":"Polygon","coordinates":[[[120.480836,22.500204],[120.479391,22.500464],[120.47874,22.500258],[120.477609,22.499565],[120.476996,22.498676],[120.477132,22.496855],[120.476609,22.495287],[120.475407,22.494483],[120.474067,22.493336],[120.472864,22.492778],[120.472113,22.492204],[120.470329,22.491379],[120.469708,22.490499],[120.468552,22.489409],[120.467544,22.487921],[120.466571,22.485643],[120.465633,22.483924],[120.467646,22.482819],[120.468127,22.482796],[120.468811,22.482512],[120.471878,22.485678],[120.474859,22.485449],[120.476064,22.484938],[120.475923,22.485369],[120.476649,22.487058],[120.479323,22.487408],[120.479254,22.489165],[120.479412,22.489305],[120.480121,22.492076],[120.480043,22.49237],[120.489211,22.497748],[120.489021,22.498109],[120.488153,22.498733],[120.485056,22.499288],[120.482921,22.500002],[120.481993,22.499935],[120.480836,22.500204]]]},"properties":{"code":"10013030020","name":"興農里","countyCode":"10013","countyName":"屏東縣","townCode":"10013030","townName":"東港鎮","level":"village","unassigned":false,"note":"","label":[120.47648308118211,22.490937081378107],"bounds":[120.465633,22.482512,120.489211,22.500464],"focusBounds":[120.465633,22.482512,120.489211,22.500464],"color":"#58b99d"}},{"type":"Feature","id":"10013030021","geometry":{"type":"Polygon","coordinates":[[[120.493145,22.491988],[120.491934,22.492243],[120.490505,22.493725],[120.490298,22.494414],[120.4896,22.495474],[120.489211,22.497748],[120.480043,22.49237],[120.480121,22.492076],[120.479412,22.489305],[120.479254,22.489165],[120.479323,22.487408],[120.476649,22.487058],[120.475923,22.485369],[120.476064,22.484938],[120.476464,22.484375],[120.476466,22.483917],[120.476046,22.482622],[120.476188,22.481947],[120.479265,22.480995],[120.479807,22.480554],[120.479768,22.479179],[120.479612,22.478969],[120.479267,22.476423],[120.478963,22.472762],[120.479064,22.472659],[120.480536,22.472664],[120.480508,22.471535],[120.484767,22.472323],[120.484781,22.472163],[120.484458,22.471916],[120.484695,22.47102],[120.485868,22.471527],[120.486616,22.472026],[120.487047,22.471757],[120.487658,22.472007],[120.487481,22.472623],[120.487454,22.473881],[120.487762,22.475444],[120.487725,22.47622],[120.487554,22.477155],[120.487151,22.477971],[120.487165,22.480341],[120.488047,22.481607],[120.488548,22.482687],[120.48864,22.483576],[120.489083,22.483654],[120.489435,22.488221],[120.491075,22.488293],[120.492458,22.490697],[120.492433,22.49134],[120.493145,22.491988]]]},"properties":{"code":"10013030021","name":"興和里","countyCode":"10013","countyName":"屏東縣","townCode":"10013030","townName":"東港鎮","level":"village","unassigned":false,"note":"","label":[120.48356486128289,22.48438430193324],"bounds":[120.475923,22.47102,120.493145,22.497748],"focusBounds":[120.475923,22.47102,120.493145,22.497748],"color":"#efb44f"}},{"type":"Feature","id":"10013030022","geometry":{"type":"Polygon","coordinates":[[[120.45665,22.464469],[120.45643,22.464419],[120.452606,22.465558],[120.452211,22.465217],[120.451533,22.465036],[120.451638,22.463549],[120.450553,22.463481],[120.450615,22.46246],[120.45017,22.461359],[120.450705,22.460423],[120.451149,22.459955],[120.452348,22.460131],[120.453281,22.460746],[120.454197,22.461101],[120.455511,22.461828],[120.456063,22.462295],[120.45705,22.464387],[120.45665,22.464469]]]},"properties":{"code":"10013030022","name":"共和里","countyCode":"10013","countyName":"屏東縣","townCode":"10013030","townName":"東港鎮","level":"village","unassigned":false,"note":"","label":[120.45361966927871,22.463066860781684],"bounds":[120.45017,22.459955,120.45705,22.465558],"focusBounds":[120.45017,22.459955,120.45705,22.465558],"color":"#efb44f"}},{"type":"Feature","id":"10013030023","geometry":{"type":"Polygon","coordinates":[[[120.449916,22.466887],[120.448506,22.467616],[120.447355,22.465528],[120.4457,22.464335],[120.446059,22.46299],[120.446418,22.462603],[120.447054,22.462366],[120.447487,22.463966],[120.447784,22.464371],[120.448688,22.464666],[120.451533,22.465036],[120.452211,22.465217],[120.452606,22.465558],[120.449916,22.466887]]]},"properties":{"code":"10013030023","name":"福德里","countyCode":"10013","countyName":"屏東縣","townCode":"10013030","townName":"東港鎮","level":"village","unassigned":false,"note":"","label":[120.44892868516717,22.465890235977866],"bounds":[120.4457,22.462366,120.452606,22.467616],"focusBounds":[120.4457,22.462366,120.452606,22.467616],"color":"#78a7e3"}},{"type":"Feature","id":"10013030024","geometry":{"type":"Polygon","coordinates":[[[120.460097,22.459672],[120.460984,22.45942],[120.463703,22.467763],[120.46375,22.46843],[120.46157,22.468049],[120.459674,22.467225],[120.457944,22.465869],[120.457442,22.465246],[120.45705,22.464387],[120.456063,22.462295],[120.455511,22.461828],[120.454197,22.461101],[120.455715,22.460398],[120.458317,22.460149],[120.460097,22.459672]]]},"properties":{"code":"10013030024","name":"東津里","countyCode":"10013","countyName":"屏東縣","townCode":"10013030","townName":"東港鎮","level":"village","unassigned":false,"note":"","label":[120.45959517128583,22.46370210482263],"bounds":[120.454197,22.45942,120.46375,22.46843],"focusBounds":[120.454197,22.45942,120.46375,22.46843],"color":"#dd8590"}},{"type":"Feature","id":"10013030025","geometry":{"type":"Polygon","coordinates":[[[120.468811,22.482512],[120.468127,22.482796],[120.467646,22.482819],[120.465633,22.483924],[120.46187,22.479405],[120.459451,22.477726],[120.462945,22.47396],[120.467621,22.477373],[120.465829,22.479447],[120.468811,22.482512]]]},"properties":{"code":"10013030025","name":"內關帝里","countyCode":"10013","countyName":"屏東縣","townCode":"10013030","townName":"東港鎮","level":"village","unassigned":false,"note":"","label":[120.46384229636858,22.47776922193167],"bounds":[120.459451,22.47396,120.468811,22.483924],"focusBounds":[120.459451,22.47396,120.468811,22.483924],"color":"#a49ad4"}},{"type":"Feature","id":"10013030026","geometry":{"type":"Polygon","coordinates":[[[120.476064,22.484938],[120.474859,22.485449],[120.471878,22.485678],[120.468811,22.482512],[120.465829,22.479447],[120.467621,22.477373],[120.462945,22.47396],[120.463555,22.473287],[120.463737,22.472866],[120.463767,22.469923],[120.46375,22.46843],[120.480508,22.471535],[120.480536,22.472664],[120.479064,22.472659],[120.478963,22.472762],[120.479267,22.476423],[120.479612,22.478969],[120.479768,22.479179],[120.479807,22.480554],[120.479265,22.480995],[120.476188,22.481947],[120.476046,22.482622],[120.476466,22.483917],[120.476464,22.484375],[120.476064,22.484938]]]},"properties":{"code":"10013030026","name":"東新里","countyCode":"10013","countyName":"屏東縣","townCode":"10013030","townName":"東港鎮","level":"village","unassigned":false,"note":"","label":[120.47309750624964,22.476365246647262],"bounds":[120.462945,22.46843,120.480536,22.485678],"focusBounds":[120.462945,22.46843,120.480536,22.485678],"color":"#a8bf62"}},{"type":"Feature","id":"10013030027","geometry":{"type":"Polygon","coordinates":[[[120.462945,22.47396],[120.459451,22.477726],[120.454745,22.474793],[120.451546,22.473203],[120.450756,22.472624],[120.452994,22.47037],[120.454048,22.469705],[120.454748,22.468697],[120.457285,22.469967],[120.463767,22.469923],[120.463737,22.472866],[120.463555,22.473287],[120.462945,22.47396]]]},"properties":{"code":"10013030027","name":"新街里","countyCode":"10013","countyName":"屏東縣","townCode":"10013030","townName":"東港鎮","level":"village","unassigned":false,"note":"","label":[120.45857433083818,22.473273437163368],"bounds":[120.450756,22.468697,120.463767,22.477726],"focusBounds":[120.450756,22.468697,120.463767,22.477726],"color":"#68bec9"}},{"type":"Feature","id":"10013030028","geometry":{"type":"Polygon","coordinates":[[[120.463767,22.469923],[120.457285,22.469967],[120.454748,22.468697],[120.456391,22.465934],[120.45665,22.464469],[120.45705,22.464387],[120.457442,22.465246],[120.457944,22.465869],[120.459674,22.467225],[120.46157,22.468049],[120.46375,22.46843],[120.463767,22.469923]]]},"properties":{"code":"10013030028","name":"東光里","countyCode":"10013","countyName":"屏東縣","townCode":"10013030","townName":"東港鎮","level":"village","unassigned":false,"note":"","label":[120.45776340663897,22.46800968012232],"bounds":[120.454748,22.464387,120.463767,22.469967],"focusBounds":[120.454748,22.464387,120.463767,22.469967],"color":"#df9f6a"}},{"type":"Feature","id":"10013030S01","geometry":{"type":"Polygon","coordinates":[[[120.480588,22.426856],[120.482196,22.43003],[120.470872,22.436186],[120.464226,22.440325],[120.463611,22.440863],[120.462301,22.441577],[120.460048,22.443346],[120.457807,22.444402],[120.457374,22.444845],[120.455249,22.446202],[120.453779,22.446973],[120.453423,22.446918],[120.452369,22.445971],[120.452258,22.446101],[120.454039,22.447586],[120.453975,22.447708],[120.454997,22.448463],[120.454734,22.448731],[120.454225,22.449251],[120.453009,22.44833],[120.451407,22.447442],[120.451311,22.447572],[120.45201,22.448042],[120.451836,22.448662],[120.451407,22.449356],[120.446281,22.454491],[120.442816,22.457883],[120.440972,22.460065],[120.439451,22.462367],[120.439196,22.46224],[120.438658,22.463272],[120.438714,22.463638],[120.436743,22.463373],[120.435332,22.464184],[120.435458,22.464387],[120.436868,22.463593],[120.43917,22.463739],[120.439173,22.464592],[120.438426,22.46459],[120.440095,22.464914],[120.440048,22.465525],[120.440918,22.466323],[120.441386,22.466356],[120.442649,22.465392],[120.442479,22.465107],[120.44331,22.464507],[120.443802,22.465069],[120.444082,22.464844],[120.444459,22.465012],[120.445352,22.464589],[120.445569,22.464298],[120.445657,22.464413],[120.445819,22.464624],[120.445223,22.46525],[120.445318,22.465334],[120.445195,22.465509],[120.444844,22.465583],[120.444906,22.465842],[120.444743,22.466009],[120.444519,22.46585],[120.443707,22.466349],[120.442887,22.466531],[120.442949,22.466788],[120.443499,22.466682],[120.44364,22.46731],[120.443181,22.467417],[120.440861,22.467059],[120.438375,22.465343],[120.438421,22.465147],[120.438312,22.465307],[120.437289,22.464949],[120.437286,22.46547],[120.434979,22.464642],[120.435059,22.464482],[120.434705,22.463776],[120.436008,22.459475],[120.43851,22.459362],[120.438982,22.458663],[120.439735,22.456804],[120.444627,22.45215],[120.447076,22.449339],[120.452355,22.444649],[120.454461,22.443087],[120.456328,22.441224],[120.458544,22.439358],[120.472649,22.431198],[120.47593,22.429598],[120.476401,22.428932],[120.480588,22.426856]]]},"properties":{"code":"10013030S01","name":"未編定村里","countyCode":"10013","countyName":"屏東縣","townCode":"10013030","townName":"東港鎮","level":"village","unassigned":true,"note":"未編定村里","label":[120.45932753024088,22.441295337502957],"bounds":[120.434705,22.426856,120.482196,22.467417],"focusBounds":[120.434705,22.426856,120.482196,22.467417],"color":"#c38cb8"}}]}
