{"type":"FeatureCollection","features":[{"type":"Feature","id":"10015090001","geometry":{"type":"Polygon","coordinates":[[[121.381414,23.50987],[121.380226,23.510829],[121.376724,23.512397],[121.37598,23.512019],[121.375934,23.510079],[121.376378,23.506958],[121.376486,23.501214],[121.376195,23.500416],[121.374171,23.499394],[121.373427,23.498863],[121.372722,23.497685],[121.372679,23.496735],[121.372882,23.495669],[121.373415,23.494565],[121.374073,23.49384],[121.374896,23.493344],[121.376873,23.492502],[121.377822,23.492386],[121.37906,23.492954],[121.379723,23.493713],[121.380597,23.496488],[121.382837,23.500895],[121.385692,23.504083],[121.383924,23.506103],[121.38224,23.508504],[121.381789,23.509532],[121.381414,23.50987]]]},"properties":{"code":"10015090001","name":"瑞穗村","countyCode":"10015","countyName":"花蓮縣","townCode":"10015090","townName":"瑞穗鄉","level":"village","unassigned":false,"note":"","label":[121.3802987745729,23.50404340336555],"bounds":[121.372679,23.492386,121.385692,23.512397],"focusBounds":[121.372679,23.492386,121.385692,23.512397],"color":"#df9f6a"}},{"type":"Feature","id":"10015090002","geometry":{"type":"Polygon","coordinates":[[[121.394559,23.496408],[121.393417,23.497513],[121.391331,23.499171],[121.388105,23.502485],[121.386764,23.50359],[121.385692,23.504083],[121.382837,23.500895],[121.380597,23.496488],[121.379723,23.493713],[121.37906,23.492954],[121.377822,23.492386],[121.376873,23.492502],[121.376332,23.49145],[121.375904,23.490114],[121.373453,23.486043],[121.372066,23.483112],[121.372116,23.480293],[121.37296,23.480846],[121.37573,23.481838],[121.376725,23.482391],[121.37766,23.483276],[121.379377,23.483994],[121.381243,23.484433],[121.384282,23.48462],[121.386387,23.483956],[121.388958,23.485429],[121.389605,23.487144],[121.392832,23.493204],[121.393283,23.493795],[121.394559,23.496408]]]},"properties":{"code":"10015090002","name":"瑞美村","countyCode":"10015","countyName":"花蓮縣","townCode":"10015090","townName":"瑞穗鄉","level":"village","unassigned":false,"note":"","label":[121.38501527140502,23.491302259915244],"bounds":[121.372066,23.480293,121.394559,23.504083],"focusBounds":[121.372066,23.480293,121.394559,23.504083],"color":"#c38cb8"}},{"type":"Feature","id":"10015090003","geometry":{"type":"Polygon","coordinates":[[[121.406998,23.494541],[121.403562,23.493998],[121.399279,23.493642],[121.397787,23.493921],[121.394559,23.496408],[121.393283,23.493795],[121.392832,23.493204],[121.389605,23.487144],[121.388958,23.485429],[121.386387,23.483956],[121.388766,23.481391],[121.389636,23.480737],[121.390632,23.480314],[121.394826,23.479805],[121.395577,23.479422],[121.397099,23.480641],[121.398627,23.482252],[121.40144,23.484662],[121.403091,23.485028],[121.404203,23.485515],[121.407206,23.490154],[121.407821,23.491392],[121.408832,23.492581],[121.409619,23.494108],[121.408542,23.494858],[121.406998,23.494541]]]},"properties":{"code":"10015090003","name":"瑞良村","countyCode":"10015","countyName":"花蓮縣","townCode":"10015090","townName":"瑞穗鄉","level":"village","unassigned":false,"note":"","label":[121.39667202613954,23.48806767334402],"bounds":[121.386387,23.479422,121.409619,23.496408],"focusBounds":[121.386387,23.479422,121.409619,23.496408],"color":"#98b69b"}},{"type":"Feature","id":"10015090004","geometry":{"type":"Polygon","coordinates":[[[121.367632,23.520186],[121.36711,23.520264],[121.365793,23.521091],[121.365206,23.522222],[121.365068,23.523719],[121.364508,23.52496],[121.362767,23.526336],[121.361326,23.526541],[121.360508,23.526332],[121.358684,23.526332],[121.352955,23.526777],[121.34953,23.526199],[121.34876,23.525623],[121.347445,23.522202],[121.347322,23.520781],[121.347308,23.519836],[121.346852,23.519231],[121.346636,23.518459],[121.347171,23.51641],[121.347206,23.512701],[121.347051,23.512159],[121.346055,23.511479],[121.345842,23.510868],[121.346673,23.50727],[121.347124,23.502837],[121.346985,23.499852],[121.345771,23.495781],[121.346038,23.495241],[121.346091,23.494543],[121.345561,23.492501],[121.345713,23.491266],[121.345518,23.490897],[121.342806,23.489492],[121.342774,23.489303],[121.342177,23.488735],[121.343997,23.487784],[121.346434,23.48496],[121.348305,23.4814],[121.348912,23.479665],[121.34952,23.478493],[121.350222,23.477537],[121.351348,23.476538],[121.353694,23.475102],[121.354869,23.474882],[121.355997,23.474966],[121.358112,23.474831],[121.359616,23.474958],[121.363474,23.47625],[121.366342,23.476504],[121.367661,23.477411],[121.368886,23.478492],[121.369921,23.478923],[121.372116,23.480293],[121.372066,23.483112],[121.373453,23.486043],[121.375904,23.490114],[121.376332,23.49145],[121.376873,23.492502],[121.374896,23.493344],[121.374073,23.49384],[121.373415,23.494565],[121.372882,23.495669],[121.372679,23.496735],[121.372722,23.497685],[121.373427,23.498863],[121.374171,23.499394],[121.376195,23.500416],[121.376486,23.501214],[121.376378,23.506958],[121.375934,23.510079],[121.372921,23.509477],[121.371725,23.509556],[121.370076,23.510016],[121.368676,23.510818],[121.367153,23.511963],[121.366125,23.513069],[121.365632,23.513831],[121.365922,23.514362],[121.366789,23.514703],[121.367655,23.514625],[121.368233,23.514814],[121.369185,23.515952],[121.369641,23.51675],[121.36952,23.517663],[121.368656,23.518464],[121.367632,23.520186]]]},"properties":{"code":"10015090004","name":"瑞祥村","countyCode":"10015","countyName":"花蓮縣","townCode":"10015090","townName":"瑞穗鄉","level":"village","unassigned":false,"note":"","label":[121.35983599954936,23.49969065230117],"bounds":[121.342177,23.474831,121.376873,23.526777],"focusBounds":[121.342177,23.474831,121.376873,23.526777],"color":"#58b99d"}},{"type":"Feature","id":"10015090005","geometry":{"type":"Polygon","coordinates":[[[121.379638,23.554363],[121.377866,23.555313],[121.376012,23.555353],[121.375064,23.555182],[121.375528,23.55395],[121.375669,23.552887],[121.375478,23.552521],[121.374897,23.552351],[121.374874,23.552197],[121.375403,23.550636],[121.376334,23.54864],[121.376364,23.548199],[121.376269,23.547858],[121.3754,23.546659],[121.375611,23.546367],[121.375531,23.546072],[121.375216,23.545603],[121.374451,23.545268],[121.374338,23.544298],[121.373763,23.543548],[121.374152,23.542958],[121.374197,23.542537],[121.373977,23.542098],[121.374258,23.541646],[121.374134,23.541101],[121.375076,23.538017],[121.374896,23.537811],[121.374541,23.537741],[121.374484,23.537255],[121.374128,23.537163],[121.374033,23.536519],[121.3729,23.536471],[121.371418,23.53685],[121.37105,23.535999],[121.370274,23.535359],[121.370268,23.534091],[121.369765,23.53398],[121.369671,23.534416],[121.369435,23.534568],[121.369277,23.533925],[121.369574,23.533527],[121.369556,23.533121],[121.369328,23.532592],[121.369462,23.532377],[121.369223,23.532066],[121.369845,23.530623],[121.369849,23.529621],[121.370627,23.528953],[121.3705,23.528841],[121.369333,23.528947],[121.368616,23.527882],[121.368645,23.527547],[121.368419,23.527139],[121.36804,23.526701],[121.367679,23.526566],[121.367683,23.526365],[121.368127,23.526258],[121.368518,23.525901],[121.368684,23.525517],[121.368628,23.524235],[121.36883,23.522956],[121.369519,23.522091],[121.369588,23.521801],[121.367981,23.522285],[121.367706,23.52225],[121.367921,23.520756],[121.367786,23.520261],[121.367632,23.520186],[121.368656,23.518464],[121.36952,23.517663],[121.369641,23.51675],[121.369185,23.515952],[121.368233,23.514814],[121.367655,23.514625],[121.366789,23.514703],[121.365922,23.514362],[121.365632,23.513831],[121.366125,23.513069],[121.367153,23.511963],[121.368676,23.510818],[121.370076,23.510016],[121.371725,23.509556],[121.372921,23.509477],[121.375934,23.510079],[121.37598,23.512019],[121.376724,23.512397],[121.380226,23.510829],[121.381414,23.50987],[121.38209,23.512372],[121.383985,23.515881],[121.384397,23.516938],[121.383795,23.520981],[121.383679,23.523588],[121.383891,23.525854],[121.383857,23.528196],[121.383251,23.531333],[121.383227,23.537037],[121.382588,23.542819],[121.382634,23.544556],[121.383173,23.546784],[121.383159,23.547897],[121.383094,23.548695],[121.380385,23.553525],[121.379638,23.554363]]]},"properties":{"code":"10015090005","name":"瑞北村","countyCode":"10015","countyName":"花蓮縣","townCode":"10015090","townName":"瑞穗鄉","level":"village","unassigned":false,"note":"","label":[121.37653399532411,23.524706518383212],"bounds":[121.365632,23.509477,121.384397,23.555353],"focusBounds":[121.365632,23.509477,121.384397,23.555353],"color":"#efb44f"}},{"type":"Feature","id":"10015090006","geometry":{"type":"Polygon","coordinates":[[[121.342177,23.488735],[121.341848,23.488732],[121.340833,23.489376],[121.338722,23.490087],[121.337824,23.489995],[121.337503,23.490085],[121.337193,23.4904],[121.335277,23.489591],[121.333152,23.487771],[121.332966,23.487468],[121.333198,23.487137],[121.33321,23.48666],[121.332802,23.485858],[121.332819,23.484841],[121.331913,23.48364],[121.332101,23.481898],[121.331965,23.481418],[121.3314,23.480824],[121.331106,23.479766],[121.330477,23.479327],[121.329501,23.479184],[121.329366,23.478748],[121.32952,23.477678],[121.329382,23.477146],[121.3289,23.476519],[121.328236,23.476272],[121.327809,23.475935],[121.327269,23.474554],[121.327091,23.472696],[121.32664,23.472046],[121.326004,23.471559],[121.325286,23.46842],[121.32525,23.46724],[121.325638,23.465463],[121.326076,23.464364],[121.32711,23.463454],[121.328354,23.463362],[121.329143,23.462797],[121.329859,23.462505],[121.331275,23.462259],[121.331576,23.461797],[121.331905,23.460432],[121.332073,23.460266],[121.333105,23.459994],[121.334574,23.459832],[121.335205,23.459588],[121.335997,23.459542],[121.337109,23.459152],[121.337684,23.45867],[121.338853,23.45856],[121.339801,23.458134],[121.340462,23.458077],[121.341536,23.457379],[121.342669,23.457347],[121.343694,23.457121],[121.343938,23.456659],[121.343865,23.455945],[121.344582,23.455742],[121.344832,23.455439],[121.344484,23.453983],[121.344736,23.452952],[121.345271,23.452387],[121.346032,23.452297],[121.346565,23.451965],[121.346272,23.450632],[121.346623,23.450028],[121.34701,23.449718],[121.347485,23.447896],[121.34817,23.447427],[121.348282,23.447113],[121.348707,23.446705],[121.348581,23.446088],[121.350183,23.443088],[121.350399,23.443058],[121.351218,23.443284],[121.351475,23.443204],[121.351776,23.442672],[121.351662,23.442275],[121.351755,23.44211],[121.352587,23.441689],[121.352988,23.44192],[121.353261,23.441913],[121.353502,23.441522],[121.354563,23.440724],[121.355819,23.440816],[121.35603,23.440588],[121.356021,23.440052],[121.355819,23.439778],[121.355117,23.439667],[121.355002,23.439342],[121.355108,23.439039],[121.356747,23.438174],[121.358101,23.437178],[121.361787,23.435262],[121.362426,23.435075],[121.365863,23.44272],[121.368092,23.446251],[121.368742,23.448307],[121.369918,23.450243],[121.371034,23.453276],[121.37199,23.454963],[121.376294,23.458774],[121.379489,23.462669],[121.383102,23.469691],[121.384092,23.470001],[121.384837,23.470541],[121.385504,23.471197],[121.386018,23.472266],[121.387043,23.473201],[121.38749,23.473909],[121.388902,23.474965],[121.391385,23.476243],[121.392653,23.477391],[121.395577,23.479422],[121.394826,23.479805],[121.390632,23.480314],[121.389636,23.480737],[121.388766,23.481391],[121.386387,23.483956],[121.384282,23.48462],[121.381243,23.484433],[121.379377,23.483994],[121.37766,23.483276],[121.376725,23.482391],[121.37573,23.481838],[121.37296,23.480846],[121.372116,23.480293],[121.369921,23.478923],[121.368886,23.478492],[121.367661,23.477411],[121.366342,23.476504],[121.363474,23.47625],[121.359616,23.474958],[121.358112,23.474831],[121.355997,23.474966],[121.354869,23.474882],[121.353694,23.475102],[121.351348,23.476538],[121.350222,23.477537],[121.34952,23.478493],[121.348912,23.479665],[121.348305,23.4814],[121.346434,23.48496],[121.343997,23.487784],[121.342177,23.488735]]]},"properties":{"code":"10015090006","name":"舞鶴村","countyCode":"10015","countyName":"花蓮縣","townCode":"10015090","townName":"瑞穗鄉","level":"village","unassigned":false,"note":"","label":[121.35885646128288,23.460634780054974],"bounds":[121.32525,23.435075,121.395577,23.4904],"focusBounds":[121.32525,23.435075,121.395577,23.4904],"color":"#78a7e3"}},{"type":"Feature","id":"10015090007","geometry":{"type":"Polygon","coordinates":[[[121.439757,23.547439],[121.439142,23.547763],[121.436711,23.548148],[121.436375,23.548158],[121.435485,23.547802],[121.434688,23.548001],[121.432324,23.547906],[121.430873,23.548199],[121.430456,23.549096],[121.429369,23.549573],[121.4286,23.55011],[121.428972,23.550988],[121.428955,23.551339],[121.428681,23.55169],[121.429075,23.553311],[121.427709,23.553852],[121.427676,23.555026],[121.427328,23.555423],[121.428153,23.558141],[121.428088,23.559081],[121.427878,23.55964],[121.426413,23.559978],[121.42583,23.560329],[121.425288,23.560354],[121.423899,23.560049],[121.42343,23.560106],[121.422926,23.560654],[121.422,23.560443],[121.421544,23.560931],[121.421457,23.56182],[121.420176,23.561535],[121.419451,23.561037],[121.417606,23.560975],[121.414205,23.560351],[121.412868,23.560621],[121.411125,23.558392],[121.410602,23.558218],[121.408717,23.558571],[121.407138,23.557911],[121.406414,23.556649],[121.405726,23.555861],[121.403804,23.555012],[121.403013,23.55435],[121.401223,23.552143],[121.399574,23.550946],[121.397962,23.55076],[121.395459,23.550703],[121.392753,23.551342],[121.389802,23.550433],[121.387022,23.549397],[121.384996,23.548453],[121.383159,23.547897],[121.383173,23.546784],[121.382634,23.544556],[121.382588,23.542819],[121.383227,23.537037],[121.383251,23.531333],[121.383857,23.528196],[121.383891,23.525854],[121.383679,23.523588],[121.383795,23.520981],[121.384397,23.516938],[121.383985,23.515881],[121.38209,23.512372],[121.381414,23.50987],[121.381789,23.509532],[121.38224,23.508504],[121.383924,23.506103],[121.385692,23.504083],[121.386764,23.50359],[121.388105,23.502485],[121.391331,23.499171],[121.393417,23.497513],[121.394559,23.496408],[121.397787,23.493921],[121.399279,23.493642],[121.403562,23.493998],[121.406998,23.494541],[121.406992,23.498078],[121.407566,23.499741],[121.40877,23.50017],[121.409239,23.500631],[121.409744,23.501708],[121.410514,23.502076],[121.410816,23.502661],[121.411586,23.502936],[121.411756,23.503799],[121.411957,23.503983],[121.412059,23.504445],[121.411926,23.504846],[121.412094,23.505031],[121.411996,23.505709],[121.412264,23.506078],[121.412165,23.50651],[121.412501,23.506941],[121.412402,23.507311],[121.411701,23.50759],[121.411974,23.509439],[121.411812,23.511288],[121.411984,23.512552],[121.412654,23.51332],[121.415632,23.514268],[121.417038,23.514881],[121.41794,23.51494],[121.422489,23.515945],[121.425305,23.518341],[121.426479,23.519849],[121.427518,23.520493],[121.428722,23.520767],[121.430192,23.520732],[121.431595,23.52042],[121.434533,23.519426],[121.435536,23.519423],[121.436374,23.520222],[121.436745,23.521084],[121.436414,23.521917],[121.435481,23.52306],[121.434717,23.524418],[121.434654,23.52559],[121.434422,23.526299],[121.433955,23.526547],[121.431779,23.525598],[121.430977,23.525692],[121.430177,23.526373],[121.430949,23.527295],[121.430416,23.527697],[121.429246,23.52767],[121.428679,23.52801],[121.429655,23.528462],[121.430777,23.529623],[121.430526,23.530155],[121.429014,23.530891],[121.428836,23.531523],[121.429198,23.531855],[121.429992,23.532152],[121.430247,23.533082],[121.431077,23.533213],[121.431439,23.533578],[121.432053,23.533709],[121.432917,23.533374],[121.434143,23.533204],[121.435583,23.532635],[121.436161,23.532866],[121.437498,23.533827],[121.437933,23.534491],[121.437827,23.535189],[121.43747,23.536021],[121.437581,23.536919],[121.438631,23.538146],[121.438742,23.538977],[121.438354,23.541638],[121.439152,23.543099],[121.439734,23.54466],[121.439757,23.547439]]]},"properties":{"code":"10015090007","name":"鶴岡村","countyCode":"10015","countyName":"花蓮縣","townCode":"10015090","townName":"瑞穗鄉","level":"village","unassigned":false,"note":"","label":[121.4075193938237,23.532151378784473],"bounds":[121.381414,23.493642,121.439757,23.56182],"focusBounds":[121.381414,23.493642,121.439757,23.56182],"color":"#dd8590"}},{"type":"Feature","id":"10015090008","geometry":{"type":"Polygon","coordinates":[[[121.488283,23.527014],[121.489159,23.527417],[121.489719,23.531125],[121.489799,23.533762],[121.490106,23.534667],[121.490079,23.535078],[121.491261,23.537819],[121.492111,23.539066],[121.491856,23.540035],[121.492452,23.542004],[121.492279,23.542757],[121.490943,23.542798],[121.490089,23.543461],[121.489327,23.54451],[121.48854,23.544944],[121.48789,23.545516],[121.487133,23.545191],[121.48592,23.544051],[121.484069,23.545222],[121.483107,23.545221],[121.479959,23.542589],[121.477129,23.541183],[121.476469,23.541397],[121.474949,23.541417],[121.474062,23.541696],[121.473727,23.5422],[121.473285,23.542455],[121.472921,23.542891],[121.47118,23.543463],[121.470151,23.542793],[121.469122,23.543296],[121.46723,23.543329],[121.466288,23.543176],[121.465504,23.543604],[121.465197,23.54362],[121.464828,23.543502],[121.463867,23.542627],[121.463514,23.542599],[121.461376,23.543379],[121.461087,23.543713],[121.460374,23.543916],[121.460131,23.544807],[121.459526,23.545365],[121.458034,23.544875],[121.456851,23.544243],[121.452896,23.542668],[121.451372,23.543268],[121.45017,23.544682],[121.448599,23.544961],[121.447054,23.544823],[121.446439,23.544536],[121.445822,23.544824],[121.444265,23.545807],[121.443985,23.546242],[121.443717,23.547349],[121.443292,23.547833],[121.442498,23.54779],[121.441505,23.547379],[121.439757,23.547439],[121.439734,23.54466],[121.439152,23.543099],[121.438354,23.541638],[121.438742,23.538977],[121.438631,23.538146],[121.437581,23.536919],[121.43747,23.536021],[121.437827,23.535189],[121.437933,23.534491],[121.437498,23.533827],[121.436161,23.532866],[121.435583,23.532635],[121.434143,23.533204],[121.432917,23.533374],[121.432053,23.533709],[121.431439,23.533578],[121.431077,23.533213],[121.430247,23.533082],[121.429992,23.532152],[121.429198,23.531855],[121.428836,23.531523],[121.429014,23.530891],[121.430526,23.530155],[121.430777,23.529623],[121.429655,23.528462],[121.428679,23.52801],[121.429246,23.52767],[121.430416,23.527697],[121.430949,23.527295],[121.430177,23.526373],[121.430977,23.525692],[121.431779,23.525598],[121.433955,23.526547],[121.434422,23.526299],[121.434654,23.52559],[121.434717,23.524418],[121.435481,23.52306],[121.436414,23.521917],[121.436745,23.521084],[121.436374,23.520222],[121.435536,23.519423],[121.434533,23.519426],[121.431595,23.52042],[121.430192,23.520732],[121.428722,23.520767],[121.427518,23.520493],[121.426479,23.519849],[121.425305,23.518341],[121.422489,23.515945],[121.41794,23.51494],[121.417038,23.514881],[121.415632,23.514268],[121.412654,23.51332],[121.411984,23.512552],[121.411812,23.511288],[121.411974,23.509439],[121.411701,23.50759],[121.412402,23.507311],[121.412501,23.506941],[121.412165,23.50651],[121.412264,23.506078],[121.411996,23.505709],[121.412094,23.505031],[121.411926,23.504846],[121.412059,23.504445],[121.411957,23.503983],[121.411756,23.503799],[121.411586,23.502936],[121.410816,23.502661],[121.410514,23.502076],[121.409744,23.501708],[121.409239,23.500631],[121.40877,23.50017],[121.407566,23.499741],[121.406992,23.498078],[121.406998,23.494541],[121.408542,23.494858],[121.409619,23.494108],[121.410401,23.495329],[121.411108,23.495798],[121.411469,23.495842],[121.413837,23.495491],[121.415718,23.495445],[121.416865,23.495185],[121.417869,23.494307],[121.418289,23.493544],[121.418239,23.491656],[121.418039,23.490449],[121.417749,23.489706],[121.416431,23.487671],[121.415413,23.485538],[121.414612,23.482675],[121.414574,23.48062],[121.414695,23.480234],[121.414962,23.479657],[121.415975,23.478723],[121.418397,23.477719],[121.420294,23.477737],[121.421193,23.47815],[121.422248,23.477531],[121.422788,23.478044],[121.423206,23.478086],[121.424601,23.478786],[121.42499,23.478577],[121.42566,23.47848],[121.426147,23.476891],[121.426475,23.476614],[121.426918,23.476618],[121.427823,23.477182],[121.429747,23.479909],[121.430868,23.482611],[121.432389,23.48253],[121.433116,23.481175],[121.437664,23.476357],[121.438387,23.475841],[121.440851,23.474778],[121.441032,23.47402],[121.440031,23.4732],[121.439383,23.472431],[121.437829,23.471831],[121.436702,23.472012],[121.435558,23.471493],[121.434715,23.47167],[121.434455,23.469005],[121.435242,23.468545],[121.436053,23.468588],[121.437023,23.468107],[121.439013,23.466559],[121.439452,23.466048],[121.440457,23.463871],[121.441058,23.461699],[121.441886,23.460777],[121.442269,23.460531],[121.443932,23.460409],[121.445893,23.459238],[121.445581,23.45866],[121.444644,23.457673],[121.443641,23.45465],[121.443366,23.453188],[121.443389,23.452887],[121.444133,23.451919],[121.444707,23.451766],[121.445802,23.451791],[121.447564,23.45189],[121.448399,23.45239],[121.449525,23.453355],[121.452011,23.453824],[121.453553,23.453441],[121.454829,23.453403],[121.456068,23.453141],[121.458099,23.452957],[121.459488,23.453593],[121.460042,23.454036],[121.461172,23.454049],[121.462208,23.454403],[121.462325,23.45476],[121.462959,23.455463],[121.462922,23.456264],[121.463399,23.457074],[121.463518,23.457966],[121.463231,23.458613],[121.463283,23.459104],[121.463583,23.45965],[121.464525,23.460121],[121.464424,23.461454],[121.465136,23.463007],[121.465436,23.46448],[121.466424,23.465496],[121.46655,23.465821],[121.46625,23.466804],[121.466186,23.467958],[121.466478,23.469297],[121.466431,23.470353],[121.465121,23.472511],[121.465037,23.473001],[121.465244,23.473599],[121.464597,23.475325],[121.464532,23.475809],[121.464702,23.476115],[121.466674,23.479464],[121.468665,23.481534],[121.46924,23.481914],[121.471743,23.484333],[121.471583,23.484952],[121.472051,23.48587],[121.472608,23.486432],[121.473489,23.486555],[121.473703,23.487437],[121.474135,23.487858],[121.474343,23.487925],[121.474853,23.487735],[121.47531,23.487233],[121.476349,23.487185],[121.477059,23.487345],[121.477766,23.487956],[121.478069,23.487909],[121.479077,23.487167],[121.479556,23.486411],[121.480614,23.485569],[121.481169,23.484758],[121.481318,23.483956],[121.481828,23.483417],[121.482452,23.483123],[121.482839,23.483116],[121.484346,23.483704],[121.485409,23.484711],[121.486201,23.485025],[121.486695,23.485067],[121.485468,23.487838],[121.485261,23.490554],[121.485397,23.491187],[121.484846,23.491757],[121.484741,23.492241],[121.484917,23.49274],[121.485782,23.493389],[121.4859,23.49431],[121.486704,23.494785],[121.487183,23.495425],[121.486955,23.49729],[121.487264,23.498198],[121.486914,23.499737],[121.487356,23.500754],[121.487523,23.502137],[121.488996,23.503327],[121.489406,23.505009],[121.488169,23.507154],[121.488017,23.507786],[121.487323,23.509093],[121.487558,23.51079],[121.488488,23.513901],[121.486472,23.514313],[121.4863,23.5147],[121.485651,23.515395],[121.484533,23.515931],[121.484963,23.516538],[121.485159,23.518451],[121.48627,23.521929],[121.486331,23.523053],[121.486798,23.523391],[121.487278,23.525224],[121.48724,23.525818],[121.487668,23.526456],[121.488283,23.527014]]]},"properties":{"code":"10015090008","name":"奇美村","countyCode":"10015","countyName":"花蓮縣","townCode":"10015090","townName":"瑞穗鄉","level":"village","unassigned":false,"note":"","label":[121.45310716773014,23.502028676373357],"bounds":[121.406992,23.451766,121.492452,23.547833],"focusBounds":[121.406992,23.451766,121.492452,23.547833],"color":"#a49ad4"}},{"type":"Feature","id":"10015090009","geometry":{"type":"Polygon","coordinates":[[[121.358114,23.60544],[121.355931,23.605082],[121.354095,23.604419],[121.353437,23.604002],[121.352933,23.603197],[121.352582,23.602207],[121.352784,23.599691],[121.352288,23.598797],[121.352268,23.598476],[121.352701,23.597753],[121.35322,23.596084],[121.354117,23.594898],[121.354158,23.593669],[121.35442,23.592677],[121.354259,23.591736],[121.3545,23.590393],[121.355427,23.588923],[121.355136,23.587458],[121.355281,23.586377],[121.356087,23.585764],[121.356961,23.584384],[121.357248,23.58349],[121.357841,23.583086],[121.358042,23.582284],[121.359383,23.582055],[121.359331,23.580856],[121.359577,23.579737],[121.359233,23.579365],[121.359122,23.57833],[121.35936,23.577421],[121.359494,23.5759],[121.36012,23.574655],[121.361034,23.57669],[121.362079,23.577173],[121.363312,23.577178],[121.366524,23.578108],[121.371246,23.578428],[121.373845,23.577795],[121.376442,23.576498],[121.377159,23.575279],[121.380006,23.563693],[121.380837,23.562073],[121.381198,23.563655],[121.381246,23.56565],[121.381763,23.568427],[121.382158,23.572886],[121.381724,23.584232],[121.381898,23.585562],[121.382901,23.587434],[121.382717,23.587623],[121.382105,23.588267],[121.381963,23.588867],[121.380015,23.589879],[121.377618,23.58799],[121.375566,23.58861],[121.374592,23.589042],[121.373411,23.59011],[121.372742,23.590093],[121.371787,23.591063],[121.370642,23.59191],[121.370189,23.592049],[121.369529,23.592664],[121.367786,23.593675],[121.366369,23.593882],[121.366232,23.594204],[121.365244,23.594923],[121.364574,23.595938],[121.363318,23.596973],[121.362809,23.597641],[121.361865,23.598461],[121.361399,23.599555],[121.361122,23.60154],[121.360929,23.602022],[121.359822,23.603733],[121.359614,23.603957],[121.358978,23.604199],[121.358114,23.60544]]]},"properties":{"code":"10015090009","name":"富源村","countyCode":"10015","countyName":"花蓮縣","townCode":"10015090","townName":"瑞穗鄉","level":"village","unassigned":false,"note":"","label":[121.36571354237283,23.58622719142887],"bounds":[121.352268,23.562073,121.382901,23.60544],"focusBounds":[121.352268,23.562073,121.382901,23.60544],"color":"#68bec9"}},{"type":"Feature","id":"10015090010","geometry":{"type":"Polygon","coordinates":[[[121.380837,23.562073],[121.380006,23.563693],[121.377159,23.575279],[121.376442,23.576498],[121.373845,23.577795],[121.371246,23.578428],[121.366524,23.578108],[121.363312,23.577178],[121.362079,23.577173],[121.361034,23.57669],[121.36012,23.574655],[121.35955,23.574403],[121.358943,23.574533],[121.358559,23.575693],[121.358112,23.576373],[121.355017,23.576381],[121.353395,23.576228],[121.35136,23.57664],[121.350959,23.575989],[121.350709,23.575068],[121.34877,23.570671],[121.348968,23.569685],[121.350002,23.567],[121.351478,23.566596],[121.352286,23.565879],[121.352977,23.565874],[121.353719,23.566209],[121.354594,23.567434],[121.356935,23.567526],[121.357758,23.567896],[121.358415,23.568723],[121.358698,23.56877],[121.359619,23.568342],[121.3602,23.568296],[121.361304,23.569309],[121.361409,23.569796],[121.361708,23.570211],[121.362354,23.570536],[121.362951,23.570568],[121.363543,23.570398],[121.363978,23.570121],[121.365329,23.568408],[121.367168,23.566466],[121.367246,23.565665],[121.367532,23.565091],[121.368534,23.56432],[121.370698,23.563299],[121.37158,23.562416],[121.372524,23.560742],[121.372899,23.559293],[121.374477,23.557048],[121.374721,23.556439],[121.374569,23.556144],[121.374778,23.555958],[121.375064,23.555182],[121.376012,23.555353],[121.377866,23.555313],[121.379638,23.554363],[121.380637,23.55551],[121.38094,23.556788],[121.381675,23.55783],[121.382028,23.558935],[121.38183,23.559811],[121.380837,23.562073]]]},"properties":{"code":"10015090010","name":"富民村","countyCode":"10015","countyName":"花蓮縣","townCode":"10015090","townName":"瑞穗鄉","level":"village","unassigned":false,"note":"","label":[121.37075155269092,23.571576107457375],"bounds":[121.34877,23.554363,121.382028,23.578428],"focusBounds":[121.34877,23.554363,121.382028,23.578428],"color":"#c38cb8"}},{"type":"Feature","id":"10015090011","geometry":{"type":"Polygon","coordinates":[[[121.425294,23.587871],[121.424681,23.588136],[121.422724,23.588112],[121.421807,23.5878],[121.421395,23.58844],[121.420654,23.588584],[121.418674,23.587897],[121.417754,23.588554],[121.417184,23.588597],[121.416671,23.588463],[121.41622,23.587626],[121.415739,23.587091],[121.414088,23.586985],[121.41373,23.586776],[121.412753,23.586563],[121.411991,23.586103],[121.411457,23.585183],[121.410953,23.585061],[121.410459,23.585204],[121.409827,23.585657],[121.409074,23.585744],[121.408112,23.585278],[121.407361,23.585532],[121.40598,23.584672],[121.404798,23.584981],[121.40379,23.584916],[121.402129,23.585732],[121.402217,23.586331],[121.401623,23.587378],[121.396941,23.586696],[121.391903,23.585729],[121.38806,23.586229],[121.387832,23.586527],[121.383966,23.587421],[121.383521,23.587219],[121.383112,23.587219],[121.382901,23.587434],[121.381898,23.585562],[121.381724,23.584232],[121.382158,23.572886],[121.381763,23.568427],[121.381246,23.56565],[121.381198,23.563655],[121.380837,23.562073],[121.38183,23.559811],[121.382028,23.558935],[121.381675,23.55783],[121.38094,23.556788],[121.380637,23.55551],[121.379638,23.554363],[121.380385,23.553525],[121.383094,23.548695],[121.383159,23.547897],[121.384996,23.548453],[121.387022,23.549397],[121.389802,23.550433],[121.392753,23.551342],[121.395459,23.550703],[121.397962,23.55076],[121.399574,23.550946],[121.401223,23.552143],[121.403013,23.55435],[121.403804,23.555012],[121.405726,23.555861],[121.406414,23.556649],[121.407138,23.557911],[121.408717,23.558571],[121.410602,23.558218],[121.411125,23.558392],[121.412868,23.560621],[121.414205,23.560351],[121.417606,23.560975],[121.419451,23.561037],[121.420176,23.561535],[121.421457,23.56182],[121.421143,23.563793],[121.421899,23.564368],[121.423162,23.567432],[121.425083,23.568783],[121.426428,23.569005],[121.42677,23.569201],[121.427095,23.569695],[121.42794,23.569938],[121.428514,23.570853],[121.429265,23.572595],[121.429254,23.573198],[121.428615,23.573876],[121.427833,23.574348],[121.427286,23.575183],[121.425294,23.576894],[121.424747,23.577174],[121.423576,23.577198],[121.423255,23.577385],[121.423213,23.577874],[121.424052,23.578967],[121.424339,23.580398],[121.42449,23.582694],[121.425085,23.583156],[121.425469,23.583849],[121.426402,23.58447],[121.426399,23.584847],[121.425842,23.586343],[121.426152,23.58688],[121.425758,23.587164],[121.425294,23.587871]]]},"properties":{"code":"10015090011","name":"富興村","countyCode":"10015","countyName":"花蓮縣","townCode":"10015090","townName":"瑞穗鄉","level":"village","unassigned":false,"note":"","label":[121.40120508215522,23.571141245488718],"bounds":[121.379638,23.547897,121.429265,23.588597],"focusBounds":[121.379638,23.547897,121.429265,23.588597],"color":"#df9f6a"}}]}
