{"type":"FeatureCollection","features":[{"type":"Feature","id":"10013290001","geometry":{"type":"Polygon","coordinates":[[[120.678984,22.597944],[120.677272,22.610311],[120.676255,22.612479],[120.675022,22.614264],[120.674612,22.614577],[120.671501,22.616068],[120.66846,22.618746],[120.665828,22.621403],[120.664718,22.622116],[120.663248,22.622583],[120.662068,22.622445],[120.65937,22.622529],[120.657699,22.621582],[120.655781,22.619147],[120.655236,22.618852],[120.655011,22.619005],[120.654461,22.620422],[120.654188,22.620514],[120.653282,22.620523],[120.651967,22.61984],[120.651471,22.619817],[120.650874,22.620091],[120.650154,22.621957],[120.63613,22.621942],[120.635419,22.620423],[120.633955,22.619593],[120.630838,22.616031],[120.631323,22.615368],[120.631213,22.61518],[120.631511,22.614778],[120.63143,22.614212],[120.631976,22.613681],[120.63201,22.612829],[120.631765,22.612584],[120.631841,22.611636],[120.631308,22.61161],[120.630753,22.612414],[120.63023,22.612884],[120.628858,22.611246],[120.628882,22.609846],[120.628434,22.608707],[120.628508,22.608537],[120.629017,22.608362],[120.629574,22.608476],[120.630041,22.608094],[120.63076,22.608213],[120.631565,22.608569],[120.632172,22.608377],[120.632344,22.608141],[120.632024,22.606842],[120.632139,22.605414],[120.631752,22.604534],[120.631998,22.602684],[120.631568,22.600532],[120.630787,22.599399],[120.6291,22.598515],[120.628726,22.598155],[120.629193,22.597817],[120.629303,22.597633],[120.629178,22.597531],[120.628039,22.59746],[120.627268,22.598212],[120.626348,22.598354],[120.625993,22.598204],[120.625752,22.597746],[120.625189,22.597509],[120.624975,22.596556],[120.62439,22.596572],[120.62385,22.596034],[120.62425,22.594055],[120.624516,22.593755],[120.624862,22.592336],[120.624701,22.592013],[120.624926,22.591475],[120.623728,22.58956],[120.623764,22.587151],[120.624279,22.58653],[120.624196,22.585561],[120.6248,22.585184],[120.625526,22.585049],[120.625707,22.585115],[120.625778,22.585352],[120.625587,22.585541],[120.625566,22.586028],[120.624881,22.586822],[120.624977,22.587369],[120.624655,22.587662],[120.62479,22.588482],[120.625024,22.5886],[120.626085,22.588422],[120.626213,22.588841],[120.625623,22.589396],[120.625882,22.590154],[120.625848,22.59126],[120.625982,22.591552],[120.627111,22.591385],[120.627231,22.591769],[120.627337,22.592628],[120.626977,22.592982],[120.627095,22.593358],[120.62663,22.593749],[120.626674,22.594028],[120.627141,22.59411],[120.627796,22.593765],[120.628304,22.593928],[120.62871,22.593843],[120.628727,22.593685],[120.628122,22.593015],[120.628084,22.592258],[120.628533,22.59216],[120.628511,22.591449],[120.628203,22.59138],[120.628216,22.591169],[120.628501,22.591131],[120.628607,22.590929],[120.629037,22.590923],[120.629226,22.591202],[120.630158,22.590985],[120.631557,22.59044],[120.631595,22.590318],[120.634313,22.589308],[120.636631,22.589367],[120.637848,22.589677],[120.638759,22.590357],[120.640424,22.592194],[120.642125,22.595591],[120.642871,22.596243],[120.643877,22.596834],[120.647989,22.598072],[120.649026,22.598155],[120.651876,22.597653],[120.653432,22.596961],[120.656853,22.596088],[120.658208,22.59603],[120.660449,22.596303],[120.663951,22.595566],[120.664344,22.595612],[120.665532,22.595845],[120.668741,22.597366],[120.671952,22.598382],[120.673633,22.598248],[120.677172,22.597374],[120.678984,22.597944]]]},"properties":{"code":"10013290001","name":"佳平村","countyCode":"10013","countyName":"屏東縣","townCode":"10013290","townName":"泰武鄉","level":"village","unassigned":false,"note":"","label":[120.65139465219451,22.608794995872145],"bounds":[120.623728,22.585049,120.678984,22.622583],"focusBounds":[120.623728,22.585049,120.678984,22.622583],"color":"#58b99d"}},{"type":"Feature","id":"10013290002","geometry":{"type":"Polygon","coordinates":[[[120.664344,22.595612],[120.663951,22.595566],[120.660449,22.596303],[120.658208,22.59603],[120.656853,22.596088],[120.653432,22.596961],[120.651876,22.597653],[120.649026,22.598155],[120.647989,22.598072],[120.643877,22.596834],[120.642871,22.596243],[120.642125,22.595591],[120.640424,22.592194],[120.638759,22.590357],[120.637848,22.589677],[120.636631,22.589367],[120.634313,22.589308],[120.631595,22.590318],[120.631587,22.589756],[120.631008,22.58941],[120.630878,22.588865],[120.630288,22.588494],[120.629813,22.588502],[120.629409,22.58777],[120.629683,22.587687],[120.630452,22.588323],[120.631226,22.588622],[120.631957,22.586399],[120.631537,22.58556],[120.632012,22.58533],[120.632134,22.5851],[120.632155,22.58213],[120.631527,22.581723],[120.631262,22.581252],[120.630946,22.578773],[120.631641,22.578534],[120.631338,22.578228],[120.631849,22.57781],[120.631399,22.577298],[120.630748,22.577075],[120.630843,22.57699],[120.631658,22.576749],[120.634917,22.576387],[120.636377,22.576074],[120.636567,22.575851],[120.636536,22.575367],[120.635929,22.575327],[120.635294,22.574929],[120.634422,22.574964],[120.633048,22.57547],[120.632593,22.57539],[120.631853,22.574967],[120.631738,22.57467],[120.631974,22.574363],[120.63203,22.573824],[120.631838,22.573204],[120.632324,22.573179],[120.632344,22.57292],[120.634122,22.571308],[120.636757,22.570165],[120.637975,22.569877],[120.644847,22.568987],[120.646362,22.56929],[120.64974,22.571439],[120.649897,22.571532],[120.650242,22.571228],[120.650324,22.571812],[120.650928,22.57327],[120.650883,22.574421],[120.650526,22.575395],[120.651905,22.577182],[120.651882,22.577647],[120.651336,22.578685],[120.651516,22.578904],[120.652374,22.579265],[120.652595,22.57959],[120.653456,22.583038],[120.654492,22.584982],[120.655579,22.585846],[120.656118,22.586053],[120.656219,22.586627],[120.656718,22.586966],[120.656887,22.587303],[120.660016,22.588488],[120.661247,22.589604],[120.662276,22.590257],[120.664807,22.590442],[120.66456,22.59181],[120.665091,22.593846],[120.664344,22.595612]]]},"properties":{"code":"10013290002","name":"武潭村","countyCode":"10013","countyName":"屏東縣","townCode":"10013290","townName":"泰武鄉","level":"village","unassigned":false,"note":"","label":[120.64530559092695,22.584780865451748],"bounds":[120.629409,22.568987,120.665091,22.598155],"focusBounds":[120.629409,22.568987,120.665091,22.598155],"color":"#efb44f"}},{"type":"Feature","id":"10013290003","geometry":{"type":"Polygon","coordinates":[[[120.632344,22.57292],[120.632572,22.572466],[120.632288,22.572416],[120.632012,22.57214],[120.632052,22.571903],[120.632471,22.571712],[120.632063,22.571613],[120.632129,22.571144],[120.631628,22.571444],[120.631605,22.571862],[120.631406,22.572191],[120.631466,22.572597],[120.630836,22.572995],[120.629963,22.571709],[120.630156,22.570789],[120.630025,22.570773],[120.629693,22.571322],[120.629424,22.571274],[120.629062,22.570933],[120.629567,22.571958],[120.629506,22.57208],[120.629025,22.571988],[120.629699,22.572889],[120.62959,22.573205],[120.629668,22.573892],[120.627956,22.573786],[120.627992,22.574171],[120.627786,22.574558],[120.628554,22.57443],[120.628802,22.574723],[120.627923,22.575127],[120.627441,22.575785],[120.627142,22.575678],[120.626876,22.575069],[120.626288,22.574727],[120.626095,22.574444],[120.625685,22.574568],[120.625076,22.575432],[120.624858,22.575355],[120.624791,22.57396],[120.624575,22.573565],[120.624666,22.572912],[120.624968,22.572756],[120.62525,22.572806],[120.62541,22.573019],[120.625397,22.573626],[120.62589,22.573499],[120.626072,22.572918],[120.626562,22.572601],[120.625868,22.572127],[120.62601,22.571436],[120.626196,22.571277],[120.626739,22.571194],[120.626859,22.570908],[120.626755,22.570257],[120.626183,22.569926],[120.62649,22.569273],[120.625806,22.568968],[120.625443,22.568304],[120.625639,22.568139],[120.626458,22.568284],[120.626679,22.568198],[120.626345,22.5673],[120.62639,22.56694],[120.626643,22.566608],[120.627035,22.566497],[120.627575,22.566652],[120.628205,22.566554],[120.628075,22.56627],[120.627326,22.565725],[120.62707,22.564932],[120.627183,22.564659],[120.627978,22.564756],[120.628048,22.564638],[120.627825,22.564329],[120.628142,22.564306],[120.627837,22.563865],[120.628002,22.563397],[120.627717,22.563299],[120.627318,22.562632],[120.627406,22.56167],[120.627852,22.560005],[120.628309,22.560252],[120.629006,22.561112],[120.629142,22.561075],[120.629128,22.560754],[120.630064,22.561045],[120.630275,22.561352],[120.630106,22.561793],[120.630506,22.561761],[120.630561,22.561152],[120.629768,22.560276],[120.629725,22.559977],[120.629931,22.559833],[120.630819,22.560961],[120.631274,22.560219],[120.630911,22.559864],[120.629838,22.559393],[120.630182,22.559349],[120.630555,22.559076],[120.631179,22.559252],[120.631398,22.558964],[120.631061,22.558716],[120.630242,22.558608],[120.629766,22.558732],[120.629731,22.558633],[120.630112,22.558089],[120.630866,22.557472],[120.631426,22.557325],[120.63149,22.557164],[120.6314,22.556792],[120.631229,22.556722],[120.629418,22.557526],[120.629314,22.556909],[120.628702,22.556853],[120.628422,22.55646],[120.628337,22.556044],[120.628571,22.55589],[120.630613,22.555877],[120.630584,22.555738],[120.629996,22.555438],[120.630204,22.55494],[120.630786,22.554828],[120.630669,22.554274],[120.630339,22.553859],[120.629863,22.553711],[120.628839,22.553839],[120.627733,22.554412],[120.627146,22.555033],[120.626262,22.556454],[120.625894,22.555771],[120.626137,22.55531],[120.625603,22.555567],[120.625446,22.555392],[120.626153,22.554569],[120.625569,22.55434],[120.625241,22.554755],[120.624856,22.55434],[120.625101,22.553766],[120.624817,22.55292],[120.625432,22.552018],[120.625502,22.551771],[120.625312,22.551142],[120.625578,22.550765],[120.624754,22.549429],[120.624697,22.548069],[120.624923,22.547472],[120.624468,22.546523],[120.624355,22.5454],[120.624521,22.545171],[120.625347,22.545009],[120.62582,22.54464],[120.626263,22.5439],[120.626346,22.543098],[120.626756,22.542747],[120.627669,22.541779],[120.628165,22.540717],[120.629293,22.540253],[120.630805,22.538844],[120.632064,22.538776],[120.633275,22.539138],[120.634004,22.539785],[120.635131,22.540018],[120.636595,22.540629],[120.637931,22.540856],[120.638218,22.5407],[120.639238,22.539131],[120.640558,22.538301],[120.641808,22.53864],[120.643059,22.539229],[120.643571,22.539688],[120.644216,22.539734],[120.644385,22.53987],[120.644229,22.543035],[120.645076,22.544462],[120.645264,22.545994],[120.64634,22.547111],[120.646717,22.548205],[120.646559,22.550213],[120.646721,22.55124],[120.646664,22.552376],[120.645666,22.555903],[120.646041,22.558966],[120.645634,22.561371],[120.646017,22.562242],[120.646667,22.562453],[120.646788,22.562984],[120.648005,22.563923],[120.648836,22.564866],[120.64925,22.566956],[120.64985,22.568781],[120.649304,22.570332],[120.649398,22.570874],[120.64974,22.571439],[120.646362,22.56929],[120.644847,22.568987],[120.637975,22.569877],[120.636757,22.570165],[120.634122,22.571308],[120.632344,22.57292]]]},"properties":{"code":"10013290003","name":"平和村","countyCode":"10013","countyName":"屏東縣","townCode":"10013290","townName":"泰武鄉","level":"village","unassigned":false,"note":"","label":[120.63787523054918,22.550297155577923],"bounds":[120.624355,22.538301,120.64985,22.575785],"focusBounds":[120.624355,22.538301,120.64985,22.575785],"color":"#78a7e3"}},{"type":"Feature","id":"10013290004","geometry":{"type":"Polygon","coordinates":[[[120.743962,22.569587],[120.74076,22.570709],[120.737509,22.572535],[120.733524,22.573894],[120.732404,22.573407],[120.730877,22.573046],[120.72792,22.572754],[120.72647,22.57284],[120.724844,22.573717],[120.720623,22.577049],[120.720082,22.577317],[120.719501,22.577406],[120.711701,22.572868],[120.706791,22.57234],[120.703993,22.570233],[120.69918,22.569741],[120.697866,22.569485],[120.696166,22.568999],[120.693733,22.568024],[120.693075,22.568004],[120.692824,22.568148],[120.691582,22.570122],[120.685332,22.572999],[120.678145,22.571028],[120.670183,22.577799],[120.668731,22.578622],[120.667164,22.579014],[120.666758,22.578977],[120.666464,22.572799],[120.6632,22.571501],[120.660799,22.572574],[120.660471,22.572142],[120.659758,22.571836],[120.65911,22.571769],[120.658889,22.571579],[120.658981,22.570337],[120.659791,22.570254],[120.65997,22.56994],[120.659818,22.568593],[120.65858,22.567762],[120.658221,22.567278],[120.658658,22.566547],[120.658283,22.564458],[120.658828,22.563517],[120.660074,22.56314],[120.661509,22.563181],[120.662386,22.563369],[120.663806,22.564],[120.665861,22.56426],[120.667709,22.56515],[120.668463,22.565147],[120.670634,22.564126],[120.672674,22.563432],[120.67407,22.562503],[120.675926,22.562199],[120.676544,22.562276],[120.678109,22.563426],[120.679136,22.563584],[120.680311,22.562936],[120.681336,22.561766],[120.683224,22.561158],[120.683798,22.56067],[120.685171,22.560554],[120.687167,22.559458],[120.689649,22.559724],[120.6912,22.559292],[120.692066,22.558242],[120.69317,22.557572],[120.6937,22.557472],[120.694608,22.557837],[120.695139,22.558214],[120.696015,22.559059],[120.696675,22.559477],[120.697228,22.560516],[120.697986,22.560948],[120.698586,22.561699],[120.698981,22.561962],[120.699468,22.562047],[120.701062,22.561858],[120.701737,22.56099],[120.702651,22.560742],[120.703146,22.561098],[120.703681,22.561884],[120.704573,22.562369],[120.704857,22.563163],[120.705234,22.563413],[120.707395,22.562243],[120.70894,22.562024],[120.710278,22.56236],[120.711767,22.563084],[120.713232,22.563077],[120.71403,22.563365],[120.715386,22.563443],[120.716167,22.562503],[120.716766,22.562038],[120.717966,22.561474],[120.717911,22.560558],[120.718216,22.560275],[120.718474,22.560264],[120.719183,22.560562],[120.72041,22.560683],[120.721897,22.561622],[120.723269,22.561641],[120.72423,22.562072],[120.725625,22.561963],[120.726973,22.561402],[120.728225,22.561838],[120.729413,22.562471],[120.733476,22.561353],[120.735475,22.560338],[120.73662,22.560173],[120.738714,22.558898],[120.739952,22.558335],[120.740013,22.559242],[120.739671,22.561294],[120.739691,22.562982],[120.741157,22.566533],[120.741528,22.56867],[120.742349,22.569285],[120.743962,22.569587]]]},"properties":{"code":"10013290004","name":"佳興村","countyCode":"10013","countyName":"屏東縣","townCode":"10013290","townName":"泰武鄉","level":"village","unassigned":false,"note":"","label":[120.71934076543086,22.568945298458512],"bounds":[120.658221,22.557472,120.743962,22.579014],"focusBounds":[120.658221,22.557472,120.743962,22.579014],"color":"#dd8590"}},{"type":"Feature","id":"10013290005","geometry":{"type":"Polygon","coordinates":[[[120.746884,22.655467],[120.744709,22.655407],[120.74232,22.654746],[120.739539,22.652348],[120.737811,22.651635],[120.736219,22.651432],[120.735127,22.65091],[120.734775,22.651143],[120.734559,22.651634],[120.734067,22.652124],[120.733044,22.652502],[120.731497,22.653696],[120.731037,22.653841],[120.73014,22.653713],[120.72924,22.65394],[120.728033,22.654585],[120.727463,22.654628],[120.727001,22.65488],[120.726193,22.654893],[120.725156,22.655631],[120.724258,22.657191],[120.722865,22.657232],[120.722432,22.657664],[120.721151,22.658163],[120.720962,22.658075],[120.720504,22.657286],[120.719845,22.656701],[120.719517,22.656623],[120.718588,22.656738],[120.717788,22.656668],[120.716922,22.656919],[120.715719,22.656319],[120.712679,22.656479],[120.709836,22.656138],[120.708654,22.656242],[120.707548,22.655955],[120.707122,22.655979],[120.706356,22.656328],[120.70572,22.656376],[120.704064,22.655824],[120.702477,22.655817],[120.701243,22.655565],[120.699821,22.65496],[120.697808,22.6547],[120.695271,22.654658],[120.693616,22.654441],[120.692994,22.654102],[120.693054,22.653344],[120.694095,22.651804],[120.695437,22.650748],[120.695838,22.65027],[120.696187,22.649645],[120.696388,22.648224],[120.697678,22.645902],[120.69785,22.644397],[120.697608,22.642592],[120.697424,22.642482],[120.697782,22.641763],[120.6984,22.639624],[120.698455,22.638829],[120.697606,22.635596],[120.697805,22.634472],[120.699434,22.631576],[120.703939,22.626965],[120.704208,22.62627],[120.704317,22.625426],[120.703416,22.621798],[120.700911,22.617172],[120.699102,22.614685],[120.697592,22.612953],[120.69687,22.611402],[120.695742,22.610459],[120.694658,22.610005],[120.693345,22.60889],[120.687836,22.605836],[120.687307,22.605151],[120.686182,22.602706],[120.685331,22.601504],[120.683147,22.598926],[120.682108,22.59805],[120.680629,22.597526],[120.679732,22.597659],[120.678984,22.597944],[120.677172,22.597374],[120.673633,22.598248],[120.671952,22.598382],[120.668741,22.597366],[120.665532,22.595845],[120.664344,22.595612],[120.665091,22.593846],[120.66456,22.59181],[120.664807,22.590442],[120.662276,22.590257],[120.661247,22.589604],[120.660016,22.588488],[120.656887,22.587303],[120.656718,22.586966],[120.656219,22.586627],[120.656118,22.586053],[120.655579,22.585846],[120.654492,22.584982],[120.653456,22.583038],[120.652595,22.57959],[120.652374,22.579265],[120.651516,22.578904],[120.651336,22.578685],[120.651882,22.577647],[120.651905,22.577182],[120.650526,22.575395],[120.650883,22.574421],[120.650928,22.57327],[120.650324,22.571812],[120.650242,22.571228],[120.650405,22.570956],[120.650275,22.570589],[120.650546,22.570084],[120.650383,22.569605],[120.650456,22.569088],[120.650228,22.568637],[120.650314,22.56839],[120.651016,22.567192],[120.652214,22.565812],[120.653391,22.565026],[120.656421,22.564597],[120.65812,22.563681],[120.658828,22.563517],[120.658283,22.564458],[120.658658,22.566547],[120.658221,22.567278],[120.65858,22.567762],[120.659818,22.568593],[120.65997,22.56994],[120.659791,22.570254],[120.658981,22.570337],[120.658889,22.571579],[120.65911,22.571769],[120.659758,22.571836],[120.660471,22.572142],[120.660799,22.572574],[120.6632,22.571501],[120.666464,22.572799],[120.666758,22.578977],[120.667164,22.579014],[120.668731,22.578622],[120.670183,22.577799],[120.678145,22.571028],[120.685332,22.572999],[120.691582,22.570122],[120.692824,22.568148],[120.693075,22.568004],[120.693733,22.568024],[120.696166,22.568999],[120.697866,22.569485],[120.69918,22.569741],[120.703993,22.570233],[120.706791,22.57234],[120.711701,22.572868],[120.719501,22.577406],[120.720082,22.577317],[120.720623,22.577049],[120.724844,22.573717],[120.72647,22.57284],[120.72792,22.572754],[120.730877,22.573046],[120.732404,22.573407],[120.733524,22.573894],[120.737509,22.572535],[120.74076,22.570709],[120.743962,22.569587],[120.746802,22.570783],[120.747944,22.571076],[120.748388,22.57148],[120.748783,22.572295],[120.749176,22.575605],[120.749245,22.57727],[120.749084,22.578633],[120.748572,22.580304],[120.747509,22.582084],[120.746667,22.584009],[120.746406,22.586047],[120.745758,22.588319],[120.745885,22.589847],[120.746594,22.590953],[120.74901,22.593945],[120.75226,22.5971],[120.753581,22.599255],[120.754239,22.600057],[120.754644,22.600785],[120.754811,22.60156],[120.75432,22.602907],[120.754068,22.604426],[120.754261,22.606233],[120.75397,22.607748],[120.754056,22.608552],[120.752883,22.612078],[120.753657,22.613476],[120.75487,22.616984],[120.757652,22.622122],[120.757908,22.622899],[120.758655,22.623837],[120.761015,22.625793],[120.761235,22.626207],[120.761481,22.627481],[120.761196,22.629346],[120.76127,22.629784],[120.759773,22.631492],[120.75936,22.632287],[120.758698,22.63453],[120.75811,22.635162],[120.756994,22.637207],[120.755277,22.639748],[120.754618,22.640488],[120.752881,22.641543],[120.752278,22.642258],[120.751799,22.645431],[120.751553,22.64642],[120.751165,22.647169],[120.750683,22.649264],[120.749388,22.649992],[120.7489,22.650543],[120.748464,22.652575],[120.746884,22.655467]]]},"properties":{"code":"10013290005","name":"泰武村","countyCode":"10013","countyName":"屏東縣","townCode":"10013290","townName":"泰武鄉","level":"village","unassigned":false,"note":"","label":[120.72564214002217,22.606706077752225],"bounds":[120.650228,22.563517,120.761481,22.658163],"focusBounds":[120.650228,22.563517,120.761481,22.658163],"color":"#a49ad4"}},{"type":"Feature","id":"10013290006","geometry":{"type":"Polygon","coordinates":[[[120.697424,22.642482],[120.696594,22.642662],[120.693666,22.644227],[120.691951,22.645681],[120.689628,22.645702],[120.688249,22.646011],[120.687054,22.646032],[120.685926,22.646445],[120.685106,22.647216],[120.684078,22.647012],[120.683371,22.647141],[120.68286,22.647354],[120.682541,22.648237],[120.68228,22.648419],[120.679105,22.649926],[120.678507,22.65007],[120.677634,22.650607],[120.676372,22.650583],[120.675676,22.650094],[120.675267,22.650013],[120.674572,22.650636],[120.674337,22.651253],[120.673949,22.651392],[120.673659,22.651317],[120.672697,22.650581],[120.672628,22.649854],[120.671374,22.649756],[120.670424,22.649404],[120.669503,22.649697],[120.669068,22.649207],[120.668695,22.648055],[120.668168,22.647409],[120.667803,22.647196],[120.667123,22.647331],[120.666534,22.647217],[120.665408,22.645847],[120.66356,22.646149],[120.66324,22.645852],[120.66312,22.645159],[120.662836,22.644994],[120.661385,22.645488],[120.660046,22.645151],[120.660052,22.644849],[120.660941,22.644507],[120.661089,22.643511],[120.659873,22.642712],[120.659289,22.642046],[120.658818,22.641875],[120.658599,22.641879],[120.657211,22.642928],[120.656481,22.643114],[120.654315,22.645488],[120.65071,22.645249],[120.650465,22.645087],[120.64992,22.644017],[120.649954,22.64345],[120.65019,22.643005],[120.650106,22.642507],[120.649724,22.64277],[120.648314,22.643099],[120.64698,22.643136],[120.646512,22.642341],[120.645735,22.641909],[120.645115,22.640645],[120.643945,22.640541],[120.643105,22.640305],[120.642893,22.639806],[120.642922,22.638086],[120.642297,22.636187],[120.640706,22.634996],[120.64023,22.634414],[120.639694,22.634134],[120.639507,22.633453],[120.639678,22.632832],[120.639531,22.632476],[120.637899,22.632063],[120.637534,22.631783],[120.637238,22.631279],[120.637301,22.630591],[120.637108,22.63021],[120.636826,22.630182],[120.636665,22.629896],[120.636307,22.628506],[120.635795,22.628225],[120.635533,22.628553],[120.635366,22.628563],[120.635273,22.628046],[120.634997,22.627803],[120.634433,22.628041],[120.633898,22.62774],[120.633458,22.628115],[120.633192,22.628009],[120.633054,22.627336],[120.632646,22.627341],[120.632179,22.625359],[120.631585,22.624653],[120.633054,22.624361],[120.633245,22.624691],[120.633287,22.625734],[120.633682,22.626049],[120.63667,22.626226],[120.638092,22.626012],[120.639406,22.626025],[120.637391,22.624288],[120.636499,22.623231],[120.63613,22.621942],[120.650154,22.621957],[120.650874,22.620091],[120.651471,22.619817],[120.651967,22.61984],[120.653282,22.620523],[120.654188,22.620514],[120.654461,22.620422],[120.655011,22.619005],[120.655236,22.618852],[120.655781,22.619147],[120.657699,22.621582],[120.65937,22.622529],[120.662068,22.622445],[120.663248,22.622583],[120.664718,22.622116],[120.665828,22.621403],[120.66846,22.618746],[120.671501,22.616068],[120.674612,22.614577],[120.675022,22.614264],[120.676255,22.612479],[120.677272,22.610311],[120.678984,22.597944],[120.679732,22.597659],[120.680629,22.597526],[120.682108,22.59805],[120.683147,22.598926],[120.685331,22.601504],[120.686182,22.602706],[120.687307,22.605151],[120.687836,22.605836],[120.693345,22.60889],[120.694658,22.610005],[120.695742,22.610459],[120.69687,22.611402],[120.697592,22.612953],[120.699102,22.614685],[120.700911,22.617172],[120.703416,22.621798],[120.704317,22.625426],[120.704208,22.62627],[120.703939,22.626965],[120.699434,22.631576],[120.697805,22.634472],[120.697606,22.635596],[120.698455,22.638829],[120.6984,22.639624],[120.697782,22.641763],[120.697424,22.642482]]]},"properties":{"code":"10013290006","name":"萬安村","countyCode":"10013","countyName":"屏東縣","townCode":"10013290","townName":"泰武鄉","level":"village","unassigned":false,"note":"","label":[120.68035356960827,22.630026349880097],"bounds":[120.631585,22.597526,120.704317,22.651392],"focusBounds":[120.631585,22.597526,120.704317,22.651392],"color":"#a8bf62"}}]}
