{"type":"FeatureCollection","features":[{"type":"Feature","id":"10015050001","geometry":{"type":"Polygon","coordinates":[[[121.589911,23.990367],[121.589459,23.990642],[121.589109,23.990328],[121.587683,23.991113],[121.588196,23.992028],[121.587596,23.992292],[121.587258,23.99174],[121.586448,23.992201],[121.584432,23.98904],[121.58785,23.987086],[121.590875,23.986066],[121.596795,23.984803],[121.5982,23.984498],[121.59904,23.98535],[121.597272,23.985778],[121.597479,23.986188],[121.597978,23.987161],[121.597658,23.987183],[121.59561,23.988606],[121.594792,23.988796],[121.593895,23.98928],[121.593546,23.989691],[121.59249,23.991809],[121.591037,23.989697],[121.589911,23.990367]]]},"properties":{"code":"10015050001","name":"北昌村","countyCode":"10015","countyName":"花蓮縣","townCode":"10015050","townName":"吉安鄉","level":"village","unassigned":false,"note":"","label":[121.59209835830333,23.987858290644503],"bounds":[121.584432,23.984498,121.59904,23.992292],"focusBounds":[121.584432,23.984498,121.59904,23.992292],"color":"#a49ad4"}},{"type":"Feature","id":"10015050002","geometry":{"type":"Polygon","coordinates":[[[121.594739,23.98072],[121.592789,23.981206],[121.582786,23.986459],[121.577852,23.978722],[121.581426,23.976914],[121.584688,23.975988],[121.586313,23.975333],[121.588186,23.97412],[121.589551,23.974251],[121.589401,23.974862],[121.590176,23.975579],[121.591321,23.976074],[121.591963,23.977254],[121.592738,23.976773],[121.59286,23.977016],[121.594739,23.98072]]]},"properties":{"code":"10015050002","name":"勝安村","countyCode":"10015","countyName":"花蓮縣","townCode":"10015050","townName":"吉安鄉","level":"village","unassigned":false,"note":"","label":[121.58610729560118,23.98006527118856],"bounds":[121.577852,23.97412,121.594739,23.986459],"focusBounds":[121.577852,23.97412,121.594739,23.986459],"color":"#a49ad4"}},{"type":"Feature","id":"10015050003","geometry":{"type":"Polygon","coordinates":[[[121.55816,23.998294],[121.557411,23.998337],[121.554711,23.999194],[121.551757,24.000336],[121.553648,23.998084],[121.554319,23.997587],[121.555077,23.9976],[121.555161,23.997453],[121.553652,23.996021],[121.552272,23.995308],[121.550263,23.993198],[121.549766,23.992913],[121.548678,23.992593],[121.546598,23.991542],[121.543155,23.990518],[121.542827,23.990535],[121.542503,23.990784],[121.541995,23.991906],[121.541533,23.992294],[121.541256,23.99238],[121.539962,23.992137],[121.539331,23.992193],[121.539019,23.992133],[121.538238,23.991602],[121.536495,23.991376],[121.534607,23.989969],[121.533,23.989784],[121.534625,23.988761],[121.537815,23.987847],[121.541191,23.987299],[121.542724,23.986757],[121.544198,23.986667],[121.546357,23.986229],[121.546734,23.985881],[121.547151,23.98588],[121.549279,23.985265],[121.549746,23.985295],[121.550341,23.98551],[121.551274,23.985498],[121.55187,23.984945],[121.552478,23.984844],[121.555284,23.986665],[121.562258,23.987166],[121.567191,23.984467],[121.573093,23.993585],[121.55816,23.998294]]]},"properties":{"code":"10015050003","name":"太昌村","countyCode":"10015","countyName":"花蓮縣","townCode":"10015050","townName":"吉安鄉","level":"village","unassigned":false,"note":"","label":[121.55797030875,23.992581186585834],"bounds":[121.533,23.984467,121.573093,24.000336],"focusBounds":[121.533,23.984467,121.573093,24.000336],"color":"#df9f6a"}},{"type":"Feature","id":"10015050004","geometry":{"type":"Polygon","coordinates":[[[121.578234,23.991776],[121.573093,23.993585],[121.567191,23.984467],[121.577852,23.978722],[121.582786,23.986459],[121.584432,23.98904],[121.586448,23.992201],[121.586092,23.992167],[121.585465,23.991728],[121.584795,23.991598],[121.58394,23.990536],[121.583123,23.989824],[121.578234,23.991776]]]},"properties":{"code":"10015050004","name":"永安村","countyCode":"10015","countyName":"花蓮縣","townCode":"10015050","townName":"吉安鄉","level":"village","unassigned":false,"note":"","label":[121.57588523250197,23.986629889848697],"bounds":[121.567191,23.978722,121.586448,23.993585],"focusBounds":[121.567191,23.978722,121.586448,23.993585],"color":"#68bec9"}},{"type":"Feature","id":"10015050005","geometry":{"type":"Polygon","coordinates":[[[121.549746,23.985295],[121.553133,23.982916],[121.568269,23.974427],[121.574247,23.975069],[121.575888,23.975682],[121.580878,23.976764],[121.581426,23.976914],[121.577852,23.978722],[121.567191,23.984467],[121.562258,23.987166],[121.555284,23.986665],[121.552478,23.984844],[121.55187,23.984945],[121.551274,23.985498],[121.550341,23.98551],[121.549746,23.985295]]]},"properties":{"code":"10015050005","name":"慶豐村","countyCode":"10015","countyName":"花蓮縣","townCode":"10015050","townName":"吉安鄉","level":"village","unassigned":false,"note":"","label":[121.56544724490678,23.980715398560662],"bounds":[121.549746,23.974427,121.581426,23.987166],"focusBounds":[121.549746,23.974427,121.581426,23.987166],"color":"#98b69b"}},{"type":"Feature","id":"10015050006","geometry":{"type":"Polygon","coordinates":[[[121.533,23.989784],[121.530976,23.990291],[121.529921,23.990742],[121.527822,23.992094],[121.527308,23.992019],[121.525615,23.990827],[121.524249,23.989394],[121.522818,23.988186],[121.521451,23.986498],[121.520861,23.985439],[121.52016,23.983713],[121.519955,23.978723],[121.521751,23.978353],[121.523155,23.977769],[121.525476,23.976339],[121.529112,23.974944],[121.529536,23.974321],[121.548411,23.973894],[121.550539,23.973741],[121.55467,23.97381],[121.568174,23.966335],[121.572962,23.963735],[121.574539,23.966214],[121.579009,23.973235],[121.579687,23.97403],[121.580708,23.976063],[121.580878,23.976764],[121.575888,23.975682],[121.574247,23.975069],[121.568269,23.974427],[121.553133,23.982916],[121.549746,23.985295],[121.549279,23.985265],[121.547151,23.98588],[121.546734,23.985881],[121.546357,23.986229],[121.544198,23.986667],[121.542724,23.986757],[121.541191,23.987299],[121.537815,23.987847],[121.534625,23.988761],[121.533,23.989784]]]},"properties":{"code":"10015050006","name":"吉安村","countyCode":"10015","countyName":"花蓮縣","townCode":"10015050","townName":"吉安鄉","level":"village","unassigned":false,"note":"","label":[121.54327266040734,23.980366888797843],"bounds":[121.519955,23.963735,121.580878,23.992094],"focusBounds":[121.519955,23.963735,121.580878,23.992094],"color":"#c38cb8"}},{"type":"Feature","id":"10015050007","geometry":{"type":"Polygon","coordinates":[[[121.568174,23.966335],[121.55467,23.97381],[121.550539,23.973741],[121.548411,23.973894],[121.529536,23.974321],[121.529971,23.973179],[121.531152,23.971506],[121.531333,23.97072],[121.530831,23.969117],[121.529296,23.966339],[121.529815,23.966046],[121.531435,23.966261],[121.538574,23.966622],[121.541632,23.966446],[121.548821,23.964657],[121.54894,23.964356],[121.548547,23.96328],[121.548625,23.962933],[121.561318,23.955695],[121.563691,23.959378],[121.568174,23.966335]]]},"properties":{"code":"10015050007","name":"福興村","countyCode":"10015","countyName":"花蓮縣","townCode":"10015050","townName":"吉安鄉","level":"village","unassigned":false,"note":"","label":[121.55476879577674,23.96659226179882],"bounds":[121.529296,23.955695,121.568174,23.974321],"focusBounds":[121.529296,23.955695,121.568174,23.974321],"color":"#98b69b"}},{"type":"Feature","id":"10015050008","geometry":{"type":"Polygon","coordinates":[[[121.561318,23.955695],[121.548625,23.962933],[121.548547,23.96328],[121.54894,23.964356],[121.548821,23.964657],[121.541632,23.966446],[121.538574,23.966622],[121.531435,23.966261],[121.529815,23.966046],[121.529296,23.966339],[121.528332,23.965054],[121.527181,23.964025],[121.526197,23.962659],[121.523748,23.96087],[121.522286,23.958982],[121.52167,23.957759],[121.519739,23.955976],[121.51934,23.955433],[121.519444,23.954332],[121.519286,23.951503],[121.518936,23.950618],[121.518472,23.950021],[121.520573,23.949435],[121.522192,23.949374],[121.524171,23.949643],[121.526333,23.950407],[121.527956,23.951283],[121.532158,23.952426],[121.534198,23.952695],[121.535158,23.952691],[121.536476,23.952466],[121.537496,23.952518],[121.53972,23.953777],[121.541281,23.954378],[121.542719,23.953998],[121.543856,23.953498],[121.548763,23.950946],[121.550436,23.949562],[121.553009,23.947789],[121.559144,23.952121],[121.558546,23.952619],[121.561318,23.955695]]]},"properties":{"code":"10015050008","name":"南華村","countyCode":"10015","countyName":"花蓮縣","townCode":"10015050","townName":"吉安鄉","level":"village","unassigned":false,"note":"","label":[121.5351603897257,23.95957006596911],"bounds":[121.518472,23.947789,121.561318,23.966622],"focusBounds":[121.518472,23.947789,121.561318,23.966622],"color":"#58b99d"}},{"type":"Feature","id":"10015050009","geometry":{"type":"Polygon","coordinates":[[[121.553009,23.947789],[121.550436,23.949562],[121.548763,23.950946],[121.543856,23.953498],[121.542719,23.953998],[121.541281,23.954378],[121.53972,23.953777],[121.537496,23.952518],[121.536476,23.952466],[121.535158,23.952691],[121.534198,23.952695],[121.532158,23.952426],[121.527956,23.951283],[121.526333,23.950407],[121.524171,23.949643],[121.522192,23.949374],[121.520573,23.949435],[121.518472,23.950021],[121.517054,23.949785],[121.51604,23.94941],[121.514088,23.948159],[121.519453,23.945717],[121.520851,23.943976],[121.523644,23.941395],[121.527072,23.937899],[121.531242,23.934463],[121.533143,23.933142],[121.533796,23.932134],[121.534637,23.931269],[121.534728,23.930543],[121.535178,23.930126],[121.53588,23.928736],[121.537535,23.927752],[121.538946,23.927317],[121.54556,23.926027],[121.548419,23.926114],[121.551259,23.925321],[121.553167,23.928633],[121.557271,23.934835],[121.555774,23.935391],[121.556196,23.935886],[121.549518,23.944716],[121.552886,23.947184],[121.552588,23.94746],[121.553009,23.947789]]]},"properties":{"code":"10015050009","name":"干城村","countyCode":"10015","countyName":"花蓮縣","townCode":"10015050","townName":"吉安鄉","level":"village","unassigned":false,"note":"","label":[121.53956518127254,23.94142447838415],"bounds":[121.514088,23.925321,121.557271,23.954378],"focusBounds":[121.514088,23.925321,121.557271,23.954378],"color":"#efb44f"}},{"type":"Feature","id":"10015050010","geometry":{"type":"Polygon","coordinates":[[[121.563691,23.959378],[121.561318,23.955695],[121.558546,23.952619],[121.559144,23.952121],[121.553009,23.947789],[121.552588,23.94746],[121.552886,23.947184],[121.549518,23.944716],[121.556196,23.935886],[121.555774,23.935391],[121.557271,23.934835],[121.559546,23.93411],[121.559972,23.935596],[121.561707,23.934653],[121.570705,23.935612],[121.572393,23.937755],[121.572461,23.939518],[121.57349,23.941663],[121.574326,23.944016],[121.575127,23.9459],[121.572077,23.947653],[121.574371,23.951061],[121.57144,23.952725],[121.572527,23.95454],[121.563691,23.959378]]]},"properties":{"code":"10015050010","name":"永興村","countyCode":"10015","countyName":"花蓮縣","townCode":"10015050","townName":"吉安鄉","level":"village","unassigned":false,"note":"","label":[121.56356068684934,23.94408623930964],"bounds":[121.549518,23.93411,121.575127,23.959378],"focusBounds":[121.549518,23.93411,121.575127,23.959378],"color":"#78a7e3"}},{"type":"Feature","id":"10015050011","geometry":{"type":"Polygon","coordinates":[[[121.577787,23.964263],[121.574539,23.966214],[121.572962,23.963735],[121.568174,23.966335],[121.563691,23.959378],[121.572527,23.95454],[121.57144,23.952725],[121.574371,23.951061],[121.572077,23.947653],[121.575127,23.9459],[121.578458,23.953239],[121.579959,23.953674],[121.580141,23.954224],[121.578944,23.95456],[121.579066,23.955055],[121.582451,23.961159],[121.582284,23.96386],[121.576464,23.963386],[121.577787,23.964263]]]},"properties":{"code":"10015050011","name":"稻香村","countyCode":"10015","countyName":"花蓮縣","townCode":"10015050","townName":"吉安鄉","level":"village","unassigned":false,"note":"","label":[121.57401240688853,23.959177785830583],"bounds":[121.563691,23.9459,121.582451,23.966335],"focusBounds":[121.563691,23.9459,121.582451,23.966335],"color":"#dd8590"}},{"type":"Feature","id":"10015050012","geometry":{"type":"Polygon","coordinates":[[[121.579009,23.973235],[121.574539,23.966214],[121.577787,23.964263],[121.58561,23.969755],[121.579009,23.973235]]]},"properties":{"code":"10015050012","name":"南昌村","countyCode":"10015","countyName":"花蓮縣","townCode":"10015050","townName":"吉安鄉","level":"village","unassigned":false,"note":"","label":[121.57966150145799,23.96898348220011],"bounds":[121.574539,23.964263,121.58561,23.973235],"focusBounds":[121.574539,23.964263,121.58561,23.973235],"color":"#a49ad4"}},{"type":"Feature","id":"10015050013","geometry":{"type":"Polygon","coordinates":[[[121.588186,23.97412],[121.586313,23.975333],[121.584688,23.975988],[121.581426,23.976914],[121.580878,23.976764],[121.580708,23.976063],[121.579687,23.97403],[121.579009,23.973235],[121.58561,23.969755],[121.589826,23.972684],[121.588186,23.97412]]]},"properties":{"code":"10015050013","name":"宜昌村","countyCode":"10015","countyName":"花蓮縣","townCode":"10015050","townName":"吉安鄉","level":"village","unassigned":false,"note":"","label":[121.58423442747468,23.97329850468096],"bounds":[121.579009,23.969755,121.589826,23.976914],"focusBounds":[121.579009,23.969755,121.589826,23.976914],"color":"#a8bf62"}},{"type":"Feature","id":"10015050014","geometry":{"type":"Polygon","coordinates":[[[121.59367,23.969432],[121.589826,23.972684],[121.58561,23.969755],[121.577787,23.964263],[121.576464,23.963386],[121.582284,23.96386],[121.589783,23.96435],[121.590565,23.964732],[121.591162,23.964234],[121.595023,23.968305],[121.59367,23.969432]]]},"properties":{"code":"10015050014","name":"仁里村","countyCode":"10015","countyName":"花蓮縣","townCode":"10015050","townName":"吉安鄉","level":"village","unassigned":false,"note":"","label":[121.58871285005317,23.967673660672787],"bounds":[121.576464,23.963386,121.595023,23.972684],"focusBounds":[121.576464,23.963386,121.595023,23.972684],"color":"#68bec9"}},{"type":"Feature","id":"10015050015","geometry":{"type":"Polygon","coordinates":[[[121.604387,23.963613],[121.602713,23.96391],[121.599743,23.9648],[121.597991,23.965906],[121.595023,23.968305],[121.591162,23.964234],[121.590565,23.964732],[121.589783,23.96435],[121.593596,23.958769],[121.593663,23.957708],[121.601142,23.954762],[121.601948,23.956537],[121.603018,23.955601],[121.603934,23.954469],[121.606914,23.952738],[121.607216,23.956834],[121.607823,23.959899],[121.608514,23.960906],[121.608894,23.962098],[121.609622,23.963056],[121.60815,23.963092],[121.607727,23.962965],[121.606361,23.963247],[121.604387,23.963613]]]},"properties":{"code":"10015050015","name":"東昌村","countyCode":"10015","countyName":"花蓮縣","townCode":"10015050","townName":"吉安鄉","level":"village","unassigned":false,"note":"","label":[121.59913986367155,23.960365834000278],"bounds":[121.589783,23.952738,121.609622,23.968305],"focusBounds":[121.589783,23.952738,121.609622,23.968305],"color":"#df9f6a"}},{"type":"Feature","id":"10015050016","geometry":{"type":"Polygon","coordinates":[[[121.606914,23.952738],[121.603934,23.954469],[121.603018,23.955601],[121.601948,23.956537],[121.601142,23.954762],[121.593663,23.957708],[121.586805,23.94223],[121.58644,23.941074],[121.586552,23.939311],[121.587691,23.939306],[121.589191,23.939521],[121.596397,23.941917],[121.602625,23.940185],[121.60616,23.939675],[121.607305,23.939256],[121.609704,23.944185],[121.609207,23.945604],[121.609043,23.946827],[121.609828,23.947927],[121.60981,23.948088],[121.609276,23.948504],[121.608038,23.949052],[121.607807,23.949317],[121.606914,23.952738]]]},"properties":{"code":"10015050016","name":"仁安村","countyCode":"10015","countyName":"花蓮縣","townCode":"10015050","townName":"吉安鄉","level":"village","unassigned":false,"note":"","label":[121.59872691160523,23.948491363712563],"bounds":[121.58644,23.939256,121.609828,23.957708],"focusBounds":[121.58644,23.939256,121.609828,23.957708],"color":"#c38cb8"}},{"type":"Feature","id":"10015050017","geometry":{"type":"Polygon","coordinates":[[[121.589783,23.96435],[121.582284,23.96386],[121.582451,23.961159],[121.579066,23.955055],[121.578944,23.95456],[121.580141,23.954224],[121.579959,23.953674],[121.578458,23.953239],[121.575127,23.9459],[121.574326,23.944016],[121.576255,23.942932],[121.581161,23.940599],[121.586552,23.939311],[121.58644,23.941074],[121.586805,23.94223],[121.593663,23.957708],[121.593596,23.958769],[121.589783,23.96435]]]},"properties":{"code":"10015050017","name":"仁和村","countyCode":"10015","countyName":"花蓮縣","townCode":"10015050","townName":"吉安鄉","level":"village","unassigned":false,"note":"","label":[121.58517763606183,23.952283374151122],"bounds":[121.574326,23.939311,121.593663,23.96435],"focusBounds":[121.574326,23.939311,121.593663,23.96435],"color":"#98b69b"}},{"type":"Feature","id":"10015050018","geometry":{"type":"Polygon","coordinates":[[[121.586552,23.939311],[121.581161,23.940599],[121.576255,23.942932],[121.574326,23.944016],[121.57349,23.941663],[121.572461,23.939518],[121.572393,23.937755],[121.570705,23.935612],[121.561707,23.934653],[121.559972,23.935596],[121.559546,23.93411],[121.557271,23.934835],[121.553167,23.928633],[121.551259,23.925321],[121.552337,23.924429],[121.553632,23.924323],[121.554749,23.923191],[121.559844,23.920273],[121.564989,23.917951],[121.567281,23.916789],[121.569461,23.915924],[121.577322,23.913629],[121.580803,23.912938],[121.583148,23.912269],[121.585551,23.910854],[121.587123,23.910695],[121.588192,23.910333],[121.589699,23.909313],[121.590135,23.90948],[121.591243,23.910678],[121.59231,23.911177],[121.592965,23.911584],[121.596179,23.916677],[121.596991,23.91758],[121.598661,23.921052],[121.600448,23.92378],[121.601267,23.926039],[121.603115,23.929621],[121.604191,23.933409],[121.604637,23.934501],[121.607305,23.939256],[121.60616,23.939675],[121.602625,23.940185],[121.596397,23.941917],[121.589191,23.939521],[121.587691,23.939306],[121.586552,23.939311]]]},"properties":{"code":"10015050018","name":"光華村","countyCode":"10015","countyName":"花蓮縣","townCode":"10015050","townName":"吉安鄉","level":"village","unassigned":false,"note":"","label":[121.58093667830153,23.926802368864564],"bounds":[121.551259,23.909313,121.607305,23.944016],"focusBounds":[121.551259,23.909313,121.607305,23.944016],"color":"#58b99d"}},{"type":"Feature","id":"10015050019","geometry":{"type":"Polygon","coordinates":[[[121.596795,23.984803],[121.590875,23.986066],[121.58785,23.987086],[121.584432,23.98904],[121.582786,23.986459],[121.592789,23.981206],[121.594739,23.98072],[121.596795,23.984803]]]},"properties":{"code":"10015050019","name":"吉昌村","countyCode":"10015","countyName":"花蓮縣","townCode":"10015050","townName":"吉安鄉","level":"village","unassigned":false,"note":"","label":[121.59009818018683,23.984473438980515],"bounds":[121.582786,23.98072,121.596795,23.98904],"focusBounds":[121.582786,23.98072,121.596795,23.98904],"color":"#78a7e3"}}]}
