{"type":"FeatureCollection","features":[{"type":"Feature","id":"10013220001","geometry":{"type":"Polygon","coordinates":[[[120.382919,22.353306],[120.382363,22.353706],[120.382262,22.35437],[120.381718,22.354936],[120.380066,22.355876],[120.379639,22.355983],[120.37664,22.350623],[120.376434,22.34978],[120.375488,22.348722],[120.374179,22.346804],[120.374207,22.345974],[120.37203,22.342737],[120.372789,22.342227],[120.3727,22.342105],[120.373016,22.341806],[120.372878,22.3416],[120.373383,22.341182],[120.373169,22.340718],[120.373516,22.340509],[120.375153,22.340951],[120.376111,22.34082],[120.377449,22.340906],[120.378541,22.340676],[120.37903,22.340752],[120.37962,22.345552],[120.380116,22.347096],[120.380839,22.348503],[120.381657,22.349328],[120.382139,22.349436],[120.382358,22.34973],[120.382373,22.350376],[120.382635,22.351242],[120.382601,22.351978],[120.382018,22.352274],[120.382324,22.352821],[120.382919,22.353306]]]},"properties":{"code":"10013220001","name":"本福村","countyCode":"10013","countyName":"屏東縣","townCode":"10013220","townName":"琉球鄉","level":"village","unassigned":false,"note":"","label":[120.37739477379748,22.346932472547493],"bounds":[120.37203,22.340509,120.382919,22.355983],"focusBounds":[120.37203,22.340509,120.382919,22.355983],"color":"#68bec9"}},{"type":"Feature","id":"10013220002","geometry":{"type":"Polygon","coordinates":[[[120.387553,22.35106],[120.385071,22.351894],[120.382919,22.353306],[120.382324,22.352821],[120.382018,22.352274],[120.382601,22.351978],[120.382635,22.351242],[120.382373,22.350376],[120.382358,22.34973],[120.382139,22.349436],[120.381657,22.349328],[120.380839,22.348503],[120.380116,22.347096],[120.381057,22.347199],[120.381231,22.347647],[120.381524,22.347447],[120.382203,22.347445],[120.382643,22.346636],[120.382832,22.345824],[120.384067,22.347547],[120.384985,22.348097],[120.38651,22.350051],[120.3869,22.34984],[120.387553,22.35106]]]},"properties":{"code":"10013220002","name":"中福村","countyCode":"10013","countyName":"屏東縣","townCode":"10013220","townName":"琉球鄉","level":"village","unassigned":false,"note":"","label":[120.3841500100828,22.350047563698276],"bounds":[120.380116,22.345824,120.387553,22.353306],"focusBounds":[120.380116,22.345824,120.387553,22.353306],"color":"#df9f6a"}},{"type":"Feature","id":"10013220003","geometry":{"type":"Polygon","coordinates":[[[120.380342,22.337721],[120.380983,22.338455],[120.382324,22.338888],[120.383668,22.339872],[120.387031,22.341759],[120.388012,22.342733],[120.388356,22.343879],[120.388477,22.346149],[120.388887,22.347405],[120.388793,22.348036],[120.388974,22.349445],[120.388837,22.350061],[120.388486,22.350676],[120.387553,22.35106],[120.3869,22.34984],[120.38651,22.350051],[120.384985,22.348097],[120.384067,22.347547],[120.382832,22.345824],[120.382643,22.346636],[120.382203,22.347445],[120.381524,22.347447],[120.381231,22.347647],[120.381057,22.347199],[120.380116,22.347096],[120.37962,22.345552],[120.37903,22.340752],[120.379532,22.340903],[120.379836,22.341378],[120.379996,22.34209],[120.380357,22.3421],[120.38056,22.34109],[120.380266,22.339454],[120.380342,22.337721]]]},"properties":{"code":"10013220003","name":"漁福村","countyCode":"10013","countyName":"屏東縣","townCode":"10013220","townName":"琉球鄉","level":"village","unassigned":false,"note":"","label":[120.38504909084969,22.343960868920075],"bounds":[120.37903,22.337721,120.388974,22.35106],"focusBounds":[120.37903,22.337721,120.388974,22.35106],"color":"#c38cb8"}},{"type":"Feature","id":"10013220004","geometry":{"type":"Polygon","coordinates":[[[120.37903,22.340752],[120.378541,22.340676],[120.377449,22.340906],[120.376111,22.34082],[120.375153,22.340951],[120.373516,22.340509],[120.373169,22.340718],[120.373383,22.341182],[120.372878,22.3416],[120.373016,22.341806],[120.3727,22.342105],[120.372789,22.342227],[120.37203,22.342737],[120.370767,22.341224],[120.37045,22.341021],[120.369765,22.339691],[120.368021,22.337835],[120.366739,22.336103],[120.367539,22.336108],[120.367615,22.335309],[120.36853,22.334719],[120.368381,22.333807],[120.368477,22.33282],[120.368242,22.332092],[120.367413,22.330906],[120.367978,22.329163],[120.368839,22.327848],[120.370614,22.329814],[120.371497,22.331126],[120.372287,22.33146],[120.373118,22.332278],[120.374159,22.332926],[120.375514,22.333584],[120.376752,22.335728],[120.37856,22.33698],[120.380342,22.337721],[120.380266,22.339454],[120.38056,22.34109],[120.380357,22.3421],[120.379996,22.34209],[120.379836,22.341378],[120.379532,22.340903],[120.37903,22.340752]]]},"properties":{"code":"10013220004","name":"大福村","countyCode":"10013","countyName":"屏東縣","townCode":"10013220","townName":"琉球鄉","level":"village","unassigned":false,"note":"","label":[120.37244714951412,22.336722958186908],"bounds":[120.366739,22.327848,120.38056,22.342737],"focusBounds":[120.366739,22.327848,120.38056,22.342737],"color":"#98b69b"}},{"type":"Feature","id":"10013220005","geometry":{"type":"Polygon","coordinates":[[[120.368839,22.327848],[120.367978,22.329163],[120.367413,22.330906],[120.368242,22.332092],[120.368477,22.33282],[120.368381,22.333807],[120.36853,22.334719],[120.367615,22.335309],[120.367539,22.336108],[120.366739,22.336103],[120.366622,22.335793],[120.366762,22.3355],[120.36653,22.335118],[120.366382,22.33502],[120.366056,22.335102],[120.36548,22.33468],[120.364958,22.333983],[120.364135,22.333167],[120.363659,22.332901],[120.363159,22.332264],[120.363154,22.331208],[120.362927,22.330832],[120.362964,22.330566],[120.362554,22.330065],[120.36268,22.32765],[120.361747,22.326958],[120.36139,22.326414],[120.360047,22.325106],[120.356843,22.324954],[120.355674,22.324617],[120.355246,22.323857],[120.355121,22.323074],[120.356439,22.322719],[120.357375,22.32222],[120.358938,22.322202],[120.359595,22.322375],[120.359885,22.322241],[120.361505,22.322716],[120.362712,22.323465],[120.363124,22.323579],[120.363778,22.32424],[120.366488,22.325668],[120.367368,22.326306],[120.368839,22.327848]]]},"properties":{"code":"10013220005","name":"南福村","countyCode":"10013","countyName":"屏東縣","townCode":"10013220","townName":"琉球鄉","level":"village","unassigned":false,"note":"","label":[120.3652927304714,22.328486777280784],"bounds":[120.355121,22.322202,120.368839,22.336108],"focusBounds":[120.355121,22.322202,120.368839,22.336108],"color":"#58b99d"}},{"type":"Feature","id":"10013220006","geometry":{"type":"Polygon","coordinates":[[[120.366739,22.336103],[120.365297,22.335989],[120.360915,22.336527],[120.360938,22.336202],[120.360344,22.334706],[120.358244,22.332765],[120.35487,22.330858],[120.354189,22.330259],[120.353617,22.329414],[120.353395,22.328404],[120.353444,22.327138],[120.353272,22.326943],[120.353186,22.324996],[120.354143,22.323731],[120.354653,22.323256],[120.355121,22.323074],[120.355246,22.323857],[120.355674,22.324617],[120.356843,22.324954],[120.360047,22.325106],[120.36139,22.326414],[120.361747,22.326958],[120.36268,22.32765],[120.362554,22.330065],[120.362964,22.330566],[120.362927,22.330832],[120.363154,22.331208],[120.363159,22.332264],[120.363659,22.332901],[120.364135,22.333167],[120.364958,22.333983],[120.36548,22.33468],[120.366056,22.335102],[120.366382,22.33502],[120.36653,22.335118],[120.366762,22.3355],[120.366622,22.335793],[120.366739,22.336103]]]},"properties":{"code":"10013220006","name":"天福村","countyCode":"10013","countyName":"屏東縣","townCode":"10013220","townName":"琉球鄉","level":"village","unassigned":false,"note":"","label":[120.3590942951512,22.329306108152355],"bounds":[120.353186,22.323074,120.366762,22.336527],"focusBounds":[120.353186,22.323074,120.366762,22.336527],"color":"#efb44f"}},{"type":"Feature","id":"10013220007","geometry":{"type":"Polygon","coordinates":[[[120.37203,22.342737],[120.374207,22.345974],[120.374179,22.346804],[120.375488,22.348722],[120.376434,22.34978],[120.37664,22.350623],[120.375464,22.350433],[120.374718,22.349891],[120.373139,22.349537],[120.372312,22.349032],[120.37135,22.348868],[120.370904,22.348602],[120.370433,22.347361],[120.370181,22.347008],[120.369764,22.346805],[120.36972,22.346087],[120.367355,22.344186],[120.364559,22.341558],[120.364182,22.340286],[120.364264,22.340114],[120.364551,22.340052],[120.364495,22.33977],[120.362036,22.338625],[120.361227,22.337716],[120.360974,22.33707],[120.360915,22.336527],[120.365297,22.335989],[120.366739,22.336103],[120.368021,22.337835],[120.369765,22.339691],[120.37045,22.341021],[120.370767,22.341224],[120.37203,22.342737]]]},"properties":{"code":"10013220007","name":"上福村","countyCode":"10013","countyName":"屏東縣","townCode":"10013220","townName":"琉球鄉","level":"village","unassigned":false,"note":"","label":[120.36819794608897,22.341800666860316],"bounds":[120.360915,22.335989,120.37664,22.350623],"focusBounds":[120.360915,22.335989,120.37664,22.350623],"color":"#78a7e3"}},{"type":"Feature","id":"10013220008","geometry":{"type":"Polygon","coordinates":[[[120.379639,22.355983],[120.376963,22.355718],[120.373439,22.353774],[120.372552,22.353535],[120.372062,22.353194],[120.368549,22.352232],[120.367423,22.352114],[120.365635,22.350932],[120.364872,22.349659],[120.363711,22.348193],[120.362548,22.347323],[120.361494,22.346967],[120.361114,22.346517],[120.361143,22.34622],[120.36093,22.34595],[120.361409,22.345635],[120.361105,22.345352],[120.361751,22.344527],[120.362688,22.344298],[120.362922,22.34408],[120.362547,22.343434],[120.362594,22.342826],[120.362743,22.342553],[120.362798,22.341575],[120.363361,22.340501],[120.36324,22.340023],[120.361744,22.338784],[120.361051,22.337504],[120.360974,22.33707],[120.361227,22.337716],[120.362036,22.338625],[120.364495,22.33977],[120.364551,22.340052],[120.364264,22.340114],[120.364182,22.340286],[120.364559,22.341558],[120.367355,22.344186],[120.36972,22.346087],[120.369764,22.346805],[120.370181,22.347008],[120.370433,22.347361],[120.370904,22.348602],[120.37135,22.348868],[120.372312,22.349032],[120.373139,22.349537],[120.374718,22.349891],[120.375464,22.350433],[120.37664,22.350623],[120.379639,22.355983]]]},"properties":{"code":"10013220008","name":"杉福村","countyCode":"10013","countyName":"屏東縣","townCode":"10013220","townName":"琉球鄉","level":"village","unassigned":false,"note":"","label":[120.3682722978643,22.349413645303084],"bounds":[120.36093,22.33707,120.379639,22.355983],"focusBounds":[120.36093,22.33707,120.379639,22.355983],"color":"#dd8590"}}]}
