{"type":"FeatureCollection","features":[{"type":"Feature","id":"10014110001","geometry":{"type":"MultiPolygon","coordinates":[[[[121.489269,22.641544],[121.490571,22.640428],[121.490996,22.640219],[121.492046,22.63907],[121.492959,22.638989],[121.492997,22.638698],[121.493434,22.638397],[121.493334,22.637573],[121.493759,22.636726],[121.493934,22.634521],[121.494409,22.633244],[121.495221,22.632489],[121.496584,22.632234],[121.496759,22.632013],[121.497397,22.63185],[121.498285,22.632013],[121.498773,22.632361],[121.498748,22.633068],[121.497985,22.634113],[121.498486,22.634531],[121.499674,22.635076],[121.501312,22.634936],[121.502062,22.634286],[121.502712,22.6341],[121.503288,22.634076],[121.503725,22.634227],[121.504038,22.634053],[121.504288,22.634355],[121.504813,22.634389],[121.505576,22.634238],[121.505801,22.634134],[121.505964,22.633043],[121.506226,22.63259],[121.506714,22.63295],[121.506701,22.633437],[121.506289,22.633936],[121.506364,22.634342],[121.50774,22.634597],[121.507565,22.63476],[121.505689,22.635282],[121.505001,22.6357],[121.504614,22.636896],[121.504627,22.638265],[121.504202,22.638613],[121.503439,22.639646],[121.502776,22.640157],[121.502126,22.641411],[121.502202,22.642687],[121.502064,22.643894],[121.499713,22.645171],[121.499526,22.645902],[121.500189,22.647944],[121.501228,22.650415],[121.50124,22.651007],[121.502191,22.652201],[121.502879,22.652317],[121.503854,22.652131],[121.504379,22.651713],[121.505067,22.651493],[121.505605,22.651492],[121.506005,22.651713],[121.505868,22.652757],[121.506168,22.652966],[121.508769,22.653835],[121.508882,22.654531],[121.507519,22.65546],[121.507169,22.655889],[121.506906,22.657166],[121.507357,22.658581],[121.507832,22.659509],[121.508758,22.660216],[121.508646,22.661237],[121.509047,22.664845],[121.509822,22.665831],[121.509947,22.666573],[121.510398,22.666863],[121.510285,22.668035],[121.510548,22.669056],[121.511173,22.669299],[121.511161,22.669729],[121.509686,22.670437],[121.509286,22.671469],[121.509111,22.672803],[121.509161,22.673871],[121.509449,22.675367],[121.509912,22.676411],[121.51,22.677072],[121.509537,22.677908],[121.507061,22.678639],[121.506198,22.678234],[121.506111,22.677874],[121.50476,22.67697],[121.504285,22.677016],[121.502521,22.676298],[121.502109,22.676472],[121.500996,22.675869],[121.500746,22.676078],[121.499683,22.676032],[121.49867,22.675788],[121.497194,22.675928],[121.496519,22.676485],[121.496031,22.676462],[121.495531,22.675708],[121.494668,22.675639],[121.493467,22.675094],[121.49308,22.675303],[121.492417,22.676336],[121.491842,22.676765],[121.491542,22.677461],[121.491742,22.678911],[121.489979,22.676986],[121.488278,22.676999],[121.486427,22.677254],[121.484727,22.677313],[121.483413,22.676629],[121.482138,22.675423],[121.480061,22.674113],[121.477956,22.674251],[121.478937,22.673657],[121.479472,22.673107],[121.479686,22.670298],[121.48069,22.669152],[121.48133,22.668823],[121.481806,22.667826],[121.482763,22.666753],[121.483066,22.666499],[121.483621,22.666423],[121.484707,22.666923],[121.485014,22.666832],[121.485201,22.666168],[121.486048,22.66493],[121.486201,22.664185],[121.486536,22.663508],[121.487389,22.662664],[121.487412,22.661989],[121.487658,22.661213],[121.488041,22.660914],[121.489464,22.660434],[121.49071,22.659719],[121.491172,22.659121],[121.492193,22.658271],[121.492336,22.657871],[121.492154,22.656355],[121.491315,22.654485],[121.49072,22.653686],[121.488505,22.651776],[121.487414,22.651081],[121.487237,22.650741],[121.4873,22.650443],[121.488976,22.649383],[121.489495,22.648905],[121.490524,22.647236],[121.490437,22.646532],[121.489883,22.645416],[121.489868,22.643542],[121.489269,22.641544]]],[[[121.512126,22.680714],[121.511964,22.681457],[121.511714,22.6817],[121.511314,22.681712],[121.511239,22.681422],[121.511576,22.680575],[121.512026,22.680412],[121.512126,22.680714]]]]},"properties":{"code":"10014110001","name":"公舘村","countyCode":"10014","countyName":"臺東縣","townCode":"10014110","townName":"綠島鄉","level":"village","unassigned":false,"note":"","label":[121.49934775396882,22.66525298818673],"bounds":[121.477956,22.63185,121.512126,22.681712],"focusBounds":[121.477956,22.63185,121.512126,22.681712],"color":"#dd8590"}},{"type":"Feature","id":"10014110002","geometry":{"type":"Polygon","coordinates":[[[121.477956,22.674251],[121.476122,22.674358],[121.472759,22.674951],[121.472359,22.67545],[121.471183,22.675705],[121.469645,22.676321],[121.468307,22.676182],[121.467231,22.675904],[121.466869,22.675939],[121.466544,22.676391],[121.466019,22.676473],[121.465731,22.676368],[121.465614,22.676101],[121.469685,22.671151],[121.470926,22.670292],[121.472416,22.668861],[121.475359,22.667256],[121.477074,22.66598],[121.478367,22.664244],[121.480383,22.662204],[121.481545,22.661582],[121.482624,22.661197],[121.483488,22.661773],[121.484017,22.662913],[121.484408,22.663237],[121.486714,22.662713],[121.487412,22.661989],[121.487389,22.662664],[121.486536,22.663508],[121.486201,22.664185],[121.486048,22.66493],[121.485201,22.666168],[121.485014,22.666832],[121.484707,22.666923],[121.483621,22.666423],[121.483066,22.666499],[121.482763,22.666753],[121.481806,22.667826],[121.48133,22.668823],[121.48069,22.669152],[121.479686,22.670298],[121.479472,22.673107],[121.478937,22.673657],[121.477956,22.674251]]]},"properties":{"code":"10014110002","name":"中寮村","countyCode":"10014","countyName":"臺東縣","townCode":"10014110","townName":"綠島鄉","level":"village","unassigned":false,"note":"","label":[121.47597489438726,22.67059078049791],"bounds":[121.465614,22.661197,121.487412,22.676473],"focusBounds":[121.465614,22.661197,121.487412,22.676473],"color":"#a49ad4"}},{"type":"Feature","id":"10014110003","geometry":{"type":"Polygon","coordinates":[[[121.487412,22.661989],[121.486714,22.662713],[121.484408,22.663237],[121.484017,22.662913],[121.483488,22.661773],[121.482624,22.661197],[121.481545,22.661582],[121.480383,22.662204],[121.478367,22.664244],[121.477074,22.66598],[121.475359,22.667256],[121.472416,22.668861],[121.470926,22.670292],[121.469685,22.671151],[121.465614,22.676101],[121.465406,22.675626],[121.465443,22.675081],[121.46433,22.673318],[121.464779,22.671195],[121.465629,22.670116],[121.466617,22.669512],[121.467592,22.66863],[121.469043,22.666959],[121.47068,22.664963],[121.472443,22.662247],[121.472956,22.661203],[121.474681,22.659636],[121.475306,22.658708],[121.474555,22.653522],[121.474492,22.652164],[121.474842,22.65141],[121.47349,22.647582],[121.473503,22.646479],[121.474265,22.646224],[121.474966,22.646316],[121.477554,22.646083],[121.485932,22.643992],[121.48692,22.643412],[121.487645,22.643249],[121.488158,22.642761],[121.488808,22.642622],[121.488808,22.641798],[121.489269,22.641544],[121.489868,22.643542],[121.489883,22.645416],[121.490437,22.646532],[121.490524,22.647236],[121.489495,22.648905],[121.488976,22.649383],[121.4873,22.650443],[121.487237,22.650741],[121.487414,22.651081],[121.488505,22.651776],[121.49072,22.653686],[121.491315,22.654485],[121.492154,22.656355],[121.492336,22.657871],[121.492193,22.658271],[121.491172,22.659121],[121.49071,22.659719],[121.489464,22.660434],[121.488041,22.660914],[121.487658,22.661213],[121.487412,22.661989]]]},"properties":{"code":"10014110003","name":"南寮村","countyCode":"10014","countyName":"臺東縣","townCode":"10014110","townName":"綠島鄉","level":"village","unassigned":false,"note":"","label":[121.48146492661127,22.654638944948523],"bounds":[121.46433,22.641544,121.492336,22.676101],"focusBounds":[121.46433,22.641544,121.492336,22.676101],"color":"#a8bf62"}}]}
