{"type":"FeatureCollection","features":[{"type":"Feature","id":"10016040001","geometry":{"type":"MultiPolygon","coordinates":[[[[119.546999,23.638743],[119.547061,23.638867],[119.546823,23.639281],[119.547004,23.640003],[119.5467,23.640063],[119.546546,23.639754],[119.546626,23.638963],[119.546839,23.638701],[119.546999,23.638743]]],[[[119.53899,23.640404],[119.539355,23.640628],[119.539061,23.640961],[119.538836,23.640795],[119.538865,23.640456],[119.53899,23.640404]]],[[[119.539354,23.641926],[119.539095,23.642241],[119.538634,23.642425],[119.538378,23.6423],[119.538223,23.641835],[119.538695,23.641504],[119.539205,23.641502],[119.539434,23.641655],[119.539478,23.641901],[119.539354,23.641926]]],[[[119.538999,23.643796],[119.538987,23.643941],[119.538778,23.643978],[119.537918,23.643692],[119.538065,23.643542],[119.538545,23.643617],[119.538722,23.643186],[119.538984,23.643266],[119.538999,23.643796]]],[[[119.531757,23.632182],[119.533139,23.632874],[119.536495,23.633658],[119.536408,23.632775],[119.539194,23.632224],[119.539218,23.632373],[119.537378,23.632718],[119.537372,23.633224],[119.53795,23.633208],[119.537957,23.633316],[119.53737,23.633323],[119.537393,23.634014],[119.538211,23.633848],[119.538461,23.633599],[119.538084,23.633183],[119.538548,23.633533],[119.53882,23.633264],[119.538555,23.63296],[119.538248,23.632862],[119.538286,23.632746],[119.53872,23.632889],[119.539387,23.63265],[119.538902,23.632913],[119.539184,23.63338],[119.5402,23.634056],[119.540406,23.634432],[119.540585,23.634996],[119.540497,23.635606],[119.540734,23.63693],[119.541235,23.637477],[119.541757,23.637755],[119.542464,23.637752],[119.543069,23.637937],[119.542868,23.63943],[119.543178,23.639675],[119.542939,23.639924],[119.543537,23.640313],[119.543746,23.640798],[119.542988,23.640552],[119.542305,23.64064],[119.541986,23.64054],[119.541588,23.64008],[119.540983,23.640144],[119.540745,23.640614],[119.541175,23.641287],[119.541363,23.641228],[119.541668,23.641595],[119.541999,23.641391],[119.542136,23.641494],[119.54175,23.641768],[119.542067,23.642214],[119.542357,23.642137],[119.54196,23.642364],[119.54242,23.642947],[119.542317,23.642992],[119.545018,23.646471],[119.544879,23.646555],[119.542209,23.643148],[119.541627,23.642884],[119.541414,23.642289],[119.540066,23.640241],[119.53951,23.640184],[119.538938,23.639765],[119.538334,23.639548],[119.537736,23.639435],[119.537261,23.639581],[119.536253,23.639481],[119.536191,23.639174],[119.535868,23.638951],[119.53676,23.636632],[119.536283,23.636264],[119.535753,23.636162],[119.533815,23.636705],[119.533342,23.636673],[119.532777,23.635517],[119.531405,23.634479],[119.53145,23.633517],[119.531757,23.632182]]],[[[119.543623,23.645514],[119.544028,23.64629],[119.543655,23.647127],[119.543503,23.647179],[119.543264,23.646335],[119.543498,23.645945],[119.543441,23.645565],[119.543623,23.645514]]]]},"properties":{"code":"10016040001","name":"橫礁村","countyCode":"10016","countyName":"澎湖縣","townCode":"10016040","townName":"西嶼鄉","level":"village","unassigned":false,"note":"","label":[119.5388233726037,23.63752566589551],"bounds":[119.531405,23.632182,119.547061,23.647179],"focusBounds":[119.531405,23.632182,119.547061,23.647179],"color":"#efb44f"}},{"type":"Feature","id":"10016040002","geometry":{"type":"MultiPolygon","coordinates":[[[[119.529324,23.641427],[119.529512,23.641919],[119.529286,23.642129],[119.529079,23.641905],[119.529196,23.64146],[119.529324,23.641427]]],[[[119.535868,23.638951],[119.535704,23.638713],[119.534878,23.638621],[119.53293,23.638825],[119.53266,23.639137],[119.532412,23.638883],[119.53201,23.638933],[119.531784,23.640261],[119.531359,23.640502],[119.531824,23.639877],[119.53156,23.639903],[119.531523,23.639777],[119.531859,23.639615],[119.531897,23.638931],[119.531106,23.639049],[119.530596,23.639216],[119.529966,23.639793],[119.52947,23.639964],[119.529884,23.640306],[119.531213,23.639928],[119.531285,23.64005],[119.529902,23.640447],[119.529171,23.639974],[119.527756,23.640502],[119.527724,23.64072],[119.527305,23.640771],[119.526677,23.641173],[119.526648,23.641466],[119.526286,23.641467],[119.525325,23.642182],[119.525226,23.64281],[119.525922,23.643457],[119.525735,23.643937],[119.525137,23.644002],[119.524835,23.643432],[119.5245,23.64341],[119.524153,23.643165],[119.523662,23.643275],[119.523602,23.642524],[119.522626,23.642326],[119.521646,23.642675],[119.519929,23.643972],[119.52061,23.639396],[119.520983,23.638503],[119.521822,23.637602],[119.523354,23.637161],[119.523782,23.636823],[119.524771,23.635641],[119.525191,23.634577],[119.525286,23.632574],[119.525177,23.631098],[119.524888,23.630058],[119.528513,23.630301],[119.530162,23.63016],[119.530497,23.630387],[119.530872,23.631377],[119.531757,23.632182],[119.53145,23.633517],[119.531405,23.634479],[119.532777,23.635517],[119.533342,23.636673],[119.533815,23.636705],[119.535753,23.636162],[119.536283,23.636264],[119.53676,23.636632],[119.535868,23.638951]]],[[[119.531781,23.64448],[119.531985,23.644994],[119.531259,23.644933],[119.530835,23.644069],[119.530863,23.643831],[119.531393,23.643882],[119.531933,23.643652],[119.532374,23.644356],[119.532161,23.644516],[119.531781,23.64448]]]]},"properties":{"code":"10016040002","name":"合界村","countyCode":"10016","countyName":"澎湖縣","townCode":"10016040","townName":"西嶼鄉","level":"village","unassigned":false,"note":"","label":[119.52831372313783,23.63643835649136],"bounds":[119.519929,23.630058,119.53676,23.644994],"focusBounds":[119.519929,23.630058,119.53676,23.644994],"color":"#78a7e3"}},{"type":"Feature","id":"10016040003","geometry":{"type":"MultiPolygon","coordinates":[[[[119.524689,23.646918],[119.52505,23.647278],[119.524755,23.647678],[119.524495,23.647748],[119.524158,23.647448],[119.524024,23.646616],[119.524173,23.646598],[119.524356,23.646861],[119.524548,23.64639],[119.52474,23.646373],[119.524689,23.646918]]],[[[119.523207,23.648758],[119.5237,23.648942],[119.523827,23.649134],[119.523746,23.649272],[119.523329,23.649328],[119.522916,23.649144],[119.522924,23.648861],[119.523207,23.648758]]],[[[119.524079,23.650124],[119.523762,23.64959],[119.524436,23.649587],[119.524645,23.650069],[119.524079,23.650124]]],[[[119.528436,23.651193],[119.52841,23.651389],[119.528308,23.651209],[119.528436,23.651193]]],[[[119.527011,23.651795],[119.527079,23.651975],[119.526806,23.652083],[119.527011,23.651795]]],[[[119.526039,23.652072],[119.526394,23.652372],[119.526263,23.6525],[119.525789,23.652388],[119.525781,23.65217],[119.526039,23.652072]]],[[[119.526141,23.653611],[119.525807,23.653581],[119.525752,23.653374],[119.525914,23.653321],[119.526141,23.653611]]],[[[119.527296,23.653309],[119.527537,23.65371],[119.527172,23.653546],[119.527296,23.653309]]],[[[119.525455,23.653781],[119.525614,23.654238],[119.525501,23.654454],[119.525219,23.653987],[119.525455,23.653781]]],[[[119.519668,23.647779],[119.521114,23.64824],[119.52133,23.648536],[119.521353,23.648994],[119.522466,23.649512],[119.522981,23.650355],[119.523596,23.650673],[119.524308,23.651298],[119.524056,23.65155],[119.523777,23.652262],[119.524541,23.653634],[119.524552,23.654668],[119.523981,23.655153],[119.524203,23.655746],[119.524032,23.655888],[119.523496,23.655903],[119.523087,23.655488],[119.522836,23.655692],[119.522313,23.655644],[119.521924,23.655335],[119.521198,23.655343],[119.520805,23.655567],[119.520075,23.655568],[119.519551,23.655365],[119.519295,23.65492],[119.518653,23.655256],[119.518725,23.65487],[119.517917,23.654572],[119.517582,23.654748],[119.516674,23.654814],[119.516579,23.655115],[119.51615,23.655328],[119.515788,23.655313],[119.515651,23.654878],[119.515334,23.655139],[119.515629,23.655258],[119.515301,23.655575],[119.514327,23.655607],[119.514197,23.655421],[119.514267,23.655025],[119.513782,23.654758],[119.513537,23.654359],[119.513524,23.653743],[119.513749,23.653487],[119.513843,23.653018],[119.514405,23.652742],[119.51441,23.652354],[119.51422,23.652023],[119.51492,23.651575],[119.514881,23.65184],[119.515338,23.651708],[119.516689,23.652624],[119.517281,23.652323],[119.517548,23.651989],[119.517752,23.651325],[119.517602,23.650805],[119.518259,23.650062],[119.517922,23.649197],[119.518097,23.649146],[119.518702,23.649906],[119.519128,23.649774],[119.518962,23.649258],[119.519407,23.649658],[119.519578,23.649419],[119.519682,23.648311],[119.519528,23.647932],[119.519668,23.647779]]],[[[119.525086,23.657216],[119.52491,23.657416],[119.524692,23.657112],[119.52489,23.656082],[119.525171,23.656085],[119.52552,23.655748],[119.525457,23.656351],[119.526283,23.656053],[119.525856,23.655016],[119.526243,23.654622],[119.526873,23.654826],[119.526753,23.655266],[119.527424,23.656517],[119.527268,23.656995],[119.526636,23.65718],[119.526268,23.656853],[119.526037,23.657009],[119.525702,23.656987],[119.525475,23.657302],[119.525086,23.657216]]]]},"properties":{"code":"10016040003","name":"小門村","countyCode":"10016","countyName":"澎湖縣","townCode":"10016040","townName":"西嶼鄉","level":"village","unassigned":false,"note":"","label":[119.52071518410146,23.652341131036593],"bounds":[119.513524,23.646373,119.528436,23.657416],"focusBounds":[119.513524,23.646373,119.528436,23.657416],"color":"#dd8590"}},{"type":"Feature","id":"10016040004","geometry":{"type":"MultiPolygon","coordinates":[[[[119.529926,23.624319],[119.529898,23.624547],[119.529625,23.624521],[119.529308,23.623834],[119.529373,23.62352],[119.529714,23.623451],[119.529519,23.623208],[119.529636,23.622979],[119.530842,23.622975],[119.531228,23.623202],[119.531204,23.62341],[119.530828,23.623539],[119.530773,23.624079],[119.530429,23.623979],[119.530398,23.624408],[119.529926,23.624319]]],[[[119.519528,23.647932],[119.519311,23.647656],[119.518994,23.647588],[119.518137,23.647711],[119.517919,23.647983],[119.517938,23.649006],[119.517582,23.648807],[119.517136,23.648887],[119.516859,23.649007],[119.516641,23.649507],[119.51562,23.64984],[119.51522,23.64967],[119.51505,23.64949],[119.515144,23.649324],[119.514814,23.649068],[119.515003,23.648661],[119.515205,23.648798],[119.51524,23.648712],[119.514571,23.64808],[119.514613,23.647832],[119.514359,23.647961],[119.514136,23.647903],[119.514161,23.647628],[119.513636,23.647867],[119.513696,23.648079],[119.514041,23.648008],[119.51367,23.648241],[119.51368,23.648537],[119.512618,23.648667],[119.51203,23.648353],[119.511878,23.647924],[119.511586,23.647654],[119.511632,23.647408],[119.511907,23.647378],[119.511857,23.646733],[119.511812,23.647022],[119.511475,23.64726],[119.511605,23.64614],[119.511231,23.645877],[119.51129,23.645664],[119.510833,23.645569],[119.510572,23.64519],[119.510561,23.644773],[119.509902,23.643475],[119.509893,23.642761],[119.509622,23.642426],[119.509687,23.641464],[119.508939,23.640426],[119.509046,23.639976],[119.508764,23.639695],[119.508753,23.639447],[119.508135,23.638923],[119.507835,23.638298],[119.507398,23.638182],[119.507719,23.637897],[119.507804,23.637425],[119.507509,23.636317],[119.507142,23.635795],[119.50657,23.635585],[119.505942,23.635553],[119.505519,23.635967],[119.504936,23.636152],[119.503961,23.635589],[119.503943,23.635058],[119.50344,23.634498],[119.503283,23.63292],[119.502904,23.632486],[119.502707,23.631608],[119.503495,23.631301],[119.504595,23.630602],[119.5069,23.628877],[119.507156,23.62828],[119.507209,23.627684],[119.513799,23.625337],[119.514052,23.622584],[119.515185,23.618009],[119.517493,23.617726],[119.517576,23.61915],[119.5179,23.619847],[119.518745,23.620061],[119.519752,23.619915],[119.520489,23.620224],[119.521144,23.620791],[119.519819,23.622628],[119.519455,23.623589],[119.519522,23.624173],[119.518971,23.624401],[119.518107,23.625361],[119.517978,23.626404],[119.517673,23.62701],[119.518182,23.62865],[119.519101,23.628441],[119.519185,23.628531],[119.518406,23.628868],[119.518742,23.629316],[119.519792,23.6302],[119.521678,23.631264],[119.522298,23.631343],[119.522424,23.629683],[119.522763,23.629081],[119.522951,23.629191],[119.522793,23.629831],[119.522997,23.630663],[119.523834,23.63006],[119.523931,23.630161],[119.523163,23.630748],[119.523359,23.631242],[119.524209,23.631009],[119.524818,23.630657],[119.52435,23.629927],[119.523802,23.629505],[119.523514,23.629539],[119.523564,23.629374],[119.52339,23.629221],[119.522984,23.629519],[119.522943,23.62934],[119.523326,23.629163],[119.522886,23.628887],[119.522963,23.628774],[119.524605,23.630062],[119.524888,23.630058],[119.525177,23.631098],[119.525286,23.632574],[119.525191,23.634577],[119.524771,23.635641],[119.523782,23.636823],[119.523354,23.637161],[119.521822,23.637602],[119.520983,23.638503],[119.52061,23.639396],[119.519929,23.643972],[119.51935,23.644466],[119.519279,23.644958],[119.519621,23.645978],[119.519883,23.646247],[119.519472,23.646856],[119.519785,23.647119],[119.519489,23.647505],[119.519668,23.647779],[119.519528,23.647932]]]]},"properties":{"code":"10016040004","name":"竹灣村","countyCode":"10016","countyName":"澎湖縣","townCode":"10016040","townName":"西嶼鄉","level":"village","unassigned":false,"note":"","label":[119.51469194570363,23.634997226248338],"bounds":[119.502707,23.617726,119.531228,23.64984],"focusBounds":[119.502707,23.617726,119.531228,23.64984],"color":"#a49ad4"}},{"type":"Feature","id":"10016040005","geometry":{"type":"Polygon","coordinates":[[[119.515185,23.618009],[119.514052,23.622584],[119.513799,23.625337],[119.507209,23.627684],[119.507156,23.62828],[119.5069,23.628877],[119.504595,23.630602],[119.503495,23.631301],[119.502707,23.631608],[119.50216,23.630926],[119.502339,23.630086],[119.502829,23.629285],[119.502521,23.627798],[119.503541,23.626876],[119.503864,23.626164],[119.504303,23.625673],[119.504213,23.624111],[119.504029,23.623658],[119.503575,23.623314],[119.50258,23.622782],[119.502084,23.622856],[119.501672,23.622701],[119.501539,23.622153],[119.501025,23.622126],[119.500069,23.62121],[119.500099,23.620894],[119.499584,23.620771],[119.499636,23.620254],[119.499288,23.620102],[119.499548,23.619753],[119.499901,23.619951],[119.500221,23.619688],[119.500116,23.619589],[119.499733,23.619669],[119.499656,23.619518],[119.499831,23.619211],[119.500092,23.619131],[119.500099,23.618519],[119.500482,23.618418],[119.500831,23.617661],[119.501404,23.617544],[119.50183,23.61694],[119.503859,23.616109],[119.503942,23.615348],[119.504319,23.61509],[119.504122,23.615314],[119.504166,23.615555],[119.50427,23.615681],[119.504492,23.615611],[119.504559,23.616245],[119.503823,23.616498],[119.504173,23.617036],[119.504408,23.616923],[119.504924,23.617359],[119.505711,23.617392],[119.505706,23.616855],[119.505092,23.616783],[119.505708,23.616781],[119.505708,23.616426],[119.504815,23.616341],[119.504952,23.615903],[119.505438,23.615806],[119.505662,23.61555],[119.505287,23.615358],[119.505352,23.61529],[119.505717,23.615433],[119.505996,23.615118],[119.506528,23.615065],[119.506897,23.615409],[119.507325,23.615193],[119.507133,23.614489],[119.507448,23.614235],[119.50766,23.614246],[119.508819,23.613019],[119.508964,23.612472],[119.508852,23.611745],[119.509896,23.611101],[119.510326,23.611099],[119.511074,23.611286],[119.511935,23.611713],[119.512274,23.612131],[119.512648,23.612692],[119.513604,23.613497],[119.514319,23.614924],[119.515018,23.616816],[119.515185,23.618009]]]},"properties":{"code":"10016040005","name":"大池村","countyCode":"10016","countyName":"澎湖縣","townCode":"10016040","townName":"西嶼鄉","level":"village","unassigned":false,"note":"","label":[119.50873425436514,23.62156940734299],"bounds":[119.499288,23.611099,119.515185,23.631608],"focusBounds":[119.499288,23.611099,119.515185,23.631608],"color":"#a8bf62"}},{"type":"Feature","id":"10016040006","geometry":{"type":"Polygon","coordinates":[[[119.519752,23.619915],[119.518745,23.620061],[119.5179,23.619847],[119.517576,23.61915],[119.517493,23.617726],[119.517301,23.615131],[119.517781,23.611565],[119.517671,23.609391],[119.517075,23.605237],[119.516842,23.604123],[119.516426,23.603131],[119.515228,23.601277],[119.514044,23.599994],[119.513551,23.598348],[119.514253,23.595467],[119.514784,23.594431],[119.514919,23.594704],[119.515542,23.594488],[119.516598,23.594685],[119.516767,23.594603],[119.517102,23.594306],[119.51696,23.594029],[119.517225,23.594105],[119.516587,23.593522],[119.516592,23.593279],[119.517438,23.594188],[119.517817,23.594017],[119.518088,23.594357],[119.519143,23.594297],[119.519627,23.59453],[119.519836,23.594988],[119.51977,23.595711],[119.521149,23.597688],[119.521559,23.598497],[119.522045,23.600227],[119.522761,23.60094],[119.523127,23.601765],[119.522871,23.602886],[119.522523,23.603329],[119.522477,23.603632],[119.522972,23.604845],[119.522636,23.605523],[119.521682,23.606384],[119.521741,23.606594],[119.521595,23.606712],[119.521734,23.606982],[119.522133,23.606888],[119.521667,23.607339],[119.521551,23.608005],[119.520338,23.609423],[119.519815,23.61088],[119.520057,23.610956],[119.5198,23.611165],[119.520954,23.610834],[119.521185,23.611862],[119.520102,23.612223],[119.521245,23.612582],[119.521773,23.614549],[119.521558,23.615706],[119.521103,23.616086],[119.520071,23.617532],[119.519579,23.618509],[119.519482,23.619519],[119.519752,23.619915]]]},"properties":{"code":"10016040006","name":"二崁村","countyCode":"10016","countyName":"澎湖縣","townCode":"10016040","townName":"西嶼鄉","level":"village","unassigned":false,"note":"","label":[119.51953015409082,23.60239582591133],"bounds":[119.513551,23.593279,119.523127,23.620061],"focusBounds":[119.513551,23.593279,119.523127,23.620061],"color":"#68bec9"}},{"type":"Feature","id":"10016040007","geometry":{"type":"Polygon","coordinates":[[[119.517493,23.617726],[119.515185,23.618009],[119.515018,23.616816],[119.514319,23.614924],[119.513604,23.613497],[119.512648,23.612692],[119.512274,23.612131],[119.511518,23.609479],[119.509878,23.605455],[119.508688,23.604538],[119.508278,23.604049],[119.507623,23.60234],[119.50662,23.602138],[119.506553,23.601129],[119.506815,23.599426],[119.506,23.598754],[119.505719,23.598132],[119.50631,23.594967],[119.506277,23.590845],[119.506546,23.588973],[119.508789,23.59025],[119.509829,23.59056],[119.511128,23.591452],[119.512807,23.591892],[119.51229,23.592196],[119.512832,23.592442],[119.514079,23.593876],[119.514784,23.594431],[119.514253,23.595467],[119.513551,23.598348],[119.514044,23.599994],[119.515228,23.601277],[119.516426,23.603131],[119.516842,23.604123],[119.517075,23.605237],[119.517671,23.609391],[119.517781,23.611565],[119.517301,23.615131],[119.517493,23.617726]]]},"properties":{"code":"10016040007","name":"池東村","countyCode":"10016","countyName":"澎湖縣","townCode":"10016040","townName":"西嶼鄉","level":"village","unassigned":false,"note":"","label":[119.51143827505695,23.602327476865554],"bounds":[119.505719,23.588973,119.517781,23.618009],"focusBounds":[119.505719,23.588973,119.517781,23.618009],"color":"#df9f6a"}},{"type":"Feature","id":"10016040008","geometry":{"type":"MultiPolygon","coordinates":[[[[119.481934,23.594158],[119.48206,23.594363],[119.481962,23.594458],[119.4812,23.594477],[119.481137,23.594052],[119.480698,23.594099],[119.480654,23.593747],[119.480913,23.593705],[119.480873,23.593509],[119.481071,23.593436],[119.481515,23.593828],[119.481488,23.594051],[119.481799,23.594016],[119.481934,23.594158]]],[[[119.506546,23.588973],[119.506277,23.590845],[119.50631,23.594967],[119.505719,23.598132],[119.506,23.598754],[119.506815,23.599426],[119.506553,23.601129],[119.50662,23.602138],[119.507623,23.60234],[119.508278,23.604049],[119.508688,23.604538],[119.509878,23.605455],[119.511518,23.609479],[119.512274,23.612131],[119.511935,23.611713],[119.511074,23.611286],[119.510326,23.611099],[119.509896,23.611101],[119.508852,23.611745],[119.508623,23.611193],[119.508114,23.610693],[119.506774,23.61042],[119.505816,23.610554],[119.505478,23.610138],[119.505134,23.610184],[119.505125,23.609726],[119.504478,23.609732],[119.504476,23.609231],[119.505174,23.609143],[119.50508,23.60831],[119.504758,23.608447],[119.504476,23.608376],[119.504533,23.608082],[119.504941,23.60802],[119.505045,23.607751],[119.504871,23.607627],[119.504549,23.607746],[119.504314,23.607672],[119.504396,23.607437],[119.504765,23.607318],[119.504546,23.606895],[119.504401,23.606875],[119.504283,23.607103],[119.503932,23.607134],[119.503572,23.606735],[119.503149,23.606764],[119.503204,23.605989],[119.50265,23.605675],[119.502893,23.605218],[119.503242,23.605567],[119.503416,23.605575],[119.503506,23.605363],[119.503459,23.604496],[119.503168,23.60405],[119.502914,23.603961],[119.502514,23.604276],[119.502172,23.603852],[119.50215,23.603667],[119.502399,23.603452],[119.502314,23.603051],[119.502425,23.602883],[119.502159,23.602268],[119.502382,23.602134],[119.502284,23.60185],[119.502591,23.601835],[119.502641,23.601675],[119.502615,23.601422],[119.502369,23.601312],[119.502215,23.60094],[119.502453,23.60079],[119.502879,23.601225],[119.502949,23.600866],[119.502428,23.599612],[119.502531,23.59954],[119.5029,23.599784],[119.502824,23.599952],[119.503014,23.600484],[119.503462,23.600121],[119.503218,23.599734],[119.503527,23.600065],[119.503827,23.599824],[119.50341,23.599363],[119.503077,23.599606],[119.503525,23.59915],[119.503464,23.599281],[119.503914,23.599759],[119.50406,23.599661],[119.504155,23.5995],[119.503923,23.599366],[119.503993,23.599266],[119.504203,23.599378],[119.504447,23.598734],[119.503638,23.598793],[119.503605,23.598936],[119.50357,23.59869],[119.503731,23.59868],[119.503732,23.598317],[119.503795,23.598684],[119.504498,23.598639],[119.504337,23.597177],[119.501956,23.595995],[119.501639,23.596005],[119.501384,23.596746],[119.501058,23.596865],[119.500497,23.596602],[119.500505,23.596176],[119.499913,23.595351],[119.499212,23.59534],[119.498376,23.595675],[119.497953,23.596012],[119.497528,23.596863],[119.497763,23.596984],[119.498145,23.597682],[119.497582,23.598136],[119.497642,23.598709],[119.497968,23.599073],[119.49799,23.599708],[119.498312,23.600253],[119.498176,23.600705],[119.4978,23.600794],[119.497617,23.600515],[119.497105,23.600209],[119.496878,23.600296],[119.497046,23.600718],[119.496695,23.601073],[119.495599,23.600772],[119.495306,23.600427],[119.49448,23.600453],[119.494149,23.60079],[119.494268,23.601325],[119.494117,23.601885],[119.493801,23.60208],[119.493387,23.601727],[119.493323,23.600964],[119.493002,23.600805],[119.492854,23.600338],[119.492423,23.600048],[119.492434,23.599549],[119.491806,23.599592],[119.491853,23.599192],[119.49146,23.598602],[119.491723,23.598123],[119.491961,23.598025],[119.492451,23.598104],[119.492645,23.597996],[119.492813,23.597591],[119.494037,23.59728],[119.494213,23.596857],[119.494101,23.596072],[119.493562,23.595634],[119.492763,23.595972],[119.491931,23.595887],[119.491107,23.59547],[119.490311,23.595684],[119.490306,23.5954],[119.489833,23.59521],[119.489939,23.594647],[119.489517,23.594265],[119.489837,23.594034],[119.491153,23.593935],[119.492228,23.594437],[119.493154,23.594034],[119.49568,23.59332],[119.496892,23.593343],[119.498159,23.592919],[119.498532,23.592963],[119.499179,23.592277],[119.5002,23.592059],[119.50157,23.590626],[119.502146,23.590452],[119.503034,23.589291],[119.503508,23.588935],[119.503784,23.588185],[119.504137,23.587943],[119.505834,23.588524],[119.506546,23.588973]]]]},"properties":{"code":"10016040008","name":"池西村","countyCode":"10016","countyName":"澎湖縣","townCode":"10016040","townName":"西嶼鄉","level":"village","unassigned":false,"note":"","label":[119.50319698382776,23.593407198915788],"bounds":[119.480654,23.587943,119.512274,23.612131],"focusBounds":[119.480654,23.587943,119.512274,23.612131],"color":"#c38cb8"}},{"type":"Feature","id":"10016040009","geometry":{"type":"MultiPolygon","coordinates":[[[[119.540551,23.580506],[119.540234,23.5805],[119.540171,23.580209],[119.540551,23.580506]]],[[[119.513673,23.572551],[119.513849,23.573056],[119.514619,23.573469],[119.51471,23.574311],[119.515206,23.574582],[119.514898,23.574595],[119.514683,23.57479],[119.514407,23.574743],[119.514331,23.574944],[119.514109,23.574929],[119.512506,23.575711],[119.512487,23.576239],[119.512281,23.576305],[119.512282,23.576486],[119.513312,23.577257],[119.512785,23.578333],[119.512728,23.578794],[119.512788,23.579229],[119.513275,23.579228],[119.513276,23.579485],[119.512479,23.579461],[119.512422,23.579734],[119.512245,23.579762],[119.512229,23.579489],[119.512037,23.579516],[119.512042,23.580713],[119.512897,23.580656],[119.512912,23.580818],[119.512028,23.580889],[119.512046,23.581893],[119.513051,23.582366],[119.513062,23.58147],[119.513313,23.581483],[119.513317,23.582393],[119.514762,23.582442],[119.515041,23.581992],[119.514981,23.58187],[119.513279,23.580111],[119.513838,23.579933],[119.513825,23.580366],[119.515276,23.581815],[119.515205,23.582454],[119.515796,23.582861],[119.516133,23.583517],[119.516346,23.584333],[119.516327,23.585293],[119.51617,23.585697],[119.51506,23.586809],[119.514271,23.587968],[119.513989,23.589323],[119.513129,23.590595],[119.51283,23.591338],[119.512807,23.591892],[119.511128,23.591452],[119.509829,23.59056],[119.508789,23.59025],[119.506546,23.588973],[119.505834,23.588524],[119.504137,23.587943],[119.504464,23.587354],[119.504592,23.585975],[119.503834,23.586036],[119.50325,23.586295],[119.503155,23.586072],[119.503576,23.585781],[119.503575,23.585538],[119.504139,23.585394],[119.504261,23.58514],[119.504088,23.58494],[119.503943,23.584112],[119.503559,23.584018],[119.503336,23.583559],[119.503514,23.582824],[119.502874,23.580684],[119.502893,23.580424],[119.503225,23.579976],[119.503092,23.579724],[119.503355,23.579615],[119.503331,23.579082],[119.503872,23.576848],[119.504182,23.576438],[119.504799,23.576113],[119.505442,23.576016],[119.507376,23.576218],[119.508504,23.576101],[119.510763,23.575581],[119.512524,23.57437],[119.513673,23.572551]]]]},"properties":{"code":"10016040009","name":"赤馬村","countyCode":"10016","countyName":"澎湖縣","townCode":"10016040","townName":"西嶼鄉","level":"village","unassigned":false,"note":"","label":[119.50836118652202,23.58397977994384],"bounds":[119.502874,23.572551,119.540551,23.591892],"focusBounds":[119.502874,23.572551,119.540551,23.591892],"color":"#98b69b"}},{"type":"Feature","id":"10016040010","geometry":{"type":"Polygon","coordinates":[[[119.513673,23.572551],[119.512524,23.57437],[119.510763,23.575581],[119.508504,23.576101],[119.507376,23.576218],[119.505442,23.576016],[119.504799,23.576113],[119.504182,23.576438],[119.503872,23.576848],[119.503331,23.579082],[119.502943,23.578422],[119.501205,23.576854],[119.500868,23.576234],[119.50027,23.576381],[119.50007,23.57674],[119.499343,23.577217],[119.499172,23.577048],[119.499898,23.576492],[119.499996,23.57621],[119.499681,23.57499],[119.499932,23.574932],[119.50024,23.576083],[119.50082,23.575925],[119.500587,23.574994],[119.500059,23.574851],[119.500274,23.574611],[119.499523,23.574159],[119.499362,23.574293],[119.499167,23.57412],[119.498894,23.574225],[119.499436,23.575006],[119.499449,23.575871],[119.499167,23.576134],[119.498824,23.574715],[119.497564,23.573723],[119.497078,23.573603],[119.49695,23.572849],[119.497132,23.572727],[119.496953,23.572554],[119.497235,23.572458],[119.497176,23.572235],[119.496501,23.571846],[119.495832,23.572164],[119.493501,23.570483],[119.49215,23.569935],[119.492821,23.569373],[119.494107,23.567459],[119.495241,23.567719],[119.496174,23.568141],[119.497858,23.568158],[119.499448,23.56774],[119.50034,23.56685],[119.500181,23.566525],[119.500542,23.566436],[119.500561,23.566607],[119.500398,23.566653],[119.500572,23.567165],[119.501727,23.566737],[119.501413,23.56597],[119.501142,23.565842],[119.500663,23.565763],[119.49993,23.566221],[119.49906,23.566355],[119.498661,23.566099],[119.498864,23.565945],[119.499128,23.566201],[119.499943,23.566074],[119.500547,23.565693],[119.500222,23.565428],[119.500375,23.565326],[119.501573,23.565739],[119.501947,23.566226],[119.502146,23.566828],[119.501626,23.566997],[119.501261,23.567359],[119.503114,23.566394],[119.504822,23.566501],[119.505461,23.566418],[119.506757,23.5657],[119.509343,23.565055],[119.510739,23.564486],[119.510691,23.564213],[119.510937,23.564201],[119.511231,23.563735],[119.511616,23.563835],[119.511659,23.564138],[119.512,23.563825],[119.512136,23.564084],[119.512474,23.564115],[119.512688,23.564416],[119.513867,23.564119],[119.515108,23.564086],[119.516232,23.564795],[119.516762,23.565403],[119.517172,23.566187],[119.518,23.567008],[119.518043,23.567311],[119.517407,23.567949],[119.516553,23.568264],[119.515387,23.568053],[119.515015,23.568312],[119.515997,23.569081],[119.515935,23.569282],[119.514705,23.568442],[119.514148,23.568958],[119.514055,23.569229],[119.515207,23.569783],[119.515812,23.56951],[119.515844,23.569682],[119.515006,23.570028],[119.514025,23.56943],[119.513793,23.569702],[119.513139,23.570578],[119.513234,23.570979],[119.513785,23.571205],[119.513673,23.572551]]]},"properties":{"code":"10016040010","name":"內垵村","countyCode":"10016","countyName":"澎湖縣","townCode":"10016040","townName":"西嶼鄉","level":"village","unassigned":false,"note":"","label":[119.50559875540608,23.571186841196415],"bounds":[119.49215,23.563735,119.518043,23.579082],"focusBounds":[119.49215,23.563735,119.518043,23.579082],"color":"#58b99d"}},{"type":"Feature","id":"10016040011","geometry":{"type":"Polygon","coordinates":[[[119.49215,23.569935],[119.491844,23.569832],[119.491241,23.570064],[119.490431,23.569954],[119.488928,23.570044],[119.488289,23.570261],[119.488035,23.570519],[119.488381,23.570958],[119.488312,23.571136],[119.487844,23.571242],[119.487131,23.572201],[119.486632,23.572494],[119.486078,23.572505],[119.485604,23.573084],[119.485008,23.573294],[119.48499,23.573476],[119.485297,23.573731],[119.485159,23.574022],[119.484295,23.57451],[119.483396,23.575407],[119.483101,23.575422],[119.482915,23.575237],[119.482278,23.575252],[119.482062,23.575009],[119.48152,23.574898],[119.481398,23.574966],[119.481442,23.575415],[119.4813,23.575429],[119.481275,23.575023],[119.481122,23.575055],[119.481079,23.574924],[119.481236,23.5747],[119.480967,23.574649],[119.481035,23.574412],[119.480789,23.574345],[119.480634,23.573989],[119.480833,23.573801],[119.480767,23.573476],[119.480181,23.572713],[119.479566,23.571398],[119.477853,23.568943],[119.477268,23.568532],[119.475366,23.56782],[119.474208,23.567083],[119.473582,23.566965],[119.473255,23.56667],[119.472303,23.566384],[119.471426,23.565753],[119.470655,23.565771],[119.469536,23.565365],[119.468616,23.564567],[119.468669,23.564382],[119.467975,23.563465],[119.467769,23.562761],[119.467484,23.562362],[119.467227,23.561257],[119.467537,23.561209],[119.467988,23.560514],[119.469817,23.560233],[119.470445,23.560006],[119.471122,23.559516],[119.472039,23.559272],[119.472967,23.5594],[119.474194,23.560091],[119.476518,23.559807],[119.478163,23.561483],[119.478638,23.561529],[119.478993,23.561761],[119.4794,23.562504],[119.479636,23.562628],[119.480342,23.561881],[119.480881,23.561863],[119.480881,23.562051],[119.480494,23.562083],[119.479907,23.562783],[119.480321,23.562858],[119.479976,23.563058],[119.479007,23.562896],[119.479021,23.563224],[119.479148,23.563629],[119.479568,23.564073],[119.481175,23.564452],[119.48308,23.564344],[119.482872,23.563555],[119.480994,23.563217],[119.480512,23.562795],[119.480783,23.562606],[119.481188,23.563043],[119.482908,23.563363],[119.484444,23.563886],[119.486472,23.563236],[119.487719,23.563122],[119.489731,23.562664],[119.490556,23.563158],[119.491319,23.563382],[119.4913,23.563808],[119.491834,23.56471],[119.491879,23.565843],[119.493469,23.567206],[119.494107,23.567459],[119.492821,23.569373],[119.49215,23.569935]]]},"properties":{"code":"10016040011","name":"外垵村","countyCode":"10016","countyName":"澎湖縣","townCode":"10016040","townName":"西嶼鄉","level":"village","unassigned":false,"note":"","label":[119.48336940934969,23.568853173221207],"bounds":[119.467227,23.559272,119.494107,23.575429],"focusBounds":[119.467227,23.559272,119.494107,23.575429],"color":"#efb44f"}}]}
