{"type":"FeatureCollection","features":[{"type":"Feature","id":"10016010002","geometry":{"type":"Polygon","coordinates":[[[119.564269,23.567649],[119.562662,23.567693],[119.562014,23.567253],[119.561568,23.567173],[119.560087,23.56744],[119.560095,23.567093],[119.560493,23.566771],[119.560472,23.565644],[119.560246,23.564823],[119.559759,23.56415],[119.558612,23.563633],[119.557509,23.563668],[119.556623,23.563283],[119.556109,23.563448],[119.55573,23.563296],[119.556339,23.563086],[119.556299,23.562743],[119.556946,23.562573],[119.557306,23.562288],[119.557847,23.561356],[119.557849,23.560839],[119.558176,23.560698],[119.558852,23.560932],[119.559575,23.560945],[119.559454,23.561819],[119.55964,23.561859],[119.559758,23.561008],[119.560979,23.561175],[119.560941,23.56129],[119.559836,23.561105],[119.559723,23.562058],[119.560525,23.562159],[119.560596,23.561628],[119.560708,23.561623],[119.560637,23.562183],[119.560993,23.562225],[119.561111,23.561506],[119.561245,23.561533],[119.561122,23.562389],[119.561507,23.562593],[119.562129,23.562521],[119.562185,23.561875],[119.562681,23.561909],[119.563515,23.562757],[119.563702,23.562635],[119.56485,23.562626],[119.565099,23.563512],[119.563745,23.563499],[119.563936,23.565867],[119.563245,23.565998],[119.564269,23.567649]]]},"properties":{"code":"10016010002","name":"復興里","countyCode":"10016","countyName":"澎湖縣","townCode":"10016010","townName":"馬公市","level":"village","unassigned":false,"note":"","label":[119.56193159936969,23.564465116070487],"bounds":[119.55573,23.560698,119.565099,23.567693],"focusBounds":[119.55573,23.560698,119.565099,23.567693],"color":"#78a7e3"}},{"type":"Feature","id":"10016010003","geometry":{"type":"Polygon","coordinates":[[[119.566009,23.565362],[119.566067,23.566179],[119.566529,23.567539],[119.564269,23.567649],[119.563245,23.565998],[119.563936,23.565867],[119.565321,23.565548],[119.566009,23.565362]]]},"properties":{"code":"10016010003","name":"長安里","countyCode":"10016","countyName":"澎湖縣","townCode":"10016010","townName":"馬公市","level":"village","unassigned":false,"note":"","label":[119.56501195551411,23.566615853920073],"bounds":[119.563245,23.565362,119.566529,23.567649],"focusBounds":[119.563245,23.565362,119.566529,23.567649],"color":"#dd8590"}},{"type":"Feature","id":"10016010004","geometry":{"type":"Polygon","coordinates":[[[119.565099,23.563512],[119.565321,23.565548],[119.563936,23.565867],[119.563745,23.563499],[119.565099,23.563512]]]},"properties":{"code":"10016010004","name":"中央里","countyCode":"10016","countyName":"澎湖縣","townCode":"10016010","townName":"馬公市","level":"village","unassigned":false,"note":"","label":[119.564524319579,23.56461904598578],"bounds":[119.563745,23.563499,119.565321,23.565867],"focusBounds":[119.563745,23.563499,119.565321,23.565867],"color":"#a49ad4"}},{"type":"Feature","id":"10016010005","geometry":{"type":"Polygon","coordinates":[[[119.56911,23.565132],[119.568816,23.565176],[119.568376,23.565559],[119.568262,23.564876],[119.566009,23.565362],[119.565321,23.565548],[119.565099,23.563512],[119.56485,23.562626],[119.56452,23.561512],[119.564972,23.562621],[119.566712,23.56261],[119.567028,23.56274],[119.569004,23.564661],[119.569769,23.563987],[119.568088,23.562384],[119.567769,23.562557],[119.5676,23.562465],[119.568237,23.562092],[119.571297,23.56509],[119.571084,23.565161],[119.570151,23.564304],[119.56911,23.565132]]]},"properties":{"code":"10016010005","name":"啟明里","countyCode":"10016","countyName":"澎湖縣","townCode":"10016010","townName":"馬公市","level":"village","unassigned":false,"note":"","label":[119.56654979183827,23.563928465955556],"bounds":[119.56452,23.561512,119.571297,23.565559],"focusBounds":[119.56452,23.561512,119.571297,23.565559],"color":"#a8bf62"}},{"type":"Feature","id":"10016010006","geometry":{"type":"Polygon","coordinates":[[[119.567931,23.567383],[119.566529,23.567539],[119.566067,23.566179],[119.566009,23.565362],[119.568262,23.564876],[119.568376,23.565559],[119.568816,23.565176],[119.56911,23.565132],[119.568877,23.565318],[119.569479,23.565903],[119.567931,23.567383]]]},"properties":{"code":"10016010006","name":"重慶里","countyCode":"10016","countyName":"澎湖縣","townCode":"10016010","townName":"馬公市","level":"village","unassigned":false,"note":"","label":[119.56739692290657,23.56625238574846],"bounds":[119.566009,23.564876,119.569479,23.567539],"focusBounds":[119.566009,23.564876,119.569479,23.567539],"color":"#68bec9"}},{"type":"Feature","id":"10016010007","geometry":{"type":"Polygon","coordinates":[[[119.569553,23.570551],[119.56582,23.570788],[119.56317,23.571905],[119.560718,23.571182],[119.559942,23.570357],[119.55977,23.569903],[119.560137,23.568259],[119.560052,23.568154],[119.559896,23.568903],[119.560087,23.56744],[119.561568,23.567173],[119.562014,23.567253],[119.562662,23.567693],[119.564269,23.567649],[119.566529,23.567539],[119.567931,23.567383],[119.568442,23.569214],[119.569553,23.570551]]]},"properties":{"code":"10016010007","name":"中興里","countyCode":"10016","countyName":"澎湖縣","townCode":"10016010","townName":"馬公市","level":"village","unassigned":false,"note":"","label":[119.56398251869258,23.569609589530238],"bounds":[119.55977,23.567173,119.569553,23.571905],"focusBounds":[119.55977,23.567173,119.569553,23.571905],"color":"#df9f6a"}},{"type":"Feature","id":"10016010008","geometry":{"type":"Polygon","coordinates":[[[119.573503,23.567179],[119.572491,23.568043],[119.571489,23.570112],[119.570095,23.571165],[119.569553,23.570551],[119.568442,23.569214],[119.567931,23.567383],[119.569479,23.565903],[119.570334,23.565204],[119.570468,23.56533],[119.569641,23.56604],[119.570271,23.566629],[119.571579,23.565523],[119.571547,23.565326],[119.571875,23.565158],[119.572187,23.565489],[119.571992,23.565652],[119.573503,23.567179]]]},"properties":{"code":"10016010008","name":"光復里","countyCode":"10016","countyName":"澎湖縣","townCode":"10016010","townName":"馬公市","level":"village","unassigned":false,"note":"","label":[119.57024210846899,23.56844844250334],"bounds":[119.567931,23.565158,119.573503,23.571165],"focusBounds":[119.567931,23.565158,119.573503,23.571165],"color":"#c38cb8"}},{"type":"Feature","id":"10016010009","geometry":{"type":"Polygon","coordinates":[[[119.573746,23.576682],[119.57198,23.578842],[119.571146,23.579236],[119.567345,23.580103],[119.565037,23.579868],[119.566552,23.577901],[119.567333,23.575859],[119.566937,23.575737],[119.566661,23.575835],[119.566915,23.575669],[119.567355,23.575767],[119.567387,23.574873],[119.568895,23.57454],[119.570388,23.573904],[119.572277,23.573408],[119.574989,23.575831],[119.573746,23.576682]]]},"properties":{"code":"10016010009","name":"光榮里","countyCode":"10016","countyName":"澎湖縣","townCode":"10016010","townName":"馬公市","level":"village","unassigned":false,"note":"","label":[119.57004320839636,23.5767693763271],"bounds":[119.565037,23.573408,119.574989,23.580103],"focusBounds":[119.565037,23.573408,119.574989,23.580103],"color":"#98b69b"}},{"type":"Feature","id":"10016010010","geometry":{"type":"Polygon","coordinates":[[[119.572277,23.573408],[119.570388,23.573904],[119.568895,23.57454],[119.567387,23.574873],[119.56638,23.573456],[119.56317,23.571905],[119.56582,23.570788],[119.569553,23.570551],[119.570095,23.571165],[119.572277,23.573408]]]},"properties":{"code":"10016010010","name":"光明里","countyCode":"10016","countyName":"澎湖縣","townCode":"10016010","townName":"馬公市","level":"village","unassigned":false,"note":"","label":[119.56829320199671,23.57265161778652],"bounds":[119.56317,23.570551,119.572277,23.574873],"focusBounds":[119.56317,23.570551,119.572277,23.574873],"color":"#58b99d"}},{"type":"Feature","id":"10016010011","geometry":{"type":"Polygon","coordinates":[[[119.578495,23.571789],[119.579717,23.571308],[119.581924,23.569952],[119.581512,23.571771],[119.581785,23.572499],[119.581906,23.572887],[119.581283,23.573404],[119.581039,23.573849],[119.580649,23.575616],[119.576566,23.576421],[119.576021,23.576764],[119.574989,23.575831],[119.572277,23.573408],[119.573457,23.572873],[119.575274,23.572744],[119.576197,23.572303],[119.576762,23.572391],[119.578495,23.571789]]]},"properties":{"code":"10016010011","name":"朝陽里","countyCode":"10016","countyName":"澎湖縣","townCode":"10016010","townName":"馬公市","level":"village","unassigned":false,"note":"","label":[119.57783365417224,23.574094828105892],"bounds":[119.572277,23.569952,119.581924,23.576764],"focusBounds":[119.572277,23.569952,119.581924,23.576764],"color":"#efb44f"}},{"type":"Feature","id":"10016010012","geometry":{"type":"Polygon","coordinates":[[[119.578495,23.571789],[119.576762,23.572391],[119.576197,23.572303],[119.575274,23.572744],[119.573457,23.572873],[119.572277,23.573408],[119.570095,23.571165],[119.571489,23.570112],[119.572491,23.568043],[119.573503,23.567179],[119.574301,23.567969],[119.575196,23.567242],[119.574743,23.566777],[119.574938,23.56658],[119.575434,23.567047],[119.576095,23.566425],[119.57483,23.565195],[119.575556,23.564582],[119.576833,23.565804],[119.576926,23.565914],[119.576585,23.56619],[119.577421,23.567016],[119.577928,23.567093],[119.577939,23.567515],[119.578227,23.567778],[119.577453,23.568506],[119.578203,23.56953],[119.579065,23.56952],[119.579649,23.56931],[119.580109,23.569977],[119.579694,23.570087],[119.579634,23.570579],[119.578522,23.57073],[119.578637,23.571102],[119.578495,23.571789]]]},"properties":{"code":"10016010012","name":"陽明里","countyCode":"10016","countyName":"澎湖縣","townCode":"10016010","townName":"馬公市","level":"village","unassigned":false,"note":"","label":[119.57508475938914,23.570272539899236],"bounds":[119.570095,23.564582,119.580109,23.573408],"focusBounds":[119.570095,23.564582,119.580109,23.573408],"color":"#78a7e3"}},{"type":"Feature","id":"10016010013","geometry":{"type":"MultiPolygon","coordinates":[[[[119.576194,23.585833],[119.575396,23.585575],[119.574892,23.585053],[119.57437,23.584816],[119.573982,23.585149],[119.574019,23.58551],[119.572495,23.585681],[119.572519,23.585044],[119.571973,23.584786],[119.571932,23.584628],[119.572146,23.585729],[119.571106,23.585929],[119.571023,23.58549],[119.571146,23.585853],[119.57198,23.585703],[119.571788,23.584846],[119.57001,23.585157],[119.570084,23.585563],[119.570647,23.585455],[119.570792,23.585258],[119.570637,23.5855],[119.570713,23.585786],[119.570583,23.585521],[119.570041,23.585595],[119.569882,23.585266],[119.569404,23.585252],[119.568365,23.584876],[119.566907,23.584954],[119.566744,23.584693],[119.566758,23.585261],[119.566065,23.585305],[119.565806,23.584752],[119.565883,23.585576],[119.564191,23.585837],[119.564032,23.585786],[119.563927,23.585407],[119.563547,23.58521],[119.562043,23.585324],[119.561672,23.585061],[119.561875,23.584893],[119.561959,23.583744],[119.565037,23.579868],[119.567345,23.580103],[119.571146,23.579236],[119.57198,23.578842],[119.573746,23.576682],[119.576194,23.585833]]],[[[119.551455,23.594209],[119.551701,23.594521],[119.551674,23.594874],[119.551421,23.59454],[119.551455,23.594209]]]]},"properties":{"code":"10016010013","name":"重光里","countyCode":"10016","countyName":"澎湖縣","townCode":"10016010","townName":"馬公市","level":"village","unassigned":false,"note":"","label":[119.5695775314628,23.58242536988326],"bounds":[119.551421,23.576682,119.576194,23.594874],"focusBounds":[119.551421,23.576682,119.576194,23.594874],"color":"#dd8590"}},{"type":"Feature","id":"10016010014","geometry":{"type":"MultiPolygon","coordinates":[[[[119.585999,23.572923],[119.585533,23.573611],[119.585391,23.574544],[119.585424,23.57509],[119.585697,23.575414],[119.585604,23.576038],[119.586878,23.577164],[119.588187,23.577985],[119.588773,23.578619],[119.588901,23.578944],[119.588791,23.579186],[119.589061,23.579849],[119.588909,23.580781],[119.588481,23.580783],[119.588167,23.580412],[119.588263,23.579391],[119.587938,23.578803],[119.587519,23.578527],[119.587116,23.57872],[119.586637,23.57828],[119.586059,23.578485],[119.585328,23.578377],[119.584721,23.578793],[119.584524,23.578732],[119.584228,23.578905],[119.584213,23.579041],[119.583982,23.57899],[119.583524,23.579201],[119.58343,23.579479],[119.583248,23.579191],[119.583003,23.579783],[119.58274,23.579814],[119.582975,23.580452],[119.585337,23.579662],[119.585536,23.580092],[119.585413,23.580154],[119.585251,23.579831],[119.584572,23.580042],[119.584749,23.580486],[119.584611,23.580552],[119.584434,23.580096],[119.583734,23.58032],[119.583852,23.580649],[119.583728,23.580711],[119.58358,23.580375],[119.582997,23.580558],[119.583219,23.581182],[119.585302,23.580594],[119.585218,23.580409],[119.585715,23.580234],[119.585763,23.580387],[119.585503,23.580474],[119.585599,23.580801],[119.583907,23.581396],[119.583278,23.581403],[119.582839,23.582868],[119.582404,23.583014],[119.582636,23.583259],[119.583477,23.583215],[119.583638,23.584282],[119.583473,23.584421],[119.584043,23.584818],[119.584562,23.584873],[119.585412,23.585705],[119.584436,23.584882],[119.583757,23.584867],[119.584494,23.585261],[119.585317,23.586026],[119.585777,23.58631],[119.585923,23.586258],[119.586131,23.586657],[119.585952,23.587177],[119.586187,23.587812],[119.585792,23.58839],[119.585798,23.588604],[119.585631,23.588571],[119.585709,23.588956],[119.58506,23.5892],[119.584867,23.58882],[119.584504,23.588622],[119.583334,23.589354],[119.584083,23.589069],[119.584402,23.589523],[119.584022,23.590114],[119.582862,23.590877],[119.583865,23.591573],[119.583913,23.592056],[119.58371,23.592497],[119.583903,23.592774],[119.583815,23.593325],[119.584128,23.593423],[119.584351,23.593734],[119.584171,23.594242],[119.58248,23.594095],[119.581848,23.593669],[119.582021,23.593533],[119.581999,23.593174],[119.581723,23.592112],[119.582631,23.59176],[119.582084,23.590975],[119.582054,23.590449],[119.581801,23.590089],[119.581133,23.589649],[119.580105,23.589623],[119.58,23.589156],[119.578675,23.587818],[119.577131,23.587763],[119.576591,23.587688],[119.576275,23.587491],[119.576235,23.58738],[119.576982,23.586908],[119.577106,23.586332],[119.576802,23.58601],[119.576194,23.585833],[119.573746,23.576682],[119.574989,23.575831],[119.576021,23.576764],[119.576566,23.576421],[119.580649,23.575616],[119.581039,23.573849],[119.581283,23.573404],[119.581906,23.572887],[119.581785,23.572499],[119.585999,23.572923]]],[[[119.589017,23.596393],[119.588897,23.596459],[119.588816,23.596189],[119.587615,23.595539],[119.587634,23.595344],[119.587422,23.595151],[119.587533,23.594909],[119.588271,23.594789],[119.58854,23.59549],[119.589471,23.59629],[119.589017,23.596393]]],[[[119.564312,23.60379],[119.564915,23.604617],[119.565712,23.605298],[119.565804,23.605579],[119.565762,23.606372],[119.565178,23.606853],[119.564533,23.606742],[119.56429,23.606359],[119.564084,23.60517],[119.56425,23.604456],[119.564156,23.603791],[119.564312,23.60379]]],[[[119.583728,23.610942],[119.584492,23.611465],[119.584541,23.611824],[119.584268,23.612053],[119.583798,23.611974],[119.583522,23.611546],[119.583487,23.611063],[119.583728,23.610942]]],[[[119.57735,23.610709],[119.578117,23.611304],[119.578228,23.611626],[119.578121,23.612241],[119.577747,23.612482],[119.577452,23.612426],[119.576992,23.611234],[119.577056,23.610845],[119.57735,23.610709]]]]},"properties":{"code":"10016010014","name":"西衛里","countyCode":"10016","countyName":"澎湖縣","townCode":"10016010","townName":"馬公市","level":"village","unassigned":false,"note":"","label":[119.57906456316667,23.581025719052143],"bounds":[119.564084,23.572499,119.589471,23.612482],"focusBounds":[119.564084,23.572499,119.589471,23.612482],"color":"#a49ad4"}},{"type":"Feature","id":"10016010015","geometry":{"type":"Polygon","coordinates":[[[119.596625,23.569097],[119.596472,23.569271],[119.595479,23.569467],[119.594492,23.57032],[119.593931,23.570441],[119.593921,23.570656],[119.59435,23.571207],[119.59392,23.571254],[119.594037,23.571468],[119.593823,23.571555],[119.593945,23.571757],[119.593867,23.572099],[119.594297,23.572594],[119.59445,23.573311],[119.594109,23.574136],[119.594337,23.574442],[119.594118,23.574818],[119.593755,23.574634],[119.593128,23.574756],[119.592999,23.574955],[119.592506,23.574738],[119.591105,23.574509],[119.59073,23.574099],[119.589868,23.572276],[119.589209,23.57183],[119.588587,23.571726],[119.587424,23.571933],[119.587027,23.57119],[119.587048,23.571472],[119.587308,23.571774],[119.587127,23.572271],[119.585999,23.572923],[119.581785,23.572499],[119.581512,23.571771],[119.581924,23.569952],[119.579717,23.571308],[119.578495,23.571789],[119.578637,23.571102],[119.578522,23.57073],[119.579634,23.570579],[119.579694,23.570087],[119.580109,23.569977],[119.579649,23.56931],[119.579065,23.56952],[119.578203,23.56953],[119.577453,23.568506],[119.578227,23.567778],[119.577939,23.567515],[119.577928,23.567093],[119.577421,23.567016],[119.576585,23.56619],[119.576926,23.565914],[119.576833,23.565804],[119.577767,23.564985],[119.577276,23.564359],[119.577559,23.564115],[119.578126,23.564675],[119.579545,23.563396],[119.579857,23.563347],[119.580166,23.56306],[119.580553,23.563462],[119.581232,23.563076],[119.582385,23.56311],[119.582459,23.563636],[119.584789,23.56399],[119.584829,23.564767],[119.586707,23.564446],[119.587446,23.564908],[119.591578,23.562673],[119.593384,23.561813],[119.593947,23.562789],[119.592979,23.563576],[119.596625,23.569097]]]},"properties":{"code":"10016010015","name":"西文里","countyCode":"10016","countyName":"澎湖縣","townCode":"10016010","townName":"馬公市","level":"village","unassigned":false,"note":"","label":[119.58965976488614,23.567923109546015],"bounds":[119.576585,23.561813,119.596625,23.574955],"focusBounds":[119.576585,23.561813,119.596625,23.574955],"color":"#a8bf62"}},{"type":"Feature","id":"10016010016","geometry":{"type":"Polygon","coordinates":[[[119.591578,23.562673],[119.587446,23.564908],[119.586707,23.564446],[119.584829,23.564767],[119.584789,23.56399],[119.582459,23.563636],[119.582385,23.56311],[119.581232,23.563076],[119.580553,23.563462],[119.580166,23.56306],[119.579857,23.563347],[119.579545,23.563396],[119.579172,23.562908],[119.578439,23.563524],[119.578321,23.563353],[119.578995,23.562752],[119.578442,23.562195],[119.579439,23.561491],[119.581462,23.561111],[119.581045,23.560377],[119.582331,23.559462],[119.582733,23.558],[119.583567,23.557455],[119.585538,23.556217],[119.587885,23.558125],[119.588946,23.559898],[119.590184,23.561356],[119.590811,23.56104],[119.591578,23.562673]]]},"properties":{"code":"10016010016","name":"東文里","countyCode":"10016","countyName":"澎湖縣","townCode":"10016010","townName":"馬公市","level":"village","unassigned":false,"note":"","label":[119.58551169351362,23.56074348620937],"bounds":[119.578321,23.556217,119.591578,23.564908],"focusBounds":[119.578321,23.556217,119.591578,23.564908],"color":"#68bec9"}},{"type":"Feature","id":"10016010017","geometry":{"type":"Polygon","coordinates":[[[119.578442,23.562195],[119.576606,23.563748],[119.576386,23.563444],[119.578197,23.561895],[119.576834,23.560546],[119.573429,23.563593],[119.572681,23.563498],[119.572356,23.563147],[119.574197,23.56163],[119.57515,23.561137],[119.574204,23.559908],[119.574645,23.560362],[119.574849,23.560246],[119.57484,23.560077],[119.574899,23.560183],[119.575171,23.560017],[119.575171,23.559816],[119.575329,23.559965],[119.576016,23.559362],[119.576125,23.559485],[119.576231,23.55925],[119.576424,23.559292],[119.576747,23.559097],[119.577138,23.558664],[119.577204,23.558782],[119.57745,23.558654],[119.576291,23.557013],[119.576007,23.557323],[119.575933,23.557231],[119.573816,23.558471],[119.573894,23.558595],[119.573505,23.558685],[119.573808,23.559214],[119.573467,23.558908],[119.572764,23.559319],[119.573428,23.558818],[119.57299,23.558045],[119.572163,23.558504],[119.572105,23.55843],[119.57287,23.557942],[119.572846,23.557705],[119.57303,23.557512],[119.573523,23.557488],[119.573992,23.55722],[119.575146,23.55541],[119.575719,23.554866],[119.573547,23.55451],[119.572928,23.553765],[119.571381,23.552938],[119.570678,23.552803],[119.569452,23.553196],[119.569068,23.552836],[119.568223,23.552839],[119.56819,23.553936],[119.567533,23.554812],[119.566326,23.555607],[119.563953,23.556297],[119.563495,23.557326],[119.562967,23.557748],[119.562506,23.557284],[119.561886,23.556941],[119.562522,23.557221],[119.562681,23.556959],[119.562507,23.555481],[119.561721,23.554682],[119.561049,23.554827],[119.561951,23.554343],[119.562392,23.553323],[119.562027,23.552455],[119.563929,23.552717],[119.565062,23.553126],[119.565556,23.552659],[119.565229,23.552033],[119.565422,23.551955],[119.565278,23.551615],[119.564475,23.55164],[119.564337,23.551905],[119.564357,23.55163],[119.564012,23.551583],[119.563955,23.552019],[119.563699,23.551995],[119.563751,23.551553],[119.562943,23.551429],[119.562525,23.550117],[119.562382,23.550066],[119.562739,23.549956],[119.562262,23.54861],[119.562523,23.548528],[119.563016,23.549858],[119.565066,23.549185],[119.564594,23.54785],[119.564784,23.547795],[119.565288,23.54912],[119.565649,23.548995],[119.566066,23.550009],[119.566347,23.549925],[119.566547,23.550396],[119.568155,23.54986],[119.568274,23.550184],[119.567909,23.550321],[119.568047,23.551124],[119.568301,23.55146],[119.569053,23.551301],[119.569674,23.551001],[119.569316,23.550099],[119.569382,23.549647],[119.569324,23.549508],[119.569022,23.549563],[119.568649,23.548415],[119.571756,23.549289],[119.572332,23.549129],[119.572602,23.546938],[119.573017,23.54623],[119.573132,23.545299],[119.573271,23.545306],[119.573153,23.546292],[119.574435,23.547322],[119.575211,23.547457],[119.576315,23.547389],[119.57705,23.548258],[119.577431,23.548288],[119.578099,23.548035],[119.578502,23.548471],[119.57851,23.548666],[119.579392,23.548648],[119.579862,23.550634],[119.580311,23.55179],[119.580832,23.552743],[119.582557,23.555084],[119.583567,23.557455],[119.582733,23.558],[119.582331,23.559462],[119.581045,23.560377],[119.581462,23.561111],[119.579439,23.561491],[119.578442,23.562195]]]},"properties":{"code":"10016010017","name":"案山里","countyCode":"10016","countyName":"澎湖縣","townCode":"10016010","townName":"馬公市","level":"village","unassigned":false,"note":"","label":[119.57518788144301,23.55111572120194],"bounds":[119.561049,23.545299,119.583567,23.563748],"focusBounds":[119.561049,23.545299,119.583567,23.563748],"color":"#df9f6a"}},{"type":"Feature","id":"10016010018","geometry":{"type":"Polygon","coordinates":[[[119.608833,23.558753],[119.605409,23.55981],[119.601432,23.561265],[119.599032,23.561649],[119.597229,23.557144],[119.598524,23.557148],[119.600507,23.556811],[119.601671,23.557955],[119.605251,23.556223],[119.606966,23.554968],[119.608833,23.558753]]]},"properties":{"code":"10016010018","name":"光華里","countyCode":"10016","countyName":"澎湖縣","townCode":"10016010","townName":"馬公市","level":"village","unassigned":false,"note":"","label":[119.6033145576962,23.558868257353108],"bounds":[119.597229,23.554968,119.608833,23.561649],"focusBounds":[119.597229,23.554968,119.608833,23.561649],"color":"#c38cb8"}},{"type":"Feature","id":"10016010019","geometry":{"type":"Polygon","coordinates":[[[119.588782,23.551395],[119.589471,23.552701],[119.59072,23.554412],[119.591257,23.555548],[119.591075,23.555912],[119.587885,23.558125],[119.585538,23.556217],[119.583567,23.557455],[119.582557,23.555084],[119.580832,23.552743],[119.580311,23.55179],[119.579862,23.550634],[119.579392,23.548648],[119.580708,23.549229],[119.581428,23.549756],[119.581632,23.549038],[119.582011,23.548741],[119.583227,23.548395],[119.583927,23.548408],[119.585005,23.549711],[119.586623,23.549656],[119.587174,23.550755],[119.588014,23.550388],[119.587007,23.550909],[119.587498,23.551948],[119.587829,23.551698],[119.587714,23.551491],[119.588045,23.551289],[119.588204,23.55151],[119.588782,23.551395]]]},"properties":{"code":"10016010019","name":"前寮里","countyCode":"10016","countyName":"澎湖縣","townCode":"10016010","townName":"馬公市","level":"village","unassigned":false,"note":"","label":[119.58480173740753,23.55307280356356],"bounds":[119.579392,23.548395,119.591257,23.558125],"focusBounds":[119.579392,23.548395,119.591257,23.558125],"color":"#98b69b"}},{"type":"Feature","id":"10016010020","geometry":{"type":"Polygon","coordinates":[[[119.599032,23.561649],[119.593947,23.562789],[119.593384,23.561813],[119.591578,23.562673],[119.590811,23.56104],[119.590184,23.561356],[119.588946,23.559898],[119.587885,23.558125],[119.591075,23.555912],[119.591257,23.555548],[119.59072,23.554412],[119.589471,23.552701],[119.588782,23.551395],[119.588407,23.550141],[119.588034,23.549989],[119.588497,23.550007],[119.588986,23.551428],[119.589415,23.551643],[119.589676,23.552005],[119.589888,23.551833],[119.590433,23.552045],[119.590462,23.55235],[119.590688,23.552162],[119.591048,23.552269],[119.591284,23.551652],[119.591174,23.551036],[119.590495,23.551196],[119.590414,23.550777],[119.591104,23.550632],[119.590974,23.549928],[119.590684,23.549952],[119.590666,23.549846],[119.591081,23.549792],[119.591496,23.551531],[119.59102,23.55249],[119.591195,23.552857],[119.591814,23.552388],[119.59214,23.552754],[119.592525,23.55227],[119.592589,23.551581],[119.592814,23.551208],[119.59145,23.551283],[119.592936,23.551092],[119.593316,23.550739],[119.593124,23.550444],[119.593289,23.550113],[119.596783,23.555148],[119.596166,23.555875],[119.596029,23.556379],[119.596106,23.556769],[119.596608,23.557151],[119.597229,23.557144],[119.599032,23.561649]]]},"properties":{"code":"10016010020","name":"石泉里","countyCode":"10016","countyName":"澎湖縣","townCode":"10016010","townName":"馬公市","level":"village","unassigned":false,"note":"","label":[119.59331348548025,23.55832042262181],"bounds":[119.587885,23.549792,119.599032,23.562789],"focusBounds":[119.587885,23.549792,119.599032,23.562789],"color":"#58b99d"}},{"type":"Feature","id":"10016010021","geometry":{"type":"Polygon","coordinates":[[[119.611164,23.558112],[119.608833,23.558753],[119.606966,23.554968],[119.605251,23.556223],[119.601671,23.557955],[119.600507,23.556811],[119.598524,23.557148],[119.597229,23.557144],[119.596608,23.557151],[119.596106,23.556769],[119.596029,23.556379],[119.596166,23.555875],[119.596783,23.555148],[119.593289,23.550113],[119.593575,23.549882],[119.594186,23.550358],[119.595245,23.550363],[119.595417,23.550243],[119.595462,23.549457],[119.59449,23.54945],[119.594402,23.548432],[119.594574,23.548406],[119.594605,23.549074],[119.595638,23.549055],[119.595648,23.548127],[119.595861,23.548119],[119.595945,23.549663],[119.597803,23.549825],[119.597878,23.549705],[119.598024,23.549745],[119.598005,23.54989],[119.598127,23.549792],[119.598395,23.550015],[119.598412,23.54973],[119.598276,23.549629],[119.598392,23.54927],[119.599669,23.549938],[119.599571,23.550281],[119.602253,23.547869],[119.603297,23.548061],[119.603515,23.547988],[119.603976,23.548368],[119.604317,23.548062],[119.604056,23.547769],[119.602707,23.547926],[119.602388,23.547733],[119.602389,23.547266],[119.603952,23.547481],[119.604368,23.548055],[119.60432,23.550168],[119.604631,23.551063],[119.607882,23.553989],[119.611164,23.558112]]]},"properties":{"code":"10016010021","name":"菜園里","countyCode":"10016","countyName":"澎湖縣","townCode":"10016010","townName":"馬公市","level":"village","unassigned":false,"note":"","label":[119.60161910173429,23.55317125783608],"bounds":[119.593289,23.547266,119.611164,23.558753],"focusBounds":[119.593289,23.547266,119.611164,23.558753],"color":"#efb44f"}},{"type":"Feature","id":"10016010022","geometry":{"type":"Polygon","coordinates":[[[119.610959,23.570152],[119.609766,23.570902],[119.607836,23.571801],[119.605179,23.572448],[119.599622,23.573171],[119.597414,23.573286],[119.597398,23.573151],[119.597586,23.573075],[119.597418,23.572794],[119.597634,23.572249],[119.597559,23.571832],[119.597143,23.572009],[119.597194,23.570758],[119.597473,23.57069],[119.597187,23.570447],[119.596902,23.57043],[119.596879,23.57011],[119.59717,23.569711],[119.597279,23.568986],[119.596625,23.569097],[119.592979,23.563576],[119.593947,23.562789],[119.599032,23.561649],[119.601432,23.561265],[119.605409,23.55981],[119.608833,23.558753],[119.611164,23.558112],[119.612358,23.559742],[119.610844,23.559775],[119.610205,23.55994],[119.609323,23.560684],[119.609376,23.561167],[119.609181,23.561391],[119.609462,23.562117],[119.608179,23.562661],[119.609219,23.562953],[119.609391,23.563198],[119.609848,23.563422],[119.609896,23.563657],[119.609569,23.563929],[119.609371,23.564488],[119.609588,23.564719],[119.610228,23.564631],[119.610499,23.564727],[119.61101,23.565176],[119.611604,23.566271],[119.611337,23.567074],[119.61124,23.567762],[119.611353,23.568466],[119.611184,23.569235],[119.611038,23.569407],[119.610959,23.570152]]]},"properties":{"code":"10016010022","name":"東衛里","countyCode":"10016","countyName":"澎湖縣","townCode":"10016010","townName":"馬公市","level":"village","unassigned":false,"note":"","label":[119.60344669437092,23.566600683797787],"bounds":[119.592979,23.558112,119.612358,23.573286],"focusBounds":[119.592979,23.558112,119.612358,23.573286],"color":"#78a7e3"}},{"type":"Feature","id":"10016010023","geometry":{"type":"MultiPolygon","coordinates":[[[[119.611667,23.579705],[119.611681,23.579953],[119.61099,23.580057],[119.61091,23.58027],[119.61058,23.580447],[119.607535,23.581279],[119.606379,23.581863],[119.606871,23.582832],[119.606013,23.583183],[119.606135,23.584286],[119.606019,23.584628],[119.606188,23.585273],[119.605428,23.585422],[119.60452,23.585284],[119.603474,23.5848],[119.602498,23.584558],[119.60067,23.584714],[119.600657,23.584461],[119.599526,23.584032],[119.599521,23.58382],[119.598934,23.583457],[119.598759,23.583033],[119.598429,23.582804],[119.59868,23.582363],[119.599045,23.582235],[119.599459,23.581795],[119.599325,23.58143],[119.599441,23.58115],[119.599678,23.581043],[119.599718,23.580582],[119.599637,23.580318],[119.599036,23.580517],[119.598828,23.580455],[119.598735,23.580132],[119.59904,23.579833],[119.59938,23.579852],[119.599069,23.579013],[119.598774,23.579146],[119.598141,23.578949],[119.598053,23.57874],[119.598205,23.578518],[119.59852,23.578672],[119.599369,23.578349],[119.599247,23.578042],[119.598343,23.578222],[119.599341,23.57785],[119.599461,23.577635],[119.599294,23.577103],[119.599385,23.576951],[119.598783,23.577089],[119.598715,23.577523],[119.597744,23.577504],[119.597485,23.576943],[119.597791,23.577409],[119.598631,23.577419],[119.598731,23.576999],[119.599864,23.576794],[119.602132,23.577069],[119.600153,23.576585],[119.600476,23.575613],[119.600161,23.575996],[119.599997,23.57657],[119.599639,23.57658],[119.59997,23.576491],[119.600253,23.575643],[119.598784,23.575789],[119.598718,23.575414],[119.598298,23.575328],[119.597845,23.57488],[119.59772,23.574328],[119.597525,23.574143],[119.597414,23.573286],[119.599622,23.573171],[119.605179,23.572448],[119.607836,23.571801],[119.609766,23.570902],[119.610959,23.570152],[119.611104,23.575307],[119.611421,23.579033],[119.611667,23.579705]]],[[[119.598157,23.587049],[119.597075,23.587008],[119.596168,23.586431],[119.596521,23.586051],[119.597093,23.586055],[119.597281,23.586513],[119.598261,23.586685],[119.598157,23.587049]]]]},"properties":{"code":"10016010023","name":"安宅里","countyCode":"10016","countyName":"澎湖縣","townCode":"10016010","townName":"馬公市","level":"village","unassigned":false,"note":"","label":[119.60659443637064,23.57692868863829],"bounds":[119.596168,23.570152,119.611681,23.587049],"focusBounds":[119.596168,23.570152,119.611681,23.587049],"color":"#a49ad4"}},{"type":"Feature","id":"10016010024","geometry":{"type":"Polygon","coordinates":[[[119.623552,23.560117],[119.623566,23.560293],[119.622264,23.559477],[119.621441,23.559193],[119.621501,23.559606],[119.62026,23.559905],[119.620262,23.55925],[119.619923,23.55813],[119.620351,23.557521],[119.620425,23.556881],[119.619137,23.552658],[119.618475,23.551216],[119.616773,23.549444],[119.616307,23.548177],[119.615992,23.546619],[119.615924,23.544495],[119.616146,23.542877],[119.614163,23.540088],[119.614158,23.539133],[119.61438,23.538053],[119.615975,23.538871],[119.61787,23.538895],[119.618559,23.538714],[119.619453,23.537735],[119.620981,23.537707],[119.621274,23.538083],[119.621504,23.538118],[119.621506,23.538533],[119.62119,23.538704],[119.621014,23.539255],[119.621019,23.540291],[119.620762,23.541012],[119.620934,23.541276],[119.620867,23.542069],[119.621285,23.542329],[119.621158,23.542458],[119.621337,23.542642],[119.621455,23.542529],[119.621583,23.542641],[119.621765,23.542498],[119.621284,23.542087],[119.621508,23.541949],[119.623631,23.543841],[119.624193,23.543328],[119.624914,23.543052],[119.624932,23.543222],[119.624675,23.543259],[119.623592,23.54415],[119.624064,23.544641],[119.624181,23.544559],[119.62448,23.544887],[119.62525,23.544293],[119.625183,23.542835],[119.624799,23.54261],[119.624799,23.54247],[119.62544,23.542766],[119.625501,23.544316],[119.624902,23.544809],[119.625426,23.545215],[119.62686,23.54586],[119.627566,23.545764],[119.627977,23.546688],[119.628573,23.547302],[119.629141,23.547629],[119.630123,23.547833],[119.6314,23.547728],[119.631806,23.547092],[119.631578,23.546475],[119.631689,23.546179],[119.631979,23.54604],[119.632917,23.546542],[119.63357,23.546291],[119.634372,23.54659],[119.634716,23.546873],[119.635047,23.546732],[119.635335,23.547198],[119.635345,23.547593],[119.63511,23.547783],[119.634995,23.548312],[119.63459,23.548339],[119.6344,23.548782],[119.634634,23.550291],[119.634843,23.550753],[119.634681,23.551061],[119.634305,23.551403],[119.634232,23.551965],[119.633519,23.552104],[119.632993,23.552557],[119.63019,23.553709],[119.629811,23.553963],[119.629715,23.554239],[119.628055,23.554659],[119.627316,23.555037],[119.626081,23.555376],[119.626011,23.555216],[119.625876,23.555365],[119.625578,23.555172],[119.625034,23.555093],[119.62414,23.555505],[119.623602,23.555365],[119.622196,23.555387],[119.622313,23.556206],[119.623024,23.558205],[119.622909,23.558364],[119.623552,23.560117]]]},"properties":{"code":"10016010024","name":"烏崁里","countyCode":"10016","countyName":"澎湖縣","townCode":"10016010","townName":"馬公市","level":"village","unassigned":false,"note":"","label":[119.62364818681384,23.549783074589232],"bounds":[119.614158,23.537707,119.635345,23.560293],"focusBounds":[119.614158,23.537707,119.635345,23.560293],"color":"#a49ad4"}},{"type":"Feature","id":"10016010025","geometry":{"type":"Polygon","coordinates":[[[119.619923,23.55813],[119.619763,23.557805],[119.618667,23.557466],[119.617756,23.557797],[119.617723,23.557996],[119.616797,23.557914],[119.616021,23.557567],[119.614598,23.558094],[119.614534,23.558262],[119.61298,23.559083],[119.612688,23.559576],[119.612358,23.559742],[119.611164,23.558112],[119.607882,23.553989],[119.604631,23.551063],[119.60432,23.550168],[119.604368,23.548055],[119.603952,23.547481],[119.602389,23.547266],[119.602514,23.547019],[119.602123,23.546592],[119.602105,23.546348],[119.601496,23.546084],[119.600753,23.54599],[119.600115,23.545347],[119.600446,23.543415],[119.600869,23.543059],[119.601278,23.542373],[119.601772,23.542083],[119.602216,23.541309],[119.602981,23.540911],[119.603128,23.540443],[119.604268,23.540028],[119.605041,23.539433],[119.605581,23.53809],[119.606528,23.536384],[119.609972,23.532452],[119.610701,23.533106],[119.611696,23.532716],[119.612034,23.533449],[119.611747,23.533809],[119.611743,23.534082],[119.612309,23.535032],[119.612193,23.535344],[119.612334,23.536007],[119.612863,23.536574],[119.613008,23.537027],[119.61438,23.538053],[119.614158,23.539133],[119.614163,23.540088],[119.616146,23.542877],[119.615924,23.544495],[119.615992,23.546619],[119.616307,23.548177],[119.616773,23.549444],[119.618475,23.551216],[119.619137,23.552658],[119.620425,23.556881],[119.620351,23.557521],[119.619923,23.55813]]]},"properties":{"code":"10016010025","name":"興仁里","countyCode":"10016","countyName":"澎湖縣","townCode":"10016010","townName":"馬公市","level":"village","unassigned":false,"note":"","label":[119.60990813414215,23.545914469059387],"bounds":[119.600115,23.532452,119.620425,23.559742],"focusBounds":[119.600115,23.532452,119.620425,23.559742],"color":"#a8bf62"}},{"type":"Feature","id":"10016010026","geometry":{"type":"Polygon","coordinates":[[[119.609972,23.532452],[119.606528,23.536384],[119.605581,23.53809],[119.605041,23.539433],[119.604268,23.540028],[119.603128,23.540443],[119.603096,23.540274],[119.602577,23.540271],[119.602376,23.540076],[119.600455,23.540144],[119.600274,23.539357],[119.599403,23.538403],[119.598248,23.538408],[119.597119,23.538879],[119.596918,23.538803],[119.597115,23.539277],[119.596502,23.539299],[119.59629,23.539454],[119.596153,23.53898],[119.595052,23.538023],[119.594905,23.536861],[119.595532,23.53614],[119.595839,23.534911],[119.596196,23.534449],[119.596538,23.53429],[119.596455,23.533972],[119.597242,23.532809],[119.596066,23.532754],[119.595665,23.532523],[119.596062,23.53268],[119.596229,23.532406],[119.596168,23.532682],[119.597691,23.532764],[119.598394,23.532346],[119.598307,23.532184],[119.598894,23.531845],[119.599381,23.532333],[119.599514,23.532231],[119.599109,23.531607],[119.599164,23.531029],[119.599739,23.531228],[119.602577,23.531467],[119.604659,23.531236],[119.606697,23.530641],[119.608483,23.529735],[119.609167,23.529997],[119.60967,23.530686],[119.609386,23.531439],[119.609613,23.53211],[119.609972,23.532452]]]},"properties":{"code":"10016010026","name":"鐵線里","countyCode":"10016","countyName":"澎湖縣","townCode":"10016010","townName":"馬公市","level":"village","unassigned":false,"note":"","label":[119.602464477763,23.535379432476727],"bounds":[119.594905,23.529735,119.609972,23.540443],"focusBounds":[119.594905,23.529735,119.609972,23.540443],"color":"#68bec9"}},{"type":"Feature","id":"10016010027","geometry":{"type":"Polygon","coordinates":[[[119.596078,23.522589],[119.594086,23.522784],[119.588842,23.522226],[119.587521,23.521965],[119.582271,23.511194],[119.58195,23.509285],[119.582375,23.509471],[119.583344,23.509542],[119.583592,23.509317],[119.584297,23.509204],[119.584557,23.509636],[119.585806,23.509799],[119.586257,23.510434],[119.586817,23.510366],[119.586728,23.510752],[119.587161,23.51106],[119.587495,23.510704],[119.587952,23.510687],[119.588136,23.511045],[119.58896,23.511455],[119.588923,23.511658],[119.588617,23.511858],[119.58864,23.512219],[119.589272,23.512659],[119.590223,23.51283],[119.59268,23.51282],[119.595518,23.512507],[119.595735,23.5124],[119.595606,23.511421],[119.596581,23.510961],[119.596876,23.510592],[119.59706,23.510636],[119.597174,23.510767],[119.59684,23.511224],[119.596908,23.511337],[119.596771,23.511412],[119.59667,23.51125],[119.595928,23.51156],[119.595998,23.51234],[119.5964,23.512332],[119.596423,23.51247],[119.59617,23.512484],[119.596224,23.512911],[119.59666,23.513792],[119.597144,23.513975],[119.597313,23.513543],[119.597463,23.513576],[119.597286,23.514004],[119.597823,23.514207],[119.598147,23.513423],[119.597267,23.513112],[119.597193,23.513311],[119.597059,23.513278],[119.597108,23.512487],[119.596811,23.512439],[119.596786,23.512236],[119.597006,23.512226],[119.596893,23.511818],[119.597202,23.511722],[119.597551,23.512305],[119.597778,23.512099],[119.597504,23.511551],[119.597783,23.511415],[119.598094,23.511915],[119.598322,23.511785],[119.597562,23.510269],[119.597919,23.51015],[119.598727,23.51179],[119.599761,23.511238],[119.599677,23.511008],[119.599792,23.510859],[119.6,23.510903],[119.600176,23.511193],[119.600619,23.511],[119.600844,23.510383],[119.601662,23.509443],[119.602101,23.509391],[119.602681,23.509098],[119.603761,23.509319],[119.604769,23.509196],[119.605236,23.508869],[119.605392,23.508351],[119.606149,23.507852],[119.607423,23.508005],[119.608034,23.509152],[119.608027,23.510269],[119.607851,23.510877],[119.607938,23.512565],[119.606736,23.514473],[119.606256,23.514798],[119.60577,23.515594],[119.605499,23.516236],[119.605633,23.516631],[119.600658,23.517625],[119.595921,23.518989],[119.59531,23.518996],[119.593582,23.5184],[119.596078,23.522589]]]},"properties":{"code":"10016010027","name":"山水里","countyCode":"10016","countyName":"澎湖縣","townCode":"10016010","townName":"馬公市","level":"village","unassigned":false,"note":"","label":[119.59048196611329,23.516428879051578],"bounds":[119.58195,23.507852,119.608034,23.522784],"focusBounds":[119.58195,23.507852,119.608034,23.522784],"color":"#df9f6a"}},{"type":"Feature","id":"10016010028","geometry":{"type":"Polygon","coordinates":[[[119.608483,23.529735],[119.606697,23.530641],[119.604659,23.531236],[119.602577,23.531467],[119.599739,23.531228],[119.599624,23.531084],[119.599782,23.531088],[119.59861,23.529977],[119.598312,23.529402],[119.596712,23.528648],[119.59675,23.528061],[119.596325,23.527803],[119.596398,23.527173],[119.596143,23.526711],[119.595794,23.526522],[119.594716,23.526764],[119.594366,23.526115],[119.597374,23.524692],[119.596078,23.522589],[119.593582,23.5184],[119.59531,23.518996],[119.595921,23.518989],[119.600658,23.517625],[119.605633,23.516631],[119.606582,23.517203],[119.607047,23.517079],[119.607607,23.517142],[119.607891,23.517401],[119.608329,23.517444],[119.609077,23.517809],[119.609423,23.51779],[119.609459,23.518101],[119.610061,23.51848],[119.610914,23.518802],[119.611651,23.518903],[119.611358,23.519173],[119.61112,23.519174],[119.610828,23.51978],[119.611735,23.521488],[119.611764,23.521955],[119.611577,23.522502],[119.611117,23.522802],[119.61073,23.522866],[119.609901,23.522619],[119.609376,23.522203],[119.606514,23.522113],[119.605152,23.524005],[119.605961,23.524763],[119.605757,23.524967],[119.605167,23.524475],[119.604458,23.525141],[119.604645,23.525793],[119.605675,23.525487],[119.605757,23.525768],[119.604726,23.526041],[119.605474,23.52712],[119.60651,23.526316],[119.606914,23.525242],[119.607068,23.52528],[119.606643,23.526474],[119.605057,23.527744],[119.605661,23.528742],[119.606471,23.529443],[119.60726,23.529794],[119.607675,23.529517],[119.608483,23.529735]]]},"properties":{"code":"10016010028","name":"鎖港里","countyCode":"10016","countyName":"澎湖縣","townCode":"10016010","townName":"馬公市","level":"village","unassigned":false,"note":"","label":[119.60143445884555,23.521911568207532],"bounds":[119.593582,23.516631,119.611764,23.531467],"focusBounds":[119.593582,23.516631,119.611764,23.531467],"color":"#c38cb8"}},{"type":"Feature","id":"10016010029","geometry":{"type":"Polygon","coordinates":[[[119.594716,23.526764],[119.594571,23.527098],[119.594207,23.527359],[119.593545,23.52717],[119.592547,23.527903],[119.592484,23.528246],[119.593035,23.528723],[119.592493,23.528892],[119.592065,23.529345],[119.591703,23.530076],[119.591367,23.53],[119.591262,23.530271],[119.590892,23.530562],[119.590751,23.532183],[119.590689,23.531028],[119.590522,23.530789],[119.589852,23.531101],[119.58945,23.531059],[119.588544,23.530627],[119.588402,23.531379],[119.587666,23.53145],[119.588321,23.531172],[119.588266,23.53073],[119.587586,23.530811],[119.588255,23.530662],[119.588149,23.530026],[119.587529,23.529789],[119.587537,23.529599],[119.586408,23.529145],[119.585527,23.530121],[119.585182,23.530744],[119.584945,23.531417],[119.585204,23.531563],[119.585117,23.531983],[119.584403,23.531859],[119.582728,23.532699],[119.582434,23.532454],[119.581136,23.532134],[119.580574,23.531747],[119.58021,23.528949],[119.58037,23.528348],[119.579779,23.527366],[119.580513,23.528312],[119.581001,23.528244],[119.581208,23.527948],[119.581331,23.526248],[119.580742,23.525692],[119.579935,23.525797],[119.580078,23.525559],[119.579965,23.52528],[119.585525,23.521539],[119.587521,23.521965],[119.588842,23.522226],[119.594086,23.522784],[119.596078,23.522589],[119.597374,23.524692],[119.594366,23.526115],[119.594716,23.526764]]]},"properties":{"code":"10016010029","name":"五德里","countyCode":"10016","countyName":"澎湖縣","townCode":"10016010","townName":"馬公市","level":"village","unassigned":false,"note":"","label":[119.58694876511613,23.52560244620697],"bounds":[119.579779,23.521539,119.597374,23.532699],"focusBounds":[119.579779,23.521539,119.597374,23.532699],"color":"#98b69b"}},{"type":"Feature","id":"10016010030","geometry":{"type":"Polygon","coordinates":[[[119.587521,23.521965],[119.585525,23.521539],[119.579965,23.52528],[119.579799,23.524917],[119.58014,23.523877],[119.580342,23.523691],[119.5798,23.523282],[119.579224,23.524088],[119.578355,23.523617],[119.57853,23.523341],[119.57851,23.523565],[119.579184,23.523944],[119.579739,23.523095],[119.578564,23.521957],[119.577615,23.521724],[119.577251,23.521371],[119.575552,23.521197],[119.57592,23.521166],[119.575715,23.520347],[119.575914,23.519958],[119.576156,23.519625],[119.575896,23.518899],[119.574897,23.518136],[119.573994,23.517844],[119.574006,23.517385],[119.573658,23.516531],[119.571433,23.514385],[119.570769,23.513071],[119.570703,23.512234],[119.571045,23.51112],[119.57085,23.510419],[119.571326,23.509374],[119.571844,23.50865],[119.572847,23.508066],[119.575366,23.507339],[119.577173,23.507881],[119.577826,23.508499],[119.57776,23.508696],[119.577984,23.509085],[119.578551,23.509386],[119.579188,23.509505],[119.580621,23.509157],[119.58195,23.509285],[119.582271,23.511194],[119.587521,23.521965]]]},"properties":{"code":"10016010030","name":"井垵里","countyCode":"10016","countyName":"澎湖縣","townCode":"10016010","townName":"馬公市","level":"village","unassigned":false,"note":"","label":[119.57877988628817,23.515033035349127],"bounds":[119.570703,23.507339,119.587521,23.52528],"focusBounds":[119.570703,23.507339,119.587521,23.52528],"color":"#58b99d"}},{"type":"Feature","id":"10016010031","geometry":{"type":"Polygon","coordinates":[[[119.575914,23.519958],[119.574664,23.520139],[119.574571,23.519643],[119.574128,23.519854],[119.573775,23.520661],[119.573929,23.521085],[119.573629,23.521156],[119.573446,23.521658],[119.57363,23.521962],[119.573488,23.522656],[119.573233,23.522785],[119.573347,23.522801],[119.573294,23.522936],[119.57307,23.522939],[119.573073,23.523371],[119.571729,23.524258],[119.571976,23.524463],[119.571453,23.525243],[119.571577,23.525663],[119.57186,23.525982],[119.57301,23.526175],[119.573524,23.526638],[119.57405,23.526857],[119.574463,23.527828],[119.574277,23.528039],[119.574015,23.528038],[119.573479,23.527794],[119.572884,23.528688],[119.572771,23.528659],[119.573322,23.52774],[119.572338,23.527231],[119.572135,23.527496],[119.57193,23.527885],[119.572608,23.528244],[119.572514,23.528402],[119.572356,23.528337],[119.572174,23.528665],[119.572028,23.5286],[119.572261,23.528263],[119.571823,23.528044],[119.571214,23.529001],[119.572214,23.529496],[119.572648,23.528833],[119.572732,23.528882],[119.572043,23.530014],[119.572339,23.530112],[119.572807,23.529428],[119.573496,23.529117],[119.572834,23.529494],[119.572292,23.530451],[119.57207,23.530519],[119.571868,23.530836],[119.57181,23.531044],[119.572072,23.531666],[119.57188,23.531985],[119.571058,23.531927],[119.569701,23.531426],[119.568245,23.531131],[119.567776,23.531212],[119.566729,23.53178],[119.566476,23.532088],[119.566292,23.532784],[119.565933,23.53333],[119.565681,23.534619],[119.565523,23.53471],[119.565315,23.534483],[119.565078,23.534507],[119.564542,23.533906],[119.564432,23.53357],[119.565211,23.533003],[119.565513,23.532238],[119.56604,23.531711],[119.565909,23.531241],[119.564709,23.530304],[119.564826,23.530076],[119.564531,23.529763],[119.562902,23.529306],[119.562782,23.530196],[119.560855,23.530831],[119.559783,23.528374],[119.560763,23.528009],[119.560741,23.527809],[119.561336,23.527389],[119.561399,23.527102],[119.56113,23.526771],[119.560383,23.526485],[119.558394,23.526438],[119.557353,23.526778],[119.557162,23.527343],[119.555954,23.527945],[119.554815,23.529211],[119.554732,23.52969],[119.554938,23.530024],[119.554763,23.530412],[119.554296,23.530297],[119.554317,23.529687],[119.553509,23.528683],[119.553536,23.528277],[119.554914,23.526692],[119.555284,23.526031],[119.555362,23.525281],[119.55561,23.524865],[119.556986,23.523465],[119.557499,23.523423],[119.558713,23.524199],[119.560326,23.523923],[119.560944,23.524002],[119.561937,23.524664],[119.562533,23.525366],[119.562747,23.525993],[119.563109,23.526215],[119.564539,23.526276],[119.564814,23.526123],[119.567437,23.525822],[119.569941,23.524434],[119.572507,23.522095],[119.573017,23.521163],[119.573277,23.519918],[119.573994,23.517844],[119.574897,23.518136],[119.575896,23.518899],[119.576156,23.519625],[119.575914,23.519958]]]},"properties":{"code":"10016010031","name":"[嵵]裡里","countyCode":"10016","countyName":"澎湖縣","townCode":"10016010","townName":"馬公市","level":"village","unassigned":false,"note":"","label":[119.56765169874832,23.52849150087421],"bounds":[119.553509,23.517844,119.576156,23.53471],"focusBounds":[119.553509,23.517844,119.576156,23.53471],"color":"#efb44f"}},{"type":"Feature","id":"10016010032","geometry":{"type":"MultiPolygon","coordinates":[[[[119.533342,23.541673],[119.532859,23.541961],[119.532053,23.541605],[119.531355,23.541524],[119.530917,23.541632],[119.530097,23.541325],[119.53023,23.541164],[119.531533,23.540853],[119.531717,23.540579],[119.531528,23.539679],[119.532549,23.538712],[119.533171,23.538843],[119.533362,23.53914],[119.533439,23.539456],[119.533199,23.54001],[119.53319,23.540461],[119.53358,23.541191],[119.533342,23.541673]]],[[[119.554763,23.530412],[119.554577,23.531415],[119.555175,23.532048],[119.555673,23.532364],[119.556033,23.532381],[119.556168,23.532651],[119.556879,23.533166],[119.557263,23.533882],[119.557129,23.534416],[119.556329,23.535337],[119.556506,23.536041],[119.556914,23.536364],[119.556807,23.537202],[119.556945,23.537545],[119.556708,23.538099],[119.55623,23.538146],[119.555502,23.538528],[119.553537,23.539108],[119.55269,23.539565],[119.55257,23.539823],[119.551045,23.54065],[119.551672,23.54244],[119.551376,23.542723],[119.551299,23.542644],[119.55157,23.542377],[119.55127,23.541667],[119.550769,23.541847],[119.551142,23.541604],[119.550782,23.540698],[119.550518,23.540683],[119.550773,23.540572],[119.550635,23.540127],[119.550287,23.54023],[119.550399,23.540614],[119.550185,23.540262],[119.549779,23.54067],[119.549959,23.541076],[119.550519,23.540886],[119.550571,23.541004],[119.549985,23.541218],[119.550439,23.542194],[119.550682,23.542035],[119.550742,23.542114],[119.550192,23.542459],[119.550157,23.542838],[119.550554,23.543261],[119.55109,23.542896],[119.551209,23.543042],[119.551058,23.543198],[119.551392,23.543822],[119.551314,23.54392],[119.551012,23.543571],[119.550804,23.543788],[119.551105,23.546101],[119.550886,23.547709],[119.551125,23.548137],[119.551861,23.548415],[119.550738,23.549216],[119.549612,23.549642],[119.547943,23.551034],[119.547781,23.551628],[119.547898,23.551982],[119.549148,23.553567],[119.548785,23.553997],[119.548185,23.55415],[119.547773,23.553809],[119.547227,23.552646],[119.546889,23.550857],[119.546601,23.550844],[119.546456,23.550603],[119.546486,23.550156],[119.546315,23.549719],[119.546819,23.549329],[119.546835,23.548902],[119.546414,23.548233],[119.545988,23.547891],[119.545366,23.547835],[119.545329,23.546476],[119.544765,23.546101],[119.544033,23.546061],[119.543974,23.546334],[119.543853,23.546091],[119.543466,23.54625],[119.543532,23.546679],[119.54398,23.546623],[119.54408,23.546449],[119.544151,23.546787],[119.543463,23.546853],[119.543349,23.546284],[119.543051,23.546746],[119.543023,23.54766],[119.542758,23.547801],[119.542876,23.548096],[119.542638,23.548352],[119.542334,23.548245],[119.542204,23.547927],[119.542335,23.547563],[119.542146,23.547501],[119.542118,23.547327],[119.542468,23.547019],[119.541984,23.54686],[119.542075,23.546372],[119.542373,23.546396],[119.542501,23.545493],[119.541993,23.544761],[119.542123,23.544557],[119.541577,23.543358],[119.54141,23.543108],[119.541047,23.543028],[119.541135,23.542477],[119.540551,23.542314],[119.540404,23.541963],[119.540501,23.541924],[119.540578,23.542206],[119.541274,23.542368],[119.54139,23.541894],[119.540945,23.541839],[119.540959,23.541735],[119.54139,23.541799],[119.541457,23.541324],[119.540575,23.541303],[119.540388,23.541502],[119.540813,23.541808],[119.540374,23.5418],[119.540239,23.541487],[119.540465,23.541165],[119.541453,23.541128],[119.541266,23.53877],[119.541979,23.538487],[119.542748,23.537866],[119.543354,23.537767],[119.543911,23.537198],[119.544199,23.537802],[119.544604,23.538151],[119.547565,23.539247],[119.547703,23.539521],[119.547759,23.539359],[119.54795,23.539494],[119.548255,23.539465],[119.549469,23.539005],[119.55021,23.536903],[119.54986,23.535963],[119.549557,23.535659],[119.549271,23.535669],[119.548971,23.535465],[119.548413,23.535521],[119.548276,23.535391],[119.548186,23.534504],[119.548607,23.533473],[119.548993,23.533167],[119.55004,23.53359],[119.552046,23.53309],[119.553411,23.532002],[119.554296,23.530297],[119.554763,23.530412]]],[[[119.541639,23.554241],[119.541243,23.554238],[119.541392,23.554104],[119.541639,23.554241]]],[[[119.542832,23.554896],[119.54296,23.555347],[119.542546,23.554911],[119.541726,23.555126],[119.541385,23.554969],[119.541289,23.554664],[119.541831,23.554504],[119.541847,23.554333],[119.541694,23.553834],[119.541366,23.55384],[119.541573,23.553404],[119.541375,23.552955],[119.541995,23.552797],[119.543211,23.553407],[119.543303,23.554177],[119.542832,23.554896]]]]},"properties":{"code":"10016010032","name":"風櫃里","countyCode":"10016","countyName":"澎湖縣","townCode":"10016010","townName":"馬公市","level":"village","unassigned":false,"note":"","label":[119.54592198034612,23.542488153826103],"bounds":[119.530097,23.530297,119.557263,23.555347],"focusBounds":[119.530097,23.530297,119.557263,23.555347],"color":"#78a7e3"}},{"type":"Feature","id":"10016010033","geometry":{"type":"Polygon","coordinates":[[[119.541151,23.496034],[119.537593,23.498074],[119.536865,23.497769],[119.536182,23.496557],[119.534846,23.495895],[119.533999,23.495878],[119.532786,23.496302],[119.531924,23.496045],[119.529312,23.495842],[119.527839,23.494861],[119.527381,23.494022],[119.526967,23.493755],[119.526756,23.493397],[119.525603,23.492739],[119.524823,23.49297],[119.524034,23.492932],[119.522904,23.492414],[119.521804,23.492445],[119.522051,23.492598],[119.521899,23.492682],[119.520718,23.492216],[119.520492,23.491671],[119.520859,23.491175],[119.520943,23.490694],[119.520622,23.489988],[119.51814,23.487775],[119.517647,23.487678],[119.516583,23.488559],[119.515943,23.488263],[119.516034,23.488141],[119.516462,23.488368],[119.517691,23.487269],[119.517429,23.486701],[119.517133,23.486517],[119.516711,23.486464],[119.516002,23.486934],[119.516755,23.487895],[119.516645,23.487965],[119.515446,23.486491],[119.514138,23.487005],[119.513675,23.488011],[119.51432,23.488081],[119.514341,23.487589],[119.514464,23.487593],[119.51447,23.488257],[119.513843,23.488216],[119.513609,23.48835],[119.513575,23.488705],[119.512631,23.490037],[119.512747,23.49092],[119.51229,23.491289],[119.511861,23.491406],[119.510373,23.491463],[119.509674,23.491018],[119.509503,23.490524],[119.509492,23.489659],[119.509805,23.48848],[119.508936,23.486359],[119.508891,23.485609],[119.50903,23.485058],[119.509716,23.483988],[119.511003,23.483133],[119.511728,23.482995],[119.512596,23.483301],[119.514303,23.483555],[119.515034,23.484666],[119.516593,23.485114],[119.517265,23.485451],[119.518619,23.485667],[119.519971,23.485383],[119.52086,23.485588],[119.521926,23.486052],[119.524664,23.486584],[119.52577,23.486592],[119.526425,23.486434],[119.528569,23.486596],[119.530632,23.487758],[119.536871,23.491945],[119.539341,23.492972],[119.541366,23.493101],[119.542968,23.493414],[119.54366,23.493738],[119.543836,23.494282],[119.543496,23.494965],[119.54192,23.495456],[119.541151,23.496034]]]},"properties":{"code":"10016010033","name":"虎井里","countyCode":"10016","countyName":"澎湖縣","townCode":"10016010","townName":"馬公市","level":"village","unassigned":false,"note":"","label":[119.53007303416396,23.491672296559024],"bounds":[119.508891,23.482995,119.543836,23.498074],"focusBounds":[119.508891,23.482995,119.543836,23.498074],"color":"#dd8590"}},{"type":"Feature","id":"10016010034","geometry":{"type":"Polygon","coordinates":[[[119.520517,23.515047],[119.52025,23.515258],[119.520096,23.515206],[119.520052,23.514951],[119.520349,23.514564],[119.520811,23.514676],[119.520533,23.514241],[119.520324,23.514226],[119.519975,23.513782],[119.519226,23.513663],[119.519238,23.513552],[119.52007,23.513667],[119.520425,23.51414],[119.520862,23.513982],[119.520474,23.512941],[119.51969,23.512221],[119.518631,23.512166],[119.517585,23.512659],[119.518013,23.51333],[119.518538,23.513046],[119.519095,23.513013],[119.519108,23.513185],[119.518551,23.513252],[119.517633,23.513675],[119.517096,23.514729],[119.516052,23.514648],[119.516051,23.514344],[119.516272,23.514282],[119.515946,23.512572],[119.514655,23.510651],[119.514358,23.509959],[119.514462,23.509401],[119.514835,23.509596],[119.515055,23.50941],[119.515034,23.509189],[119.515406,23.509312],[119.516601,23.508888],[119.518216,23.508955],[119.519604,23.508751],[119.52182,23.509692],[119.522044,23.510278],[119.52174,23.512778],[119.521805,23.514338],[119.521561,23.514845],[119.521033,23.515056],[119.520517,23.515047]]]},"properties":{"code":"10016010034","name":"桶盤里","countyCode":"10016","countyName":"澎湖縣","townCode":"10016010","townName":"馬公市","level":"village","unassigned":false,"note":"","label":[119.51727462770441,23.510768849826263],"bounds":[119.514358,23.508751,119.522044,23.515258],"focusBounds":[119.514358,23.508751,119.522044,23.515258],"color":"#a49ad4"}}]}
