{"type":"FeatureCollection","features":[{"type":"Feature","id":"10018010001","geometry":{"type":"Polygon","coordinates":[[[120.969721,24.801966],[120.969425,24.801308],[120.968424,24.80061],[120.968236,24.801567],[120.967217,24.801427],[120.965977,24.801551],[120.967805,24.799132],[120.968839,24.799746],[120.96964,24.800222],[120.969403,24.800405],[120.969871,24.801942],[120.969721,24.801966]]]},"properties":{"code":"10018010001","name":"南門里","countyCode":"10018","countyName":"新竹市","townCode":"10018010","townName":"東區","level":"village","unassigned":false,"note":"","label":[120.96766835753414,24.800578330605443],"bounds":[120.965977,24.799132,120.969871,24.801966],"focusBounds":[120.965977,24.799132,120.969871,24.801966],"color":"#dd8590"}},{"type":"Feature","id":"10018010002","geometry":{"type":"Polygon","coordinates":[[[120.966628,24.798238],[120.965916,24.799269],[120.965357,24.79952],[120.965174,24.799924],[120.965688,24.800612],[120.964842,24.801188],[120.963999,24.800153],[120.962775,24.79936],[120.963632,24.798603],[120.96296,24.798178],[120.96403,24.797554],[120.964518,24.796959],[120.964329,24.796867],[120.964346,24.796831],[120.966628,24.798238]]]},"properties":{"code":"10018010002","name":"福德里","countyCode":"10018","countyName":"新竹市","townCode":"10018010","townName":"東區","level":"village","unassigned":false,"note":"","label":[120.96471266102769,24.79860564163441],"bounds":[120.962775,24.796831,120.966628,24.801188],"focusBounds":[120.962775,24.796831,120.966628,24.801188],"color":"#a49ad4"}},{"type":"Feature","id":"10018010003","geometry":{"type":"Polygon","coordinates":[[[120.965977,24.801551],[120.965177,24.802601],[120.963936,24.801828],[120.964842,24.801188],[120.965688,24.800612],[120.965174,24.799924],[120.965357,24.79952],[120.965916,24.799269],[120.966628,24.798238],[120.967912,24.798985],[120.967805,24.799132],[120.965977,24.801551]]]},"properties":{"code":"10018010003","name":"南市里","countyCode":"10018","countyName":"新竹市","townCode":"10018010","townName":"東區","level":"village","unassigned":false,"note":"","label":[120.96615875774106,24.800023478696865],"bounds":[120.963936,24.798238,120.967912,24.802601],"focusBounds":[120.963936,24.798238,120.967912,24.802601],"color":"#a8bf62"}},{"type":"Feature","id":"10018010004","geometry":{"type":"Polygon","coordinates":[[[120.967535,24.802493],[120.966696,24.803591],[120.965177,24.802601],[120.965977,24.801551],[120.967217,24.801427],[120.968236,24.801567],[120.967535,24.802493]]]},"properties":{"code":"10018010004","name":"關帝里","countyCode":"10018","countyName":"新竹市","townCode":"10018010","townName":"東區","level":"village","unassigned":false,"note":"","label":[120.96649266224433,24.802409458505835],"bounds":[120.965177,24.801427,120.968236,24.803591],"focusBounds":[120.965177,24.801427,120.968236,24.803591],"color":"#68bec9"}},{"type":"Feature","id":"10018010005","geometry":{"type":"Polygon","coordinates":[[[120.969048,24.804181],[120.968214,24.805314],[120.966952,24.804499],[120.966806,24.804096],[120.966696,24.803591],[120.967535,24.802493],[120.969427,24.803671],[120.969048,24.804181]]]},"properties":{"code":"10018010005","name":"東門里","countyCode":"10018","countyName":"新竹市","townCode":"10018010","townName":"東區","level":"village","unassigned":false,"note":"","label":[120.96791667805556,24.803926012745094],"bounds":[120.966696,24.802493,120.969427,24.805314],"focusBounds":[120.966696,24.802493,120.969427,24.805314],"color":"#df9f6a"}},{"type":"Feature","id":"10018010006","geometry":{"type":"Polygon","coordinates":[[[120.970626,24.804447],[120.970215,24.804438],[120.970061,24.804182],[120.970285,24.804029],[120.969721,24.801966],[120.969871,24.801942],[120.969403,24.800405],[120.96964,24.800222],[120.971488,24.801331],[120.97428,24.803103],[120.973615,24.803273],[120.973918,24.803458],[120.973539,24.804133],[120.970773,24.804179],[120.970829,24.804378],[120.970626,24.804447]]]},"properties":{"code":"10018010006","name":"榮光里","countyCode":"10018","countyName":"新竹市","townCode":"10018010","townName":"東區","level":"village","unassigned":false,"note":"","label":[120.9713229468063,24.802812057571547],"bounds":[120.969403,24.800222,120.97428,24.804447],"focusBounds":[120.969403,24.800222,120.97428,24.804447],"color":"#c38cb8"}},{"type":"Feature","id":"10018010007","geometry":{"type":"Polygon","coordinates":[[[120.970061,24.804182],[120.969048,24.804181],[120.969427,24.803671],[120.967535,24.802493],[120.968236,24.801567],[120.968424,24.80061],[120.969425,24.801308],[120.969721,24.801966],[120.970285,24.804029],[120.970061,24.804182]]]},"properties":{"code":"10018010007","name":"成功里","countyCode":"10018","countyName":"新竹市","townCode":"10018010","townName":"東區","level":"village","unassigned":false,"note":"","label":[120.96903184088447,24.802479750679254],"bounds":[120.967535,24.80061,120.970285,24.804182],"focusBounds":[120.967535,24.80061,120.970285,24.804182],"color":"#98b69b"}},{"type":"Feature","id":"10018010008","geometry":{"type":"Polygon","coordinates":[[[120.972822,24.799546],[120.975286,24.799382],[120.974767,24.80016],[120.975442,24.800578],[120.975146,24.800977],[120.975597,24.801276],[120.97428,24.803103],[120.971488,24.801331],[120.972822,24.799546]]]},"properties":{"code":"10018010008","name":"下竹里","countyCode":"10018","countyName":"新竹市","townCode":"10018010","townName":"東區","level":"village","unassigned":false,"note":"","label":[120.97374939535626,24.801125315431104],"bounds":[120.971488,24.799382,120.975597,24.803103],"focusBounds":[120.971488,24.799382,120.975597,24.803103],"color":"#58b99d"}},{"type":"Feature","id":"10018010009","geometry":{"type":"Polygon","coordinates":[[[120.972822,24.799546],[120.971488,24.801331],[120.96964,24.800222],[120.968839,24.799746],[120.970688,24.798225],[120.972822,24.799546]]]},"properties":{"code":"10018010009","name":"竹蓮里","countyCode":"10018","countyName":"新竹市","townCode":"10018010","townName":"東區","level":"village","unassigned":false,"note":"","label":[120.97095944387806,24.79970367118976],"bounds":[120.968839,24.798225,120.972822,24.801331],"focusBounds":[120.968839,24.798225,120.972822,24.801331],"color":"#efb44f"}},{"type":"Feature","id":"10018010010","geometry":{"type":"Polygon","coordinates":[[[120.968839,24.799746],[120.967805,24.799132],[120.967912,24.798985],[120.96917,24.797272],[120.970688,24.798225],[120.968839,24.799746]]]},"properties":{"code":"10018010010","name":"寺前里","countyCode":"10018","countyName":"新竹市","townCode":"10018010","townName":"東區","level":"village","unassigned":false,"note":"","label":[120.96917719946208,24.79850333501659],"bounds":[120.967805,24.797272,120.970688,24.799746],"focusBounds":[120.967805,24.797272,120.970688,24.799746],"color":"#78a7e3"}},{"type":"Feature","id":"10018010011","geometry":{"type":"Polygon","coordinates":[[[120.970626,24.804447],[120.970829,24.804378],[120.970773,24.804179],[120.973539,24.804133],[120.973918,24.803458],[120.973615,24.803273],[120.97428,24.803103],[120.975829,24.804047],[120.975261,24.804223],[120.974789,24.804587],[120.972981,24.806891],[120.971193,24.805737],[120.970972,24.805764],[120.970626,24.804447]]]},"properties":{"code":"10018010011","name":"育賢里","countyCode":"10018","countyName":"新竹市","townCode":"10018010","townName":"東區","level":"village","unassigned":false,"note":"","label":[120.9727252407548,24.80531786922782],"bounds":[120.970626,24.803103,120.975829,24.806891],"focusBounds":[120.970626,24.803103,120.975829,24.806891],"color":"#dd8590"}},{"type":"Feature","id":"10018010012","geometry":{"type":"Polygon","coordinates":[[[120.970972,24.805764],[120.971036,24.806195],[120.970595,24.806869],[120.97022,24.806639],[120.968214,24.805314],[120.969048,24.804181],[120.970061,24.804182],[120.970215,24.804438],[120.970626,24.804447],[120.970972,24.805764]]]},"properties":{"code":"10018010012","name":"中正里","countyCode":"10018","countyName":"新竹市","townCode":"10018010","townName":"東區","level":"village","unassigned":false,"note":"","label":[120.96983750096135,24.805284356064558],"bounds":[120.968214,24.804181,120.971036,24.806869],"focusBounds":[120.968214,24.804181,120.971036,24.806869],"color":"#a49ad4"}},{"type":"Feature","id":"10018010013","geometry":{"type":"Polygon","coordinates":[[[120.975286,24.799382],[120.975678,24.799392],[120.975643,24.799287],[120.976826,24.799143],[120.97712,24.799571],[120.978178,24.79831],[120.978838,24.798719],[120.982566,24.800791],[120.983162,24.802333],[120.980155,24.803312],[120.975829,24.804047],[120.97428,24.803103],[120.975597,24.801276],[120.975146,24.800977],[120.975442,24.800578],[120.974767,24.80016],[120.975286,24.799382]]]},"properties":{"code":"10018010013","name":"公園里","countyCode":"10018","countyName":"新竹市","townCode":"10018010","townName":"東區","level":"village","unassigned":false,"note":"","label":[120.97852126098418,24.80130978787961],"bounds":[120.97428,24.79831,120.983162,24.804047],"focusBounds":[120.97428,24.79831,120.983162,24.804047],"color":"#a8bf62"}},{"type":"Feature","id":"10018010014","geometry":{"type":"Polygon","coordinates":[[[120.975286,24.799382],[120.972822,24.799546],[120.970688,24.798225],[120.97286,24.796504],[120.973592,24.795468],[120.975066,24.796386],[120.975769,24.79547],[120.977382,24.795399],[120.977267,24.795821],[120.977848,24.795817],[120.977848,24.796085],[120.977203,24.79612],[120.976397,24.797192],[120.976754,24.79742],[120.976147,24.797827],[120.97632,24.797994],[120.976298,24.798368],[120.976003,24.798558],[120.975496,24.798528],[120.975643,24.799287],[120.975678,24.799392],[120.975286,24.799382]]]},"properties":{"code":"10018010014","name":"頂竹里","countyCode":"10018","countyName":"新竹市","townCode":"10018010","townName":"東區","level":"village","unassigned":false,"note":"","label":[120.97419286198277,24.797648303448153],"bounds":[120.970688,24.795399,120.977848,24.799546],"focusBounds":[120.970688,24.795399,120.977848,24.799546],"color":"#68bec9"}},{"type":"Feature","id":"10018010015","geometry":{"type":"Polygon","coordinates":[[[120.970688,24.798225],[120.96917,24.797272],[120.970716,24.796219],[120.970532,24.795993],[120.971268,24.795512],[120.971002,24.795187],[120.9719,24.794424],[120.97174,24.794326],[120.972368,24.793871],[120.9728,24.794141],[120.973132,24.79426],[120.974942,24.795321],[120.975917,24.795256],[120.975769,24.79547],[120.975066,24.796386],[120.973592,24.795468],[120.97286,24.796504],[120.970688,24.798225]]]},"properties":{"code":"10018010015","name":"南大里","countyCode":"10018","countyName":"新竹市","townCode":"10018010","townName":"東區","level":"village","unassigned":false,"note":"","label":[120.97227513938405,24.795605689513184],"bounds":[120.96917,24.793871,120.975917,24.798225],"focusBounds":[120.96917,24.793871,120.975917,24.798225],"color":"#df9f6a"}},{"type":"Feature","id":"10018010016","geometry":{"type":"Polygon","coordinates":[[[120.96917,24.797272],[120.967912,24.798985],[120.966628,24.798238],[120.964346,24.796831],[120.964329,24.796867],[120.963729,24.796574],[120.961801,24.796246],[120.960723,24.79627],[120.960716,24.796751],[120.958802,24.796792],[120.95891,24.796199],[120.958929,24.79535],[120.959148,24.794824],[120.961298,24.793334],[120.962391,24.7919],[120.962532,24.792105],[120.962893,24.792222],[120.96282,24.793007],[120.963486,24.79373],[120.96917,24.797272]]]},"properties":{"code":"10018010016","name":"振興里","countyCode":"10018","countyName":"新竹市","townCode":"10018010","townName":"東區","level":"village","unassigned":false,"note":"","label":[120.96227467725971,24.79466083667458],"bounds":[120.958802,24.7919,120.96917,24.798985],"focusBounds":[120.958802,24.7919,120.96917,24.798985],"color":"#c38cb8"}},{"type":"Feature","id":"10018010017","geometry":{"type":"Polygon","coordinates":[[[120.972981,24.806891],[120.972761,24.807186],[120.972233,24.807936],[120.969915,24.810938],[120.969384,24.810615],[120.969415,24.809464],[120.969122,24.808938],[120.969199,24.808649],[120.968844,24.80843],[120.97022,24.806639],[120.970595,24.806869],[120.971036,24.806195],[120.970972,24.805764],[120.971193,24.805737],[120.972981,24.806891]]]},"properties":{"code":"10018010017","name":"親仁里","countyCode":"10018","countyName":"新竹市","townCode":"10018010","townName":"東區","level":"village","unassigned":false,"note":"","label":[120.97059225463751,24.808087833059474],"bounds":[120.968844,24.805737,120.972981,24.810938],"focusBounds":[120.968844,24.805737,120.972981,24.810938],"color":"#98b69b"}},{"type":"Feature","id":"10018010018","geometry":{"type":"Polygon","coordinates":[[[120.979133,24.815743],[120.977217,24.816212],[120.975737,24.815961],[120.974195,24.815198],[120.973863,24.815105],[120.972251,24.815664],[120.970912,24.815792],[120.970881,24.81619],[120.970118,24.81587],[120.970351,24.814723],[120.969455,24.814112],[120.969341,24.814179],[120.968255,24.812941],[120.969915,24.810938],[120.97432,24.813649],[120.974257,24.814274],[120.975067,24.814333],[120.975448,24.813608],[120.97586,24.81308],[120.976227,24.81331],[120.976161,24.813483],[120.976379,24.813607],[120.975768,24.814385],[120.978475,24.814559],[120.978472,24.815167],[120.978963,24.815429],[120.979133,24.815743]]]},"properties":{"code":"10018010018","name":"文華里","countyCode":"10018","countyName":"新竹市","townCode":"10018010","townName":"東區","level":"village","unassigned":false,"note":"","label":[120.97188535035005,24.814171927151058],"bounds":[120.968255,24.810938,120.979133,24.816212],"focusBounds":[120.968255,24.810938,120.979133,24.816212],"color":"#58b99d"}},{"type":"Feature","id":"10018010019","geometry":{"type":"Polygon","coordinates":[[[120.976227,24.81331],[120.97586,24.81308],[120.975448,24.813608],[120.975036,24.813383],[120.97521,24.813158],[120.974579,24.81287],[120.974687,24.812484],[120.974246,24.81204],[120.974026,24.812175],[120.972536,24.811337],[120.973079,24.810637],[120.972826,24.810492],[120.973098,24.809979],[120.972432,24.809556],[120.973261,24.808464],[120.972233,24.807936],[120.972761,24.807186],[120.974292,24.808074],[120.977706,24.8093],[120.978841,24.810011],[120.978604,24.810316],[120.978839,24.810468],[120.977646,24.811996],[120.9767,24.812573],[120.976227,24.81331]]]},"properties":{"code":"10018010019","name":"復中里","countyCode":"10018","countyName":"新竹市","townCode":"10018010","townName":"東區","level":"village","unassigned":false,"note":"","label":[120.97535022224385,24.810403574088706],"bounds":[120.972233,24.807186,120.978841,24.813608],"focusBounds":[120.972233,24.807186,120.978841,24.813608],"color":"#78a7e3"}},{"type":"Feature","id":"10018010020","geometry":{"type":"Polygon","coordinates":[[[120.981686,24.811968],[120.981351,24.812384],[120.97937,24.811144],[120.979768,24.810594],[120.978841,24.810011],[120.977706,24.8093],[120.974292,24.808074],[120.972761,24.807186],[120.972981,24.806891],[120.974789,24.804587],[120.975261,24.804223],[120.975829,24.804047],[120.980776,24.807057],[120.980376,24.807556],[120.983563,24.809567],[120.981686,24.811968]]]},"properties":{"code":"10018010020","name":"三民里","countyCode":"10018","countyName":"新竹市","townCode":"10018010","townName":"東區","level":"village","unassigned":false,"note":"","label":[120.97828169387031,24.807599962080275],"bounds":[120.972761,24.804047,120.983563,24.812384],"focusBounds":[120.972761,24.804047,120.983563,24.812384],"color":"#a49ad4"}},{"type":"Feature","id":"10018010021","geometry":{"type":"Polygon","coordinates":[[[120.985482,24.813213],[120.985191,24.812948],[120.984778,24.813325],[120.984049,24.812677],[120.983722,24.812774],[120.981686,24.811968],[120.983563,24.809567],[120.980376,24.807556],[120.980776,24.807057],[120.975829,24.804047],[120.980155,24.803312],[120.983162,24.802333],[120.985026,24.801728],[120.985802,24.803112],[120.983706,24.803739],[120.982652,24.805132],[120.98406,24.806021],[120.983556,24.806709],[120.985072,24.807615],[120.984494,24.808362],[120.986335,24.808565],[120.986195,24.809475],[120.987029,24.809938],[120.986319,24.810908],[120.987409,24.811312],[120.989163,24.812538],[120.989063,24.812662],[120.987092,24.812434],[120.985912,24.812587],[120.985482,24.813213]]]},"properties":{"code":"10018010021","name":"東園里","countyCode":"10018","countyName":"新竹市","townCode":"10018010","townName":"東區","level":"village","unassigned":false,"note":"","label":[120.98073877722764,24.80507802600338],"bounds":[120.975829,24.801728,120.989163,24.813325],"focusBounds":[120.975829,24.801728,120.989163,24.813325],"color":"#dd8590"}},{"type":"Feature","id":"10018010022","geometry":{"type":"Polygon","coordinates":[[[120.986335,24.808565],[120.984494,24.808362],[120.985072,24.807615],[120.983556,24.806709],[120.98406,24.806021],[120.982652,24.805132],[120.983706,24.803739],[120.985802,24.803112],[120.986985,24.802717],[120.986996,24.802548],[120.988366,24.802117],[120.98819,24.802415],[120.987796,24.802618],[120.987868,24.803992],[120.988294,24.80571],[120.988553,24.807997],[120.9882,24.808441],[120.987389,24.808669],[120.986335,24.808565]]]},"properties":{"code":"10018010022","name":"東勢里","countyCode":"10018","countyName":"新竹市","townCode":"10018010","townName":"東區","level":"village","unassigned":false,"note":"","label":[120.9861263464593,24.80560426533465],"bounds":[120.982652,24.802117,120.988553,24.808669],"focusBounds":[120.982652,24.802117,120.988553,24.808669],"color":"#a49ad4"}},{"type":"Feature","id":"10018010023","geometry":{"type":"Polygon","coordinates":[[[120.988366,24.802117],[120.988582,24.802009],[120.987922,24.800776],[120.990949,24.799774],[120.992069,24.801555],[120.993065,24.803222],[120.994256,24.805264],[120.99522,24.806042],[120.996366,24.805972],[120.996661,24.806259],[120.993959,24.807764],[120.992801,24.808888],[120.992496,24.80962],[120.990701,24.809387],[120.9882,24.808441],[120.988553,24.807997],[120.988294,24.80571],[120.987868,24.803992],[120.987796,24.802618],[120.98819,24.802415],[120.988366,24.802117]]]},"properties":{"code":"10018010023","name":"光復里","countyCode":"10018","countyName":"新竹市","townCode":"10018010","townName":"東區","level":"village","unassigned":false,"note":"","label":[120.99101681107933,24.805259582266963],"bounds":[120.987796,24.799774,120.996661,24.80962],"focusBounds":[120.987796,24.799774,120.996661,24.80962],"color":"#a8bf62"}},{"type":"Feature","id":"10018010024","geometry":{"type":"MultiPolygon","coordinates":[[[[120.994092,24.799772],[120.994437,24.800379],[120.992069,24.801555],[120.990949,24.799774],[120.993606,24.798914],[120.994092,24.799772]]],[[[120.996661,24.806259],[120.996366,24.805972],[120.99522,24.806042],[120.994256,24.805264],[120.993065,24.803222],[120.995339,24.802087],[120.995156,24.801555],[120.995554,24.801334],[120.995839,24.801846],[120.996949,24.801313],[120.997226,24.800394],[121.001442,24.801302],[121.00182,24.801118],[121.002221,24.800955],[121.003148,24.801336],[121.003621,24.801223],[121.004242,24.801371],[121.005036,24.800762],[121.005408,24.800702],[121.005408,24.80138],[121.004656,24.801632],[121.002115,24.804763],[121.000439,24.804681],[120.998169,24.804927],[120.996661,24.806259]]]]},"properties":{"code":"10018010024","name":"豐功里","countyCode":"10018","countyName":"新竹市","townCode":"10018010","townName":"東區","level":"village","unassigned":false,"note":"","label":[120.99856700618811,24.80278337121859],"bounds":[120.990949,24.798914,121.005408,24.806259],"focusBounds":[120.990949,24.798914,121.005408,24.806259],"color":"#68bec9"}},{"type":"Feature","id":"10018010025","geometry":{"type":"Polygon","coordinates":[[[120.994092,24.799772],[120.997226,24.800394],[120.996949,24.801313],[120.995839,24.801846],[120.995554,24.801334],[120.995156,24.801555],[120.995339,24.802087],[120.993065,24.803222],[120.992069,24.801555],[120.994437,24.800379],[120.994092,24.799772]]]},"properties":{"code":"10018010025","name":"武功里","countyCode":"10018","countyName":"新竹市","townCode":"10018010","townName":"東區","level":"village","unassigned":false,"note":"","label":[120.99416804713897,24.80159199064761],"bounds":[120.992069,24.799772,120.997226,24.803222],"focusBounds":[120.992069,24.799772,120.997226,24.803222],"color":"#df9f6a"}},{"type":"Feature","id":"10018010026","geometry":{"type":"Polygon","coordinates":[[[120.988366,24.802117],[120.986996,24.802548],[120.986985,24.802717],[120.985802,24.803112],[120.985026,24.801728],[120.983162,24.802333],[120.982566,24.800791],[120.978838,24.798719],[120.980007,24.797274],[120.980132,24.79736],[120.980397,24.797182],[120.980554,24.797247],[120.98062,24.796672],[120.981031,24.796748],[120.981226,24.796069],[120.982168,24.796297],[120.982248,24.796058],[120.982487,24.796095],[120.982659,24.795868],[120.983031,24.794218],[120.983112,24.793859],[120.984357,24.794625],[120.987094,24.795246],[120.988146,24.796505],[120.989618,24.796812],[120.989651,24.797616],[120.990949,24.799774],[120.987922,24.800776],[120.988582,24.802009],[120.988366,24.802117]]]},"properties":{"code":"10018010026","name":"綠水里","countyCode":"10018","countyName":"新竹市","townCode":"10018010","townName":"東區","level":"village","unassigned":false,"note":"","label":[120.98509020282663,24.798317082152664],"bounds":[120.978838,24.793859,120.990949,24.803112],"focusBounds":[120.978838,24.793859,120.990949,24.803112],"color":"#c38cb8"}},{"type":"Feature","id":"10018010027","geometry":{"type":"Polygon","coordinates":[[[120.975643,24.799287],[120.975496,24.798528],[120.976003,24.798558],[120.976298,24.798368],[120.97632,24.797994],[120.976147,24.797827],[120.976754,24.79742],[120.976397,24.797192],[120.977203,24.79612],[120.977848,24.796085],[120.977848,24.795817],[120.977267,24.795821],[120.977382,24.795399],[120.978063,24.795345],[120.978199,24.795146],[120.978046,24.794553],[120.978882,24.794837],[120.979158,24.794282],[120.980816,24.795121],[120.980712,24.795429],[120.982487,24.796095],[120.982248,24.796058],[120.982168,24.796297],[120.981226,24.796069],[120.981031,24.796748],[120.98062,24.796672],[120.980554,24.797247],[120.980397,24.797182],[120.980132,24.79736],[120.980007,24.797274],[120.978838,24.798719],[120.978178,24.79831],[120.97712,24.799571],[120.976826,24.799143],[120.975643,24.799287]]]},"properties":{"code":"10018010027","name":"東山里","countyCode":"10018","countyName":"新竹市","townCode":"10018010","townName":"東區","level":"village","unassigned":false,"note":"","label":[120.97883432522009,24.796768240186097],"bounds":[120.975496,24.794282,120.982487,24.799571],"focusBounds":[120.975496,24.794282,120.982487,24.799571],"color":"#58b99d"}},{"type":"Feature","id":"10018010028","geometry":{"type":"Polygon","coordinates":[[[120.967719,24.786363],[120.967679,24.786833],[120.96808,24.788278],[120.968028,24.788522],[120.967785,24.788449],[120.967698,24.788605],[120.967832,24.788762],[120.967617,24.789378],[120.967218,24.789287],[120.967411,24.791476],[120.965876,24.791317],[120.96615,24.792241],[120.965748,24.792109],[120.964671,24.79215],[120.963843,24.791689],[120.964038,24.79149],[120.963747,24.790897],[120.964317,24.790405],[120.964385,24.789765],[120.963936,24.789363],[120.963568,24.789366],[120.963168,24.789339],[120.963045,24.789129],[120.963245,24.787802],[120.963602,24.78674],[120.964069,24.786706],[120.964812,24.787085],[120.965718,24.78707],[120.966504,24.78697],[120.967719,24.786363]]]},"properties":{"code":"10018010028","name":"光鎮里","countyCode":"10018","countyName":"新竹市","townCode":"10018010","townName":"東區","level":"village","unassigned":false,"note":"","label":[120.96562852775656,24.788729701821076],"bounds":[120.963045,24.786363,120.96808,24.792241],"focusBounds":[120.963045,24.786363,120.96808,24.792241],"color":"#78a7e3"}},{"type":"Feature","id":"10018010029","geometry":{"type":"Polygon","coordinates":[[[120.97174,24.794326],[120.9719,24.794424],[120.971002,24.795187],[120.971268,24.795512],[120.970532,24.795993],[120.970716,24.796219],[120.96917,24.797272],[120.963486,24.79373],[120.96282,24.793007],[120.962893,24.792222],[120.963843,24.791689],[120.964671,24.79215],[120.965748,24.792109],[120.96615,24.792241],[120.966948,24.793025],[120.967323,24.793212],[120.967305,24.793681],[120.967457,24.79369],[120.967449,24.793909],[120.967808,24.794383],[120.96836,24.794333],[120.968387,24.793755],[120.970813,24.79395],[120.97174,24.794326]]]},"properties":{"code":"10018010029","name":"新興里","countyCode":"10018","countyName":"新竹市","townCode":"10018010","townName":"東區","level":"village","unassigned":false,"note":"","label":[120.96915633115026,24.795540333620607],"bounds":[120.96282,24.791689,120.9719,24.797272],"focusBounds":[120.96282,24.791689,120.9719,24.797272],"color":"#efb44f"}},{"type":"Feature","id":"10018010030","geometry":{"type":"Polygon","coordinates":[[[120.96977,24.776849],[120.970013,24.777048],[120.970223,24.777597],[120.969907,24.777913],[120.968321,24.778226],[120.967184,24.778217],[120.967246,24.777689],[120.966388,24.777644],[120.966276,24.777421],[120.965746,24.777323],[120.965725,24.777017],[120.96549,24.776761],[120.964647,24.776479],[120.963999,24.776808],[120.962815,24.776888],[120.962771,24.777171],[120.961188,24.777282],[120.960409,24.776209],[120.960535,24.774475],[120.960441,24.774073],[120.960859,24.77309],[120.960697,24.77156],[120.961106,24.768856],[120.960647,24.76774],[120.960724,24.767391],[120.961004,24.767077],[120.961387,24.76703],[120.961986,24.767112],[120.963273,24.767904],[120.963261,24.767182],[120.96349,24.766553],[120.963452,24.766041],[120.963688,24.765097],[120.963123,24.764045],[120.962443,24.763663],[120.962349,24.763242],[120.961637,24.762688],[120.961501,24.762296],[120.961606,24.76158],[120.961083,24.760844],[120.959852,24.760504],[120.959601,24.760285],[120.958113,24.75714],[120.958044,24.756285],[120.959345,24.755807],[120.959528,24.7555],[120.959573,24.755157],[120.959013,24.753514],[120.95939,24.752665],[120.960783,24.750882],[120.960956,24.751163],[120.961506,24.751272],[120.961887,24.752814],[120.962853,24.754342],[120.962681,24.754765],[120.96288,24.755063],[120.963566,24.755544],[120.964415,24.755209],[120.965327,24.756201],[120.96573,24.756152],[120.966326,24.75577],[120.967412,24.756463],[120.967694,24.7575],[120.967227,24.758165],[120.967461,24.758534],[120.967549,24.760595],[120.968108,24.761082],[120.968652,24.762222],[120.969017,24.763777],[120.96941,24.764272],[120.969729,24.765045],[120.970751,24.765572],[120.970481,24.76663],[120.969489,24.768275],[120.968707,24.770112],[120.968615,24.77145],[120.967519,24.772213],[120.966897,24.772238],[120.966223,24.772788],[120.967015,24.774696],[120.967756,24.774527],[120.968725,24.77466],[120.969126,24.775062],[120.969507,24.776204],[120.969203,24.77628],[120.96977,24.776849]]]},"properties":{"code":"10018010030","name":"柴橋里","countyCode":"10018","countyName":"新竹市","townCode":"10018010","townName":"東區","level":"village","unassigned":false,"note":"","label":[120.96664177882178,24.766230564734485],"bounds":[120.958044,24.750882,120.970751,24.778226],"focusBounds":[120.958044,24.750882,120.970751,24.778226],"color":"#78a7e3"}},{"type":"Feature","id":"10018010031","geometry":{"type":"Polygon","coordinates":[[[120.973132,24.79426],[120.9728,24.794141],[120.973712,24.79219],[120.974186,24.790355],[120.974887,24.789299],[120.974907,24.788782],[120.975616,24.787398],[120.975227,24.787344],[120.974936,24.788091],[120.973712,24.787981],[120.970079,24.785628],[120.970848,24.784531],[120.971931,24.782509],[120.972091,24.779405],[120.97178,24.778058],[120.96977,24.776849],[120.969203,24.77628],[120.969507,24.776204],[120.972357,24.776038],[120.972777,24.776363],[120.973209,24.775995],[120.9742,24.776347],[120.974334,24.77621],[120.974113,24.775688],[120.974473,24.775485],[120.975149,24.775481],[120.976096,24.775792],[120.976433,24.775684],[120.976437,24.774779],[120.976556,24.774677],[120.976869,24.775059],[120.977083,24.775714],[120.977048,24.776059],[120.976708,24.776359],[120.976778,24.776578],[120.977859,24.777221],[120.978241,24.773917],[120.977826,24.770321],[120.978279,24.770121],[120.978981,24.770175],[120.979651,24.769159],[120.980324,24.767674],[120.980998,24.767234],[120.981218,24.766891],[120.981703,24.767105],[120.982171,24.767515],[120.983218,24.767409],[120.984041,24.768017],[120.984471,24.768147],[120.985165,24.768122],[120.986845,24.768422],[120.987777,24.768147],[120.98838,24.768066],[120.988363,24.768335],[120.987471,24.769373],[120.986998,24.77026],[120.986871,24.771236],[120.986542,24.771634],[120.986387,24.772252],[120.9864,24.773535],[120.986077,24.773818],[120.985429,24.775026],[120.984759,24.775897],[120.985567,24.776085],[120.98584,24.776907],[120.986613,24.777071],[120.985783,24.777763],[120.988007,24.779688],[120.989168,24.781702],[120.989383,24.781796],[120.989383,24.782098],[120.988233,24.782109],[120.988145,24.781942],[120.985429,24.783055],[120.984962,24.7834],[120.983771,24.784811],[120.977081,24.789096],[120.977297,24.789656],[120.977274,24.79006],[120.977075,24.790317],[120.976785,24.790412],[120.976419,24.790667],[120.975422,24.792247],[120.973132,24.79426]]]},"properties":{"code":"10018010031","name":"高峰里","countyCode":"10018","countyName":"新竹市","townCode":"10018010","townName":"東區","level":"village","unassigned":false,"note":"","label":[120.98133623261532,24.7803257776419],"bounds":[120.969203,24.766891,120.989383,24.79426],"focusBounds":[120.969203,24.766891,120.989383,24.79426],"color":"#dd8590"}},{"type":"Feature","id":"10018010032","geometry":{"type":"Polygon","coordinates":[[[120.993118,24.784374],[120.992902,24.785751],[120.992274,24.786772],[120.990547,24.787624],[120.989795,24.788364],[120.98751,24.78942],[120.985841,24.789734],[120.982849,24.789844],[120.980496,24.789069],[120.980517,24.78953],[120.978589,24.790017],[120.978277,24.78969],[120.977075,24.790317],[120.977274,24.79006],[120.977297,24.789656],[120.977081,24.789096],[120.983771,24.784811],[120.984962,24.7834],[120.985429,24.783055],[120.988145,24.781942],[120.988233,24.782109],[120.989383,24.782098],[120.989383,24.781796],[120.991874,24.781746],[120.99174,24.784899],[120.992569,24.784836],[120.993118,24.784374]]]},"properties":{"code":"10018010032","name":"仙宮里","countyCode":"10018","countyName":"新竹市","townCode":"10018010","townName":"東區","level":"village","unassigned":false,"note":"","label":[120.98701480763944,24.7859591494221],"bounds":[120.977075,24.781746,120.993118,24.790317],"focusBounds":[120.977075,24.781746,120.993118,24.790317],"color":"#a49ad4"}},{"type":"Feature","id":"10018010033","geometry":{"type":"Polygon","coordinates":[[[120.993606,24.798914],[120.990949,24.799774],[120.989651,24.797616],[120.989618,24.796812],[120.988146,24.796505],[120.987094,24.795246],[120.984357,24.794625],[120.983112,24.793859],[120.983031,24.794218],[120.981595,24.793033],[120.979766,24.792746],[120.978046,24.791906],[120.977292,24.791895],[120.976809,24.791579],[120.976785,24.790412],[120.977075,24.790317],[120.978277,24.78969],[120.978589,24.790017],[120.980517,24.78953],[120.980496,24.789069],[120.982849,24.789844],[120.985841,24.789734],[120.98751,24.78942],[120.989795,24.788364],[120.990547,24.787624],[120.992274,24.786772],[120.992902,24.785751],[120.993118,24.784374],[120.993793,24.783821],[120.995881,24.783739],[120.997047,24.783028],[120.998619,24.782591],[120.998762,24.783103],[120.999261,24.783487],[121.000451,24.783507],[121.000111,24.785868],[121.001072,24.787683],[121.001629,24.787747],[121.002607,24.787119],[121.00347,24.787151],[121.00377,24.787377],[121.003981,24.787836],[121.003646,24.788214],[121.003761,24.788358],[121.004739,24.788206],[121.005645,24.790245],[121.005532,24.790324],[120.999786,24.794395],[120.997943,24.795991],[120.996391,24.797197],[120.993606,24.798914]]]},"properties":{"code":"10018010033","name":"光明里","countyCode":"10018","countyName":"新竹市","townCode":"10018010","townName":"東區","level":"village","unassigned":false,"note":"","label":[120.9940465628669,24.791879839149363],"bounds":[120.976785,24.782591,121.005645,24.799774],"focusBounds":[120.976785,24.782591,121.005645,24.799774],"color":"#a8bf62"}},{"type":"Feature","id":"10018010035","geometry":{"type":"Polygon","coordinates":[[[121.002221,24.800955],[121.00182,24.801118],[121.001666,24.800434],[121.000981,24.800047],[121.000366,24.799282],[121.000982,24.79847],[120.999885,24.797413],[120.999752,24.797176],[120.999801,24.796772],[120.998379,24.796458],[120.997943,24.795991],[120.999786,24.794395],[121.005532,24.790324],[121.006698,24.793176],[121.00743,24.795032],[121.005521,24.795535],[121.005315,24.79487],[121.005215,24.793178],[121.005087,24.793126],[121.004552,24.79353],[121.00336,24.792684],[121.003082,24.792788],[121.002126,24.794032],[121.002012,24.795657],[120.999873,24.795702],[120.999316,24.795151],[120.998329,24.796002],[120.999038,24.796501],[120.999997,24.796708],[121.000246,24.796099],[121.00196,24.795881],[121.002279,24.796218],[121.003055,24.797329],[121.002834,24.797676],[121.003715,24.800196],[121.002221,24.800955]]]},"properties":{"code":"10018010035","name":"立功里","countyCode":"10018","countyName":"新竹市","townCode":"10018010","townName":"東區","level":"village","unassigned":false,"note":"","label":[121.00197482959243,24.79912240418267],"bounds":[120.997943,24.790324,121.00743,24.801118],"focusBounds":[120.997943,24.790324,121.00743,24.801118],"color":"#df9f6a"}},{"type":"Feature","id":"10018010036","geometry":{"type":"Polygon","coordinates":[[[120.997226,24.800394],[120.994092,24.799772],[120.993606,24.798914],[120.996391,24.797197],[120.997943,24.795991],[120.998379,24.796458],[120.999801,24.796772],[120.999752,24.797176],[120.999885,24.797413],[121.000982,24.79847],[121.000366,24.799282],[121.000981,24.800047],[121.001666,24.800434],[121.00182,24.801118],[121.001442,24.801302],[120.997226,24.800394]]]},"properties":{"code":"10018010036","name":"軍功里","countyCode":"10018","countyName":"新竹市","townCode":"10018010","townName":"東區","level":"village","unassigned":false,"note":"","label":[120.9980000890269,24.79849326576566],"bounds":[120.993606,24.795991,121.00182,24.801302],"focusBounds":[120.993606,24.795991,121.00182,24.801302],"color":"#c38cb8"}},{"type":"Feature","id":"10018010037","geometry":{"type":"Polygon","coordinates":[[[121.005036,24.800762],[121.004242,24.801371],[121.003621,24.801223],[121.003148,24.801336],[121.002221,24.800955],[121.003715,24.800196],[121.002834,24.797676],[121.003055,24.797329],[121.002279,24.796218],[121.00196,24.795881],[121.000246,24.796099],[120.999997,24.796708],[120.999038,24.796501],[120.998329,24.796002],[120.999316,24.795151],[120.999873,24.795702],[121.002012,24.795657],[121.002126,24.794032],[121.003082,24.792788],[121.00336,24.792684],[121.004552,24.79353],[121.005087,24.793126],[121.005215,24.793178],[121.005315,24.79487],[121.005521,24.795535],[121.005386,24.796693],[121.005171,24.797237],[121.0051,24.798413],[121.005324,24.799004],[121.00503,24.799718],[121.005243,24.799763],[121.005036,24.800762]]]},"properties":{"code":"10018010037","name":"建功里","countyCode":"10018","countyName":"新竹市","townCode":"10018010","townName":"東區","level":"village","unassigned":false,"note":"","label":[121.00385236368675,24.79568471838118],"bounds":[120.998329,24.792684,121.005521,24.801371],"focusBounds":[120.998329,24.792684,121.005521,24.801371],"color":"#c38cb8"}},{"type":"Feature","id":"10018010038","geometry":{"type":"Polygon","coordinates":[[[120.991046,24.824018],[120.99033,24.823988],[120.989377,24.823447],[120.98774,24.822841],[120.986754,24.822188],[120.978849,24.824296],[120.978569,24.823766],[120.978654,24.822847],[120.978464,24.822334],[120.978765,24.821377],[120.979052,24.821091],[120.979052,24.820502],[120.979534,24.819313],[120.980045,24.81891],[120.980045,24.818553],[120.980333,24.818198],[120.98056,24.817668],[120.980969,24.817428],[120.981037,24.816844],[120.981248,24.816652],[120.981694,24.815557],[120.982778,24.814869],[120.98432,24.8144],[120.984888,24.813998],[120.98535,24.813993],[120.985482,24.813213],[120.985912,24.812587],[120.987092,24.812434],[120.989063,24.812662],[120.989163,24.812538],[120.987409,24.811312],[120.986319,24.810908],[120.987029,24.809938],[120.986195,24.809475],[120.986335,24.808565],[120.987389,24.808669],[120.9882,24.808441],[120.990701,24.809387],[120.992496,24.80962],[120.992859,24.8097],[120.991909,24.810549],[120.991754,24.812262],[120.990873,24.813728],[120.992964,24.815265],[120.995208,24.818554],[120.996628,24.823057],[120.995645,24.82335],[120.992597,24.823482],[120.991046,24.824018]]]},"properties":{"code":"10018010038","name":"前溪里","countyCode":"10018","countyName":"新竹市","townCode":"10018010","townName":"東區","level":"village","unassigned":false,"note":"","label":[120.98838378044569,24.81778914168632],"bounds":[120.978464,24.808441,120.996628,24.824296],"focusBounds":[120.978464,24.808441,120.996628,24.824296],"color":"#98b69b"}},{"type":"Feature","id":"10018010039","geometry":{"type":"Polygon","coordinates":[[[120.998999,24.82245],[120.996628,24.823057],[120.995208,24.818554],[120.992964,24.815265],[120.990873,24.813728],[120.991754,24.812262],[120.991909,24.810549],[120.992859,24.8097],[120.992496,24.80962],[120.992801,24.808888],[120.993959,24.807764],[120.996661,24.806259],[120.998169,24.804927],[121.000439,24.804681],[121.002115,24.804763],[121.005952,24.806677],[121.006177,24.807726],[121.005397,24.808426],[121.006686,24.809906],[121.008929,24.808191],[121.009534,24.809236],[121.010455,24.808791],[121.011437,24.812575],[121.008278,24.816214],[121.007064,24.816882],[121.004571,24.819159],[121.002268,24.820169],[121.001322,24.82134],[121.000618,24.821903],[120.998999,24.82245]]]},"properties":{"code":"10018010039","name":"水源里","countyCode":"10018","countyName":"新竹市","townCode":"10018010","townName":"東區","level":"village","unassigned":false,"note":"","label":[121.00053851946565,24.813307790003826],"bounds":[120.990873,24.804681,121.011437,24.823057],"focusBounds":[120.990873,24.804681,121.011437,24.823057],"color":"#58b99d"}},{"type":"Feature","id":"10018010040","geometry":{"type":"Polygon","coordinates":[[[121.011437,24.812575],[121.010455,24.808791],[121.009534,24.809236],[121.008929,24.808191],[121.006686,24.809906],[121.005397,24.808426],[121.006177,24.807726],[121.005952,24.806677],[121.002115,24.804763],[121.004656,24.801632],[121.005408,24.80138],[121.005408,24.800702],[121.007757,24.800379],[121.012169,24.799011],[121.012401,24.798977],[121.012367,24.799124],[121.013291,24.798803],[121.015069,24.798943],[121.015042,24.798636],[121.016609,24.797954],[121.017095,24.798617],[121.016743,24.799127],[121.0197,24.802694],[121.02128,24.801698],[121.021189,24.802043],[121.020682,24.803218],[121.019647,24.804378],[121.018743,24.805987],[121.018416,24.806898],[121.018159,24.807348],[121.017604,24.807736],[121.015135,24.808562],[121.011437,24.812575]]]},"properties":{"code":"10018010040","name":"千甲里","countyCode":"10018","countyName":"新竹市","townCode":"10018010","townName":"東區","level":"village","unassigned":false,"note":"","label":[121.01263116398891,24.804284414776287],"bounds":[121.002115,24.797954,121.02128,24.812575],"focusBounds":[121.002115,24.797954,121.02128,24.812575],"color":"#efb44f"}},{"type":"Feature","id":"10018010041","geometry":{"type":"Polygon","coordinates":[[[121.006698,24.793176],[121.007325,24.792572],[121.007472,24.792813],[121.008287,24.79224],[121.008467,24.792578],[121.011799,24.790579],[121.013677,24.789886],[121.015597,24.793177],[121.017212,24.792052],[121.018038,24.791],[121.018413,24.791614],[121.019007,24.791469],[121.019513,24.791622],[121.019488,24.791846],[121.018903,24.791909],[121.018586,24.792541],[121.01796,24.792842],[121.018448,24.793157],[121.018898,24.792749],[121.019316,24.792665],[121.019464,24.792857],[121.019465,24.793546],[121.018995,24.79427],[121.018438,24.794324],[121.018254,24.794557],[121.017274,24.794981],[121.017262,24.795164],[121.017993,24.795331],[121.018042,24.795629],[121.017698,24.795995],[121.016937,24.796178],[121.016561,24.797162],[121.016199,24.797643],[121.016609,24.797954],[121.015042,24.798636],[121.015069,24.798943],[121.013291,24.798803],[121.012367,24.799124],[121.012401,24.798977],[121.012169,24.799011],[121.007757,24.800379],[121.005408,24.800702],[121.005036,24.800762],[121.005243,24.799763],[121.00503,24.799718],[121.005324,24.799004],[121.0051,24.798413],[121.005171,24.797237],[121.005386,24.796693],[121.005521,24.795535],[121.00743,24.795032],[121.006698,24.793176]]]},"properties":{"code":"10018010041","name":"埔頂里","countyCode":"10018","countyName":"新竹市","townCode":"10018010","townName":"東區","level":"village","unassigned":false,"note":"","label":[121.01176753423135,24.795195769394383],"bounds":[121.00503,24.789886,121.019513,24.800762],"focusBounds":[121.00503,24.789886,121.019513,24.800762],"color":"#78a7e3"}},{"type":"Feature","id":"10018010042","geometry":{"type":"Polygon","coordinates":[[[121.018038,24.791],[121.017212,24.792052],[121.015597,24.793177],[121.013677,24.789886],[121.011799,24.790579],[121.008467,24.792578],[121.008287,24.79224],[121.007472,24.792813],[121.007325,24.792572],[121.006698,24.793176],[121.005532,24.790324],[121.005645,24.790245],[121.012794,24.785127],[121.013644,24.784822],[121.01358,24.785073],[121.013136,24.785231],[121.013063,24.785486],[121.013401,24.785858],[121.014237,24.786061],[121.014911,24.786766],[121.014564,24.787729],[121.01495,24.787966],[121.015894,24.788036],[121.016171,24.788549],[121.017679,24.789266],[121.017594,24.790336],[121.018038,24.791]]]},"properties":{"code":"10018010042","name":"龍山里","countyCode":"10018","countyName":"新竹市","townCode":"10018010","townName":"東區","level":"village","unassigned":false,"note":"","label":[121.01148706759147,24.788698551678948],"bounds":[121.005532,24.784822,121.018038,24.793177],"focusBounds":[121.005532,24.784822,121.018038,24.793177],"color":"#dd8590"}},{"type":"Feature","id":"10018010043","geometry":{"type":"Polygon","coordinates":[[[121.02128,24.801698],[121.0197,24.802694],[121.016743,24.799127],[121.017095,24.798617],[121.016609,24.797954],[121.016199,24.797643],[121.016561,24.797162],[121.016937,24.796178],[121.017698,24.795995],[121.018042,24.795629],[121.017993,24.795331],[121.017262,24.795164],[121.017274,24.794981],[121.018254,24.794557],[121.018438,24.794324],[121.018995,24.79427],[121.019465,24.793546],[121.019464,24.792857],[121.019316,24.792665],[121.018898,24.792749],[121.018448,24.793157],[121.01796,24.792842],[121.018586,24.792541],[121.018903,24.791909],[121.019488,24.791846],[121.019513,24.791622],[121.019007,24.791469],[121.018413,24.791614],[121.018038,24.791],[121.017594,24.790336],[121.017679,24.789266],[121.016171,24.788549],[121.015894,24.788036],[121.01495,24.787966],[121.014564,24.787729],[121.014911,24.786766],[121.014237,24.786061],[121.013401,24.785858],[121.013063,24.785486],[121.013136,24.785231],[121.01358,24.785073],[121.013644,24.784822],[121.015645,24.784097],[121.016694,24.785734],[121.016347,24.785951],[121.016583,24.786341],[121.017625,24.785918],[121.019525,24.788843],[121.019792,24.789715],[121.020348,24.78915],[121.020785,24.78726],[121.02166,24.785719],[121.022702,24.78588],[121.022987,24.785292],[121.023328,24.785669],[121.024815,24.786039],[121.025089,24.786242],[121.025054,24.786478],[121.024522,24.787019],[121.024356,24.787403],[121.024492,24.788562],[121.024519,24.789258],[121.02335,24.79064],[121.022823,24.790712],[121.022145,24.790419],[121.021809,24.790446],[121.021938,24.7909],[121.020629,24.794255],[121.02141,24.795056],[121.022689,24.79547],[121.023119,24.795854],[121.023139,24.796135],[121.022261,24.796684],[121.021693,24.797584],[121.020723,24.798528],[121.020607,24.798806],[121.02206,24.798509],[121.025745,24.799074],[121.022059,24.8011],[121.02128,24.801698]]]},"properties":{"code":"10018010043","name":"新莊里","countyCode":"10018","countyName":"新竹市","townCode":"10018010","townName":"東區","level":"village","unassigned":false,"note":"","label":[121.01979118311304,24.796463189606428],"bounds":[121.013063,24.784097,121.025745,24.802694],"focusBounds":[121.013063,24.784097,121.025745,24.802694],"color":"#a49ad4"}},{"type":"Feature","id":"10018010044","geometry":{"type":"MultiPolygon","coordinates":[[[[121.013655,24.770822],[121.013677,24.771611],[121.013288,24.772413],[121.011644,24.774221],[121.010327,24.773151],[121.013655,24.770822]]],[[[121.015645,24.784097],[121.013644,24.784822],[121.012794,24.785127],[121.012639,24.783868],[121.012202,24.783525],[121.011864,24.783472],[121.011904,24.783231],[121.011589,24.783109],[121.011769,24.782157],[121.013756,24.782093],[121.013469,24.780908],[121.01482,24.780206],[121.015667,24.779254],[121.016099,24.778972],[121.017176,24.778608],[121.017871,24.77864],[121.018275,24.778919],[121.019176,24.778626],[121.020983,24.781944],[121.020082,24.782174],[121.017835,24.783185],[121.015645,24.784097]]]]},"properties":{"code":"10018010044","name":"仙水里","countyCode":"10018","countyName":"新竹市","townCode":"10018010","townName":"東區","level":"village","unassigned":false,"note":"","label":[121.01702733211901,24.781090017744603],"bounds":[121.010327,24.770822,121.020983,24.785127],"focusBounds":[121.010327,24.770822,121.020983,24.785127],"color":"#a8bf62"}},{"type":"Feature","id":"10018010045","geometry":{"type":"Polygon","coordinates":[[[121.026624,24.780809],[121.025677,24.781212],[121.02372,24.781368],[121.020983,24.781944],[121.019176,24.778626],[121.018259,24.777461],[121.016849,24.776249],[121.016751,24.775647],[121.019139,24.775513],[121.022909,24.775856],[121.023691,24.775783],[121.024186,24.775621],[121.025047,24.775034],[121.025601,24.774212],[121.025932,24.773386],[121.027448,24.772659],[121.028568,24.77232],[121.028567,24.76858],[121.025892,24.766007],[121.025627,24.764728],[121.025626,24.76106],[121.023276,24.758672],[121.019767,24.758661],[121.019567,24.758472],[121.019931,24.757404],[121.020283,24.75679],[121.020877,24.756557],[121.022575,24.756931],[121.023657,24.756794],[121.024535,24.757241],[121.026316,24.757655],[121.026477,24.757899],[121.027291,24.757858],[121.028272,24.758352],[121.02863,24.758727],[121.029111,24.759667],[121.030146,24.760486],[121.030598,24.761201],[121.032406,24.761691],[121.032831,24.762131],[121.033043,24.763025],[121.03345,24.76343],[121.033543,24.763762],[121.033506,24.76411],[121.033066,24.764889],[121.031985,24.765215],[121.03126,24.765737],[121.030512,24.765899],[121.029893,24.766469],[121.029682,24.767986],[121.029164,24.768868],[121.029462,24.769626],[121.029272,24.770902],[121.029439,24.771147],[121.030164,24.77142],[121.030377,24.772036],[121.029473,24.772764],[121.028396,24.772966],[121.028156,24.773163],[121.028262,24.773692],[121.029524,24.776053],[121.029702,24.77701],[121.029513,24.777123],[121.028644,24.776697],[121.027659,24.777049],[121.0275,24.777366],[121.027946,24.77881],[121.027558,24.778968],[121.026763,24.778784],[121.026143,24.778878],[121.024955,24.779988],[121.024955,24.780505],[121.02575,24.780269],[121.026459,24.780715],[121.026624,24.780809]]]},"properties":{"code":"10018010045","name":"金山里","countyCode":"10018","countyName":"新竹市","townCode":"10018010","townName":"東區","level":"village","unassigned":false,"note":"","label":[121.02866391606749,24.76356393041784],"bounds":[121.016751,24.756557,121.033543,24.781944],"focusBounds":[121.016751,24.756557,121.033543,24.781944],"color":"#68bec9"}},{"type":"Feature","id":"10018010046","geometry":{"type":"Polygon","coordinates":[[[121.02166,24.785719],[121.021177,24.785729],[121.019155,24.786558],[121.017835,24.783185],[121.020082,24.782174],[121.020983,24.781944],[121.02372,24.781368],[121.025677,24.781212],[121.026624,24.780809],[121.026959,24.781188],[121.027502,24.782751],[121.02515,24.78417],[121.023272,24.784941],[121.022987,24.785292],[121.022702,24.78588],[121.02166,24.785719]]]},"properties":{"code":"10018010046","name":"關東里","countyCode":"10018","countyName":"新竹市","townCode":"10018010","townName":"東區","level":"village","unassigned":false,"note":"","label":[121.02169679742973,24.783759046022546],"bounds":[121.017835,24.780809,121.027502,24.786558],"focusBounds":[121.017835,24.780809,121.027502,24.786558],"color":"#df9f6a"}},{"type":"Feature","id":"10018010047","geometry":{"type":"Polygon","coordinates":[[[121.012794,24.785127],[121.005645,24.790245],[121.004739,24.788206],[121.003761,24.788358],[121.003646,24.788214],[121.003981,24.787836],[121.00377,24.787377],[121.00347,24.787151],[121.002607,24.787119],[121.001629,24.787747],[121.001072,24.787683],[121.000111,24.785868],[121.000451,24.783507],[120.999261,24.783487],[120.998762,24.783103],[120.998619,24.782591],[120.997047,24.783028],[120.995881,24.783739],[120.993793,24.783821],[120.993118,24.784374],[120.992569,24.784836],[120.99174,24.784899],[120.991874,24.781746],[120.989383,24.781796],[120.989168,24.781702],[120.988007,24.779688],[120.985783,24.777763],[120.986613,24.777071],[120.988242,24.777418],[120.989201,24.77693],[120.990284,24.776891],[120.9906,24.777155],[120.99168,24.779031],[120.992943,24.780547],[120.993581,24.780536],[120.995985,24.779984],[120.99789,24.778927],[120.99955,24.778334],[121.003768,24.7756],[121.005446,24.774784],[121.006738,24.774286],[121.007452,24.774518],[121.008211,24.774444],[121.009707,24.773791],[121.010059,24.773483],[121.010327,24.773151],[121.011644,24.774221],[121.013288,24.772413],[121.013677,24.771611],[121.013655,24.770822],[121.015799,24.767307],[121.017018,24.765811],[121.017114,24.765346],[121.016949,24.764865],[121.017409,24.764382],[121.017974,24.764259],[121.018338,24.7638],[121.018747,24.762551],[121.019026,24.760156],[121.019567,24.758472],[121.019767,24.758661],[121.023276,24.758672],[121.025626,24.76106],[121.025627,24.764728],[121.025892,24.766007],[121.028567,24.76858],[121.028568,24.77232],[121.027448,24.772659],[121.025932,24.773386],[121.025601,24.774212],[121.025047,24.775034],[121.024186,24.775621],[121.023691,24.775783],[121.022909,24.775856],[121.019139,24.775513],[121.016751,24.775647],[121.016849,24.776249],[121.018259,24.777461],[121.019176,24.778626],[121.018275,24.778919],[121.017871,24.77864],[121.017176,24.778608],[121.016099,24.778972],[121.015667,24.779254],[121.01482,24.780206],[121.013469,24.780908],[121.013756,24.782093],[121.011769,24.782157],[121.011589,24.783109],[121.011904,24.783231],[121.011864,24.783472],[121.012202,24.783525],[121.012639,24.783868],[121.012794,24.785127]]]},"properties":{"code":"10018010047","name":"科園里","countyCode":"10018","countyName":"新竹市","townCode":"10018010","townName":"東區","level":"village","unassigned":false,"note":"","label":[121.00599310801742,24.78131205527827],"bounds":[120.985783,24.758472,121.028568,24.790245],"focusBounds":[120.985783,24.758472,121.028568,24.790245],"color":"#c38cb8"}},{"type":"Feature","id":"10018010048","geometry":{"type":"Polygon","coordinates":[[[120.977382,24.795399],[120.975769,24.79547],[120.975917,24.795256],[120.974942,24.795321],[120.973132,24.79426],[120.975422,24.792247],[120.976419,24.790667],[120.976785,24.790412],[120.976809,24.791579],[120.977292,24.791895],[120.978046,24.791906],[120.979766,24.792746],[120.981595,24.793033],[120.983031,24.794218],[120.982659,24.795868],[120.982487,24.796095],[120.980712,24.795429],[120.980816,24.795121],[120.979158,24.794282],[120.978882,24.794837],[120.978046,24.794553],[120.978199,24.795146],[120.978063,24.795345],[120.977382,24.795399]]]},"properties":{"code":"10018010048","name":"建華里","countyCode":"10018","countyName":"新竹市","townCode":"10018010","townName":"東區","level":"village","unassigned":false,"note":"","label":[120.97682267196862,24.79350567549094],"bounds":[120.973132,24.790412,120.983031,24.796095],"focusBounds":[120.973132,24.790412,120.983031,24.796095],"color":"#98b69b"}},{"type":"Feature","id":"10018010049","geometry":{"type":"Polygon","coordinates":[[[120.97174,24.794326],[120.970813,24.79395],[120.968387,24.793755],[120.96836,24.794333],[120.967808,24.794383],[120.967449,24.793909],[120.967457,24.79369],[120.967305,24.793681],[120.967323,24.793212],[120.966948,24.793025],[120.96615,24.792241],[120.965876,24.791317],[120.967411,24.791476],[120.967218,24.789287],[120.967617,24.789378],[120.967832,24.788762],[120.967698,24.788605],[120.967785,24.788449],[120.968028,24.788522],[120.96808,24.788278],[120.967679,24.786833],[120.967719,24.786363],[120.967616,24.785578],[120.968364,24.78542],[120.970079,24.785628],[120.973712,24.787981],[120.974936,24.788091],[120.975227,24.787344],[120.975616,24.787398],[120.974907,24.788782],[120.974887,24.789299],[120.974186,24.790355],[120.973712,24.79219],[120.9728,24.794141],[120.972368,24.793871],[120.97174,24.794326]]]},"properties":{"code":"10018010049","name":"新光里","countyCode":"10018","countyName":"新竹市","townCode":"10018010","townName":"東區","level":"village","unassigned":false,"note":"","label":[120.9706009355132,24.790505869303054],"bounds":[120.965876,24.78542,120.975616,24.794383],"focusBounds":[120.965876,24.78542,120.975616,24.794383],"color":"#58b99d"}},{"type":"Feature","id":"10018010050","geometry":{"type":"Polygon","coordinates":[[[120.985482,24.813213],[120.98535,24.813993],[120.984888,24.813998],[120.98432,24.8144],[120.982778,24.814869],[120.981694,24.815557],[120.981248,24.816652],[120.981037,24.816844],[120.980969,24.817428],[120.98056,24.817668],[120.980333,24.818198],[120.979944,24.817837],[120.980744,24.816799],[120.980969,24.815985],[120.980257,24.81536],[120.979133,24.815743],[120.978963,24.815429],[120.978472,24.815167],[120.978475,24.814559],[120.975768,24.814385],[120.976379,24.813607],[120.976161,24.813483],[120.976227,24.81331],[120.9767,24.812573],[120.977646,24.811996],[120.978839,24.810468],[120.978604,24.810316],[120.978841,24.810011],[120.979768,24.810594],[120.97937,24.811144],[120.981351,24.812384],[120.981686,24.811968],[120.983722,24.812774],[120.984049,24.812677],[120.984778,24.813325],[120.985191,24.812948],[120.985482,24.813213]]]},"properties":{"code":"10018010050","name":"復興里","countyCode":"10018","countyName":"新竹市","townCode":"10018010","townName":"東區","level":"village","unassigned":false,"note":"","label":[120.97987697115916,24.813475552225775],"bounds":[120.975768,24.810011,120.985482,24.818198],"focusBounds":[120.975768,24.810011,120.985482,24.818198],"color":"#efb44f"}},{"type":"Feature","id":"10018010051","geometry":{"type":"Polygon","coordinates":[[[120.969915,24.810938],[120.972233,24.807936],[120.973261,24.808464],[120.972432,24.809556],[120.973098,24.809979],[120.972826,24.810492],[120.973079,24.810637],[120.972536,24.811337],[120.974026,24.812175],[120.974246,24.81204],[120.974687,24.812484],[120.974579,24.81287],[120.97521,24.813158],[120.975036,24.813383],[120.975448,24.813608],[120.975067,24.814333],[120.974257,24.814274],[120.97432,24.813649],[120.969915,24.810938]]]},"properties":{"code":"10018010051","name":"錦華里","countyCode":"10018","countyName":"新竹市","townCode":"10018010","townName":"東區","level":"village","unassigned":false,"note":"","label":[120.97163086057876,24.810606334578658],"bounds":[120.969915,24.807936,120.975448,24.814333],"focusBounds":[120.969915,24.807936,120.975448,24.814333],"color":"#dd8590"}},{"type":"Feature","id":"10018010052","geometry":{"type":"Polygon","coordinates":[[[120.963568,24.789366],[120.962278,24.789465],[120.960986,24.790107],[120.960096,24.78913],[120.959722,24.786874],[120.960162,24.786403],[120.95955,24.785691],[120.959397,24.785128],[120.956205,24.784557],[120.957725,24.783829],[120.95815,24.783363],[120.959324,24.780897],[120.959528,24.779377],[120.961148,24.77811],[120.961462,24.77756],[120.961188,24.777282],[120.962771,24.777171],[120.962815,24.776888],[120.963999,24.776808],[120.964647,24.776479],[120.96549,24.776761],[120.965725,24.777017],[120.965746,24.777323],[120.966276,24.777421],[120.966388,24.777644],[120.967246,24.777689],[120.967184,24.778217],[120.968321,24.778226],[120.969907,24.777913],[120.970223,24.777597],[120.970013,24.777048],[120.96977,24.776849],[120.97178,24.778058],[120.972091,24.779405],[120.971931,24.782509],[120.970848,24.784531],[120.970079,24.785628],[120.968364,24.78542],[120.967616,24.785578],[120.967719,24.786363],[120.966504,24.78697],[120.965718,24.78707],[120.964812,24.787085],[120.964069,24.786706],[120.963602,24.78674],[120.963245,24.787802],[120.963045,24.789129],[120.963168,24.789339],[120.963568,24.789366]]]},"properties":{"code":"10018010052","name":"湖濱里","countyCode":"10018","countyName":"新竹市","townCode":"10018010","townName":"東區","level":"village","unassigned":false,"note":"","label":[120.9642681684208,24.78210047134761],"bounds":[120.956205,24.776479,120.972091,24.790107],"focusBounds":[120.956205,24.776479,120.972091,24.790107],"color":"#a49ad4"}},{"type":"Feature","id":"10018010053","geometry":{"type":"Polygon","coordinates":[[[120.981703,24.767105],[120.981218,24.766891],[120.980998,24.767234],[120.980324,24.767674],[120.979651,24.769159],[120.978981,24.770175],[120.978279,24.770121],[120.977826,24.770321],[120.978241,24.773917],[120.977859,24.777221],[120.976778,24.776578],[120.976708,24.776359],[120.977048,24.776059],[120.977083,24.775714],[120.976869,24.775059],[120.976556,24.774677],[120.976437,24.774779],[120.976433,24.775684],[120.976096,24.775792],[120.975149,24.775481],[120.974473,24.775485],[120.974113,24.775688],[120.974334,24.77621],[120.9742,24.776347],[120.973209,24.775995],[120.972777,24.776363],[120.972357,24.776038],[120.969507,24.776204],[120.969126,24.775062],[120.968725,24.77466],[120.967756,24.774527],[120.967015,24.774696],[120.966223,24.772788],[120.966897,24.772238],[120.967519,24.772213],[120.968615,24.77145],[120.968707,24.770112],[120.969489,24.768275],[120.970481,24.76663],[120.970751,24.765572],[120.971108,24.765706],[120.971305,24.765046],[120.97162,24.764682],[120.972356,24.764622],[120.973107,24.764197],[120.97333,24.764235],[120.973885,24.764888],[120.974423,24.764999],[120.974952,24.764027],[120.975734,24.764057],[120.976565,24.764411],[120.976904,24.764036],[120.976827,24.763483],[120.977129,24.76311],[120.978674,24.763538],[120.978732,24.763313],[120.979416,24.763292],[120.980471,24.764127],[120.980635,24.76546],[120.981703,24.767105]]]},"properties":{"code":"10018010053","name":"明湖里","countyCode":"10018","countyName":"新竹市","townCode":"10018010","townName":"東區","level":"village","unassigned":false,"note":"","label":[120.97342481474907,24.77020927605205],"bounds":[120.966223,24.76311,120.981703,24.777221],"focusBounds":[120.966223,24.76311,120.981703,24.777221],"color":"#a8bf62"}},{"type":"Feature","id":"10018010054","geometry":{"type":"Polygon","coordinates":[[[121.02166,24.785719],[121.020785,24.78726],[121.020348,24.78915],[121.019792,24.789715],[121.019525,24.788843],[121.017625,24.785918],[121.016583,24.786341],[121.016347,24.785951],[121.016694,24.785734],[121.015645,24.784097],[121.017835,24.783185],[121.019155,24.786558],[121.021177,24.785729],[121.02166,24.785719]]]},"properties":{"code":"10018010054","name":"關新里","countyCode":"10018","countyName":"新竹市","townCode":"10018010","townName":"東區","level":"village","unassigned":false,"note":"","label":[121.01732014444191,24.784720811561435],"bounds":[121.015645,24.783185,121.02166,24.789715],"focusBounds":[121.015645,24.783185,121.02166,24.789715],"color":"#68bec9"}}]}
