{"type":"FeatureCollection","features":[{"type":"Feature","id":"10016060001","geometry":{"type":"Polygon","coordinates":[[[119.442663,23.205371],[119.441924,23.206111],[119.44215,23.206156],[119.4425,23.205943],[119.442624,23.206019],[119.442471,23.206354],[119.4422,23.206334],[119.442461,23.206643],[119.442258,23.206641],[119.442181,23.206903],[119.442667,23.207857],[119.443295,23.208426],[119.443868,23.207693],[119.444153,23.207631],[119.444062,23.208243],[119.443736,23.208535],[119.443295,23.208543],[119.442969,23.208928],[119.443351,23.210126],[119.443593,23.210315],[119.443508,23.210597],[119.443644,23.210651],[119.443404,23.211469],[119.443634,23.211997],[119.443522,23.212516],[119.443714,23.212563],[119.443417,23.212943],[119.443663,23.214028],[119.444328,23.215261],[119.446588,23.217088],[119.447883,23.219495],[119.447985,23.220087],[119.447609,23.220359],[119.446923,23.220401],[119.447345,23.220111],[119.447551,23.219747],[119.447211,23.2195],[119.447136,23.219773],[119.447354,23.219808],[119.447266,23.219994],[119.446423,23.220658],[119.445434,23.2206],[119.445016,23.220766],[119.443068,23.220943],[119.441887,23.221289],[119.439955,23.221401],[119.437806,23.220835],[119.43612,23.220583],[119.433662,23.220463],[119.433295,23.209578],[119.435125,23.20948],[119.438535,23.206019],[119.438943,23.205892],[119.439131,23.205636],[119.440609,23.20511],[119.442663,23.205371]]]},"properties":{"code":"10016060001","name":"東湖村","countyCode":"10016","countyName":"澎湖縣","townCode":"10016060","townName":"七美鄉","level":"village","unassigned":false,"note":"","label":[119.43864779074813,23.21519920872847],"bounds":[119.433295,23.20511,119.447985,23.221401],"focusBounds":[119.433295,23.20511,119.447985,23.221401],"color":"#78a7e3"}},{"type":"Feature","id":"10016060002","geometry":{"type":"Polygon","coordinates":[[[119.433662,23.220463],[119.43287,23.22051],[119.430148,23.220091],[119.429627,23.219971],[119.429358,23.219664],[119.428973,23.219568],[119.428496,23.219728],[119.428825,23.219569],[119.428863,23.21939],[119.427745,23.219089],[119.427056,23.219361],[119.426777,23.21934],[119.426268,23.219174],[119.423747,23.218984],[119.422764,23.218655],[119.42245,23.218988],[119.422437,23.218579],[119.421527,23.218442],[119.421211,23.218194],[119.42112,23.217838],[119.420677,23.217676],[119.420265,23.217747],[119.419731,23.217424],[119.419016,23.217442],[119.41829,23.217757],[119.417702,23.217759],[119.417289,23.217374],[119.416865,23.217409],[119.416605,23.217617],[119.415932,23.217305],[119.414738,23.217308],[119.414592,23.217006],[119.414736,23.21673],[119.415239,23.216673],[119.414907,23.216227],[119.423163,23.209612],[119.424137,23.209578],[119.433295,23.209578],[119.433662,23.220463]]]},"properties":{"code":"10016060002","name":"西湖村","countyCode":"10016","countyName":"澎湖縣","townCode":"10016060","townName":"七美鄉","level":"village","unassigned":false,"note":"","label":[119.42615318105027,23.214371718529364],"bounds":[119.414592,23.209578,119.433662,23.22051],"focusBounds":[119.414592,23.209578,119.433662,23.22051],"color":"#dd8590"}},{"type":"Feature","id":"10016060003","geometry":{"type":"Polygon","coordinates":[[[119.433295,23.209578],[119.424137,23.209578],[119.424134,23.20584],[119.423784,23.205832],[119.423903,23.205323],[119.423627,23.205306],[119.423684,23.204089],[119.425046,23.204119],[119.425439,23.204276],[119.425935,23.205932],[119.426915,23.206137],[119.427618,23.205866],[119.428729,23.205848],[119.428836,23.205215],[119.428699,23.203491],[119.428359,23.201855],[119.429845,23.201666],[119.432374,23.199342],[119.432619,23.199597],[119.433234,23.199112],[119.433454,23.199181],[119.433489,23.199353],[119.433876,23.199424],[119.43474,23.200085],[119.434967,23.200557],[119.435721,23.200735],[119.435291,23.20119],[119.435658,23.201374],[119.435734,23.201747],[119.436166,23.201919],[119.436501,23.201923],[119.436893,23.201504],[119.437498,23.201204],[119.437909,23.201316],[119.438071,23.201629],[119.438109,23.201467],[119.438331,23.201473],[119.438281,23.201076],[119.438431,23.201017],[119.43862,23.201057],[119.438851,23.201526],[119.439021,23.20157],[119.439444,23.200955],[119.439862,23.200839],[119.439867,23.201381],[119.44033,23.201239],[119.440394,23.201418],[119.441462,23.200882],[119.441775,23.20094],[119.442154,23.200483],[119.442793,23.200325],[119.44301,23.200981],[119.442934,23.201982],[119.443137,23.204101],[119.442824,23.204779],[119.443236,23.204268],[119.443432,23.204357],[119.443441,23.204633],[119.44313,23.205218],[119.442663,23.205371],[119.440609,23.20511],[119.439131,23.205636],[119.438943,23.205892],[119.438535,23.206019],[119.435125,23.20948],[119.433295,23.209578]]]},"properties":{"code":"10016060003","name":"中和村","countyCode":"10016","countyName":"澎湖縣","townCode":"10016060","townName":"七美鄉","level":"village","unassigned":false,"note":"","label":[119.4331897361695,23.205263300889],"bounds":[119.423627,23.199112,119.443441,23.209578],"focusBounds":[119.423627,23.199112,119.443441,23.209578],"color":"#a49ad4"}},{"type":"Feature","id":"10016060004","geometry":{"type":"Polygon","coordinates":[[[119.414907,23.216227],[119.414494,23.215246],[119.41335,23.216289],[119.412662,23.216341],[119.412658,23.21619],[119.41328,23.216145],[119.413653,23.215842],[119.413125,23.215317],[119.413211,23.215247],[119.413736,23.215776],[119.414237,23.215355],[119.412982,23.214231],[119.412355,23.214168],[119.411831,23.214458],[119.412294,23.215737],[119.411696,23.214528],[119.411494,23.214949],[119.411704,23.215713],[119.41156,23.216111],[119.410755,23.21635],[119.410514,23.216787],[119.410314,23.216814],[119.410196,23.215952],[119.409512,23.216286],[119.410088,23.214408],[119.410481,23.214087],[119.410352,23.213724],[119.40982,23.213933],[119.410918,23.212564],[119.411062,23.212053],[119.411436,23.2118],[119.411399,23.211549],[119.41197,23.211866],[119.412375,23.211657],[119.412501,23.211031],[119.412131,23.21098],[119.41262,23.210555],[119.412813,23.210419],[119.413311,23.210535],[119.413746,23.210378],[119.414507,23.209547],[119.414533,23.209073],[119.414761,23.208869],[119.415244,23.208839],[119.415943,23.209033],[119.416101,23.208753],[119.415989,23.208631],[119.415877,23.208821],[119.415632,23.208775],[119.415841,23.208248],[119.415659,23.207903],[119.41599,23.207338],[119.41653,23.207454],[119.416687,23.20728],[119.416529,23.207151],[119.416716,23.206977],[119.416661,23.206819],[119.416158,23.206899],[119.416404,23.206104],[119.41707,23.205917],[119.417331,23.206095],[119.417724,23.205791],[119.418438,23.205661],[119.418625,23.205532],[119.41889,23.204838],[119.419175,23.204977],[119.419375,23.204875],[119.41989,23.204088],[119.423684,23.204089],[119.423627,23.205306],[119.423903,23.205323],[119.423784,23.205832],[119.424134,23.20584],[119.424137,23.209578],[119.423163,23.209612],[119.414907,23.216227]]]},"properties":{"code":"10016060004","name":"平和村","countyCode":"10016","countyName":"澎湖縣","townCode":"10016060","townName":"七美鄉","level":"village","unassigned":false,"note":"","label":[119.41939525174915,23.208737059908348],"bounds":[119.409512,23.204088,119.424137,23.216814],"focusBounds":[119.409512,23.204088,119.424137,23.216814],"color":"#a8bf62"}},{"type":"Feature","id":"10016060005","geometry":{"type":"Polygon","coordinates":[[[119.428359,23.201855],[119.428699,23.203491],[119.428836,23.205215],[119.428729,23.205848],[119.427618,23.205866],[119.426915,23.206137],[119.425935,23.205932],[119.425439,23.204276],[119.425046,23.204119],[119.423684,23.204089],[119.41989,23.204088],[119.420629,23.203316],[119.420706,23.202519],[119.42056,23.202318],[119.420856,23.202196],[119.420131,23.200841],[119.420551,23.200463],[119.425682,23.199726],[119.425795,23.19995],[119.425707,23.20011],[119.426066,23.200692],[119.426046,23.201202],[119.42636,23.201763],[119.428359,23.201855]]]},"properties":{"code":"10016060005","name":"海豐村","countyCode":"10016","countyName":"澎湖縣","townCode":"10016060","townName":"七美鄉","level":"village","unassigned":false,"note":"","label":[119.42414846561465,23.202022844662892],"bounds":[119.41989,23.199726,119.428836,23.206137],"focusBounds":[119.41989,23.199726,119.428836,23.206137],"color":"#68bec9"}},{"type":"Feature","id":"10016060006","geometry":{"type":"Polygon","coordinates":[[[119.432374,23.199342],[119.429845,23.201666],[119.428359,23.201855],[119.42636,23.201763],[119.426046,23.201202],[119.426066,23.200692],[119.425707,23.20011],[119.425795,23.19995],[119.425682,23.199726],[119.420551,23.200463],[119.420545,23.199867],[119.420792,23.199372],[119.420493,23.198147],[119.420187,23.197824],[119.419048,23.19725],[119.418525,23.195714],[119.417769,23.195573],[119.416689,23.194863],[119.415736,23.193764],[119.416093,23.193618],[119.41622,23.193397],[119.417155,23.193092],[119.417299,23.193362],[119.416279,23.193945],[119.416738,23.194517],[119.417848,23.195354],[119.418486,23.195477],[119.41884,23.194776],[119.419293,23.194562],[119.419409,23.194889],[119.419025,23.194967],[119.418742,23.195451],[119.420396,23.195943],[119.420358,23.196043],[119.421745,23.196071],[119.421763,23.195499],[119.421117,23.195488],[119.421132,23.195289],[119.421663,23.195324],[119.421706,23.194472],[119.421291,23.194503],[119.421298,23.194311],[119.420929,23.194326],[119.42091,23.195669],[119.42071,23.195633],[119.420797,23.194008],[119.421597,23.194042],[119.421626,23.193353],[119.421019,23.193391],[119.421012,23.193765],[119.420804,23.193759],[119.420841,23.193226],[119.420203,23.193307],[119.42019,23.194009],[119.420421,23.194031],[119.420414,23.194286],[119.42016,23.1943],[119.420169,23.194416],[119.419984,23.1944],[119.420027,23.193337],[119.419673,23.193358],[119.419221,23.193813],[119.417929,23.193674],[119.417928,23.193399],[119.419245,23.193441],[119.419764,23.192884],[119.421691,23.192703],[119.421855,23.19219],[119.421524,23.191683],[119.421491,23.191301],[119.422048,23.191022],[119.42219,23.190651],[119.422395,23.190637],[119.422602,23.191145],[119.423138,23.191513],[119.423177,23.191771],[119.423324,23.19147],[119.423725,23.191645],[119.424701,23.190931],[119.42706,23.189941],[119.429135,23.188425],[119.429576,23.18771],[119.429217,23.18723],[119.429202,23.186986],[119.429454,23.186791],[119.429702,23.186915],[119.429802,23.186633],[119.43015,23.186562],[119.430465,23.186592],[119.430413,23.186789],[119.430686,23.187],[119.430768,23.187309],[119.430624,23.187615],[119.430812,23.187693],[119.43088,23.188007],[119.431155,23.18804],[119.43107,23.188562],[119.431274,23.188766],[119.431162,23.188923],[119.431418,23.189285],[119.431381,23.189477],[119.431772,23.18993],[119.431597,23.190274],[119.431387,23.190272],[119.431585,23.191093],[119.431304,23.191295],[119.431124,23.191108],[119.430737,23.191357],[119.43026,23.192156],[119.430983,23.192187],[119.431293,23.192365],[119.431217,23.192544],[119.430696,23.192452],[119.429924,23.192649],[119.42941,23.192971],[119.429119,23.193506],[119.429114,23.193829],[119.429348,23.193835],[119.429338,23.194199],[119.429911,23.194209],[119.430062,23.193727],[119.430243,23.193689],[119.430349,23.193817],[119.430111,23.194386],[119.42935,23.194389],[119.429409,23.194603],[119.429649,23.194629],[119.429673,23.194753],[119.42942,23.195411],[119.429497,23.196038],[119.429882,23.196776],[119.431401,23.197343],[119.432067,23.197327],[119.433026,23.197871],[119.432762,23.198752],[119.432224,23.199144],[119.432374,23.199342]]]},"properties":{"code":"10016060006","name":"南港村","countyCode":"10016","countyName":"澎湖縣","townCode":"10016060","townName":"七美鄉","level":"village","unassigned":false,"note":"","label":[119.42554324545095,23.1955548606848],"bounds":[119.415736,23.186562,119.433026,23.201855],"focusBounds":[119.415736,23.186562,119.433026,23.201855],"color":"#df9f6a"}}]}
