{"type":"FeatureCollection","features":[{"type":"Feature","id":"10014010001","geometry":{"type":"Polygon","coordinates":[[[121.193602,22.818988],[121.192127,22.819275],[121.191745,22.819503],[121.191303,22.819129],[121.190591,22.819184],[121.189179,22.818506],[121.187967,22.818286],[121.187453,22.817514],[121.186138,22.817672],[121.184312,22.816701],[121.183684,22.815525],[121.183563,22.814496],[121.183854,22.814186],[121.183501,22.813638],[121.183385,22.813051],[121.182658,22.812512],[121.182072,22.81256],[121.182479,22.812158],[121.182736,22.8115],[121.183047,22.806034],[121.182972,22.805497],[121.182738,22.805109],[121.182124,22.804792],[121.18061,22.803562],[121.179388,22.803139],[121.177372,22.803008],[121.174758,22.801096],[121.173198,22.800817],[121.169473,22.799209],[121.165936,22.796824],[121.16417,22.795062],[121.162914,22.794849],[121.162282,22.794036],[121.161373,22.793409],[121.161538,22.791605],[121.161969,22.790656],[121.162013,22.790157],[121.160717,22.788492],[121.159269,22.787689],[121.158549,22.786724],[121.158038,22.78685],[121.157847,22.788075],[121.156551,22.788748],[121.155873,22.789774],[121.154521,22.790534],[121.152836,22.791057],[121.150286,22.790602],[121.148848,22.790736],[121.14732,22.791415],[121.145691,22.792439],[121.143919,22.792101],[121.144078,22.789694],[121.145358,22.785981],[121.146043,22.783276],[121.147024,22.781489],[121.147524,22.780725],[121.15107,22.777555],[121.15241,22.775935],[121.157881,22.771913],[121.160985,22.770088],[121.16363,22.768554],[121.168762,22.765991],[121.176404,22.762303],[121.177743,22.761978],[121.179382,22.767068],[121.180246,22.771311],[121.180171,22.776076],[121.180309,22.778267],[121.180472,22.77938],[121.180848,22.780377],[121.18091,22.781802],[121.181398,22.782904],[121.182624,22.784538],[121.18335,22.785256],[121.185851,22.788895],[121.187415,22.790413],[121.18789,22.790657],[121.191016,22.790621],[121.191592,22.790771],[121.192117,22.790551],[121.192717,22.789913],[121.193079,22.789878],[121.193594,22.789938],[121.193756,22.790163],[121.194174,22.790016],[121.194529,22.790397],[121.194898,22.790293],[121.195175,22.790485],[121.195294,22.790889],[121.195035,22.791223],[121.195164,22.791301],[121.19506,22.791458],[121.195185,22.791788],[121.195263,22.791888],[121.195669,22.791837],[121.196136,22.792313],[121.196003,22.792628],[121.196337,22.792714],[121.196537,22.792539],[121.196446,22.792455],[121.196859,22.792241],[121.196717,22.792047],[121.197169,22.791931],[121.196758,22.792583],[121.197141,22.792614],[121.197061,22.792876],[121.197356,22.793112],[121.197919,22.792971],[121.198184,22.793433],[121.198456,22.793413],[121.198342,22.79373],[121.198631,22.793844],[121.198142,22.794228],[121.198189,22.794738],[121.198696,22.794959],[121.199262,22.794659],[121.19977,22.794702],[121.199994,22.794575],[121.200252,22.794777],[121.200236,22.795109],[121.200435,22.795168],[121.200537,22.795789],[121.200897,22.795694],[121.201029,22.795854],[121.200733,22.797369],[121.201088,22.797635],[121.20083,22.798174],[121.200891,22.798767],[121.200495,22.799226],[121.200668,22.799567],[121.200292,22.799808],[121.199868,22.800621],[121.199944,22.801236],[121.199713,22.801885],[121.199939,22.802834],[121.19977,22.80296],[121.199745,22.803306],[121.199503,22.803339],[121.199389,22.803676],[121.199629,22.804392],[121.199136,22.805249],[121.198779,22.806747],[121.198328,22.80729],[121.198225,22.807796],[121.197975,22.808116],[121.197927,22.808407],[121.198157,22.8086],[121.19787,22.808608],[121.197443,22.808952],[121.197479,22.809294],[121.197132,22.809775],[121.197269,22.810131],[121.196871,22.810976],[121.196836,22.811503],[121.19709,22.81168],[121.197132,22.812001],[121.197534,22.812234],[121.196682,22.812597],[121.196502,22.812507],[121.196462,22.812691],[121.196531,22.813208],[121.196845,22.813016],[121.196844,22.812872],[121.197356,22.812818],[121.197414,22.8129],[121.19708,22.813201],[121.196944,22.813986],[121.19813,22.814806],[121.197165,22.814663],[121.197372,22.814882],[121.197101,22.814962],[121.197721,22.815457],[121.197699,22.81566],[121.197467,22.815472],[121.197087,22.815476],[121.196736,22.815659],[121.196525,22.816246],[121.19575,22.816363],[121.195755,22.816725],[121.19516,22.816717],[121.195114,22.816932],[121.194112,22.817666],[121.194014,22.818368],[121.193623,22.81845],[121.193602,22.818988]]]},"properties":{"code":"10014010001","name":"富岡里","countyCode":"10014","countyName":"臺東縣","townCode":"10014010","townName":"臺東市","level":"village","unassigned":false,"note":"","label":[121.17467909641802,22.789904467171855],"bounds":[121.143919,22.761978,121.201088,22.819503],"focusBounds":[121.143919,22.761978,121.201088,22.819503],"color":"#dd8590"}},{"type":"Feature","id":"10014010003","geometry":{"type":"Polygon","coordinates":[[[121.127896,22.784321],[121.128007,22.785027],[121.127549,22.790668],[121.129047,22.790802],[121.129418,22.791043],[121.129893,22.79073],[121.131339,22.793269],[121.131302,22.798278],[121.13112,22.79991],[121.13238,22.805806],[121.132862,22.806345],[121.133304,22.80738],[121.133146,22.80813],[121.132788,22.808471],[121.129643,22.80931],[121.1278,22.809597],[121.126759,22.809986],[121.125437,22.811553],[121.12406,22.812193],[121.123377,22.812171],[121.123141,22.812015],[121.122876,22.81104],[121.122671,22.810862],[121.121515,22.811285],[121.120826,22.811337],[121.120243,22.811712],[121.118452,22.812416],[121.117508,22.811992],[121.116654,22.811326],[121.11581,22.811178],[121.114791,22.810289],[121.115503,22.809749],[121.116143,22.808572],[121.116118,22.808305],[121.115668,22.807894],[121.122116,22.80422],[121.123097,22.803379],[121.122657,22.802526],[121.122375,22.800476],[121.121621,22.797522],[121.121259,22.794865],[121.121962,22.791042],[121.121745,22.789071],[121.125724,22.788612],[121.126353,22.787235],[121.126523,22.78587],[121.126811,22.784993],[121.127896,22.784321]]]},"properties":{"code":"10014010003","name":"岩灣里","countyCode":"10014","countyName":"臺東縣","townCode":"10014010","townName":"臺東市","level":"village","unassigned":false,"note":"","label":[121.1268809387989,22.801231414461753],"bounds":[121.114791,22.784321,121.133304,22.812416],"focusBounds":[121.114791,22.784321,121.133304,22.812416],"color":"#a49ad4"}},{"type":"Feature","id":"10014010004","geometry":{"type":"Polygon","coordinates":[[[121.121745,22.789071],[121.121962,22.791042],[121.121259,22.794865],[121.121621,22.797522],[121.122375,22.800476],[121.122657,22.802526],[121.123097,22.803379],[121.122116,22.80422],[121.115668,22.807894],[121.114906,22.807394],[121.114596,22.806929],[121.114942,22.806326],[121.115234,22.80489],[121.115206,22.803287],[121.114833,22.802959],[121.11289,22.802886],[121.112469,22.800633],[121.111668,22.799678],[121.111879,22.799376],[121.112432,22.79907],[121.112785,22.7983],[121.112752,22.797729],[121.11234,22.797583],[121.112189,22.797045],[121.112299,22.79639],[121.112162,22.795639],[121.108734,22.794708],[121.107401,22.793702],[121.106601,22.79344],[121.106012,22.792693],[121.10159,22.788582],[121.100738,22.787838],[121.100799,22.787738],[121.103794,22.784688],[121.106365,22.782786],[121.108708,22.780752],[121.109716,22.779717],[121.10941,22.779306],[121.11053,22.778142],[121.11104,22.777117],[121.116506,22.78111],[121.12019,22.784803],[121.121362,22.787045],[121.121745,22.789071]]]},"properties":{"code":"10014010004","name":"南王里","countyCode":"10014","countyName":"臺東縣","townCode":"10014010","townName":"臺東市","level":"village","unassigned":false,"note":"","label":[121.11222040160919,22.7879829633727],"bounds":[121.100738,22.777117,121.123097,22.807894],"focusBounds":[121.100738,22.777117,121.123097,22.807894],"color":"#a8bf62"}},{"type":"Feature","id":"10014010005","geometry":{"type":"Polygon","coordinates":[[[121.127896,22.784321],[121.126811,22.784993],[121.126523,22.78587],[121.126353,22.787235],[121.125724,22.788612],[121.121745,22.789071],[121.121362,22.787045],[121.12019,22.784803],[121.116506,22.78111],[121.11104,22.777117],[121.112501,22.776108],[121.113909,22.776269],[121.114663,22.77661],[121.11532,22.77644],[121.116493,22.776532],[121.119187,22.775833],[121.120253,22.775207],[121.123942,22.773532],[121.126704,22.776391],[121.127896,22.784321]]]},"properties":{"code":"10014010005","name":"卑南里","countyCode":"10014","countyName":"臺東縣","townCode":"10014010","townName":"臺東市","level":"village","unassigned":false,"note":"","label":[121.12224894569371,22.77974137092692],"bounds":[121.11104,22.773532,121.127896,22.789071],"focusBounds":[121.11104,22.773532,121.127896,22.789071],"color":"#68bec9"}},{"type":"Feature","id":"10014010006","geometry":{"type":"Polygon","coordinates":[[[121.143919,22.792101],[121.140984,22.791432],[121.138705,22.79452],[121.137446,22.796348],[121.137051,22.797685],[121.134902,22.802976],[121.133888,22.804777],[121.133304,22.80738],[121.132862,22.806345],[121.13238,22.805806],[121.13112,22.79991],[121.131302,22.798278],[121.131339,22.793269],[121.129893,22.79073],[121.129418,22.791043],[121.129047,22.790802],[121.127549,22.790668],[121.128007,22.785027],[121.127896,22.784321],[121.126704,22.776391],[121.123942,22.773532],[121.127412,22.771865],[121.130598,22.768932],[121.130926,22.768774],[121.131549,22.767731],[121.133625,22.769112],[121.133865,22.768863],[121.134522,22.769266],[121.134396,22.769493],[121.134571,22.769737],[121.134329,22.769981],[121.137589,22.771727],[121.140532,22.775326],[121.14142,22.775623],[121.141725,22.77569],[121.147024,22.781489],[121.146043,22.783276],[121.145358,22.785981],[121.144078,22.789694],[121.143919,22.792101]]]},"properties":{"code":"10014010006","name":"南榮里","countyCode":"10014","countyName":"臺東縣","townCode":"10014010","townName":"臺東市","level":"village","unassigned":false,"note":"","label":[121.13639468855946,22.7830956154912],"bounds":[121.123942,22.767731,121.147024,22.80738],"focusBounds":[121.123942,22.767731,121.147024,22.80738],"color":"#c38cb8"}},{"type":"Feature","id":"10014010007","geometry":{"type":"Polygon","coordinates":[[[121.149256,22.763549],[121.149245,22.767345],[121.148326,22.768251],[121.147997,22.767978],[121.136287,22.768021],[121.138869,22.765347],[121.139776,22.764374],[121.14213,22.762641],[121.143244,22.763535],[121.149256,22.763549]]]},"properties":{"code":"10014010007","name":"新生里","countyCode":"10014","countyName":"臺東縣","townCode":"10014010","townName":"臺東市","level":"village","unassigned":false,"note":"","label":[121.14372486020903,22.7657646762241],"bounds":[121.136287,22.762641,121.149256,22.768251],"focusBounds":[121.136287,22.762641,121.149256,22.768251],"color":"#c38cb8"}},{"type":"Feature","id":"10014010008","geometry":{"type":"Polygon","coordinates":[[[121.149256,22.763549],[121.143244,22.763535],[121.14213,22.762641],[121.143889,22.761391],[121.147881,22.758928],[121.149273,22.758913],[121.149256,22.763549]]]},"properties":{"code":"10014010008","name":"民生里","countyCode":"10014","countyName":"臺東縣","townCode":"10014010","townName":"臺東市","level":"village","unassigned":false,"note":"","label":[121.14662416260671,22.76182719928746],"bounds":[121.14213,22.758913,121.149273,22.763549],"focusBounds":[121.14213,22.758913,121.149273,22.763549],"color":"#98b69b"}},{"type":"Feature","id":"10014010009","geometry":{"type":"Polygon","coordinates":[[[121.160985,22.770088],[121.157881,22.771913],[121.15241,22.775935],[121.15107,22.777555],[121.147524,22.780725],[121.147024,22.781489],[121.141725,22.77569],[121.14142,22.775623],[121.142639,22.774613],[121.144025,22.772582],[121.148326,22.768251],[121.149245,22.767345],[121.149256,22.763549],[121.149273,22.758913],[121.147881,22.758928],[121.148654,22.758463],[121.14928,22.757855],[121.152258,22.760966],[121.160985,22.770088]]]},"properties":{"code":"10014010009","name":"寶桑里","countyCode":"10014","countyName":"臺東縣","townCode":"10014010","townName":"臺東市","level":"village","unassigned":false,"note":"","label":[121.15253167441769,22.770326969229195],"bounds":[121.14142,22.757855,121.160985,22.781489],"focusBounds":[121.14142,22.757855,121.160985,22.781489],"color":"#58b99d"}},{"type":"Feature","id":"10014010010","geometry":{"type":"Polygon","coordinates":[[[121.136287,22.768021],[121.134571,22.769737],[121.134396,22.769493],[121.134522,22.769266],[121.133865,22.768863],[121.133625,22.769112],[121.131549,22.767731],[121.133248,22.764847],[121.133473,22.762639],[121.135226,22.761598],[121.136666,22.762802],[121.136285,22.763177],[121.138869,22.765347],[121.136287,22.768021]]]},"properties":{"code":"10014010010","name":"馬蘭里","countyCode":"10014","countyName":"臺東縣","townCode":"10014010","townName":"臺東市","level":"village","unassigned":false,"note":"","label":[121.13539826118146,22.76565849187461],"bounds":[121.131549,22.761598,121.138869,22.769737],"focusBounds":[121.131549,22.761598,121.138869,22.769737],"color":"#efb44f"}},{"type":"Feature","id":"10014010011","geometry":{"type":"Polygon","coordinates":[[[121.14213,22.762641],[121.139776,22.764374],[121.138869,22.765347],[121.136285,22.763177],[121.136666,22.762802],[121.135226,22.761598],[121.140245,22.758613],[121.143094,22.761034],[121.143889,22.761391],[121.14213,22.762641]]]},"properties":{"code":"10014010011","name":"中心里","countyCode":"10014","countyName":"臺東縣","townCode":"10014010","townName":"臺東市","level":"village","unassigned":false,"note":"","label":[121.13935241995368,22.76178908282352],"bounds":[121.135226,22.758613,121.143889,22.765347],"focusBounds":[121.135226,22.758613,121.143889,22.765347],"color":"#78a7e3"}},{"type":"Feature","id":"10014010012","geometry":{"type":"Polygon","coordinates":[[[121.135226,22.761598],[121.133473,22.762639],[121.133119,22.761252],[121.133974,22.759815],[121.134106,22.759119],[121.133944,22.758335],[121.134024,22.757696],[121.136233,22.754206],[121.14089,22.757072],[121.142372,22.757038],[121.142668,22.757162],[121.140245,22.758613],[121.135226,22.761598]]]},"properties":{"code":"10014010012","name":"自強里","countyCode":"10014","countyName":"臺東縣","townCode":"10014010","townName":"臺東市","level":"village","unassigned":false,"note":"","label":[121.13680129031665,22.757825420658392],"bounds":[121.133119,22.754206,121.142668,22.762639],"focusBounds":[121.133119,22.754206,121.142668,22.762639],"color":"#dd8590"}},{"type":"Feature","id":"10014010013","geometry":{"type":"Polygon","coordinates":[[[121.147881,22.758928],[121.143889,22.761391],[121.143094,22.761034],[121.140245,22.758613],[121.142668,22.757162],[121.143468,22.756358],[121.144354,22.754794],[121.145132,22.753468],[121.14928,22.757855],[121.148654,22.758463],[121.147881,22.758928]]]},"properties":{"code":"10014010013","name":"民族里","countyCode":"10014","countyName":"臺東縣","townCode":"10014010","townName":"臺東市","level":"village","unassigned":false,"note":"","label":[121.14497809313916,22.75804578243541],"bounds":[121.140245,22.753468,121.14928,22.761391],"focusBounds":[121.140245,22.753468,121.14928,22.761391],"color":"#a49ad4"}},{"type":"Feature","id":"10014010015","geometry":{"type":"Polygon","coordinates":[[[121.168762,22.765991],[121.16363,22.768554],[121.160985,22.770088],[121.152258,22.760966],[121.154484,22.759182],[121.157026,22.757127],[121.157299,22.756909],[121.158892,22.758593],[121.160176,22.757537],[121.168762,22.765991]]]},"properties":{"code":"10014010015","name":"中華里","countyCode":"10014","countyName":"臺東縣","townCode":"10014010","townName":"臺東市","level":"village","unassigned":false,"note":"","label":[121.16027672110646,22.76349251176293],"bounds":[121.152258,22.756909,121.168762,22.770088],"focusBounds":[121.152258,22.756909,121.168762,22.770088],"color":"#a8bf62"}},{"type":"Feature","id":"10014010017","geometry":{"type":"Polygon","coordinates":[[[121.177743,22.761978],[121.176404,22.762303],[121.168762,22.765991],[121.160176,22.757537],[121.158892,22.758593],[121.157299,22.756909],[121.157026,22.757127],[121.155492,22.755495],[121.157036,22.754272],[121.15891,22.752766],[121.158166,22.751959],[121.159063,22.751282],[121.160232,22.74931],[121.161055,22.749738],[121.165986,22.751175],[121.167611,22.752317],[121.172003,22.754809],[121.173765,22.756147],[121.176191,22.758802],[121.176992,22.7601],[121.177743,22.761978]]]},"properties":{"code":"10014010017","name":"建國里","countyCode":"10014","countyName":"臺東縣","townCode":"10014010","townName":"臺東市","level":"village","unassigned":false,"note":"","label":[121.16759536134964,22.75806815171847],"bounds":[121.155492,22.74931,121.177743,22.765991],"focusBounds":[121.155492,22.74931,121.177743,22.765991],"color":"#68bec9"}},{"type":"Feature","id":"10014010020","geometry":{"type":"Polygon","coordinates":[[[121.157026,22.757127],[121.154484,22.759182],[121.150644,22.755327],[121.153251,22.753203],[121.154798,22.751928],[121.157036,22.754272],[121.155492,22.755495],[121.157026,22.757127]]]},"properties":{"code":"10014010020","name":"中正里","countyCode":"10014","countyName":"臺東縣","townCode":"10014010","townName":"臺東市","level":"village","unassigned":false,"note":"","label":[121.15360519565,22.755605601843587],"bounds":[121.150644,22.751928,121.157036,22.759182],"focusBounds":[121.150644,22.751928,121.157036,22.759182],"color":"#df9f6a"}},{"type":"Feature","id":"10014010022","geometry":{"type":"Polygon","coordinates":[[[121.160232,22.74931],[121.159063,22.751282],[121.158166,22.751959],[121.15891,22.752766],[121.157036,22.754272],[121.154798,22.751928],[121.153251,22.753203],[121.150956,22.750997],[121.151363,22.75058],[121.150444,22.749591],[121.15353,22.746985],[121.153696,22.746414],[121.154766,22.745348],[121.156785,22.747323],[121.160232,22.74931]]]},"properties":{"code":"10014010022","name":"成功里","countyCode":"10014","countyName":"臺東縣","townCode":"10014010","townName":"臺東市","level":"village","unassigned":false,"note":"","label":[121.15494961515796,22.74925247639601],"bounds":[121.150444,22.745348,121.160232,22.754272],"focusBounds":[121.150444,22.745348,121.160232,22.754272],"color":"#c38cb8"}},{"type":"Feature","id":"10014010023","geometry":{"type":"Polygon","coordinates":[[[121.154484,22.759182],[121.152258,22.760966],[121.14928,22.757855],[121.145132,22.753468],[121.146928,22.751697],[121.150644,22.755327],[121.154484,22.759182]]]},"properties":{"code":"10014010023","name":"文化里","countyCode":"10014","countyName":"臺東縣","townCode":"10014010","townName":"臺東市","level":"village","unassigned":false,"note":"","label":[121.14978070557879,22.756430451042284],"bounds":[121.145132,22.751697,121.154484,22.760966],"focusBounds":[121.145132,22.751697,121.154484,22.760966],"color":"#efb44f"}},{"type":"Feature","id":"10014010024","geometry":{"type":"Polygon","coordinates":[[[121.153251,22.753203],[121.150644,22.755327],[121.146928,22.751697],[121.149077,22.750223],[121.149357,22.750486],[121.150444,22.749591],[121.151363,22.75058],[121.150956,22.750997],[121.153251,22.753203]]]},"properties":{"code":"10014010024","name":"中山里","countyCode":"10014","countyName":"臺東縣","townCode":"10014010","townName":"臺東市","level":"village","unassigned":false,"note":"","label":[121.14994350203445,22.752322804822757],"bounds":[121.146928,22.749591,121.153251,22.755327],"focusBounds":[121.146928,22.749591,121.153251,22.755327],"color":"#58b99d"}},{"type":"Feature","id":"10014010029","geometry":{"type":"Polygon","coordinates":[[[121.075329,22.762587],[121.072424,22.76364],[121.072952,22.76572],[121.071476,22.765981],[121.069757,22.769624],[121.068245,22.769675],[121.06673,22.769182],[121.064776,22.769219],[121.063873,22.768781],[121.062566,22.768723],[121.061242,22.768285],[121.060486,22.768389],[121.060215,22.768229],[121.059454,22.768927],[121.059067,22.769058],[121.05713,22.768317],[121.05582,22.767312],[121.055417,22.767035],[121.053654,22.766363],[121.052264,22.764555],[121.050963,22.764859],[121.049255,22.764191],[121.048259,22.764],[121.046184,22.762383],[121.044907,22.761951],[121.044221,22.761423],[121.045635,22.760267],[121.046148,22.760074],[121.047375,22.760032],[121.048701,22.760277],[121.049213,22.760219],[121.04949,22.759721],[121.049578,22.757476],[121.049736,22.757192],[121.051253,22.755773],[121.052371,22.755459],[121.05335,22.754101],[121.053806,22.75463],[121.056261,22.757604],[121.058532,22.759107],[121.05931,22.759407],[121.06051,22.759526],[121.061937,22.759196],[121.062585,22.758624],[121.06359,22.756998],[121.065567,22.75369],[121.066798,22.751283],[121.068613,22.749026],[121.069954,22.748148],[121.070907,22.749213],[121.072238,22.751666],[121.073557,22.75703],[121.075329,22.762587]]]},"properties":{"code":"10014010029","name":"新園里","countyCode":"10014","countyName":"臺東縣","townCode":"10014010","townName":"臺東市","level":"village","unassigned":false,"note":"","label":[121.06623773361507,22.762905818606107],"bounds":[121.044221,22.748148,121.075329,22.769675],"focusBounds":[121.044221,22.748148,121.075329,22.769675],"color":"#efb44f"}},{"type":"Feature","id":"10014010030","geometry":{"type":"Polygon","coordinates":[[[121.11104,22.777117],[121.11053,22.778142],[121.10941,22.779306],[121.106438,22.775987],[121.105967,22.77638],[121.10397,22.776343],[121.102978,22.77617],[121.102261,22.776514],[121.101193,22.776365],[121.100916,22.776228],[121.100257,22.775262],[121.099605,22.77479],[121.098925,22.774517],[121.097738,22.774572],[121.097308,22.774354],[121.096642,22.774413],[121.095926,22.775005],[121.095654,22.775061],[121.09443,22.774802],[121.092164,22.774776],[121.091579,22.774668],[121.091301,22.774468],[121.090604,22.775154],[121.089901,22.775227],[121.089177,22.775096],[121.088383,22.775388],[121.087245,22.775012],[121.08525,22.775094],[121.0842,22.774568],[121.078057,22.774807],[121.07756,22.774666],[121.077016,22.77391],[121.075578,22.772622],[121.074001,22.772317],[121.071346,22.770819],[121.069338,22.77022],[121.068245,22.769675],[121.069757,22.769624],[121.071476,22.765981],[121.072952,22.76572],[121.072424,22.76364],[121.075329,22.762587],[121.081027,22.760537],[121.082645,22.764811],[121.086709,22.762299],[121.092219,22.758379],[121.095482,22.763577],[121.095786,22.764367],[121.095785,22.766276],[121.11104,22.777117]]]},"properties":{"code":"10014010030","name":"豐田里","countyCode":"10014","countyName":"臺東縣","townCode":"10014010","townName":"臺東市","level":"village","unassigned":false,"note":"","label":[121.08910085566498,22.768833473239674],"bounds":[121.068245,22.758379,121.11104,22.779306],"focusBounds":[121.068245,22.758379,121.11104,22.779306],"color":"#78a7e3"}},{"type":"Feature","id":"10014010031","geometry":{"type":"Polygon","coordinates":[[[121.11532,22.77644],[121.114663,22.77661],[121.113909,22.776269],[121.112501,22.776108],[121.11104,22.777117],[121.095785,22.766276],[121.095786,22.764367],[121.095482,22.763577],[121.101542,22.763505],[121.113778,22.761607],[121.118529,22.760844],[121.119985,22.76023],[121.122394,22.766624],[121.12323,22.768333],[121.123234,22.768706],[121.118421,22.771686],[121.11532,22.77644]]]},"properties":{"code":"10014010031","name":"豐年里","countyCode":"10014","countyName":"臺東縣","townCode":"10014010","townName":"臺東市","level":"village","unassigned":false,"note":"","label":[121.11185620360433,22.769229214684984],"bounds":[121.095482,22.76023,121.123234,22.777117],"focusBounds":[121.095482,22.76023,121.123234,22.777117],"color":"#dd8590"}},{"type":"Feature","id":"10014010032","geometry":{"type":"Polygon","coordinates":[[[121.11532,22.77644],[121.118421,22.771686],[121.123234,22.768706],[121.133473,22.762639],[121.133248,22.764847],[121.131549,22.767731],[121.130926,22.768774],[121.130598,22.768932],[121.127412,22.771865],[121.123942,22.773532],[121.120253,22.775207],[121.119187,22.775833],[121.116493,22.776532],[121.11532,22.77644]]]},"properties":{"code":"10014010032","name":"光明里","countyCode":"10014","countyName":"臺東縣","townCode":"10014010","townName":"臺東市","level":"village","unassigned":false,"note":"","label":[121.12498494826026,22.770349452014678],"bounds":[121.11532,22.762639,121.133473,22.776532],"focusBounds":[121.11532,22.762639,121.133473,22.776532],"color":"#a49ad4"}},{"type":"Feature","id":"10014010033","geometry":{"type":"Polygon","coordinates":[[[121.133473,22.762639],[121.123234,22.768706],[121.12323,22.768333],[121.122394,22.766624],[121.119985,22.76023],[121.123459,22.758594],[121.119415,22.7496],[121.122935,22.746628],[121.126163,22.746082],[121.129127,22.744453],[121.129493,22.744115],[121.13135,22.747481],[121.133487,22.749117],[121.131085,22.753317],[121.13105,22.75432],[121.131297,22.754804],[121.131413,22.755005],[121.13488,22.753474],[121.136233,22.754206],[121.134024,22.757696],[121.133944,22.758335],[121.134106,22.759119],[121.133974,22.759815],[121.133119,22.761252],[121.133473,22.762639]]]},"properties":{"code":"10014010033","name":"豐樂里","countyCode":"10014","countyName":"臺東縣","townCode":"10014010","townName":"臺東市","level":"village","unassigned":false,"note":"","label":[121.12709535237994,22.755993737019182],"bounds":[121.119415,22.744115,121.136233,22.768706],"focusBounds":[121.119415,22.744115,121.136233,22.768706],"color":"#a8bf62"}},{"type":"Feature","id":"10014010034","geometry":{"type":"Polygon","coordinates":[[[121.119985,22.76023],[121.118529,22.760844],[121.113778,22.761607],[121.113536,22.760423],[121.111135,22.75376],[121.109532,22.751018],[121.108149,22.750062],[121.106734,22.747536],[121.106094,22.746787],[121.1088,22.744792],[121.113994,22.73713],[121.115958,22.741647],[121.117771,22.740755],[121.119572,22.740772],[121.121015,22.739559],[121.123852,22.738866],[121.12468,22.737773],[121.126263,22.738552],[121.129493,22.744115],[121.129127,22.744453],[121.126163,22.746082],[121.122935,22.746628],[121.119415,22.7496],[121.123459,22.758594],[121.119985,22.76023]]]},"properties":{"code":"10014010034","name":"永樂里","countyCode":"10014","countyName":"臺東縣","townCode":"10014010","townName":"臺東市","level":"village","unassigned":false,"note":"","label":[121.11407243436012,22.7473078908373],"bounds":[121.106094,22.73713,121.129493,22.761607],"focusBounds":[121.106094,22.73713,121.129493,22.761607],"color":"#68bec9"}},{"type":"Feature","id":"10014010035","geometry":{"type":"Polygon","coordinates":[[[121.095482,22.763577],[121.092219,22.758379],[121.086709,22.762299],[121.082645,22.764811],[121.081027,22.760537],[121.075329,22.762587],[121.073557,22.75703],[121.072238,22.751666],[121.070907,22.749213],[121.069954,22.748148],[121.071437,22.747079],[121.078413,22.740192],[121.081543,22.738274],[121.082993,22.737693],[121.08695,22.73665],[121.087873,22.736037],[121.089207,22.734384],[121.091757,22.730669],[121.094039,22.732543],[121.103116,22.742555],[121.103357,22.743587],[121.106094,22.746787],[121.106734,22.747536],[121.108149,22.750062],[121.109532,22.751018],[121.111135,22.75376],[121.113536,22.760423],[121.113778,22.761607],[121.101542,22.763505],[121.095482,22.763577]]]},"properties":{"code":"10014010035","name":"康樂里","countyCode":"10014","countyName":"臺東縣","townCode":"10014010","townName":"臺東市","level":"village","unassigned":false,"note":"","label":[121.09135206989237,22.74711934907672],"bounds":[121.069954,22.730669,121.113778,22.764811],"focusBounds":[121.069954,22.730669,121.113778,22.764811],"color":"#df9f6a"}},{"type":"Feature","id":"10014010036","geometry":{"type":"Polygon","coordinates":[[[121.144354,22.754794],[121.143468,22.756358],[121.142668,22.757162],[121.142372,22.757038],[121.14089,22.757072],[121.136233,22.754206],[121.137163,22.753074],[121.138767,22.750651],[121.141027,22.748127],[121.141607,22.74854],[121.141679,22.749474],[121.142807,22.750616],[121.14294,22.753242],[121.144354,22.754794]]]},"properties":{"code":"10014010036","name":"東海里","countyCode":"10014","countyName":"臺東縣","townCode":"10014010","townName":"臺東市","level":"village","unassigned":false,"note":"","label":[121.14020505077926,22.75340140976384],"bounds":[121.136233,22.748127,121.144354,22.757162],"focusBounds":[121.136233,22.748127,121.144354,22.757162],"color":"#c38cb8"}},{"type":"Feature","id":"10014010037","geometry":{"type":"Polygon","coordinates":[[[121.145132,22.753468],[121.144354,22.754794],[121.14294,22.753242],[121.142807,22.750616],[121.141679,22.749474],[121.141607,22.74854],[121.141027,22.748127],[121.141921,22.74713],[121.142311,22.746387],[121.142745,22.745461],[121.144481,22.743204],[121.145876,22.740916],[121.147428,22.73902],[121.14809,22.738425],[121.150177,22.74065],[121.151941,22.741971],[121.154766,22.745348],[121.153696,22.746414],[121.15353,22.746985],[121.150444,22.749591],[121.149357,22.750486],[121.149077,22.750223],[121.146928,22.751697],[121.145132,22.753468]]]},"properties":{"code":"10014010037","name":"新興里","countyCode":"10014","countyName":"臺東縣","townCode":"10014010","townName":"臺東市","level":"village","unassigned":false,"note":"","label":[121.14759021362606,22.746307181689346],"bounds":[121.141027,22.738425,121.154766,22.754794],"focusBounds":[121.141027,22.738425,121.154766,22.754794],"color":"#98b69b"}},{"type":"Feature","id":"10014010038","geometry":{"type":"Polygon","coordinates":[[[121.141027,22.748127],[121.138767,22.750651],[121.134005,22.74817],[121.136485,22.743542],[121.142311,22.746387],[121.141921,22.74713],[121.141027,22.748127]]]},"properties":{"code":"10014010038","name":"豐榮里","countyCode":"10014","countyName":"臺東縣","townCode":"10014010","townName":"臺東市","level":"village","unassigned":false,"note":"","label":[121.13793427345631,22.747233362060605],"bounds":[121.134005,22.743542,121.142311,22.750651],"focusBounds":[121.134005,22.743542,121.142311,22.750651],"color":"#58b99d"}},{"type":"Feature","id":"10014010039","geometry":{"type":"Polygon","coordinates":[[[121.134005,22.74817],[121.133487,22.749117],[121.13135,22.747481],[121.129493,22.744115],[121.126263,22.738552],[121.12468,22.737773],[121.124967,22.737494],[121.126982,22.736994],[121.128439,22.736223],[121.12993,22.733752],[121.132467,22.732564],[121.134229,22.731145],[121.135108,22.728756],[121.135761,22.727785],[121.136909,22.729094],[121.139592,22.731323],[121.140321,22.731341],[121.14186,22.73185],[121.14331,22.732789],[121.145086,22.734447],[121.144069,22.735311],[121.142899,22.735523],[121.141933,22.736308],[121.138503,22.738149],[121.135688,22.740248],[121.132625,22.741027],[121.132182,22.74145],[121.136485,22.743542],[121.134005,22.74817]]]},"properties":{"code":"10014010039","name":"豐谷里","countyCode":"10014","countyName":"臺東縣","townCode":"10014010","townName":"臺東市","level":"village","unassigned":false,"note":"","label":[121.13421733378173,22.736351894042073],"bounds":[121.12468,22.727785,121.145086,22.749117],"focusBounds":[121.12468,22.727785,121.145086,22.749117],"color":"#efb44f"}},{"type":"Feature","id":"10014010040","geometry":{"type":"Polygon","coordinates":[[[121.12468,22.737773],[121.123852,22.738866],[121.121015,22.739559],[121.119572,22.740772],[121.117771,22.740755],[121.115958,22.741647],[121.113994,22.73713],[121.116723,22.733864],[121.113299,22.73224],[121.113577,22.731581],[121.113231,22.730558],[121.113653,22.729989],[121.114345,22.728068],[121.114745,22.726269],[121.115174,22.725805],[121.116461,22.725566],[121.116965,22.725064],[121.117292,22.72319],[121.118284,22.722271],[121.118843,22.721403],[121.119095,22.720496],[121.119827,22.719884],[121.121212,22.719661],[121.122879,22.719775],[121.12352,22.720274],[121.124942,22.720192],[121.125811,22.720358],[121.126203,22.72072],[121.126561,22.720811],[121.127398,22.720539],[121.12809,22.7201],[121.128373,22.719748],[121.129245,22.72102],[121.131528,22.722971],[121.132031,22.723881],[121.132811,22.724724],[121.133154,22.724854],[121.135761,22.727785],[121.135108,22.728756],[121.134229,22.731145],[121.132467,22.732564],[121.12993,22.733752],[121.128439,22.736223],[121.126982,22.736994],[121.124967,22.737494],[121.12468,22.737773]]]},"properties":{"code":"10014010040","name":"豐里里","countyCode":"10014","countyName":"臺東縣","townCode":"10014010","townName":"臺東市","level":"village","unassigned":false,"note":"","label":[121.1234414468154,22.72958933738625],"bounds":[121.113231,22.719661,121.135761,22.741647],"focusBounds":[121.113231,22.719661,121.135761,22.741647],"color":"#78a7e3"}},{"type":"Feature","id":"10014010041","geometry":{"type":"Polygon","coordinates":[[[121.113994,22.73713],[121.1088,22.744792],[121.106094,22.746787],[121.103357,22.743587],[121.103116,22.742555],[121.094039,22.732543],[121.091757,22.730669],[121.092816,22.729535],[121.093709,22.728055],[121.095981,22.722994],[121.099333,22.716434],[121.100599,22.714453],[121.102309,22.712244],[121.102929,22.711017],[121.103397,22.709768],[121.103941,22.706504],[121.106052,22.707477],[121.108699,22.709064],[121.109669,22.709407],[121.111159,22.710531],[121.117621,22.714131],[121.118976,22.714526],[121.120588,22.714758],[121.123692,22.716247],[121.125656,22.717808],[121.128108,22.719362],[121.128373,22.719748],[121.12809,22.7201],[121.127398,22.720539],[121.126561,22.720811],[121.126203,22.72072],[121.125811,22.720358],[121.124942,22.720192],[121.12352,22.720274],[121.122879,22.719775],[121.121212,22.719661],[121.119827,22.719884],[121.119095,22.720496],[121.118843,22.721403],[121.118284,22.722271],[121.117292,22.72319],[121.116965,22.725064],[121.116461,22.725566],[121.115174,22.725805],[121.114745,22.726269],[121.114345,22.728068],[121.113653,22.729989],[121.113231,22.730558],[121.113577,22.731581],[121.113299,22.73224],[121.116723,22.733864],[121.113994,22.73713]]]},"properties":{"code":"10014010041","name":"豐原里","countyCode":"10014","countyName":"臺東縣","townCode":"10014010","townName":"臺東市","level":"village","unassigned":false,"note":"","label":[121.10544651936246,22.72494979055371],"bounds":[121.091757,22.706504,121.128373,22.746787],"focusBounds":[121.091757,22.706504,121.128373,22.746787],"color":"#dd8590"}},{"type":"Feature","id":"10014010042","geometry":{"type":"Polygon","coordinates":[[[121.056562,22.719764],[121.057967,22.722484],[121.059596,22.724841],[121.06257,22.725525],[121.066789,22.726075],[121.066452,22.729035],[121.066081,22.730877],[121.068464,22.732779],[121.065569,22.736005],[121.065259,22.73671],[121.065099,22.737697],[121.06367,22.738589],[121.062269,22.742133],[121.062709,22.743521],[121.06035,22.746355],[121.057397,22.749415],[121.05674,22.749777],[121.055235,22.751835],[121.053806,22.75463],[121.05335,22.754101],[121.054442,22.749253],[121.055628,22.748116],[121.055838,22.748384],[121.055987,22.748282],[121.056807,22.747129],[121.056589,22.743084],[121.056178,22.741156],[121.055367,22.741066],[121.054938,22.740766],[121.054581,22.740315],[121.053924,22.738834],[121.052057,22.736768],[121.051498,22.73667],[121.050391,22.737492],[121.049203,22.739451],[121.048907,22.739649],[121.048423,22.739289],[121.048151,22.738727],[121.047752,22.738432],[121.047481,22.737911],[121.046993,22.737426],[121.046342,22.736951],[121.045847,22.73681],[121.046046,22.736171],[121.046713,22.735953],[121.047275,22.735267],[121.047344,22.734854],[121.046181,22.733563],[121.045015,22.733188],[121.044411,22.732187],[121.043306,22.732172],[121.042373,22.731959],[121.042907,22.730614],[121.042596,22.728902],[121.042856,22.727757],[121.042836,22.725901],[121.043633,22.724183],[121.040657,22.723974],[121.039743,22.723332],[121.040031,22.723055],[121.04167,22.722344],[121.043208,22.720344],[121.043923,22.720022],[121.044362,22.718987],[121.045148,22.718325],[121.04562,22.717515],[121.047464,22.71594],[121.048454,22.715384],[121.048783,22.71518],[121.051902,22.717764],[121.054187,22.720679],[121.056562,22.719764]]]},"properties":{"code":"10014010042","name":"建和里","countyCode":"10014","countyName":"臺東縣","townCode":"10014010","townName":"臺東市","level":"village","unassigned":false,"note":"","label":[121.05305230387216,22.729202898404374],"bounds":[121.039743,22.71518,121.068464,22.75463],"focusBounds":[121.039743,22.71518,121.068464,22.75463],"color":"#a49ad4"}},{"type":"Feature","id":"10014010043","geometry":{"type":"Polygon","coordinates":[[[121.048454,22.715384],[121.047464,22.71594],[121.04562,22.717515],[121.045148,22.718325],[121.044362,22.718987],[121.043923,22.720022],[121.043208,22.720344],[121.04167,22.722344],[121.040031,22.723055],[121.039743,22.723332],[121.038258,22.721944],[121.039022,22.720937],[121.037779,22.720642],[121.037469,22.720303],[121.037505,22.719962],[121.03823,22.718881],[121.038169,22.718288],[121.037637,22.717513],[121.037686,22.716509],[121.035217,22.715023],[121.034959,22.714628],[121.035047,22.71414],[121.034884,22.713943],[121.03286,22.713553],[121.031855,22.712747],[121.030922,22.712637],[121.029242,22.712896],[121.026759,22.714593],[121.026061,22.714676],[121.027052,22.712311],[121.029565,22.709474],[121.030553,22.707479],[121.031533,22.707171],[121.0335,22.705068],[121.033915,22.703905],[121.034596,22.702817],[121.034936,22.701779],[121.035229,22.701692],[121.036483,22.701838],[121.037707,22.701717],[121.039099,22.702146],[121.039415,22.70211],[121.039871,22.701784],[121.04105,22.701537],[121.043389,22.701475],[121.045444,22.701179],[121.045266,22.712808],[121.045651,22.713226],[121.047136,22.71407],[121.048454,22.715384]]]},"properties":{"code":"10014010043","name":"建興里","countyCode":"10014","countyName":"臺東縣","townCode":"10014010","townName":"臺東市","level":"village","unassigned":false,"note":"","label":[121.03881610896185,22.70892877465025],"bounds":[121.026061,22.701179,121.048454,22.723332],"focusBounds":[121.026061,22.701179,121.048454,22.723332],"color":"#a8bf62"}},{"type":"Feature","id":"10014010045","geometry":{"type":"Polygon","coordinates":[[[121.056562,22.719764],[121.054187,22.720679],[121.051902,22.717764],[121.048783,22.71518],[121.048454,22.715384],[121.047136,22.71407],[121.045651,22.713226],[121.045266,22.712808],[121.045444,22.701179],[121.048626,22.700277],[121.049675,22.699836],[121.050765,22.698994],[121.053029,22.696549],[121.055307,22.694896],[121.05758,22.69275],[121.059137,22.690957],[121.060358,22.689945],[121.062839,22.6869],[121.063809,22.684954],[121.064976,22.68413],[121.065448,22.683494],[121.067173,22.685078],[121.068258,22.686521],[121.068616,22.686662],[121.068993,22.687168],[121.070818,22.688612],[121.073105,22.691755],[121.076297,22.694545],[121.074556,22.697006],[121.074225,22.697207],[121.074252,22.697345],[121.072372,22.698969],[121.070972,22.699729],[121.070888,22.700496],[121.07042,22.700804],[121.067879,22.701451],[121.06772,22.701736],[121.066782,22.702279],[121.066145,22.702421],[121.065167,22.703384],[121.065261,22.704145],[121.06507,22.70503],[121.064364,22.705637],[121.064259,22.706615],[121.064565,22.707198],[121.064482,22.707645],[121.063623,22.708295],[121.063164,22.708319],[121.06293,22.708664],[121.062277,22.709106],[121.056562,22.719764]]]},"properties":{"code":"10014010045","name":"知本里","countyCode":"10014","countyName":"臺東縣","townCode":"10014010","townName":"臺東市","level":"village","unassigned":false,"note":"","label":[121.05775393303816,22.702224579621213],"bounds":[121.045266,22.683494,121.076297,22.720679],"focusBounds":[121.045266,22.683494,121.076297,22.720679],"color":"#68bec9"}},{"type":"Feature","id":"10014010046","geometry":{"type":"Polygon","coordinates":[[[121.056562,22.719764],[121.062277,22.709106],[121.06293,22.708664],[121.063164,22.708319],[121.063623,22.708295],[121.064482,22.707645],[121.064565,22.707198],[121.064259,22.706615],[121.064364,22.705637],[121.06507,22.70503],[121.065261,22.704145],[121.065167,22.703384],[121.066145,22.702421],[121.066782,22.702279],[121.06772,22.701736],[121.067879,22.701451],[121.07042,22.700804],[121.070888,22.700496],[121.070972,22.699729],[121.072372,22.698969],[121.074252,22.697345],[121.074225,22.697207],[121.074556,22.697006],[121.076297,22.694545],[121.077562,22.695679],[121.078834,22.696402],[121.081356,22.698198],[121.087337,22.700776],[121.088671,22.701562],[121.093019,22.703645],[121.097034,22.70481],[121.100627,22.705025],[121.101516,22.705313],[121.103941,22.706504],[121.103397,22.709768],[121.102929,22.711017],[121.102309,22.712244],[121.100599,22.714453],[121.099333,22.716434],[121.095981,22.722994],[121.093709,22.728055],[121.092816,22.729535],[121.091757,22.730669],[121.089207,22.734384],[121.087873,22.736037],[121.08695,22.73665],[121.082993,22.737693],[121.081543,22.738274],[121.078413,22.740192],[121.071437,22.747079],[121.069954,22.748148],[121.068613,22.749026],[121.066798,22.751283],[121.065567,22.75369],[121.06359,22.756998],[121.062585,22.758624],[121.061937,22.759196],[121.06051,22.759526],[121.05931,22.759407],[121.058532,22.759107],[121.056261,22.757604],[121.053806,22.75463],[121.055235,22.751835],[121.05674,22.749777],[121.057397,22.749415],[121.06035,22.746355],[121.062709,22.743521],[121.062269,22.742133],[121.06367,22.738589],[121.065099,22.737697],[121.065259,22.73671],[121.065569,22.736005],[121.068464,22.732779],[121.066081,22.730877],[121.066452,22.729035],[121.066789,22.726075],[121.06257,22.725525],[121.059596,22.724841],[121.057967,22.722484],[121.056562,22.719764]]]},"properties":{"code":"10014010046","name":"建農里","countyCode":"10014","countyName":"臺東縣","townCode":"10014010","townName":"臺東市","level":"village","unassigned":false,"note":"","label":[121.07975143761269,22.715934509574275],"bounds":[121.053806,22.694545,121.103941,22.759526],"focusBounds":[121.053806,22.694545,121.103941,22.759526],"color":"#c38cb8"}},{"type":"Feature","id":"10014010047","geometry":{"type":"Polygon","coordinates":[[[121.148326,22.768251],[121.144025,22.772582],[121.142639,22.774613],[121.14142,22.775623],[121.140532,22.775326],[121.137589,22.771727],[121.134329,22.769981],[121.134571,22.769737],[121.136287,22.768021],[121.147997,22.767978],[121.148326,22.768251]]]},"properties":{"code":"10014010047","name":"仁和里","countyCode":"10014","countyName":"臺東縣","townCode":"10014010","townName":"臺東市","level":"village","unassigned":false,"note":"","label":[121.14119704742721,22.771139370426248],"bounds":[121.134329,22.767978,121.148326,22.775623],"focusBounds":[121.134329,22.767978,121.148326,22.775623],"color":"#98b69b"}},{"type":"Feature","id":"10014010048","geometry":{"type":"Polygon","coordinates":[[[121.136233,22.754206],[121.13488,22.753474],[121.131413,22.755005],[121.131297,22.754804],[121.13105,22.75432],[121.131085,22.753317],[121.133487,22.749117],[121.134005,22.74817],[121.138767,22.750651],[121.137163,22.753074],[121.136233,22.754206]]]},"properties":{"code":"10014010048","name":"豐安里","countyCode":"10014","countyName":"臺東縣","townCode":"10014010","townName":"臺東市","level":"village","unassigned":false,"note":"","label":[121.13461325591675,22.751389754011456],"bounds":[121.13105,22.74817,121.138767,22.755005],"focusBounds":[121.13105,22.74817,121.138767,22.755005],"color":"#98b69b"}},{"type":"Feature","id":"10014010049","geometry":{"type":"Polygon","coordinates":[[[121.14809,22.738425],[121.147428,22.73902],[121.145876,22.740916],[121.144481,22.743204],[121.142745,22.745461],[121.142311,22.746387],[121.136485,22.743542],[121.132182,22.74145],[121.132625,22.741027],[121.135688,22.740248],[121.138503,22.738149],[121.141933,22.736308],[121.142899,22.735523],[121.144069,22.735311],[121.145086,22.734447],[121.147113,22.736766],[121.14809,22.738425]]]},"properties":{"code":"10014010049","name":"豐盛里","countyCode":"10014","countyName":"臺東縣","townCode":"10014010","townName":"臺東市","level":"village","unassigned":false,"note":"","label":[121.14140745360034,22.74090640844959],"bounds":[121.132182,22.734447,121.14809,22.746387],"focusBounds":[121.132182,22.734447,121.14809,22.746387],"color":"#78a7e3"}}]}
