{"type":"FeatureCollection","features":[{"type":"Feature","id":"10013160001","geometry":{"type":"Polygon","coordinates":[[[120.607403,22.373456],[120.604959,22.372034],[120.603801,22.371916],[120.60155,22.371928],[120.598134,22.371706],[120.596457,22.372408],[120.595591,22.372458],[120.595177,22.372294],[120.59364,22.370929],[120.591545,22.368352],[120.591161,22.368387],[120.59046,22.368866],[120.589328,22.370512],[120.588913,22.370869],[120.5858,22.372343],[120.584821,22.372433],[120.584941,22.37234],[120.5847,22.372028],[120.585476,22.371463],[120.585306,22.37123],[120.585477,22.371129],[120.585642,22.371297],[120.587504,22.369699],[120.589676,22.367699],[120.592101,22.365152],[120.592424,22.364645],[120.592373,22.363917],[120.592087,22.363612],[120.59217,22.363517],[120.593238,22.364358],[120.593645,22.363945],[120.593932,22.364034],[120.59396,22.3641],[120.594525,22.364982],[120.595386,22.365794],[120.595962,22.36562],[120.596808,22.365085],[120.597689,22.365351],[120.599021,22.366786],[120.600918,22.368342],[120.604638,22.370191],[120.605356,22.370743],[120.607403,22.373456]]]},"properties":{"code":"10013160001","name":"枋寮村","countyCode":"10013","countyName":"屏東縣","townCode":"10013160","townName":"枋寮鄉","level":"village","unassigned":false,"note":"","label":[120.59623789210575,22.36893282197063],"bounds":[120.5847,22.363517,120.607403,22.373456],"focusBounds":[120.5847,22.363517,120.607403,22.373456],"color":"#a8bf62"}},{"type":"Feature","id":"10013160002","geometry":{"type":"Polygon","coordinates":[[[120.582658,22.385136],[120.578282,22.390977],[120.569446,22.385131],[120.568365,22.384735],[120.567201,22.385261],[120.566897,22.384854],[120.567078,22.384745],[120.566797,22.384279],[120.566985,22.384395],[120.567598,22.384002],[120.577711,22.37721],[120.58303,22.373446],[120.584184,22.372429],[120.584041,22.372185],[120.584144,22.372137],[120.5846,22.372606],[120.584821,22.372433],[120.5858,22.372343],[120.588913,22.370869],[120.589328,22.370512],[120.59046,22.368866],[120.591161,22.368387],[120.591545,22.368352],[120.59364,22.370929],[120.595177,22.372294],[120.595591,22.372458],[120.596457,22.372408],[120.598134,22.371706],[120.60155,22.371928],[120.603801,22.371916],[120.602628,22.372265],[120.600261,22.373479],[120.594008,22.377658],[120.59291,22.378109],[120.59146,22.378403],[120.589378,22.378493],[120.587351,22.378876],[120.582658,22.385136]]]},"properties":{"code":"10013160002","name":"新龍村","countyCode":"10013","countyName":"屏東縣","townCode":"10013160","townName":"枋寮鄉","level":"village","unassigned":false,"note":"","label":[120.57716254519315,22.38390748355708],"bounds":[120.566797,22.368352,120.603801,22.390977],"focusBounds":[120.566797,22.368352,120.603801,22.390977],"color":"#68bec9"}},{"type":"Feature","id":"10013160003","geometry":{"type":"Polygon","coordinates":[[[120.595958,22.361827],[120.595785,22.362176],[120.594504,22.363006],[120.59396,22.3641],[120.593932,22.364034],[120.594175,22.363441],[120.59394,22.363364],[120.593377,22.363803],[120.592396,22.363199],[120.592621,22.36311],[120.593104,22.363456],[120.593575,22.362794],[120.593092,22.362497],[120.593586,22.362322],[120.594813,22.360923],[120.594213,22.360459],[120.593006,22.361837],[120.593093,22.362057],[120.592853,22.362356],[120.592065,22.362485],[120.592196,22.362885],[120.592088,22.362928],[120.591923,22.362548],[120.59138,22.362707],[120.590865,22.363302],[120.590304,22.36353],[120.590159,22.363316],[120.5907,22.363044],[120.591188,22.36247],[120.592249,22.3621],[120.594308,22.35982],[120.594681,22.359942],[120.596309,22.358155],[120.597358,22.357502],[120.598936,22.355746],[120.599773,22.353233],[120.601458,22.350154],[120.601953,22.34961],[120.602138,22.348888],[120.603317,22.346479],[120.603375,22.346049],[120.604022,22.345017],[120.605123,22.34265],[120.605162,22.341146],[120.605377,22.340729],[120.60638,22.340561],[120.607907,22.341345],[120.608747,22.342153],[120.609679,22.34259],[120.610563,22.342689],[120.61151,22.343363],[120.609295,22.346883],[120.606267,22.348188],[120.601527,22.352859],[120.600233,22.356066],[120.599733,22.357011],[120.595958,22.361827]]]},"properties":{"code":"10013160003","name":"保生村","countyCode":"10013","countyName":"屏東縣","townCode":"10013160","townName":"枋寮鄉","level":"village","unassigned":false,"note":"","label":[120.60746003255966,22.344394665185593],"bounds":[120.590159,22.340561,120.61151,22.3641],"focusBounds":[120.590159,22.340561,120.61151,22.3641],"color":"#df9f6a"}},{"type":"Feature","id":"10013160004","geometry":{"type":"Polygon","coordinates":[[[120.600284,22.357254],[120.59941,22.358841],[120.599042,22.359893],[120.598133,22.360403],[120.597567,22.361108],[120.596957,22.361547],[120.595958,22.361827],[120.599733,22.357011],[120.600233,22.356066],[120.600284,22.357254]]]},"properties":{"code":"10013160004","name":"中寮村","countyCode":"10013","countyName":"屏東縣","townCode":"10013160","townName":"枋寮鄉","level":"village","unassigned":false,"note":"","label":[120.59860669841564,22.35939046706938],"bounds":[120.595958,22.356066,120.600284,22.361827],"focusBounds":[120.595958,22.356066,120.600284,22.361827],"color":"#c38cb8"}},{"type":"Feature","id":"10013160005","geometry":{"type":"Polygon","coordinates":[[[120.595386,22.365794],[120.594525,22.364982],[120.59396,22.3641],[120.594504,22.363006],[120.595785,22.362176],[120.595958,22.361827],[120.596957,22.361547],[120.597567,22.361108],[120.598133,22.360403],[120.599042,22.359893],[120.59941,22.358841],[120.600284,22.357254],[120.600359,22.359934],[120.600013,22.360945],[120.598806,22.362775],[120.596201,22.364771],[120.595386,22.365794]]]},"properties":{"code":"10013160005","name":"安樂村","countyCode":"10013","countyName":"屏東縣","townCode":"10013160","townName":"枋寮鄉","level":"village","unassigned":false,"note":"","label":[120.59760748173639,22.362375968233607],"bounds":[120.59396,22.357254,120.600359,22.365794],"focusBounds":[120.59396,22.357254,120.600359,22.365794],"color":"#98b69b"}},{"type":"Feature","id":"10013160006","geometry":{"type":"Polygon","coordinates":[[[120.620714,22.373101],[120.619472,22.373437],[120.617603,22.373496],[120.61563,22.3745],[120.614954,22.374661],[120.614301,22.374696],[120.612851,22.374187],[120.612111,22.374469],[120.611767,22.374893],[120.610925,22.375419],[120.609431,22.375687],[120.608658,22.374219],[120.607403,22.373456],[120.605356,22.370743],[120.604638,22.370191],[120.600918,22.368342],[120.599021,22.366786],[120.597689,22.365351],[120.596808,22.365085],[120.595962,22.36562],[120.595386,22.365794],[120.596201,22.364771],[120.598806,22.362775],[120.600013,22.360945],[120.600359,22.359934],[120.600284,22.357254],[120.600233,22.356066],[120.601527,22.352859],[120.606267,22.348188],[120.609295,22.346883],[120.61151,22.343363],[120.611628,22.34345],[120.611407,22.343897],[120.611839,22.344725],[120.612126,22.345792],[120.6134,22.346544],[120.61366,22.347224],[120.614236,22.347708],[120.615377,22.348443],[120.617737,22.349269],[120.617897,22.349432],[120.618153,22.350549],[120.620218,22.351417],[120.621181,22.351364],[120.621543,22.351506],[120.621883,22.351884],[120.623647,22.352184],[120.625086,22.353615],[120.626294,22.353745],[120.629394,22.354435],[120.631084,22.354517],[120.632799,22.35538],[120.633284,22.355824],[120.634076,22.355872],[120.635073,22.3566],[120.635667,22.356419],[120.63612,22.356069],[120.63687,22.356094],[120.638096,22.355613],[120.640235,22.355239],[120.63992,22.355429],[120.639085,22.356468],[120.639513,22.356702],[120.639515,22.356847],[120.639379,22.357113],[120.639331,22.358553],[120.638964,22.359026],[120.635854,22.359335],[120.634076,22.35932],[120.632487,22.358688],[120.630739,22.358466],[120.62971,22.357889],[120.629085,22.358366],[120.627865,22.358736],[120.627652,22.359267],[120.62688,22.359172],[120.62634,22.359766],[120.625984,22.359786],[120.625637,22.360482],[120.62577,22.361841],[120.624997,22.362306],[120.624689,22.36235],[120.621864,22.361758],[120.620409,22.36126],[120.620289,22.3617],[120.62038,22.36191],[120.620733,22.36186],[120.620962,22.361625],[120.621244,22.361722],[120.62139,22.361827],[120.621291,22.362378],[120.622271,22.362832],[120.622958,22.363765],[120.622526,22.363558],[120.622234,22.363104],[120.621732,22.362913],[120.620215,22.363439],[120.620519,22.364322],[120.62017,22.364953],[120.620076,22.365518],[120.620179,22.366138],[120.620525,22.366775],[120.620308,22.367061],[120.619674,22.367153],[120.619482,22.367331],[120.618428,22.369187],[120.617896,22.370611],[120.618032,22.370678],[120.618938,22.370317],[120.620598,22.369011],[120.621542,22.369653],[120.622652,22.369038],[120.623038,22.369214],[120.623411,22.370185],[120.623698,22.370466],[120.624864,22.370249],[120.625199,22.370339],[120.62525,22.370479],[120.624827,22.37128],[120.621473,22.371434],[120.621188,22.371802],[120.620976,22.372889],[120.620714,22.373101]]]},"properties":{"code":"10013160006","name":"隆山村","countyCode":"10013","countyName":"屏東縣","townCode":"10013160","townName":"枋寮鄉","level":"village","unassigned":false,"note":"","label":[120.61025212108342,22.36151958834783],"bounds":[120.595386,22.343363,120.640235,22.375687],"focusBounds":[120.595386,22.343363,120.640235,22.375687],"color":"#58b99d"}},{"type":"Feature","id":"10013160007","geometry":{"type":"Polygon","coordinates":[[[120.61489,22.397537],[120.61239,22.403104],[120.612002,22.402931],[120.605663,22.3967],[120.60499,22.396396],[120.604519,22.396433],[120.604293,22.396907],[120.604229,22.398067],[120.60528,22.402003],[120.605876,22.403456],[120.604237,22.403115],[120.603025,22.40197],[120.602866,22.401534],[120.595239,22.401217],[120.594568,22.398725],[120.593639,22.397858],[120.592552,22.394297],[120.592262,22.394151],[120.591814,22.394229],[120.593646,22.388574],[120.596461,22.38945],[120.597537,22.390412],[120.598722,22.390264],[120.597478,22.387479],[120.597455,22.386811],[120.598773,22.386225],[120.600581,22.386536],[120.603228,22.38725],[120.609043,22.389187],[120.609906,22.389835],[120.610312,22.389809],[120.610709,22.390901],[120.611915,22.392854],[120.6121,22.393819],[120.612041,22.39537],[120.612161,22.395887],[120.612778,22.396453],[120.61489,22.397537]]]},"properties":{"code":"10013160007","name":"天時村","countyCode":"10013","countyName":"屏東縣","townCode":"10013160","townName":"枋寮鄉","level":"village","unassigned":false,"note":"","label":[120.59906556522945,22.39580344431042],"bounds":[120.591814,22.386225,120.61489,22.403456],"focusBounds":[120.591814,22.386225,120.61489,22.403456],"color":"#efb44f"}},{"type":"Feature","id":"10013160008","geometry":{"type":"Polygon","coordinates":[[[120.591814,22.394229],[120.590435,22.394865],[120.590024,22.394744],[120.589573,22.394323],[120.588883,22.394226],[120.588177,22.393829],[120.587509,22.393792],[120.586946,22.393953],[120.586751,22.393442],[120.587004,22.39323],[120.586997,22.393038],[120.586738,22.392715],[120.586659,22.391965],[120.586155,22.392079],[120.585463,22.391804],[120.584605,22.39205],[120.583723,22.39166],[120.5837,22.391156],[120.581951,22.391278],[120.579373,22.391777],[120.578974,22.391609],[120.578282,22.390977],[120.582658,22.385136],[120.588148,22.38616],[120.594832,22.386953],[120.596774,22.387069],[120.597455,22.386811],[120.597478,22.387479],[120.598722,22.390264],[120.597537,22.390412],[120.596461,22.38945],[120.593646,22.388574],[120.591814,22.394229]]]},"properties":{"code":"10013160008","name":"地利村","countyCode":"10013","countyName":"屏東縣","townCode":"10013160","townName":"枋寮鄉","level":"village","unassigned":false,"note":"","label":[120.58945827540275,22.389846460540937],"bounds":[120.578282,22.385136,120.598722,22.394865],"focusBounds":[120.578282,22.385136,120.598722,22.394865],"color":"#78a7e3"}},{"type":"Feature","id":"10013160009","geometry":{"type":"Polygon","coordinates":[[[120.610312,22.389809],[120.609906,22.389835],[120.609043,22.389187],[120.603228,22.38725],[120.600581,22.386536],[120.598773,22.386225],[120.597455,22.386811],[120.596774,22.387069],[120.594832,22.386953],[120.588148,22.38616],[120.582658,22.385136],[120.587351,22.378876],[120.589378,22.378493],[120.59146,22.378403],[120.59291,22.378109],[120.594008,22.377658],[120.600261,22.373479],[120.602628,22.372265],[120.603801,22.371916],[120.604959,22.372034],[120.607403,22.373456],[120.608658,22.374219],[120.609431,22.375687],[120.611178,22.379051],[120.611427,22.379975],[120.611052,22.382949],[120.609849,22.387936],[120.610312,22.389809]]]},"properties":{"code":"10013160009","name":"人和村","countyCode":"10013","countyName":"屏東縣","townCode":"10013160","townName":"枋寮鄉","level":"village","unassigned":false,"note":"","label":[120.60351889803913,22.379673246062815],"bounds":[120.582658,22.371916,120.611427,22.389835],"focusBounds":[120.582658,22.371916,120.611427,22.389835],"color":"#dd8590"}},{"type":"Feature","id":"10013160010","geometry":{"type":"Polygon","coordinates":[[[120.630479,22.395412],[120.629196,22.396645],[120.628409,22.397179],[120.627406,22.39751],[120.624115,22.398148],[120.62198,22.398146],[120.621155,22.398446],[120.620181,22.399449],[120.619404,22.399763],[120.619077,22.399762],[120.616313,22.398864],[120.615531,22.398295],[120.61489,22.397537],[120.612778,22.396453],[120.612161,22.395887],[120.612041,22.39537],[120.6121,22.393819],[120.611915,22.392854],[120.610709,22.390901],[120.610312,22.389809],[120.609849,22.387936],[120.611052,22.382949],[120.611427,22.379975],[120.611178,22.379051],[120.609431,22.375687],[120.610925,22.375419],[120.611767,22.374893],[120.612111,22.374469],[120.612851,22.374187],[120.614301,22.374696],[120.614954,22.374661],[120.61563,22.3745],[120.617603,22.373496],[120.619472,22.373437],[120.620714,22.373101],[120.620044,22.373469],[120.619884,22.374223],[120.619382,22.374968],[120.619462,22.376762],[120.619199,22.37677],[120.618803,22.376541],[120.618411,22.376613],[120.618204,22.376893],[120.618023,22.377951],[120.618004,22.380481],[120.618231,22.383063],[120.618185,22.383207],[120.617552,22.383427],[120.617444,22.384124],[120.617507,22.384502],[120.618291,22.38473],[120.618347,22.384973],[120.618183,22.385373],[120.617481,22.385928],[120.616922,22.385851],[120.616379,22.386205],[120.616015,22.386627],[120.61593,22.387069],[120.616122,22.387573],[120.617208,22.38779],[120.617614,22.388286],[120.617567,22.388599],[120.617207,22.388802],[120.616943,22.389729],[120.617502,22.390301],[120.618292,22.390775],[120.618766,22.391362],[120.619834,22.391403],[120.620297,22.391183],[120.620671,22.391419],[120.621073,22.391431],[120.62308,22.391189],[120.623254,22.39278],[120.624242,22.392873],[120.624423,22.3939],[120.624783,22.393806],[120.625309,22.394078],[120.626232,22.394024],[120.627314,22.39423],[120.630479,22.395412]]]},"properties":{"code":"10013160010","name":"內寮村","countyCode":"10013","countyName":"屏東縣","townCode":"10013160","townName":"枋寮鄉","level":"village","unassigned":false,"note":"","label":[120.61853255952124,22.395328905182225],"bounds":[120.609431,22.373101,120.630479,22.399763],"focusBounds":[120.609431,22.373101,120.630479,22.399763],"color":"#a49ad4"}},{"type":"Feature","id":"10013160011","geometry":{"type":"Polygon","coordinates":[[[120.63685,22.393935],[120.636904,22.394096],[120.636308,22.394062],[120.63559,22.394261],[120.635384,22.394469],[120.635309,22.39511],[120.635711,22.396014],[120.634268,22.395956],[120.633471,22.396426],[120.633148,22.396805],[120.633102,22.397364],[120.633309,22.397687],[120.633119,22.398126],[120.633241,22.398782],[120.633039,22.39914],[120.631577,22.398584],[120.631628,22.399079],[120.63147,22.399206],[120.630946,22.399195],[120.629628,22.398624],[120.629096,22.399122],[120.628986,22.399676],[120.63022,22.400012],[120.630806,22.400556],[120.630904,22.401379],[120.630322,22.401688],[120.629559,22.400899],[120.628825,22.401058],[120.629543,22.402277],[120.628719,22.402517],[120.627884,22.402048],[120.627497,22.402011],[120.627327,22.402585],[120.626791,22.402528],[120.626511,22.40293],[120.625732,22.403221],[120.625755,22.403456],[120.625328,22.403702],[120.625331,22.404393],[120.624209,22.405267],[120.623991,22.405254],[120.623716,22.404855],[120.623615,22.404979],[120.623561,22.405624],[120.623763,22.405862],[120.624071,22.405946],[120.625315,22.405674],[120.625633,22.405892],[120.625874,22.406159],[120.625853,22.406342],[120.625418,22.406547],[120.624945,22.407359],[120.62556,22.407597],[120.625572,22.408147],[120.6258,22.408326],[120.626511,22.408222],[120.626848,22.408745],[120.62753,22.408771],[120.627495,22.409084],[120.627212,22.409367],[120.627283,22.409548],[120.628524,22.409771],[120.628674,22.410054],[120.628532,22.410203],[120.629068,22.410608],[120.630453,22.412424],[120.630679,22.41242],[120.630819,22.412185],[120.630696,22.412004],[120.631189,22.411553],[120.632186,22.411453],[120.632469,22.411759],[120.631927,22.412729],[120.631422,22.412783],[120.632124,22.414148],[120.632052,22.414432],[120.631506,22.414821],[120.631461,22.415032],[120.629918,22.415668],[120.629235,22.415591],[120.628416,22.415826],[120.627422,22.41555],[120.62734,22.415709],[120.627577,22.416599],[120.628126,22.417111],[120.628275,22.417507],[120.628016,22.420005],[120.628844,22.420315],[120.62864,22.420674],[120.629156,22.421797],[120.63072,22.422941],[120.630477,22.423109],[120.629299,22.423162],[120.627767,22.422245],[120.626524,22.421884],[120.623305,22.421525],[120.622849,22.419604],[120.622105,22.418979],[120.621698,22.417544],[120.621493,22.417282],[120.620698,22.416826],[120.620368,22.4152],[120.619958,22.414553],[120.616677,22.411583],[120.614496,22.410526],[120.613959,22.409522],[120.61368,22.407896],[120.613196,22.406605],[120.61179,22.4052],[120.611427,22.404921],[120.608089,22.403915],[120.605876,22.403456],[120.60528,22.402003],[120.604229,22.398067],[120.604293,22.396907],[120.604519,22.396433],[120.60499,22.396396],[120.605663,22.3967],[120.612002,22.402931],[120.61239,22.403104],[120.61489,22.397537],[120.615531,22.398295],[120.616313,22.398864],[120.619077,22.399762],[120.619404,22.399763],[120.620181,22.399449],[120.621155,22.398446],[120.62198,22.398146],[120.624115,22.398148],[120.627406,22.39751],[120.628409,22.397179],[120.629196,22.396645],[120.630479,22.395412],[120.630932,22.395282],[120.632249,22.393678],[120.632956,22.393044],[120.635786,22.393457],[120.63685,22.393935]]]},"properties":{"code":"10013160011","name":"新開村","countyCode":"10013","countyName":"屏東縣","townCode":"10013160","townName":"枋寮鄉","level":"village","unassigned":false,"note":"","label":[120.61851119911519,22.405668084640865],"bounds":[120.604229,22.393044,120.636904,22.423162],"focusBounds":[120.604229,22.393044,120.636904,22.423162],"color":"#a8bf62"}},{"type":"Feature","id":"10013160012","geometry":{"type":"Polygon","coordinates":[[[120.61179,22.4052],[120.610293,22.413889],[120.608757,22.415547],[120.606028,22.419825],[120.58524,22.414068],[120.583798,22.418431],[120.583026,22.420138],[120.582601,22.420715],[120.576755,22.412036],[120.580348,22.413012],[120.582002,22.407618],[120.583525,22.407965],[120.584612,22.404913],[120.58777,22.40628],[120.591814,22.394229],[120.592262,22.394151],[120.592552,22.394297],[120.593639,22.397858],[120.594568,22.398725],[120.595239,22.401217],[120.602866,22.401534],[120.603025,22.40197],[120.604237,22.403115],[120.605876,22.403456],[120.608089,22.403915],[120.611427,22.404921],[120.61179,22.4052]]]},"properties":{"code":"10013160012","name":"太源村","countyCode":"10013","countyName":"屏東縣","townCode":"10013160","townName":"枋寮鄉","level":"village","unassigned":false,"note":"","label":[120.59636938661946,22.40920703945116],"bounds":[120.576755,22.394151,120.61179,22.420715],"focusBounds":[120.576755,22.394151,120.61179,22.420715],"color":"#68bec9"}},{"type":"Feature","id":"10013160013","geometry":{"type":"Polygon","coordinates":[[[120.60908,22.445179],[120.606227,22.445967],[120.603407,22.446084],[120.601639,22.446421],[120.600749,22.446651],[120.598771,22.447567],[120.596154,22.448133],[120.586081,22.45272],[120.581164,22.454269],[120.580173,22.454943],[120.579545,22.455011],[120.579349,22.455195],[120.579252,22.456056],[120.57901,22.456409],[120.576591,22.457747],[120.575056,22.455854],[120.573803,22.452998],[120.573724,22.452554],[120.573847,22.451948],[120.573559,22.451433],[120.57346,22.45023],[120.572954,22.448847],[120.572898,22.448269],[120.57169,22.448541],[120.571518,22.448344],[120.571228,22.447658],[120.571224,22.446478],[120.570087,22.443458],[120.5702,22.442162],[120.570761,22.440902],[120.569805,22.439537],[120.569571,22.438707],[120.569064,22.438311],[120.569078,22.433537],[120.568709,22.433094],[120.568583,22.432339],[120.568087,22.431801],[120.566918,22.429332],[120.567922,22.427469],[120.574837,22.416796],[120.576181,22.414607],[120.576009,22.414394],[120.576755,22.412036],[120.582601,22.420715],[120.583026,22.420138],[120.583798,22.418431],[120.58524,22.414068],[120.606028,22.419825],[120.608757,22.415547],[120.610293,22.413889],[120.61179,22.4052],[120.613196,22.406605],[120.61368,22.407896],[120.613959,22.409522],[120.614496,22.410526],[120.616677,22.411583],[120.619958,22.414553],[120.620368,22.4152],[120.620698,22.416826],[120.621493,22.417282],[120.621698,22.417544],[120.622105,22.418979],[120.622849,22.419604],[120.623305,22.421525],[120.623171,22.421862],[120.623492,22.423202],[120.623347,22.424151],[120.624081,22.425479],[120.625012,22.426107],[120.626896,22.426516],[120.628166,22.427222],[120.629244,22.427494],[120.629892,22.427819],[120.629416,22.428323],[120.63029,22.429667],[120.630883,22.431674],[120.631344,22.432222],[120.631824,22.432324],[120.632228,22.432662],[120.632836,22.433823],[120.633008,22.434882],[120.632643,22.435821],[120.632197,22.43636],[120.630605,22.436825],[120.627441,22.438173],[120.62395,22.439159],[120.620089,22.439632],[120.618805,22.440781],[120.617848,22.441402],[120.614211,22.443169],[120.612596,22.44433],[120.611523,22.444641],[120.610045,22.444842],[120.60908,22.445179]]]},"properties":{"code":"10013160013","name":"玉泉村","countyCode":"10013","countyName":"屏東縣","townCode":"10013160","townName":"枋寮鄉","level":"village","unassigned":false,"note":"","label":[120.59381591327495,22.432820373901684],"bounds":[120.566918,22.4052,120.633008,22.457747],"focusBounds":[120.566918,22.4052,120.633008,22.457747],"color":"#df9f6a"}},{"type":"Feature","id":"10013160014","geometry":{"type":"Polygon","coordinates":[[[120.576755,22.412036],[120.576009,22.414394],[120.57544,22.41403],[120.572103,22.412621],[120.569876,22.411988],[120.567383,22.410942],[120.564936,22.410338],[120.563702,22.410321],[120.56332,22.410177],[120.56478,22.409159],[120.564915,22.40839],[120.565244,22.407997],[120.565554,22.407243],[120.565807,22.404957],[120.565746,22.401727],[120.565294,22.401461],[120.564255,22.400336],[120.563612,22.39943],[120.563734,22.399106],[120.564022,22.397925],[120.56386,22.396062],[120.564148,22.394963],[120.563882,22.394504],[120.564321,22.394144],[120.564566,22.39353],[120.564347,22.393008],[120.564594,22.391918],[120.565395,22.390546],[120.566006,22.389915],[120.56749,22.389014],[120.567884,22.388245],[120.567697,22.387601],[120.566505,22.38594],[120.566663,22.385625],[120.567201,22.385261],[120.568365,22.384735],[120.569446,22.385131],[120.578282,22.390977],[120.578974,22.391609],[120.579373,22.391777],[120.581951,22.391278],[120.5837,22.391156],[120.583723,22.39166],[120.584605,22.39205],[120.585463,22.391804],[120.586155,22.392079],[120.586659,22.391965],[120.586738,22.392715],[120.586997,22.393038],[120.587004,22.39323],[120.586751,22.393442],[120.586946,22.393953],[120.587509,22.393792],[120.588177,22.393829],[120.588883,22.394226],[120.589573,22.394323],[120.590024,22.394744],[120.590435,22.394865],[120.591814,22.394229],[120.58777,22.40628],[120.584612,22.404913],[120.583525,22.407965],[120.582002,22.407618],[120.580348,22.413012],[120.576755,22.412036]]]},"properties":{"code":"10013160014","name":"東海村","countyCode":"10013","countyName":"屏東縣","townCode":"10013160","townName":"枋寮鄉","level":"village","unassigned":false,"note":"","label":[120.57548019399164,22.40077576477144],"bounds":[120.56332,22.384735,120.591814,22.414394],"focusBounds":[120.56332,22.384735,120.591814,22.414394],"color":"#c38cb8"}},{"type":"Feature","id":"10013160015","geometry":{"type":"Polygon","coordinates":[[[120.563734,22.399106],[120.56365,22.398821],[120.562023,22.399318],[120.561738,22.40051],[120.559986,22.401149],[120.558031,22.401329],[120.557781,22.40168],[120.557811,22.401884],[120.557663,22.401921],[120.556771,22.401806],[120.556412,22.401095],[120.556035,22.40131],[120.555211,22.400964],[120.554299,22.40103],[120.55313,22.4007],[120.552874,22.400327],[120.552814,22.399791],[120.552317,22.399173],[120.551759,22.397959],[120.551543,22.397054],[120.550836,22.396262],[120.550229,22.396377],[120.549749,22.397021],[120.548731,22.397362],[120.547428,22.397442],[120.546118,22.398119],[120.54572,22.398155],[120.545652,22.397967],[120.545969,22.397419],[120.54844,22.396159],[120.550421,22.394842],[120.550634,22.394601],[120.550719,22.394167],[120.550424,22.394223],[120.550319,22.394087],[120.551051,22.393629],[120.551158,22.393796],[120.55078,22.394003],[120.551302,22.394022],[120.551768,22.393495],[120.552374,22.393441],[120.552681,22.393006],[120.552556,22.392879],[120.552348,22.39303],[120.55225,22.392896],[120.552975,22.39244],[120.55306,22.392571],[120.552835,22.392713],[120.553302,22.392764],[120.553511,22.392331],[120.553294,22.392454],[120.553196,22.392305],[120.553877,22.391896],[120.553987,22.392056],[120.553648,22.392259],[120.554036,22.392429],[120.55457,22.392399],[120.556875,22.390917],[120.55712,22.390507],[120.557555,22.390809],[120.557397,22.390368],[120.557516,22.390452],[120.565891,22.385214],[120.566359,22.384834],[120.566364,22.38466],[120.566897,22.385199],[120.566897,22.384854],[120.567201,22.385261],[120.566663,22.385625],[120.566505,22.38594],[120.567697,22.387601],[120.567884,22.388245],[120.56749,22.389014],[120.566006,22.389915],[120.565395,22.390546],[120.564594,22.391918],[120.564347,22.393008],[120.564566,22.39353],[120.564321,22.394144],[120.563882,22.394504],[120.564148,22.394963],[120.56386,22.396062],[120.564022,22.397925],[120.563734,22.399106]]]},"properties":{"code":"10013160015","name":"大庄村","countyCode":"10013","countyName":"屏東縣","townCode":"10013160","townName":"枋寮鄉","level":"village","unassigned":false,"note":"","label":[120.55895543539549,22.395397537753958],"bounds":[120.545652,22.38466,120.567884,22.401921],"focusBounds":[120.545652,22.38466,120.567884,22.401921],"color":"#98b69b"}},{"type":"Feature","id":"10013160S01","geometry":{"type":"Polygon","coordinates":[[[120.566897,22.384854],[120.566897,22.385199],[120.566364,22.38466],[120.566359,22.384834],[120.565891,22.385214],[120.557516,22.390452],[120.557397,22.390368],[120.557555,22.390809],[120.55712,22.390507],[120.556875,22.390917],[120.55457,22.392399],[120.554036,22.392429],[120.553648,22.392259],[120.553987,22.392056],[120.553877,22.391896],[120.553196,22.392305],[120.553294,22.392454],[120.553511,22.392331],[120.553302,22.392764],[120.552835,22.392713],[120.55306,22.392571],[120.552975,22.39244],[120.55225,22.392896],[120.552348,22.39303],[120.552556,22.392879],[120.552681,22.393006],[120.552374,22.393441],[120.551768,22.393495],[120.551302,22.394022],[120.55078,22.394003],[120.551158,22.393796],[120.551051,22.393629],[120.550319,22.394087],[120.550424,22.394223],[120.550719,22.394167],[120.550634,22.394601],[120.550421,22.394842],[120.54844,22.396159],[120.545969,22.397419],[120.540156,22.397202],[120.549593,22.392442],[120.560355,22.386071],[120.56367,22.383852],[120.568471,22.380973],[120.570752,22.379399],[120.571233,22.378046],[120.574175,22.375997],[120.576422,22.375177],[120.579239,22.373218],[120.58006,22.372292],[120.583153,22.370478],[120.585574,22.369387],[120.589361,22.366366],[120.591306,22.364298],[120.590304,22.36353],[120.590865,22.363302],[120.59138,22.362707],[120.591923,22.362548],[120.592088,22.362928],[120.592196,22.362885],[120.592065,22.362485],[120.592853,22.362356],[120.593093,22.362057],[120.593006,22.361837],[120.594213,22.360459],[120.594813,22.360923],[120.593586,22.362322],[120.593092,22.362497],[120.593575,22.362794],[120.593104,22.363456],[120.592621,22.36311],[120.592396,22.363199],[120.593377,22.363803],[120.59394,22.363364],[120.594175,22.363441],[120.593932,22.364034],[120.593645,22.363945],[120.593238,22.364358],[120.59217,22.363517],[120.592087,22.363612],[120.592373,22.363917],[120.592424,22.364645],[120.592101,22.365152],[120.589676,22.367699],[120.587504,22.369699],[120.585642,22.371297],[120.585477,22.371129],[120.585306,22.37123],[120.585476,22.371463],[120.5847,22.372028],[120.584941,22.37234],[120.584821,22.372433],[120.5846,22.372606],[120.584144,22.372137],[120.584041,22.372185],[120.584184,22.372429],[120.58303,22.373446],[120.577711,22.37721],[120.567598,22.384002],[120.566985,22.384395],[120.566797,22.384279],[120.567078,22.384745],[120.566897,22.384854]]]},"properties":{"code":"10013160S01","name":"未編定村里","countyCode":"10013","countyName":"屏東縣","townCode":"10013160","townName":"枋寮鄉","level":"village","unassigned":true,"note":"未編定村里","label":[120.57400227982214,22.37790885835338],"bounds":[120.540156,22.360459,120.594813,22.397419],"focusBounds":[120.540156,22.360459,120.594813,22.397419],"color":"#58b99d"}}]}
