{"type":"FeatureCollection","features":[{"type":"Feature","id":"10014090001","geometry":{"type":"Polygon","coordinates":[[[121.045444,22.701179],[121.043389,22.701475],[121.04105,22.701537],[121.039871,22.701784],[121.038072,22.70105],[121.035522,22.700583],[121.032521,22.699444],[121.03111,22.698723],[121.029475,22.697547],[121.027056,22.696165],[121.021758,22.693991],[121.019516,22.693343],[121.01837,22.693312],[121.015205,22.695089],[121.014014,22.69538],[121.011176,22.694856],[121.009855,22.693985],[121.009329,22.693837],[121.008537,22.694224],[121.007888,22.695078],[121.007132,22.695719],[121.005728,22.696319],[121.004967,22.695878],[121.004798,22.694951],[121.004233,22.693993],[121.003586,22.69348],[121.002307,22.692846],[120.999846,22.692787],[120.997601,22.693503],[120.996682,22.692727],[120.995564,22.692214],[120.992424,22.692484],[120.993315,22.69097],[120.994076,22.690174],[120.994838,22.688177],[120.996097,22.687486],[120.996847,22.686303],[120.997603,22.685761],[120.998549,22.684791],[120.998486,22.684478],[120.997824,22.683594],[120.997722,22.682724],[120.997481,22.682295],[120.995651,22.680924],[120.995718,22.680157],[120.996371,22.679361],[120.998007,22.677982],[120.999413,22.677387],[121.000343,22.676597],[121.002331,22.678118],[121.006023,22.680346],[121.010495,22.683618],[121.013059,22.685266],[121.014258,22.685636],[121.014902,22.685679],[121.015568,22.685433],[121.015915,22.68506],[121.016594,22.683617],[121.01737,22.682414],[121.018279,22.682174],[121.021036,22.682644],[121.025255,22.683842],[121.027176,22.684101],[121.028965,22.683884],[121.030005,22.683378],[121.036297,22.679056],[121.03928,22.677273],[121.044718,22.674547],[121.046672,22.672972],[121.048047,22.673214],[121.051776,22.674873],[121.055359,22.6761],[121.057051,22.677218],[121.059573,22.679353],[121.060981,22.680132],[121.06149,22.680624],[121.064244,22.682006],[121.064873,22.68301],[121.064912,22.683422],[121.065448,22.683494],[121.064976,22.68413],[121.063809,22.684954],[121.062839,22.6869],[121.060358,22.689945],[121.059137,22.690957],[121.05758,22.69275],[121.055307,22.694896],[121.053029,22.696549],[121.050765,22.698994],[121.049675,22.699836],[121.048626,22.700277],[121.045444,22.701179]]]},"properties":{"code":"10014090001","name":"美和村","countyCode":"10014","countyName":"臺東縣","townCode":"10014090","townName":"太麻里鄉","level":"village","unassigned":false,"note":"","label":[121.04416247582971,22.688094539005448],"bounds":[120.992424,22.672972,121.065448,22.701784],"focusBounds":[120.992424,22.672972,121.065448,22.701784],"color":"#58b99d"}},{"type":"Feature","id":"10014090002","geometry":{"type":"Polygon","coordinates":[[[121.046672,22.672972],[121.044718,22.674547],[121.03928,22.677273],[121.036297,22.679056],[121.030005,22.683378],[121.028965,22.683884],[121.027176,22.684101],[121.025255,22.683842],[121.021036,22.682644],[121.018279,22.682174],[121.01737,22.682414],[121.016594,22.683617],[121.015915,22.68506],[121.015568,22.685433],[121.014902,22.685679],[121.014258,22.685636],[121.013059,22.685266],[121.010495,22.683618],[121.006023,22.680346],[121.002331,22.678118],[121.000343,22.676597],[121.001917,22.674645],[121.0019,22.674322],[121.003109,22.674579],[121.003818,22.675231],[121.00443,22.675476],[121.006149,22.675578],[121.007751,22.675184],[121.008627,22.675207],[121.010185,22.675631],[121.012219,22.675948],[121.012991,22.675458],[121.013571,22.675344],[121.014671,22.675619],[121.014781,22.675894],[121.015766,22.676085],[121.016538,22.675715],[121.016499,22.675553],[121.016815,22.67538],[121.016757,22.674956],[121.016911,22.674807],[121.01827,22.674788],[121.019145,22.675009],[121.019995,22.674944],[121.020883,22.675642],[121.021173,22.676174],[121.022029,22.675612],[121.021952,22.675469],[121.023439,22.67422],[121.023979,22.67385],[121.024082,22.673933],[121.024877,22.673221],[121.025406,22.672371],[121.026239,22.671909],[121.026603,22.670644],[121.027182,22.669848],[121.027203,22.668418],[121.02701,22.667883],[121.027424,22.667101],[121.027634,22.666795],[121.02811,22.666948],[121.028172,22.666568],[121.028542,22.666203],[121.029083,22.666275],[121.030071,22.665935],[121.030559,22.665589],[121.030395,22.665407],[121.030666,22.665206],[121.030326,22.664989],[121.030422,22.664687],[121.031604,22.663671],[121.034846,22.667132],[121.038329,22.669734],[121.040026,22.670703],[121.042881,22.671916],[121.045646,22.672857],[121.046672,22.672972]]]},"properties":{"code":"10014090002","name":"三和村","countyCode":"10014","countyName":"臺東縣","townCode":"10014090","townName":"太麻里鄉","level":"village","unassigned":false,"note":"","label":[121.02906498683038,22.67715984308377],"bounds":[121.000343,22.663671,121.046672,22.685679],"focusBounds":[121.000343,22.663671,121.046672,22.685679],"color":"#efb44f"}},{"type":"Feature","id":"10014090003","geometry":{"type":"Polygon","coordinates":[[[121.031604,22.663671],[121.030422,22.664687],[121.030326,22.664989],[121.030666,22.665206],[121.030395,22.665407],[121.030559,22.665589],[121.030071,22.665935],[121.029083,22.666275],[121.028542,22.666203],[121.028172,22.666568],[121.02811,22.666948],[121.027634,22.666795],[121.027424,22.667101],[121.02701,22.667883],[121.027203,22.668418],[121.027182,22.669848],[121.026603,22.670644],[121.026239,22.671909],[121.025406,22.672371],[121.024877,22.673221],[121.024082,22.673933],[121.023979,22.67385],[121.023439,22.67422],[121.021952,22.675469],[121.022029,22.675612],[121.021173,22.676174],[121.020883,22.675642],[121.019995,22.674944],[121.019145,22.675009],[121.01827,22.674788],[121.016911,22.674807],[121.016757,22.674956],[121.016815,22.67538],[121.016499,22.675553],[121.016538,22.675715],[121.015766,22.676085],[121.014781,22.675894],[121.014671,22.675619],[121.013571,22.675344],[121.012991,22.675458],[121.012219,22.675948],[121.010185,22.675631],[121.008627,22.675207],[121.007751,22.675184],[121.006149,22.675578],[121.00443,22.675476],[121.003818,22.675231],[121.003109,22.674579],[121.0019,22.674322],[120.999977,22.671377],[120.998715,22.670175],[120.997984,22.66885],[120.996689,22.66702],[120.996443,22.666034],[120.99593,22.665943],[120.996133,22.665928],[120.996974,22.664915],[120.998251,22.66447],[120.999309,22.663759],[121.000234,22.663703],[121.00195,22.662434],[121.002648,22.661433],[121.003066,22.661078],[121.00372,22.659931],[121.004711,22.659354],[121.00539,22.658303],[121.006059,22.657759],[121.005905,22.65698],[121.006677,22.655743],[121.006687,22.655334],[121.007459,22.654981],[121.007623,22.654704],[121.007784,22.654142],[121.007588,22.652923],[121.007707,22.651528],[121.008276,22.648592],[121.008074,22.647156],[121.00836,22.646203],[121.008373,22.644871],[121.008585,22.644437],[121.008466,22.64416],[121.00853,22.64278],[121.008147,22.641961],[121.008263,22.64143],[121.008446,22.641427],[121.008286,22.640095],[121.008559,22.63855],[121.008729,22.638431],[121.009059,22.637489],[121.011085,22.637976],[121.011539,22.638279],[121.011879,22.638249],[121.012409,22.638849],[121.012742,22.63832],[121.017638,22.636864],[121.019694,22.642302],[121.021727,22.647017],[121.022283,22.64923],[121.023002,22.65075],[121.025544,22.655513],[121.027032,22.657846],[121.0292,22.660878],[121.031604,22.663671]]]},"properties":{"code":"10014090003","name":"華源村","countyCode":"10014","countyName":"臺東縣","townCode":"10014090","townName":"太麻里鄉","level":"village","unassigned":false,"note":"","label":[121.01623178920998,22.663021235988403],"bounds":[120.99593,22.636864,121.031604,22.676174],"focusBounds":[120.99593,22.636864,121.031604,22.676174],"color":"#dd8590"}},{"type":"Feature","id":"10014090004","geometry":{"type":"Polygon","coordinates":[[[120.99593,22.665943],[120.994271,22.666057],[120.992098,22.665042],[120.990457,22.6645],[120.987781,22.664372],[120.986591,22.664567],[120.985403,22.664289],[120.98413,22.664458],[120.983071,22.66442],[120.981288,22.664825],[120.980888,22.664633],[120.978688,22.662786],[120.976663,22.657818],[120.972642,22.654714],[120.971571,22.653656],[120.970921,22.652752],[120.968938,22.649581],[120.968869,22.648217],[120.968957,22.648083],[120.969316,22.648059],[120.975415,22.648092],[120.97556,22.647577],[120.976651,22.647149],[120.976831,22.646943],[120.977091,22.645347],[120.97744,22.644401],[120.977996,22.643624],[120.979281,22.643417],[120.980182,22.643103],[120.98173,22.643824],[120.982753,22.644044],[120.983096,22.643846],[120.985104,22.643867],[120.986975,22.644325],[120.988975,22.646208],[120.989488,22.646389],[120.990694,22.645574],[120.99108,22.645073],[120.991696,22.644741],[120.992023,22.644276],[120.99327,22.643147],[120.994473,22.642696],[120.994778,22.642942],[120.994899,22.643488],[120.994594,22.644757],[120.995728,22.645125],[120.996226,22.645575],[120.996612,22.645439],[120.997586,22.644536],[120.997062,22.643983],[120.997073,22.643716],[120.997308,22.643416],[120.99787,22.643005],[120.998809,22.642619],[120.999718,22.642459],[121.000643,22.641662],[121.000677,22.641298],[120.999949,22.639795],[120.999953,22.639429],[121.000261,22.638794],[121.000992,22.637616],[121.003318,22.63571],[121.004316,22.634521],[121.004884,22.634094],[121.005196,22.633191],[121.005185,22.631271],[121.00435,22.631064],[121.004288,22.630334],[121.003425,22.629621],[121.003609,22.629097],[121.00349,22.628801],[121.003275,22.628693],[121.003071,22.628772],[121.002371,22.629707],[121.00199,22.629912],[121.001484,22.630002],[121.000829,22.629488],[121.001033,22.629205],[121.00095,22.629029],[121.000784,22.628826],[121.000344,22.628729],[121.000067,22.627991],[121.00025,22.627643],[121.000025,22.627442],[121.000231,22.626219],[121.001347,22.626636],[121.002791,22.626844],[121.005275,22.62622],[121.008654,22.624376],[121.010242,22.622183],[121.010156,22.621749],[121.010487,22.621415],[121.01113,22.621456],[121.011795,22.621275],[121.012969,22.621763],[121.013358,22.621648],[121.013893,22.623026],[121.014436,22.62586],[121.015054,22.627689],[121.015545,22.629912],[121.017192,22.635684],[121.017638,22.636864],[121.012742,22.63832],[121.012409,22.638849],[121.011879,22.638249],[121.011539,22.638279],[121.011085,22.637976],[121.009059,22.637489],[121.008729,22.638431],[121.008559,22.63855],[121.008286,22.640095],[121.008446,22.641427],[121.008263,22.64143],[121.008147,22.641961],[121.00853,22.64278],[121.008466,22.64416],[121.008585,22.644437],[121.008373,22.644871],[121.00836,22.646203],[121.008074,22.647156],[121.008276,22.648592],[121.007707,22.651528],[121.007588,22.652923],[121.007784,22.654142],[121.007623,22.654704],[121.007459,22.654981],[121.006687,22.655334],[121.006677,22.655743],[121.005905,22.65698],[121.006059,22.657759],[121.00539,22.658303],[121.004711,22.659354],[121.00372,22.659931],[121.003066,22.661078],[121.002648,22.661433],[121.00195,22.662434],[121.000234,22.663703],[120.999309,22.663759],[120.998251,22.66447],[120.996974,22.664915],[120.996133,22.665928],[120.99593,22.665943]]]},"properties":{"code":"10014090004","name":"北里村","countyCode":"10014","countyName":"臺東縣","townCode":"10014090","townName":"太麻里鄉","level":"village","unassigned":false,"note":"","label":[120.99476886548871,22.655418120481166],"bounds":[120.968869,22.621275,121.017638,22.666057],"focusBounds":[120.968869,22.621275,121.017638,22.666057],"color":"#78a7e3"}},{"type":"Feature","id":"10014090005","geometry":{"type":"Polygon","coordinates":[[[120.993303,22.591588],[120.995557,22.592022],[120.999133,22.592311],[121.001636,22.592302],[121.003945,22.592065],[121.005913,22.591588],[121.009374,22.589769],[121.009632,22.591019],[121.00963,22.59208],[121.010041,22.595069],[121.010263,22.595792],[121.01042,22.598072],[121.010297,22.599442],[121.011254,22.604995],[121.011293,22.607865],[121.011706,22.609765],[121.011781,22.613765],[121.012193,22.61566],[121.012595,22.61951],[121.013358,22.621648],[121.012969,22.621763],[121.011795,22.621275],[121.01113,22.621456],[121.010487,22.621415],[121.010208,22.620722],[121.010174,22.61924],[121.009925,22.618174],[121.008634,22.615986],[121.007713,22.616699],[121.00677,22.615362],[121.007276,22.61492],[121.006303,22.613676],[121.006551,22.61351],[121.005821,22.612348],[121.005286,22.611743],[121.005117,22.611876],[121.004283,22.610422],[121.004494,22.610292],[121.002183,22.605774],[121.001675,22.606016],[121.00104,22.605044],[120.999725,22.604705],[120.997941,22.604181],[120.998305,22.603647],[120.996304,22.602523],[120.994945,22.601748],[120.993779,22.600624],[120.993119,22.599639],[120.992498,22.597786],[120.992596,22.595903],[120.993303,22.591588]]]},"properties":{"code":"10014090005","name":"泰和村","countyCode":"10014","countyName":"臺東縣","townCode":"10014090","townName":"太麻里鄉","level":"village","unassigned":false,"note":"","label":[121.00344140592166,22.598752704067266],"bounds":[120.992498,22.589769,121.013358,22.621763],"focusBounds":[120.992498,22.589769,121.013358,22.621763],"color":"#dd8590"}},{"type":"Feature","id":"10014090006","geometry":{"type":"Polygon","coordinates":[[[121.000231,22.626219],[121.000388,22.625767],[120.9999,22.625371],[120.999408,22.625455],[120.998999,22.625263],[120.998555,22.625787],[120.997928,22.625491],[120.997224,22.625816],[120.996961,22.62652],[120.996971,22.627168],[120.996029,22.628051],[120.995735,22.62806],[120.995246,22.627543],[120.995028,22.627631],[120.995235,22.628324],[120.9957,22.62846],[120.995856,22.628789],[120.995294,22.629013],[120.994961,22.628595],[120.994812,22.628613],[120.994507,22.629476],[120.99423,22.629702],[120.992843,22.629069],[120.992729,22.629182],[120.992996,22.629665],[120.992843,22.629778],[120.992369,22.629327],[120.992005,22.629455],[120.991773,22.629256],[120.99135,22.629204],[120.991509,22.628855],[120.991138,22.628733],[120.990979,22.628911],[120.990712,22.628796],[120.990213,22.628979],[120.989884,22.62894],[120.989787,22.629313],[120.988708,22.629963],[120.987128,22.63015],[120.986047,22.630547],[120.985374,22.630416],[120.985045,22.630683],[120.984134,22.630963],[120.983617,22.631403],[120.983191,22.631507],[120.979809,22.631532],[120.97895,22.631109],[120.977891,22.631081],[120.977094,22.630454],[120.976502,22.63022],[120.97621,22.630009],[120.975905,22.628346],[120.976295,22.627073],[120.975995,22.625965],[120.976136,22.624738],[120.975555,22.623493],[120.97564,22.62177],[120.97637,22.620966],[120.976672,22.616967],[120.977028,22.615757],[120.97819,22.613279],[120.977697,22.612752],[120.977248,22.611799],[120.976711,22.611128],[120.976505,22.610115],[120.976623,22.608528],[120.976037,22.60766],[120.97575,22.606522],[120.975451,22.606134],[120.975463,22.603966],[120.975163,22.602607],[120.975319,22.601542],[120.974558,22.600026],[120.974477,22.599033],[120.974697,22.59804],[120.974388,22.595443],[120.973981,22.594163],[120.973982,22.592909],[120.975291,22.594408],[120.976079,22.594964],[120.977246,22.595346],[120.978445,22.595287],[120.97977,22.595111],[120.981678,22.59436],[120.9833,22.593484],[120.985149,22.592118],[120.986356,22.591452],[120.987866,22.590962],[120.989111,22.590962],[120.991224,22.591382],[120.992544,22.591346],[120.993303,22.591588],[120.992596,22.595903],[120.992498,22.597786],[120.993119,22.599639],[120.993779,22.600624],[120.994945,22.601748],[120.996304,22.602523],[120.994841,22.604024],[120.993865,22.60607],[120.997686,22.607668],[120.998765,22.606858],[120.999695,22.605718],[120.999725,22.604705],[121.00104,22.605044],[121.001675,22.606016],[121.002183,22.605774],[121.004494,22.610292],[121.004283,22.610422],[121.005117,22.611876],[121.005286,22.611743],[121.005821,22.612348],[121.006551,22.61351],[121.006303,22.613676],[121.007276,22.61492],[121.00677,22.615362],[121.007713,22.616699],[121.008634,22.615986],[121.009925,22.618174],[121.010174,22.61924],[121.010208,22.620722],[121.010487,22.621415],[121.010156,22.621749],[121.010242,22.622183],[121.008654,22.624376],[121.005275,22.62622],[121.002791,22.626844],[121.001347,22.626636],[121.000231,22.626219]]]},"properties":{"code":"10014090006","name":"大王村","countyCode":"10014","countyName":"臺東縣","townCode":"10014090","townName":"太麻里鄉","level":"village","unassigned":false,"note":"","label":[120.98912598931898,22.61659625773943],"bounds":[120.973981,22.590962,121.010487,22.631532],"focusBounds":[120.973981,22.590962,121.010487,22.631532],"color":"#a49ad4"}},{"type":"Feature","id":"10014090007","geometry":{"type":"Polygon","coordinates":[[[120.993303,22.591588],[120.992544,22.591346],[120.991224,22.591382],[120.989111,22.590962],[120.987866,22.590962],[120.986356,22.591452],[120.985149,22.592118],[120.9833,22.593484],[120.981678,22.59436],[120.97977,22.595111],[120.978445,22.595287],[120.977246,22.595346],[120.976079,22.594964],[120.975291,22.594408],[120.973982,22.592909],[120.973635,22.590766],[120.973507,22.589984],[120.973615,22.589462],[120.973905,22.589103],[120.97378,22.588712],[120.972525,22.587866],[120.969856,22.587156],[120.969422,22.586849],[120.972681,22.584506],[120.972867,22.58424],[120.973009,22.583411],[120.974196,22.582291],[120.975188,22.580553],[120.97368,22.579173],[120.97147,22.578428],[120.970771,22.576915],[120.969693,22.57586],[120.969111,22.574889],[120.96847,22.574481],[120.966687,22.573875],[120.965807,22.57304],[120.964408,22.572285],[120.964523,22.570242],[120.964227,22.569847],[120.963617,22.569447],[120.963624,22.56844],[120.963249,22.567907],[120.962577,22.567674],[120.961652,22.567022],[120.964849,22.564796],[120.967589,22.563681],[120.971095,22.559979],[120.973033,22.559022],[120.975978,22.558415],[120.978523,22.557147],[120.980821,22.562103],[120.982698,22.565483],[120.983915,22.567337],[120.985612,22.569456],[120.988212,22.57183],[120.990033,22.573258],[120.995594,22.576525],[120.998498,22.57853],[121.003951,22.583701],[121.007203,22.586181],[121.008296,22.58745],[121.00916,22.58896],[121.009374,22.589769],[121.005913,22.591588],[121.003945,22.592065],[121.001636,22.592302],[120.999133,22.592311],[120.995557,22.592022],[120.993303,22.591588]]]},"properties":{"code":"10014090007","name":"香蘭村","countyCode":"10014","countyName":"臺東縣","townCode":"10014090","townName":"太麻里鄉","level":"village","unassigned":false,"note":"","label":[120.98499240936945,22.581542822127048],"bounds":[120.961652,22.557147,121.009374,22.595346],"focusBounds":[120.961652,22.557147,121.009374,22.595346],"color":"#a8bf62"}},{"type":"Feature","id":"10014090008","geometry":{"type":"Polygon","coordinates":[[[120.961652,22.567022],[120.961251,22.567116],[120.960586,22.567606],[120.959557,22.56778],[120.958892,22.568276],[120.957988,22.56831],[120.957243,22.568836],[120.956381,22.569113],[120.955659,22.569671],[120.954949,22.56884],[120.954376,22.568433],[120.952991,22.567986],[120.952419,22.568006],[120.949523,22.568777],[120.948718,22.568845],[120.944641,22.571374],[120.943104,22.57138],[120.941931,22.572186],[120.941669,22.572233],[120.941184,22.571687],[120.940463,22.570388],[120.939186,22.569315],[120.938688,22.56801],[120.938661,22.567484],[120.936465,22.56434],[120.935907,22.564162],[120.934619,22.564445],[120.932937,22.56579],[120.932459,22.565935],[120.931767,22.565962],[120.93058,22.565654],[120.930015,22.565399],[120.929197,22.56459],[120.928411,22.563345],[120.926276,22.562143],[120.925297,22.561779],[120.924567,22.561734],[120.923771,22.561117],[120.922958,22.5609],[120.921714,22.559813],[120.921019,22.559549],[120.920467,22.558681],[120.919884,22.558313],[120.919585,22.55748],[120.918635,22.556228],[120.919488,22.553043],[120.919143,22.552241],[120.918919,22.550972],[120.919197,22.549548],[120.919042,22.548446],[120.920108,22.54681],[120.920213,22.545807],[120.921484,22.545325],[120.921933,22.543665],[120.92128,22.541832],[120.92105,22.540082],[120.920708,22.539113],[120.921845,22.538131],[120.923256,22.537583],[120.924429,22.53746],[120.924802,22.537293],[120.926436,22.535322],[120.92831,22.533788],[120.930068,22.531705],[120.930858,22.531156],[120.931752,22.530843],[120.932199,22.530396],[120.932483,22.529769],[120.932902,22.527757],[120.932928,22.524966],[120.932776,22.524673],[120.934352,22.524302],[120.935014,22.524417],[120.936019,22.525975],[120.937244,22.52696],[120.937691,22.527464],[120.937888,22.528247],[120.938446,22.528686],[120.939906,22.528727],[120.944198,22.529365],[120.948723,22.528917],[120.951627,22.528986],[120.952959,22.529246],[120.958236,22.527656],[120.960289,22.526629],[120.960975,22.526412],[120.962351,22.526277],[120.965233,22.526741],[120.968713,22.528064],[120.971172,22.535418],[120.974575,22.546775],[120.975678,22.549466],[120.976018,22.550898],[120.977188,22.554231],[120.978523,22.557147],[120.975978,22.558415],[120.973033,22.559022],[120.971095,22.559979],[120.967589,22.563681],[120.964849,22.564796],[120.961652,22.567022]],[[120.96218,22.530578],[120.958835,22.531004],[120.95856,22.532047],[120.959955,22.53396],[120.960074,22.534685],[120.962541,22.534597],[120.9625,22.532619],[120.962308,22.53149],[120.962426,22.531073],[120.96218,22.530578]]]},"properties":{"code":"10014090008","name":"金崙村","countyCode":"10014","countyName":"臺東縣","townCode":"10014090","townName":"太麻里鄉","level":"village","unassigned":false,"note":"","label":[120.94803044214933,22.549128559739877],"bounds":[120.918635,22.524302,120.978523,22.572233],"focusBounds":[120.918635,22.524302,120.978523,22.572233],"color":"#68bec9"}},{"type":"Feature","id":"10014090009","geometry":{"type":"Polygon","coordinates":[[[120.968713,22.528064],[120.965233,22.526741],[120.962351,22.526277],[120.960975,22.526412],[120.960289,22.526629],[120.958236,22.527656],[120.952959,22.529246],[120.951627,22.528986],[120.948723,22.528917],[120.944198,22.529365],[120.939906,22.528727],[120.938446,22.528686],[120.937888,22.528247],[120.937691,22.527464],[120.937244,22.52696],[120.936019,22.525975],[120.935014,22.524417],[120.934352,22.524302],[120.932776,22.524673],[120.93108,22.525013],[120.930166,22.524952],[120.926834,22.523767],[120.925295,22.523484],[120.923934,22.523041],[120.923484,22.522697],[120.923157,22.52214],[120.922204,22.521119],[120.921556,22.52073],[120.921115,22.520079],[120.919452,22.51839],[120.917602,22.518705],[120.915863,22.518708],[120.913606,22.519649],[120.912613,22.519768],[120.911602,22.519573],[120.909885,22.520168],[120.908764,22.519705],[120.908146,22.519262],[120.908071,22.518961],[120.908465,22.517183],[120.909326,22.51656],[120.910572,22.514348],[120.912409,22.513037],[120.912678,22.512667],[120.913314,22.512288],[120.914532,22.511042],[120.915548,22.510271],[120.91595,22.509736],[120.916404,22.508582],[120.918693,22.508166],[120.919708,22.508261],[120.920163,22.506649],[120.920973,22.505356],[120.922333,22.504846],[120.923022,22.50477],[120.924571,22.502452],[120.92593,22.501608],[120.926295,22.50099],[120.926938,22.500489],[120.927359,22.49887],[120.927868,22.498333],[120.928671,22.49804],[120.930076,22.495821],[120.932808,22.494074],[120.934143,22.494148],[120.935033,22.494405],[120.935225,22.493515],[120.936205,22.492756],[120.937004,22.4919],[120.93739,22.490939],[120.938596,22.490084],[120.939526,22.490005],[120.940341,22.489599],[120.941477,22.488215],[120.941091,22.487003],[120.940329,22.486266],[120.939729,22.48373],[120.939876,22.482979],[120.941499,22.48059],[120.941406,22.479934],[120.942431,22.479488],[120.941526,22.476479],[120.941061,22.475871],[120.93887,22.475314],[120.936439,22.473712],[120.935681,22.472762],[120.934167,22.470054],[120.933053,22.468827],[120.930599,22.468025],[120.928888,22.467836],[120.928135,22.466722],[120.926139,22.464605],[120.925482,22.463706],[120.92517,22.462906],[120.92632,22.462666],[120.927651,22.462144],[120.929296,22.46097],[120.930362,22.460402],[120.931967,22.460275],[120.933053,22.459862],[120.934921,22.459438],[120.936673,22.458763],[120.939288,22.458675],[120.940827,22.458795],[120.943645,22.458468],[120.946586,22.457483],[120.946833,22.458419],[120.946689,22.458683],[120.946966,22.459019],[120.947189,22.460329],[120.949089,22.466666],[120.950594,22.473333],[120.951549,22.476632],[120.952203,22.478124],[120.95322,22.481763],[120.954431,22.485028],[120.95468,22.487925],[120.955505,22.491646],[120.956616,22.495212],[120.958822,22.501011],[120.958828,22.50206],[120.959526,22.505286],[120.961275,22.509316],[120.962849,22.513756],[120.964479,22.517236],[120.967134,22.523675],[120.968713,22.528064]]]},"properties":{"code":"10014090009","name":"多良村","countyCode":"10014","countyName":"臺東縣","townCode":"10014090","townName":"太麻里鄉","level":"village","unassigned":false,"note":"","label":[120.94225368457391,22.509833729323166],"bounds":[120.908071,22.457483,120.968713,22.529365],"focusBounds":[120.908071,22.457483,120.968713,22.529365],"color":"#df9f6a"}}]}
