{"type":"FeatureCollection","features":[{"type":"Feature","id":"10013060001","geometry":{"type":"Polygon","coordinates":[[[120.533112,22.669192],[120.533691,22.66934],[120.534727,22.669119],[120.53538,22.669168],[120.535838,22.669004],[120.535905,22.669223],[120.536192,22.669294],[120.536745,22.669199],[120.537019,22.668847],[120.537394,22.668843],[120.538655,22.669812],[120.539851,22.670329],[120.540343,22.670267],[120.541051,22.670774],[120.541612,22.670863],[120.542277,22.670069],[120.542587,22.670339],[120.54293,22.670137],[120.543052,22.66998],[120.542936,22.66933],[120.543436,22.66926],[120.544336,22.669738],[120.545029,22.670479],[120.546631,22.668773],[120.545477,22.667963],[120.545547,22.667501],[120.546063,22.666956],[120.546375,22.667145],[120.546496,22.667586],[120.547223,22.668222],[120.548937,22.6665],[120.550245,22.667589],[120.551351,22.666537],[120.551975,22.66683],[120.55274,22.666906],[120.553148,22.667147],[120.554721,22.666232],[120.556081,22.666457],[120.556227,22.666231],[120.5559,22.665193],[120.55601,22.664342],[120.55624,22.66386],[120.558866,22.666023],[120.552643,22.672353],[120.549884,22.675144],[120.552044,22.677173],[120.552069,22.677338],[120.551644,22.678732],[120.549909,22.681033],[120.547733,22.68214],[120.545621,22.682486],[120.544937,22.682904],[120.544195,22.682793],[120.543439,22.683527],[120.543305,22.683545],[120.542672,22.682466],[120.539409,22.684218],[120.537146,22.682872],[120.53049,22.682846],[120.528055,22.678244],[120.528043,22.677307],[120.527525,22.676701],[120.526217,22.676765],[120.52593,22.675685],[120.525936,22.675109],[120.526614,22.674002],[120.528216,22.672567],[120.533112,22.669192]]]},"properties":{"code":"10013060001","name":"進興村","countyCode":"10013","countyName":"屏東縣","townCode":"10013060","townName":"長治鄉","level":"village","unassigned":false,"note":"","label":[120.5383856564009,22.676607109189483],"bounds":[120.52593,22.66386,120.558866,22.684218],"focusBounds":[120.52593,22.66386,120.558866,22.684218],"color":"#df9f6a"}},{"type":"Feature","id":"10013060002","geometry":{"type":"Polygon","coordinates":[[[120.516392,22.679259],[120.517431,22.678249],[120.518232,22.678581],[120.518563,22.678243],[120.519151,22.678748],[120.521182,22.676388],[120.522256,22.676235],[120.523555,22.676732],[120.524897,22.67646],[120.524164,22.675063],[120.524521,22.674899],[120.524587,22.674368],[120.524869,22.674245],[120.526217,22.676765],[120.527525,22.676701],[120.528043,22.677307],[120.528055,22.678244],[120.53049,22.682846],[120.531499,22.685461],[120.527671,22.68617],[120.52714,22.686399],[120.525921,22.689032],[120.524429,22.688407],[120.520037,22.686904],[120.516139,22.681803],[120.515918,22.680838],[120.515915,22.679865],[120.516392,22.679259]]]},"properties":{"code":"10013060002","name":"新潭村","countyCode":"10013","countyName":"屏東縣","townCode":"10013060","townName":"長治鄉","level":"village","unassigned":false,"note":"","label":[120.52374430854091,22.68207884999819],"bounds":[120.515915,22.674245,120.531499,22.689032],"focusBounds":[120.515915,22.674245,120.531499,22.689032],"color":"#c38cb8"}},{"type":"Feature","id":"10013060003","geometry":{"type":"Polygon","coordinates":[[[120.526217,22.676765],[120.524869,22.674245],[120.524587,22.674368],[120.524521,22.674899],[120.524164,22.675063],[120.524897,22.67646],[120.523555,22.676732],[120.522256,22.676235],[120.521182,22.676388],[120.519151,22.678748],[120.518563,22.678243],[120.518232,22.678581],[120.517431,22.678249],[120.516392,22.679259],[120.510864,22.675199],[120.51137,22.674324],[120.511276,22.673642],[120.511429,22.672991],[120.511167,22.67226],[120.511145,22.672031],[120.513265,22.671294],[120.521652,22.668975],[120.522229,22.668309],[120.522654,22.668136],[120.522584,22.667565],[120.52233,22.667282],[120.523041,22.666905],[120.523173,22.666264],[120.523514,22.665802],[120.524512,22.665534],[120.52552,22.665583],[120.525718,22.666568],[120.526384,22.666887],[120.527223,22.667616],[120.528207,22.667544],[120.528646,22.667051],[120.530284,22.667609],[120.530798,22.667287],[120.530959,22.66691],[120.531674,22.666759],[120.532126,22.666994],[120.532701,22.667852],[120.532638,22.668702],[120.533112,22.669192],[120.528216,22.672567],[120.526614,22.674002],[120.525936,22.675109],[120.52593,22.675685],[120.526217,22.676765]]]},"properties":{"code":"10013060003","name":"潭頭村","countyCode":"10013","countyName":"屏東縣","townCode":"10013060","townName":"長治鄉","level":"village","unassigned":false,"note":"","label":[120.52136890420039,22.67270767393783],"bounds":[120.510864,22.665534,120.533112,22.679259],"focusBounds":[120.510864,22.665534,120.533112,22.679259],"color":"#98b69b"}},{"type":"Feature","id":"10013060004","geometry":{"type":"Polygon","coordinates":[[[120.52552,22.665583],[120.524512,22.665534],[120.523514,22.665802],[120.523173,22.666264],[120.523041,22.666905],[120.52233,22.667282],[120.522584,22.667565],[120.522654,22.668136],[120.522229,22.668309],[120.521652,22.668975],[120.513265,22.671294],[120.511145,22.672031],[120.510995,22.67171],[120.509853,22.67125],[120.509708,22.670356],[120.508503,22.669074],[120.508109,22.668895],[120.508101,22.668038],[120.508833,22.668043],[120.509368,22.667776],[120.509068,22.666669],[120.510119,22.665994],[120.510268,22.664977],[120.510796,22.664434],[120.51199,22.664169],[120.511645,22.66346],[120.511823,22.663197],[120.512401,22.663083],[120.512723,22.662805],[120.513493,22.662716],[120.514221,22.66288],[120.515281,22.663633],[120.516047,22.663821],[120.517032,22.66377],[120.518206,22.663489],[120.520275,22.662618],[120.52064,22.661857],[120.52111,22.661541],[120.522573,22.659622],[120.523293,22.659733],[120.523718,22.659463],[120.524042,22.659989],[120.524019,22.6606],[120.524878,22.66099],[120.524397,22.661543],[120.524002,22.661669],[120.523736,22.662648],[120.523941,22.663209],[120.523887,22.663962],[120.524266,22.664294],[120.524257,22.664855],[120.524516,22.665065],[120.525194,22.665134],[120.525357,22.66528],[120.52552,22.665583]]]},"properties":{"code":"10013060004","name":"香楊村","countyCode":"10013","countyName":"屏東縣","townCode":"10013060","townName":"長治鄉","level":"village","unassigned":false,"note":"","label":[120.51518595772895,22.667164104957084],"bounds":[120.508101,22.659463,120.52552,22.672031],"focusBounds":[120.508101,22.659463,120.52552,22.672031],"color":"#58b99d"}},{"type":"Feature","id":"10013060005","geometry":{"type":"Polygon","coordinates":[[[120.524429,22.688407],[120.52224,22.693098],[120.520912,22.692834],[120.519363,22.692032],[120.518947,22.692193],[120.518602,22.692137],[120.517589,22.692645],[120.517486,22.692985],[120.517033,22.693023],[120.516673,22.692692],[120.51499,22.692378],[120.512778,22.69119],[120.512082,22.691045],[120.511739,22.690984],[120.511394,22.69019],[120.511387,22.68967],[120.510875,22.688958],[120.510727,22.68835],[120.511219,22.686151],[120.511314,22.68482],[120.511092,22.684363],[120.511227,22.684079],[120.510845,22.68311],[120.510965,22.682072],[120.510405,22.681091],[120.5109,22.680089],[120.510287,22.678505],[120.510562,22.677219],[120.510716,22.676872],[120.510622,22.676376],[120.510864,22.675199],[120.516392,22.679259],[120.515915,22.679865],[120.515918,22.680838],[120.516139,22.681803],[120.520037,22.686904],[120.524429,22.688407]]]},"properties":{"code":"10013060005","name":"長興村","countyCode":"10013","countyName":"屏東縣","townCode":"10013060","townName":"長治鄉","level":"village","unassigned":false,"note":"","label":[120.51526851737496,22.687682175977173],"bounds":[120.510287,22.675199,120.524429,22.693098],"focusBounds":[120.510287,22.675199,120.524429,22.693098],"color":"#efb44f"}},{"type":"Feature","id":"10013060006","geometry":{"type":"Polygon","coordinates":[[[120.555466,22.696274],[120.553785,22.693366],[120.552916,22.694049],[120.551267,22.693807],[120.551085,22.695093],[120.549908,22.694929],[120.548931,22.694985],[120.547384,22.694556],[120.5386,22.695827],[120.537028,22.693156],[120.538942,22.692221],[120.542183,22.691026],[120.545259,22.68989],[120.54559,22.691009],[120.547356,22.692293],[120.56225,22.686707],[120.561145,22.689381],[120.559228,22.692406],[120.557877,22.694125],[120.555466,22.696274]]]},"properties":{"code":"10013060006","name":"德成村","countyCode":"10013","countyName":"屏東縣","townCode":"10013060","townName":"長治鄉","level":"village","unassigned":false,"note":"","label":[120.55565004056888,22.6920732496597],"bounds":[120.537028,22.686707,120.56225,22.696274],"focusBounds":[120.537028,22.686707,120.56225,22.696274],"color":"#78a7e3"}},{"type":"Feature","id":"10013060007","geometry":{"type":"Polygon","coordinates":[[[120.555466,22.696274],[120.552519,22.698339],[120.555369,22.713735],[120.551803,22.714229],[120.550847,22.709338],[120.547296,22.709962],[120.546957,22.708268],[120.533056,22.710522],[120.531865,22.70405],[120.542301,22.702369],[120.5386,22.695827],[120.547384,22.694556],[120.548931,22.694985],[120.549908,22.694929],[120.551085,22.695093],[120.551267,22.693807],[120.552916,22.694049],[120.553785,22.693366],[120.555466,22.696274]]]},"properties":{"code":"10013060007","name":"德協村","countyCode":"10013","countyName":"屏東縣","townCode":"10013060","townName":"長治鄉","level":"village","unassigned":false,"note":"","label":[120.54761463488383,22.702799580848605],"bounds":[120.531865,22.693366,120.555466,22.714229],"focusBounds":[120.531865,22.693366,120.555466,22.714229],"color":"#dd8590"}},{"type":"Feature","id":"10013060008","geometry":{"type":"Polygon","coordinates":[[[120.56225,22.686707],[120.547356,22.692293],[120.54559,22.691009],[120.545259,22.68989],[120.542183,22.691026],[120.538021,22.685941],[120.538013,22.685455],[120.539409,22.684218],[120.542672,22.682466],[120.543305,22.683545],[120.543439,22.683527],[120.544195,22.682793],[120.544937,22.682904],[120.545621,22.682486],[120.547733,22.68214],[120.549909,22.681033],[120.551644,22.678732],[120.552069,22.677338],[120.552044,22.677173],[120.549884,22.675144],[120.552643,22.672353],[120.558041,22.676992],[120.557283,22.677725],[120.558134,22.678364],[120.557985,22.679514],[120.557613,22.679802],[120.557994,22.680141],[120.558079,22.68045],[120.56072,22.681565],[120.561744,22.681858],[120.562035,22.681779],[120.562395,22.681901],[120.563204,22.681212],[120.562775,22.684892],[120.567495,22.688931],[120.566754,22.689643],[120.565772,22.689604],[120.564974,22.688599],[120.563989,22.688445],[120.563596,22.688192],[120.56225,22.686707]]]},"properties":{"code":"10013060008","name":"復興村","countyCode":"10013","countyName":"屏東縣","townCode":"10013060","townName":"長治鄉","level":"village","unassigned":false,"note":"","label":[120.55191166880269,22.685477261942225],"bounds":[120.538013,22.672353,120.567495,22.692293],"focusBounds":[120.538013,22.672353,120.567495,22.692293],"color":"#a49ad4"}},{"type":"Feature","id":"10013060009","geometry":{"type":"Polygon","coordinates":[[[120.542183,22.691026],[120.538942,22.692221],[120.537028,22.693156],[120.535302,22.693722],[120.533526,22.693487],[120.53023,22.690786],[120.52968,22.690917],[120.529014,22.690805],[120.525921,22.689032],[120.52714,22.686399],[120.527671,22.68617],[120.531499,22.685461],[120.53049,22.682846],[120.537146,22.682872],[120.539409,22.684218],[120.538013,22.685455],[120.538021,22.685941],[120.542183,22.691026]]]},"properties":{"code":"10013060009","name":"崙上村","countyCode":"10013","countyName":"屏東縣","townCode":"10013060","townName":"長治鄉","level":"village","unassigned":false,"note":"","label":[120.5348463020308,22.688727076822804],"bounds":[120.525921,22.682846,120.542183,22.693722],"focusBounds":[120.525921,22.682846,120.542183,22.693722],"color":"#a8bf62"}},{"type":"Feature","id":"10013060010","geometry":{"type":"Polygon","coordinates":[[[120.531865,22.70405],[120.525432,22.705036],[120.52575,22.704791],[120.526426,22.703783],[120.526463,22.703022],[120.527689,22.70157],[120.527815,22.700954],[120.528519,22.700322],[120.528513,22.699449],[120.528306,22.698944],[120.527906,22.698601],[120.527196,22.698707],[120.525716,22.698291],[120.525375,22.69681],[120.523762,22.694338],[120.522911,22.693256],[120.52224,22.693098],[120.524429,22.688407],[120.525921,22.689032],[120.529014,22.690805],[120.52968,22.690917],[120.53023,22.690786],[120.533526,22.693487],[120.535302,22.693722],[120.537028,22.693156],[120.5386,22.695827],[120.542301,22.702369],[120.531865,22.70405]]]},"properties":{"code":"10013060010","name":"德榮村","countyCode":"10013","countyName":"屏東縣","townCode":"10013060","townName":"長治鄉","level":"village","unassigned":false,"note":"","label":[120.53351739976692,22.69863181359392],"bounds":[120.52224,22.688407,120.542301,22.705036],"focusBounds":[120.52224,22.688407,120.542301,22.705036],"color":"#68bec9"}},{"type":"Feature","id":"10013060011","geometry":{"type":"Polygon","coordinates":[[[120.553041,22.720394],[120.549944,22.720783],[120.549037,22.72185],[120.547923,22.721424],[120.540388,22.7226],[120.540489,22.721061],[120.528801,22.719018],[120.525292,22.718264],[120.523815,22.718393],[120.523738,22.716556],[120.522723,22.710723],[120.522399,22.709404],[120.521533,22.707374],[120.522605,22.706555],[120.524501,22.705753],[120.525432,22.705036],[120.531865,22.70405],[120.533056,22.710522],[120.546957,22.708268],[120.547296,22.709962],[120.550847,22.709338],[120.551803,22.714229],[120.553041,22.720394]]]},"properties":{"code":"10013060011","name":"德和村","countyCode":"10013","countyName":"屏東縣","townCode":"10013060","townName":"長治鄉","level":"village","unassigned":false,"note":"","label":[120.53843479765553,22.7151757228968],"bounds":[120.521533,22.70405,120.553041,22.7226],"focusBounds":[120.521533,22.70405,120.553041,22.7226],"color":"#df9f6a"}},{"type":"Feature","id":"10013060012","geometry":{"type":"Polygon","coordinates":[[[120.610947,22.718626],[120.608666,22.717415],[120.604687,22.714574],[120.60399,22.714633],[120.603692,22.713944],[120.599812,22.711968],[120.598437,22.710314],[120.59811,22.710108],[120.577237,22.700117],[120.576584,22.700215],[120.5762,22.703495],[120.572649,22.703103],[120.572288,22.703437],[120.571757,22.703465],[120.558029,22.700752],[120.557113,22.69979],[120.556298,22.698056],[120.556294,22.697751],[120.555466,22.696274],[120.557877,22.694125],[120.559228,22.692406],[120.561145,22.689381],[120.56225,22.686707],[120.563596,22.688192],[120.563989,22.688445],[120.564974,22.688599],[120.565772,22.689604],[120.566754,22.689643],[120.567495,22.688931],[120.57016,22.691135],[120.572472,22.688681],[120.580449,22.695507],[120.582983,22.696624],[120.588307,22.699923],[120.592434,22.701555],[120.594465,22.702133],[120.602307,22.703519],[120.610273,22.704062],[120.611137,22.703996],[120.615768,22.706527],[120.612846,22.710274],[120.612518,22.710938],[120.610523,22.710222],[120.609704,22.71049],[120.609178,22.710468],[120.608991,22.710664],[120.609044,22.71091],[120.610302,22.712048],[120.609933,22.712542],[120.610443,22.713021],[120.609584,22.713295],[120.608273,22.714619],[120.608133,22.714932],[120.608579,22.715758],[120.60932,22.716289],[120.610576,22.716587],[120.611813,22.716538],[120.61207,22.716701],[120.612127,22.716986],[120.611761,22.717819],[120.610947,22.718626]]]},"properties":{"code":"10013060012","name":"繁華村","countyCode":"10013","countyName":"屏東縣","townCode":"10013060","townName":"長治鄉","level":"village","unassigned":false,"note":"","label":[120.57047764673224,22.697004883691925],"bounds":[120.555466,22.686707,120.615768,22.718626],"focusBounds":[120.555466,22.686707,120.615768,22.718626],"color":"#c38cb8"}},{"type":"Feature","id":"10013060013","geometry":{"type":"Polygon","coordinates":[[[120.589216,22.716363],[120.586422,22.7167],[120.587198,22.720478],[120.585531,22.720024],[120.585481,22.720133],[120.584206,22.720188],[120.582189,22.72065],[120.579314,22.720675],[120.578611,22.720833],[120.577241,22.721785],[120.575809,22.721977],[120.574758,22.721305],[120.573521,22.721083],[120.570988,22.720291],[120.569603,22.719461],[120.567347,22.719958],[120.566502,22.715847],[120.573584,22.715016],[120.572614,22.710291],[120.573524,22.709171],[120.573865,22.706194],[120.574379,22.705216],[120.5747,22.705259],[120.575891,22.706045],[120.576037,22.705158],[120.595608,22.715613],[120.589216,22.716363]]]},"properties":{"code":"10013060013","name":"繁昌村","countyCode":"10013","countyName":"屏東縣","townCode":"10013060","townName":"長治鄉","level":"village","unassigned":false,"note":"","label":[120.5795877063065,22.714525329253576],"bounds":[120.566502,22.705158,120.595608,22.721977],"focusBounds":[120.566502,22.705158,120.595608,22.721977],"color":"#98b69b"}},{"type":"Feature","id":"10013060014","geometry":{"type":"Polygon","coordinates":[[[120.567347,22.719958],[120.558056,22.721835],[120.557814,22.718438],[120.554811,22.718807],[120.554822,22.719787],[120.554591,22.720072],[120.554398,22.720226],[120.553041,22.720394],[120.551803,22.714229],[120.555369,22.713735],[120.552519,22.698339],[120.555466,22.696274],[120.556294,22.697751],[120.556298,22.698056],[120.557113,22.69979],[120.558029,22.700752],[120.571757,22.703465],[120.572288,22.703437],[120.572649,22.703103],[120.5762,22.703495],[120.576037,22.705158],[120.575891,22.706045],[120.5747,22.705259],[120.574379,22.705216],[120.573865,22.706194],[120.573524,22.709171],[120.572614,22.710291],[120.573584,22.715016],[120.566502,22.715847],[120.567347,22.719958]]]},"properties":{"code":"10013060014","name":"繁榮村","countyCode":"10013","countyName":"屏東縣","townCode":"10013060","townName":"長治鄉","level":"village","unassigned":false,"note":"","label":[120.56226467922217,22.7096233711072],"bounds":[120.551803,22.696274,120.5762,22.721835],"focusBounds":[120.551803,22.696274,120.5762,22.721835],"color":"#58b99d"}},{"type":"Feature","id":"10013060015","geometry":{"type":"Polygon","coordinates":[[[120.60399,22.714633],[120.595608,22.715613],[120.576037,22.705158],[120.5762,22.703495],[120.576584,22.700215],[120.577237,22.700117],[120.59811,22.710108],[120.598437,22.710314],[120.599812,22.711968],[120.603692,22.713944],[120.60399,22.714633]]]},"properties":{"code":"10013060015","name":"繁隆村","countyCode":"10013","countyName":"屏東縣","townCode":"10013060","townName":"長治鄉","level":"village","unassigned":false,"note":"","label":[120.58870535642737,22.70876594169178],"bounds":[120.576037,22.700117,120.60399,22.715613],"focusBounds":[120.576037,22.700117,120.60399,22.715613],"color":"#efb44f"}},{"type":"Feature","id":"10013060016","geometry":{"type":"Polygon","coordinates":[[[120.611137,22.703996],[120.610273,22.704062],[120.602307,22.703519],[120.594465,22.702133],[120.592434,22.701555],[120.588307,22.699923],[120.582983,22.696624],[120.580449,22.695507],[120.572472,22.688681],[120.57016,22.691135],[120.567495,22.688931],[120.562775,22.684892],[120.563204,22.681212],[120.562395,22.681901],[120.562035,22.681779],[120.561744,22.681858],[120.56072,22.681565],[120.558079,22.68045],[120.557994,22.680141],[120.557613,22.679802],[120.557985,22.679514],[120.558134,22.678364],[120.557283,22.677725],[120.558041,22.676992],[120.552643,22.672353],[120.558866,22.666023],[120.561198,22.66367],[120.570242,22.671366],[120.578868,22.678542],[120.58008,22.680628],[120.580564,22.682083],[120.583593,22.684882],[120.58463,22.68538],[120.587095,22.685876],[120.587624,22.686101],[120.589424,22.687409],[120.590416,22.688366],[120.592399,22.690046],[120.593123,22.6904],[120.593452,22.690803],[120.593548,22.691399],[120.593863,22.691757],[120.594584,22.692193],[120.595148,22.692181],[120.595524,22.692438],[120.595936,22.693051],[120.601972,22.698216],[120.603592,22.699309],[120.605775,22.701142],[120.611137,22.703996]]]},"properties":{"code":"10013060016","name":"榮華村","countyCode":"10013","countyName":"屏東縣","townCode":"10013060","townName":"長治鄉","level":"village","unassigned":false,"note":"","label":[120.57404058990862,22.6822743049334],"bounds":[120.552643,22.66367,120.611137,22.704062],"focusBounds":[120.552643,22.66367,120.611137,22.704062],"color":"#78a7e3"}}]}
