{"type":"FeatureCollection","features":[{"type":"Feature","id":"10013330001","geometry":{"type":"Polygon","coordinates":[[[120.820442,22.130363],[120.817207,22.1324],[120.813885,22.132977],[120.813435,22.13383],[120.813236,22.135184],[120.811659,22.138488],[120.81085,22.139455],[120.810388,22.139669],[120.810271,22.140816],[120.809962,22.141389],[120.808383,22.142749],[120.807767,22.142929],[120.805613,22.142854],[120.803302,22.144177],[120.802685,22.145251],[120.802568,22.146111],[120.801604,22.148225],[120.801526,22.148907],[120.802177,22.151093],[120.802291,22.15224],[120.802097,22.152992],[120.801056,22.154677],[120.800478,22.155033],[120.797707,22.155317],[120.796091,22.155638],[120.794473,22.15639],[120.793242,22.15653],[120.790086,22.156562],[120.788893,22.156811],[120.788275,22.158244],[120.786656,22.159963],[120.786502,22.1605],[120.786885,22.161469],[120.787539,22.161793],[120.788539,22.161972],[120.789577,22.162369],[120.790192,22.163085],[120.791036,22.164843],[120.791189,22.165417],[120.789489,22.166955],[120.789993,22.167567],[120.790319,22.168462],[120.790566,22.170149],[120.791606,22.171259],[120.791603,22.171618],[120.790139,22.173122],[120.789135,22.175378],[120.788902,22.176274],[120.788786,22.177028],[120.789399,22.178533],[120.789562,22.179371],[120.789548,22.181832],[120.788776,22.183658],[120.78866,22.184267],[120.789043,22.185236],[120.789081,22.185846],[120.788425,22.186884],[120.78777,22.187314],[120.787459,22.189249],[120.787188,22.190036],[120.784797,22.193402],[120.784487,22.195574],[120.783938,22.195484],[120.781694,22.19398],[120.781403,22.193945],[120.780788,22.194256],[120.78025,22.194255],[120.779351,22.193798],[120.778738,22.193138],[120.778569,22.192316],[120.777671,22.191446],[120.773467,22.189662],[120.772032,22.188316],[120.771426,22.187954],[120.770473,22.187709],[120.769402,22.18692],[120.768976,22.186068],[120.768211,22.185371],[120.76805,22.18476],[120.767815,22.184529],[120.766689,22.183996],[120.766003,22.183873],[120.765069,22.182816],[120.764032,22.182186],[120.763106,22.181944],[120.762251,22.181253],[120.761619,22.181709],[120.7612,22.180471],[120.759866,22.179535],[120.758952,22.178333],[120.757423,22.177951],[120.756568,22.177193],[120.75592,22.177021],[120.755573,22.176635],[120.754856,22.176691],[120.754254,22.177008],[120.753867,22.176975],[120.753097,22.17726],[120.752059,22.177254],[120.750843,22.177911],[120.750293,22.177946],[120.749637,22.177786],[120.749115,22.177416],[120.748552,22.177651],[120.747663,22.177451],[120.745092,22.177231],[120.743951,22.176254],[120.742575,22.175655],[120.741517,22.175634],[120.740653,22.17528],[120.739337,22.174996],[120.738264,22.175064],[120.736721,22.176281],[120.736296,22.176338],[120.734361,22.175782],[120.733039,22.175028],[120.732675,22.17465],[120.732553,22.17442],[120.732714,22.173676],[120.73309,22.173192],[120.733201,22.172103],[120.733797,22.170627],[120.733905,22.169816],[120.734859,22.168847],[120.735029,22.168295],[120.734921,22.167317],[120.734686,22.167041],[120.734583,22.166434],[120.734057,22.165727],[120.733754,22.164612],[120.732855,22.163745],[120.733458,22.163102],[120.734069,22.161725],[120.73419,22.161027],[120.733952,22.160235],[120.734406,22.159247],[120.73655,22.157725],[120.737417,22.156404],[120.737049,22.154294],[120.737111,22.153088],[120.737242,22.152277],[120.738,22.151363],[120.738162,22.150713],[120.737941,22.149352],[120.738228,22.148136],[120.737441,22.147657],[120.737152,22.146911],[120.737357,22.145848],[120.737287,22.145268],[120.737668,22.144882],[120.737224,22.144563],[120.736596,22.143319],[120.736565,22.142655],[120.736314,22.141937],[120.736415,22.141595],[120.737055,22.140893],[120.737442,22.139756],[120.73637,22.137773],[120.736118,22.13628],[120.7355,22.134742],[120.735393,22.13128],[120.734983,22.129714],[120.735063,22.128372],[120.735459,22.127306],[120.735494,22.126255],[120.735317,22.125738],[120.735876,22.12515],[120.735903,22.12464],[120.736169,22.124163],[120.736258,22.121691],[120.736606,22.120623],[120.736006,22.119136],[120.736048,22.118272],[120.736335,22.116087],[120.736732,22.11499],[120.737826,22.112928],[120.738277,22.111526],[120.738047,22.107862],[120.737738,22.10686],[120.737334,22.106348],[120.737271,22.105757],[120.737359,22.104783],[120.736836,22.103865],[120.738165,22.101522],[120.73943,22.099553],[120.74111,22.099491],[120.741896,22.099295],[120.742849,22.098759],[120.745268,22.096858],[120.745378,22.097526],[120.746984,22.098544],[120.747533,22.098508],[120.748077,22.097941],[120.748531,22.097966],[120.748221,22.099072],[120.748517,22.099726],[120.748912,22.101808],[120.749957,22.103137],[120.750856,22.103601],[120.750991,22.104037],[120.750845,22.104761],[120.751021,22.105093],[120.752308,22.106745],[120.753133,22.107492],[120.753834,22.107855],[120.754263,22.109013],[120.754932,22.109884],[120.754889,22.11071],[120.75417,22.112239],[120.754202,22.112519],[120.755913,22.112793],[120.76091,22.111867],[120.761574,22.111476],[120.762012,22.111438],[120.763611,22.110821],[120.7656,22.109558],[120.76721,22.10916],[120.768332,22.108663],[120.768912,22.108563],[120.76956,22.108791],[120.770795,22.108854],[120.771122,22.108756],[120.772869,22.107947],[120.774097,22.107581],[120.776189,22.106244],[120.777596,22.105806],[120.778569,22.105681],[120.77965,22.105869],[120.780592,22.103547],[120.781432,22.104015],[120.781914,22.104036],[120.783356,22.10343],[120.786178,22.103183],[120.788369,22.101823],[120.790001,22.101572],[120.790701,22.100174],[120.790967,22.099976],[120.792653,22.100184],[120.793009,22.099979],[120.793039,22.099685],[120.793786,22.100149],[120.795593,22.100508],[120.796362,22.100439],[120.797363,22.099973],[120.799094,22.099975],[120.800211,22.098974],[120.800557,22.098866],[120.803365,22.09905],[120.803916,22.099392],[120.804555,22.100305],[120.804718,22.100982],[120.805438,22.101667],[120.805358,22.103961],[120.80551,22.105289],[120.805854,22.106543],[120.807952,22.108555],[120.809379,22.110255],[120.810576,22.114004],[120.811675,22.115403],[120.81111,22.117159],[120.81134,22.117555],[120.811841,22.117447],[120.813571,22.117593],[120.81484,22.118096],[120.815378,22.118528],[120.815685,22.119066],[120.815607,22.11989],[120.81576,22.120892],[120.816163,22.121988],[120.81695,22.123046],[120.81914,22.125234],[120.820061,22.126632],[120.820723,22.128512],[120.820784,22.129415],[120.820442,22.130363]]]},"properties":{"code":"10013330001","name":"石門村","countyCode":"10013","countyName":"屏東縣","townCode":"10013330","townName":"牡丹鄉","level":"village","unassigned":false,"note":"","label":[120.76650869922702,22.139132081283805],"bounds":[120.732553,22.096858,120.820784,22.195574],"focusBounds":[120.732553,22.096858,120.820784,22.195574],"color":"#df9f6a"}},{"type":"Feature","id":"10013330002","geometry":{"type":"Polygon","coordinates":[[[120.837585,22.212449],[120.836862,22.21257],[120.83634,22.21211],[120.835774,22.212259],[120.834774,22.212027],[120.834359,22.211463],[120.833617,22.211044],[120.833032,22.211345],[120.832465,22.211411],[120.830912,22.20987],[120.829877,22.209621],[120.829056,22.209052],[120.828111,22.208857],[120.826726,22.209147],[120.825778,22.208746],[120.825536,22.208262],[120.824387,22.207601],[120.824108,22.206867],[120.822849,22.206909],[120.821704,22.207628],[120.820643,22.207516],[120.819886,22.207178],[120.818711,22.207814],[120.818077,22.207327],[120.817679,22.207365],[120.816308,22.208201],[120.815168,22.207909],[120.815062,22.20647],[120.814569,22.206272],[120.813503,22.204738],[120.812427,22.204494],[120.811826,22.204203],[120.811364,22.203729],[120.810967,22.20366],[120.809639,22.203664],[120.807731,22.204065],[120.80717,22.204],[120.806785,22.203711],[120.806075,22.203879],[120.804832,22.203736],[120.804275,22.203961],[120.80401,22.204588],[120.802748,22.204829],[120.801802,22.204452],[120.802112,22.203743],[120.801614,22.202714],[120.800526,22.201555],[120.799179,22.200802],[120.798846,22.199511],[120.797415,22.198449],[120.797013,22.197819],[120.795703,22.19756],[120.794866,22.197768],[120.79433,22.197558],[120.792882,22.197691],[120.791622,22.197135],[120.790886,22.196212],[120.790213,22.195823],[120.789407,22.195609],[120.788474,22.195572],[120.787083,22.196105],[120.784487,22.195574],[120.784797,22.193402],[120.787188,22.190036],[120.787459,22.189249],[120.78777,22.187314],[120.788425,22.186884],[120.789081,22.185846],[120.789043,22.185236],[120.78866,22.184267],[120.788776,22.183658],[120.789548,22.181832],[120.789562,22.179371],[120.789399,22.178533],[120.788786,22.177028],[120.788902,22.176274],[120.789135,22.175378],[120.790139,22.173122],[120.791603,22.171618],[120.791606,22.171259],[120.790566,22.170149],[120.790319,22.168462],[120.789993,22.167567],[120.789489,22.166955],[120.791189,22.165417],[120.791036,22.164843],[120.790192,22.163085],[120.789577,22.162369],[120.788539,22.161972],[120.787539,22.161793],[120.786885,22.161469],[120.786502,22.1605],[120.786656,22.159963],[120.788275,22.158244],[120.788893,22.156811],[120.790086,22.156562],[120.793242,22.15653],[120.794473,22.15639],[120.796091,22.155638],[120.797707,22.155317],[120.800478,22.155033],[120.801056,22.154677],[120.802097,22.152992],[120.802291,22.15224],[120.802177,22.151093],[120.801526,22.148907],[120.801604,22.148225],[120.802568,22.146111],[120.802685,22.145251],[120.803302,22.144177],[120.805613,22.142854],[120.807767,22.142929],[120.808383,22.142749],[120.809962,22.141389],[120.810271,22.140816],[120.810388,22.139669],[120.81085,22.139455],[120.811659,22.138488],[120.813236,22.135184],[120.813435,22.13383],[120.813885,22.132977],[120.817207,22.1324],[120.820442,22.130363],[120.82049,22.130575],[120.822427,22.132198],[120.822563,22.134321],[120.822321,22.135237],[120.822359,22.135669],[120.824242,22.137283],[120.824587,22.137965],[120.824255,22.142248],[120.82462,22.143091],[120.826311,22.14449],[120.827731,22.147072],[120.827808,22.147682],[120.826498,22.148541],[120.826343,22.149938],[120.826457,22.150656],[120.826765,22.151013],[120.827265,22.151195],[120.827842,22.151123],[120.828458,22.150801],[120.830151,22.150983],[120.830497,22.151162],[120.830766,22.151664],[120.831688,22.152274],[120.833228,22.152312],[120.835726,22.15443],[120.837304,22.154],[120.837651,22.154145],[120.838342,22.155076],[120.83938,22.155651],[120.839687,22.157193],[120.840339,22.158914],[120.840531,22.159093],[120.841916,22.15913],[120.842685,22.159632],[120.843609,22.159455],[120.844109,22.159887],[120.844224,22.16028],[120.844029,22.162788],[120.843759,22.162968],[120.843682,22.163542],[120.844412,22.163865],[120.844912,22.164726],[120.844988,22.165693],[120.844872,22.166302],[120.846719,22.166304],[120.848835,22.166593],[120.851644,22.166417],[120.853568,22.166597],[120.854569,22.167029],[120.855606,22.168283],[120.856452,22.169002],[120.858376,22.169649],[120.858837,22.169937],[120.859106,22.170187],[120.859221,22.170725],[120.859447,22.171021],[120.859835,22.171094],[120.862463,22.170775],[120.862629,22.174298],[120.861909,22.177072],[120.861887,22.177734],[120.862158,22.17891],[120.861983,22.180118],[120.860943,22.181156],[120.857911,22.182874],[120.856503,22.18171],[120.853901,22.180729],[120.851901,22.180583],[120.850783,22.18079],[120.849116,22.181409],[120.846732,22.182678],[120.844853,22.183078],[120.844458,22.183362],[120.843251,22.18566],[120.842348,22.186336],[120.841133,22.186816],[120.840549,22.187971],[120.838921,22.188053],[120.838295,22.188441],[120.83757,22.191278],[120.837761,22.191924],[120.839413,22.194794],[120.839605,22.19544],[120.839644,22.197506],[120.839061,22.199955],[120.839135,22.20152],[120.839443,22.202213],[120.840712,22.203576],[120.841019,22.204258],[120.841712,22.204688],[120.841812,22.205051],[120.841753,22.20534],[120.841208,22.206026],[120.839319,22.207508],[120.839048,22.209099],[120.83824,22.21128],[120.837585,22.212449]]]},"properties":{"code":"10013330002","name":"牡丹村","countyCode":"10013","countyName":"屏東縣","townCode":"10013330","townName":"牡丹鄉","level":"village","unassigned":false,"note":"","label":[120.8167152250146,22.175546842885968],"bounds":[120.784487,22.130363,120.862629,22.21257],"focusBounds":[120.784487,22.130363,120.862629,22.21257],"color":"#c38cb8"}},{"type":"Feature","id":"10013330003","geometry":{"type":"Polygon","coordinates":[[[120.863648,22.210427],[120.862369,22.210272],[120.860615,22.209659],[120.859809,22.210431],[120.858951,22.210874],[120.858321,22.210867],[120.858034,22.211295],[120.856264,22.210629],[120.853121,22.21089],[120.85164,22.211436],[120.850753,22.211442],[120.850017,22.211653],[120.848602,22.21312],[120.848194,22.213275],[120.847786,22.213284],[120.846722,22.212972],[120.844762,22.213164],[120.84426,22.213085],[120.843419,22.213552],[120.842917,22.213636],[120.840861,22.213457],[120.838069,22.213528],[120.837939,22.212367],[120.837585,22.212449],[120.83824,22.21128],[120.839048,22.209099],[120.839319,22.207508],[120.841208,22.206026],[120.841753,22.20534],[120.841812,22.205051],[120.841712,22.204688],[120.841019,22.204258],[120.840712,22.203576],[120.839443,22.202213],[120.839135,22.20152],[120.839061,22.199955],[120.839644,22.197506],[120.839605,22.19544],[120.839413,22.194794],[120.837761,22.191924],[120.83757,22.191278],[120.838295,22.188441],[120.838921,22.188053],[120.840549,22.187971],[120.841133,22.186816],[120.842348,22.186336],[120.843251,22.18566],[120.844458,22.183362],[120.844853,22.183078],[120.846732,22.182678],[120.849116,22.181409],[120.850783,22.18079],[120.851901,22.180583],[120.853901,22.180729],[120.856503,22.18171],[120.857911,22.182874],[120.858708,22.184021],[120.859317,22.184444],[120.860554,22.184955],[120.86194,22.185101],[120.864076,22.184737],[120.865552,22.184883],[120.866366,22.185141],[120.867174,22.185679],[120.867404,22.186314],[120.867492,22.1874],[120.868287,22.189013],[120.868555,22.190232],[120.869094,22.190592],[120.869478,22.191165],[120.869592,22.193101],[120.869899,22.193961],[120.870366,22.194535],[120.870418,22.19482],[120.870029,22.195614],[120.870029,22.195996],[120.870649,22.197389],[120.870668,22.198112],[120.870048,22.199231],[120.870258,22.200155],[120.870218,22.201783],[120.869967,22.203279],[120.869341,22.204117],[120.869041,22.205753],[120.868694,22.206719],[120.868386,22.207114],[120.867629,22.207461],[120.865375,22.208058],[120.864958,22.208403],[120.863648,22.210427]]]},"properties":{"code":"10013330003","name":"東源村","countyCode":"10013","countyName":"屏東縣","townCode":"10013330","townName":"牡丹鄉","level":"village","unassigned":false,"note":"","label":[120.85333669579765,22.196725606553287],"bounds":[120.83757,22.180583,120.870668,22.213636],"focusBounds":[120.83757,22.180583,120.870668,22.213636],"color":"#98b69b"}},{"type":"Feature","id":"10013330004","geometry":{"type":"Polygon","coordinates":[[[120.896987,22.144114],[120.896798,22.14426],[120.896708,22.144024],[120.896666,22.144531],[120.895074,22.146225],[120.893661,22.148814],[120.892555,22.15032],[120.892725,22.151485],[120.893495,22.153356],[120.893975,22.155778],[120.893724,22.158853],[120.893418,22.160414],[120.89209,22.162444],[120.892346,22.163969],[120.893281,22.166935],[120.893342,22.167555],[120.893574,22.167553],[120.893625,22.168179],[120.893801,22.168463],[120.893574,22.169961],[120.893798,22.170644],[120.89408,22.170787],[120.894231,22.172555],[120.893775,22.173965],[120.893567,22.175419],[120.89367,22.175801],[120.893552,22.176906],[120.893941,22.177327],[120.893807,22.17763],[120.893954,22.17771],[120.892972,22.179169],[120.892279,22.181482],[120.891944,22.184083],[120.89227,22.184532],[120.892366,22.185417],[120.891645,22.187237],[120.891718,22.187929],[120.89152,22.188181],[120.891645,22.188643],[120.891446,22.188987],[120.891577,22.189162],[120.891267,22.18967],[120.891302,22.189971],[120.891115,22.190341],[120.891163,22.190906],[120.890749,22.193455],[120.890697,22.195329],[120.891247,22.196294],[120.891854,22.196985],[120.892169,22.196943],[120.892532,22.197402],[120.892901,22.197398],[120.893141,22.197682],[120.893306,22.19768],[120.893267,22.197862],[120.893641,22.197955],[120.893512,22.198128],[120.893556,22.198448],[120.894724,22.200243],[120.895013,22.200328],[120.895177,22.201155],[120.895472,22.201357],[120.895399,22.201604],[120.895646,22.202379],[120.896144,22.202831],[120.896172,22.203192],[120.896411,22.203485],[120.896442,22.20424],[120.896079,22.20462],[120.896171,22.204938],[120.896409,22.204864],[120.896589,22.205058],[120.896393,22.205376],[120.896613,22.20561],[120.896189,22.205578],[120.895964,22.205926],[120.895753,22.208867],[120.894201,22.216456],[120.894423,22.217051],[120.894192,22.218844],[120.894168,22.220601],[120.894391,22.220729],[120.894229,22.220972],[120.894319,22.221401],[120.894747,22.221747],[120.894603,22.22304],[120.894746,22.223318],[120.894702,22.2237],[120.895229,22.224841],[120.895328,22.225449],[120.895527,22.225669],[120.89591,22.227219],[120.896488,22.227801],[120.896365,22.228157],[120.896612,22.228329],[120.896487,22.228478],[120.897164,22.228927],[120.897672,22.228995],[120.897716,22.22924],[120.898924,22.229836],[120.898855,22.23025],[120.899132,22.230367],[120.898576,22.231139],[120.898679,22.23146],[120.898478,22.2317],[120.898643,22.231984],[120.898617,22.232826],[120.898876,22.233675],[120.899271,22.234043],[120.898834,22.234737],[120.898864,22.235267],[120.89872,22.23543],[120.898299,22.237557],[120.898125,22.237786],[120.898278,22.23801],[120.898032,22.238152],[120.897811,22.238667],[120.897438,22.240026],[120.897328,22.241145],[120.897028,22.2416],[120.897005,22.242501],[120.896749,22.243026],[120.896754,22.244341],[120.896295,22.24643],[120.892053,22.245452],[120.891806,22.245218],[120.891671,22.244667],[120.89138,22.2443],[120.890385,22.243977],[120.889836,22.24352],[120.888967,22.243363],[120.888235,22.243039],[120.887438,22.24233],[120.885919,22.241985],[120.885156,22.241165],[120.884184,22.240712],[120.88294,22.238953],[120.882506,22.237409],[120.880616,22.234699],[120.880314,22.234652],[120.879489,22.235199],[120.879093,22.235217],[120.878189,22.234964],[120.876528,22.234846],[120.875957,22.234203],[120.874731,22.234246],[120.873958,22.233587],[120.872279,22.233291],[120.871531,22.233005],[120.871636,22.232036],[120.870844,22.231391],[120.868666,22.231282],[120.868239,22.230981],[120.867453,22.230011],[120.866429,22.229825],[120.867001,22.228385],[120.866936,22.227807],[120.867092,22.227537],[120.867208,22.226503],[120.867653,22.226211],[120.867219,22.225411],[120.866648,22.22498],[120.866897,22.223361],[120.867399,22.223068],[120.86737,22.222458],[120.867799,22.220894],[120.867428,22.220272],[120.866189,22.220248],[120.866025,22.219805],[120.865599,22.219375],[120.865177,22.218152],[120.866531,22.216817],[120.866936,22.216584],[120.8671,22.215737],[120.866518,22.21415],[120.86691,22.21261],[120.866094,22.211249],[120.864834,22.211023],[120.864089,22.211236],[120.863701,22.211197],[120.863648,22.210427],[120.864958,22.208403],[120.865375,22.208058],[120.867629,22.207461],[120.868386,22.207114],[120.868694,22.206719],[120.869041,22.205753],[120.869341,22.204117],[120.869967,22.203279],[120.870218,22.201783],[120.870258,22.200155],[120.870048,22.199231],[120.870668,22.198112],[120.870649,22.197389],[120.870029,22.195996],[120.870029,22.195614],[120.870418,22.19482],[120.870366,22.194535],[120.869899,22.193961],[120.869592,22.193101],[120.869478,22.191165],[120.869094,22.190592],[120.868555,22.190232],[120.868287,22.189013],[120.867492,22.1874],[120.867404,22.186314],[120.867174,22.185679],[120.866366,22.185141],[120.865552,22.184883],[120.864076,22.184737],[120.86194,22.185101],[120.860554,22.184955],[120.859317,22.184444],[120.858708,22.184021],[120.857911,22.182874],[120.860943,22.181156],[120.861983,22.180118],[120.862158,22.17891],[120.861887,22.177734],[120.861909,22.177072],[120.862629,22.174298],[120.862463,22.170775],[120.862416,22.170118],[120.862575,22.16936],[120.864596,22.168709],[120.865882,22.16729],[120.866268,22.166572],[120.866577,22.164888],[120.867523,22.162184],[120.86762,22.16066],[120.870355,22.158655],[120.870741,22.156826],[120.871211,22.15598],[120.871781,22.155465],[120.872397,22.155357],[120.873667,22.155611],[120.875129,22.154858],[120.876476,22.154823],[120.877131,22.154645],[120.878478,22.153786],[120.879942,22.151852],[120.880382,22.150523],[120.881291,22.149415],[120.881677,22.148232],[120.882062,22.147981],[120.883524,22.14766],[120.884486,22.147231],[120.885911,22.146049],[120.886605,22.144652],[120.887066,22.144508],[120.887567,22.14458],[120.888221,22.144222],[120.888106,22.143899],[120.887606,22.143506],[120.887529,22.143183],[120.88752,22.141129],[120.888619,22.141055],[120.891091,22.141846],[120.892939,22.141681],[120.894387,22.142359],[120.896987,22.144114]]]},"properties":{"code":"10013330004","name":"旭海村","countyCode":"10013","countyName":"屏東縣","townCode":"10013330","townName":"牡丹鄉","level":"village","unassigned":false,"note":"","label":[120.8828130465632,22.20631816338689],"bounds":[120.857911,22.141055,120.899271,22.24643],"focusBounds":[120.857911,22.141055,120.899271,22.24643],"color":"#58b99d"}},{"type":"Feature","id":"10013330005","geometry":{"type":"Polygon","coordinates":[[[120.862463,22.170775],[120.859835,22.171094],[120.859447,22.171021],[120.859221,22.170725],[120.859106,22.170187],[120.858837,22.169937],[120.858376,22.169649],[120.856452,22.169002],[120.855606,22.168283],[120.854569,22.167029],[120.853568,22.166597],[120.851644,22.166417],[120.848835,22.166593],[120.846719,22.166304],[120.844872,22.166302],[120.844988,22.165693],[120.844912,22.164726],[120.844412,22.163865],[120.843682,22.163542],[120.843759,22.162968],[120.844029,22.162788],[120.844224,22.16028],[120.844109,22.159887],[120.843609,22.159455],[120.842685,22.159632],[120.841916,22.15913],[120.840531,22.159093],[120.840339,22.158914],[120.839687,22.157193],[120.83938,22.155651],[120.838342,22.155076],[120.837651,22.154145],[120.837304,22.154],[120.835726,22.15443],[120.833228,22.152312],[120.831688,22.152274],[120.830766,22.151664],[120.830497,22.151162],[120.830151,22.150983],[120.828458,22.150801],[120.827842,22.151123],[120.827265,22.151195],[120.826765,22.151013],[120.826457,22.150656],[120.826343,22.149938],[120.826498,22.148541],[120.827808,22.147682],[120.827731,22.147072],[120.826311,22.14449],[120.82462,22.143091],[120.824255,22.142248],[120.824587,22.137965],[120.824242,22.137283],[120.822359,22.135669],[120.822321,22.135237],[120.822563,22.134321],[120.822427,22.132198],[120.82049,22.130575],[120.820442,22.130363],[120.820784,22.129415],[120.820723,22.128512],[120.820061,22.126632],[120.81914,22.125234],[120.81695,22.123046],[120.816163,22.121988],[120.81576,22.120892],[120.815607,22.11989],[120.815685,22.119066],[120.815378,22.118528],[120.81484,22.118096],[120.813571,22.117593],[120.811841,22.117447],[120.81134,22.117555],[120.81111,22.117159],[120.811675,22.115403],[120.812353,22.115027],[120.814809,22.112862],[120.815464,22.112075],[120.815772,22.111323],[120.816389,22.110464],[120.818095,22.109143],[120.81811,22.108707],[120.817495,22.107081],[120.817617,22.106308],[120.817948,22.105889],[120.818703,22.105664],[120.820012,22.10439],[120.821668,22.103802],[120.825282,22.102923],[120.828205,22.102718],[120.828428,22.103344],[120.829753,22.104216],[120.830294,22.104937],[120.831927,22.105528],[120.832571,22.106203],[120.833033,22.107007],[120.838777,22.108992],[120.839767,22.109592],[120.840401,22.110164],[120.84184,22.111708],[120.842461,22.112932],[120.842786,22.114023],[120.84324,22.114462],[120.845092,22.115311],[120.847787,22.115705],[120.848122,22.116061],[120.848909,22.116245],[120.849487,22.117275],[120.850399,22.117582],[120.853357,22.120394],[120.853748,22.12142],[120.854018,22.121561],[120.855197,22.123221],[120.85413,22.12486],[120.854094,22.125298],[120.854254,22.125792],[120.855911,22.127702],[120.85601,22.128031],[120.855886,22.129172],[120.856566,22.130261],[120.856496,22.130558],[120.855816,22.130918],[120.855141,22.131807],[120.8549,22.132703],[120.85492,22.134525],[120.854577,22.135017],[120.853549,22.135574],[120.853194,22.136388],[120.853062,22.137505],[120.85225,22.138269],[120.851166,22.138939],[120.849752,22.141089],[120.848723,22.142114],[120.84866,22.142529],[120.848797,22.143],[120.850544,22.144706],[120.851337,22.144974],[120.851766,22.14534],[120.852013,22.144879],[120.852423,22.144694],[120.85327,22.144746],[120.853874,22.145184],[120.854276,22.145272],[120.857918,22.144642],[120.858564,22.143632],[120.859282,22.143205],[120.860009,22.142946],[120.861275,22.142874],[120.862109,22.142523],[120.86423,22.14214],[120.865163,22.141727],[120.866108,22.140638],[120.867605,22.14075],[120.868656,22.140637],[120.869345,22.140843],[120.869779,22.141538],[120.869845,22.142758],[120.869127,22.143808],[120.869091,22.144127],[120.869264,22.144373],[120.870059,22.144871],[120.870984,22.144688],[120.872275,22.144817],[120.873229,22.144362],[120.873541,22.141994],[120.873918,22.141543],[120.875157,22.14192],[120.876288,22.141998],[120.877172,22.141423],[120.877412,22.141005],[120.878093,22.140373],[120.880511,22.140021],[120.881194,22.139349],[120.882352,22.139647],[120.883312,22.139447],[120.883781,22.138857],[120.884186,22.138625],[120.886344,22.139898],[120.88677,22.140977],[120.88752,22.141129],[120.887529,22.143183],[120.887606,22.143506],[120.888106,22.143899],[120.888221,22.144222],[120.887567,22.14458],[120.887066,22.144508],[120.886605,22.144652],[120.885911,22.146049],[120.884486,22.147231],[120.883524,22.14766],[120.882062,22.147981],[120.881677,22.148232],[120.881291,22.149415],[120.880382,22.150523],[120.879942,22.151852],[120.878478,22.153786],[120.877131,22.154645],[120.876476,22.154823],[120.875129,22.154858],[120.873667,22.155611],[120.872397,22.155357],[120.871781,22.155465],[120.871211,22.15598],[120.870741,22.156826],[120.870355,22.158655],[120.86762,22.16066],[120.867523,22.162184],[120.866577,22.164888],[120.866268,22.166572],[120.865882,22.16729],[120.864596,22.168709],[120.862575,22.16936],[120.862416,22.170118],[120.862463,22.170775]]]},"properties":{"code":"10013330005","name":"高士村","countyCode":"10013","countyName":"屏東縣","townCode":"10013330","townName":"牡丹鄉","level":"village","unassigned":false,"note":"","label":[120.83779862804676,22.129830939830505],"bounds":[120.81111,22.102718,120.888221,22.171094],"focusBounds":[120.81111,22.102718,120.888221,22.171094],"color":"#78a7e3"}},{"type":"Feature","id":"10013330006","geometry":{"type":"Polygon","coordinates":[[[120.828205,22.102718],[120.825282,22.102923],[120.821668,22.103802],[120.820012,22.10439],[120.818703,22.105664],[120.817948,22.105889],[120.817617,22.106308],[120.817495,22.107081],[120.81811,22.108707],[120.818095,22.109143],[120.816389,22.110464],[120.815772,22.111323],[120.815464,22.112075],[120.814809,22.112862],[120.812353,22.115027],[120.811675,22.115403],[120.810576,22.114004],[120.809379,22.110255],[120.807952,22.108555],[120.805854,22.106543],[120.80551,22.105289],[120.805358,22.103961],[120.805438,22.101667],[120.804718,22.100982],[120.804555,22.100305],[120.803916,22.099392],[120.803365,22.09905],[120.800557,22.098866],[120.800211,22.098974],[120.799094,22.099975],[120.797363,22.099973],[120.796362,22.100439],[120.795593,22.100508],[120.793786,22.100149],[120.793039,22.099685],[120.793075,22.096805],[120.793584,22.095872],[120.792976,22.093175],[120.793014,22.091962],[120.793808,22.090491],[120.793538,22.089402],[120.794044,22.088861],[120.795725,22.086335],[120.795152,22.085981],[120.793653,22.084539],[120.793845,22.082457],[120.793757,22.081873],[120.794859,22.079583],[120.794558,22.078376],[120.794774,22.077781],[120.794857,22.076121],[120.794371,22.075528],[120.794095,22.074775],[120.794413,22.074137],[120.794286,22.073398],[120.79439,22.072832],[120.79546,22.069796],[120.794645,22.068123],[120.795758,22.066683],[120.797191,22.064267],[120.798187,22.063482],[120.79867,22.063362],[120.799075,22.06304],[120.800164,22.061635],[120.801993,22.060659],[120.803786,22.060902],[120.804222,22.060652],[120.804962,22.059746],[120.805717,22.05971],[120.806698,22.05929],[120.807673,22.059612],[120.808087,22.059616],[120.808929,22.059999],[120.809607,22.059997],[120.810224,22.060453],[120.810708,22.060532],[120.810847,22.060904],[120.811819,22.061803],[120.811962,22.063114],[120.813152,22.063263],[120.814426,22.064339],[120.814894,22.066422],[120.815506,22.067486],[120.815494,22.06822],[120.81599,22.068773],[120.816909,22.068864],[120.817831,22.070451],[120.817798,22.071065],[120.81803,22.072148],[120.817704,22.07246],[120.817506,22.074145],[120.817604,22.074932],[120.818022,22.075695],[120.819079,22.076452],[120.819551,22.076333],[120.820263,22.075508],[120.821148,22.075579],[120.82189,22.075854],[120.822212,22.076492],[120.821933,22.077594],[120.821063,22.079078],[120.820851,22.08099],[120.820645,22.081576],[120.818938,22.083355],[120.816964,22.08508],[120.816444,22.086123],[120.816559,22.08713],[120.817658,22.089357],[120.81814,22.08971],[120.818828,22.089916],[120.820704,22.089822],[120.823109,22.090015],[120.82358,22.090192],[120.824253,22.091596],[120.82435,22.092179],[120.82475,22.092796],[120.825439,22.093438],[120.825975,22.094321],[120.826875,22.096472],[120.827352,22.09903],[120.827296,22.100076],[120.828205,22.102718]]]},"properties":{"code":"10013330006","name":"四林村","countyCode":"10013","countyName":"屏東縣","townCode":"10013330","townName":"牡丹鄉","level":"village","unassigned":false,"note":"","label":[120.80680432447397,22.07938156975906],"bounds":[120.792976,22.05929,120.828205,22.115403],"focusBounds":[120.792976,22.05929,120.828205,22.115403],"color":"#dd8590"}}]}
