{"type":"FeatureCollection","features":[{"type":"Feature","id":"10010040001","geometry":{"type":"Polygon","coordinates":[[[120.456953,23.603516],[120.457285,23.604213],[120.457287,23.604676],[120.456675,23.605186],[120.456532,23.606434],[120.455961,23.606339],[120.456058,23.606064],[120.455369,23.604502],[120.455265,23.603506],[120.454979,23.602954],[120.455053,23.602654],[120.456744,23.602721],[120.456953,23.603516]]]},"properties":{"code":"10010040001","name":"東林里","countyCode":"10010","countyName":"嘉義縣","townCode":"10010040","townName":"大林鎮","level":"village","unassigned":false,"note":"","label":[120.45626878972348,23.60421649325026],"bounds":[120.454979,23.602654,120.457287,23.606434],"focusBounds":[120.454979,23.602654,120.457287,23.606434],"color":"#68bec9"}},{"type":"Feature","id":"10010040002","geometry":{"type":"Polygon","coordinates":[[[120.455961,23.606339],[120.455284,23.607603],[120.454659,23.607587],[120.454201,23.607274],[120.453071,23.605911],[120.449621,23.60536],[120.44863,23.604952],[120.447408,23.604006],[120.447627,23.60303],[120.447446,23.601652],[120.45095,23.601947],[120.449473,23.598657],[120.451098,23.600046],[120.451844,23.599213],[120.45295,23.600279],[120.454483,23.602481],[120.455053,23.602654],[120.454979,23.602954],[120.455265,23.603506],[120.455369,23.604502],[120.456058,23.606064],[120.455961,23.606339]]]},"properties":{"code":"10010040002","name":"西林里","countyCode":"10010","countyName":"嘉義縣","townCode":"10010040","townName":"大林鎮","level":"village","unassigned":false,"note":"","label":[120.45221217146381,23.603653827062487],"bounds":[120.447408,23.598657,120.456058,23.607603],"focusBounds":[120.447408,23.598657,120.456058,23.607603],"color":"#df9f6a"}},{"type":"Feature","id":"10010040003","geometry":{"type":"Polygon","coordinates":[[[120.451844,23.599213],[120.453038,23.597967],[120.458094,23.603225],[120.456953,23.603516],[120.456744,23.602721],[120.455053,23.602654],[120.454483,23.602481],[120.45295,23.600279],[120.451844,23.599213]]]},"properties":{"code":"10010040003","name":"吉林里","countyCode":"10010","countyName":"嘉義縣","townCode":"10010040","townName":"大林鎮","level":"village","unassigned":false,"note":"","label":[120.45469635975891,23.601118848493957],"bounds":[120.451844,23.597967,120.458094,23.603516],"focusBounds":[120.451844,23.597967,120.458094,23.603516],"color":"#c38cb8"}},{"type":"Feature","id":"10010040004","geometry":{"type":"Polygon","coordinates":[[[120.460543,23.607576],[120.45914,23.607603],[120.45781,23.60784],[120.455284,23.607603],[120.455961,23.606339],[120.456532,23.606434],[120.456675,23.605186],[120.457287,23.604676],[120.457285,23.604213],[120.456953,23.603516],[120.458094,23.603225],[120.453038,23.597967],[120.451844,23.599213],[120.451098,23.600046],[120.449473,23.598657],[120.445075,23.594968],[120.445052,23.594371],[120.447537,23.594008],[120.448217,23.593753],[120.448688,23.593323],[120.448719,23.592575],[120.448007,23.591224],[120.448022,23.590667],[120.448329,23.59013],[120.449288,23.589323],[120.451856,23.588009],[120.453628,23.587371],[120.453957,23.587106],[120.454355,23.586465],[120.455181,23.583936],[120.458696,23.589867],[120.459124,23.591117],[120.459529,23.591737],[120.459578,23.592049],[120.459352,23.592635],[120.460015,23.593019],[120.460392,23.59416],[120.461937,23.594594],[120.463276,23.595267],[120.464306,23.596045],[120.465134,23.597432],[120.465922,23.598256],[120.46593,23.598588],[120.467334,23.599263],[120.465024,23.600245],[120.464035,23.601216],[120.464702,23.602476],[120.466178,23.602547],[120.464882,23.604264],[120.46474,23.604097],[120.463067,23.60491],[120.463049,23.605781],[120.462875,23.606059],[120.461463,23.607212],[120.460543,23.607576]]]},"properties":{"code":"10010040004","name":"平林里","countyCode":"10010","countyName":"嘉義縣","townCode":"10010040","townName":"大林鎮","level":"village","unassigned":false,"note":"","label":[120.45398214613293,23.59300762117701],"bounds":[120.445052,23.583936,120.467334,23.60784],"focusBounds":[120.445052,23.583936,120.467334,23.60784],"color":"#98b69b"}},{"type":"Feature","id":"10010040005","geometry":{"type":"Polygon","coordinates":[[[120.447408,23.604006],[120.444668,23.606893],[120.444051,23.60578],[120.439021,23.605349],[120.438635,23.609946],[120.436693,23.609826],[120.435414,23.602244],[120.434781,23.602349],[120.434175,23.602123],[120.433141,23.602483],[120.431776,23.602282],[120.430473,23.60169],[120.429895,23.602108],[120.427625,23.601991],[120.427276,23.601374],[120.426276,23.600371],[120.426135,23.599175],[120.426354,23.59885],[120.426855,23.598706],[120.42924,23.599143],[120.429503,23.599083],[120.428164,23.597801],[120.426385,23.595728],[120.425889,23.593718],[120.425933,23.593325],[120.42629,23.592653],[120.426946,23.592074],[120.428186,23.59165],[120.430336,23.591321],[120.433922,23.591305],[120.436698,23.591615],[120.439707,23.592878],[120.441344,23.593795],[120.442728,23.594229],[120.445052,23.594371],[120.445075,23.594968],[120.449473,23.598657],[120.45095,23.601947],[120.447446,23.601652],[120.447627,23.60303],[120.447408,23.604006]]]},"properties":{"code":"10010040005","name":"明華里","countyCode":"10010","countyName":"嘉義縣","townCode":"10010040","townName":"大林鎮","level":"village","unassigned":false,"note":"","label":[120.43993218406399,23.599215497347068],"bounds":[120.425889,23.591305,120.45095,23.609946],"focusBounds":[120.425889,23.591305,120.45095,23.609946],"color":"#58b99d"}},{"type":"Feature","id":"10010040006","geometry":{"type":"Polygon","coordinates":[[[120.449109,23.614905],[120.447973,23.615528],[120.447109,23.614855],[120.446683,23.615453],[120.446257,23.615438],[120.445749,23.615694],[120.444834,23.615646],[120.444473,23.615915],[120.44355,23.615905],[120.442787,23.616428],[120.442165,23.616622],[120.442033,23.617035],[120.441502,23.616943],[120.44083,23.617392],[120.44018,23.618308],[120.440119,23.619349],[120.439849,23.619445],[120.438746,23.619222],[120.438306,23.618927],[120.437995,23.618935],[120.43406,23.616388],[120.434154,23.61597],[120.433861,23.613014],[120.434389,23.613016],[120.435456,23.612736],[120.437123,23.612042],[120.436693,23.609826],[120.438635,23.609946],[120.439021,23.605349],[120.444051,23.60578],[120.444668,23.606893],[120.447408,23.604006],[120.44863,23.604952],[120.449621,23.60536],[120.453071,23.605911],[120.454201,23.607274],[120.453542,23.607807],[120.452368,23.607792],[120.451585,23.607936],[120.451,23.608069],[120.450155,23.608545],[120.450336,23.613295],[120.450115,23.61359],[120.449931,23.614361],[120.449109,23.614905]]]},"properties":{"code":"10010040006","name":"明和里","countyCode":"10010","countyName":"嘉義縣","townCode":"10010040","townName":"大林鎮","level":"village","unassigned":false,"note":"","label":[120.44334274029848,23.61134546600089],"bounds":[120.433861,23.604006,120.454201,23.619445],"focusBounds":[120.433861,23.604006,120.454201,23.619445],"color":"#efb44f"}},{"type":"Feature","id":"10010040007","geometry":{"type":"Polygon","coordinates":[[[120.438746,23.619222],[120.438451,23.619334],[120.43698,23.619338],[120.43666,23.619675],[120.436374,23.619735],[120.434947,23.618976],[120.434056,23.619002],[120.433331,23.61827],[120.432407,23.618386],[120.431319,23.618798],[120.431081,23.619128],[120.430342,23.618468],[120.429932,23.618356],[120.428249,23.619194],[120.42762,23.61934],[120.42701,23.61928],[120.426275,23.61891],[120.425635,23.618061],[120.425043,23.61805],[120.424293,23.618276],[120.423753,23.617537],[120.422501,23.616643],[120.420595,23.614839],[120.420362,23.614461],[120.420151,23.613189],[120.420893,23.610474],[120.417291,23.605234],[120.424356,23.605803],[120.426619,23.60555],[120.427346,23.604984],[120.427659,23.604522],[120.427849,23.602847],[120.427625,23.601991],[120.429895,23.602108],[120.430473,23.60169],[120.431776,23.602282],[120.433141,23.602483],[120.434175,23.602123],[120.434781,23.602349],[120.435414,23.602244],[120.436693,23.609826],[120.437123,23.612042],[120.435456,23.612736],[120.434389,23.613016],[120.433861,23.613014],[120.434154,23.61597],[120.43406,23.616388],[120.437995,23.618935],[120.438306,23.618927],[120.438746,23.619222]]]},"properties":{"code":"10010040007","name":"排路里","countyCode":"10010","countyName":"嘉義縣","townCode":"10010040","townName":"大林鎮","level":"village","unassigned":false,"note":"","label":[120.42754969161055,23.612008389449677],"bounds":[120.417291,23.60169,120.438746,23.619735],"focusBounds":[120.417291,23.60169,120.438746,23.619735],"color":"#78a7e3"}},{"type":"Feature","id":"10010040008","geometry":{"type":"Polygon","coordinates":[[[120.421071,23.623713],[120.420853,23.625011],[120.420703,23.625164],[120.42007,23.625199],[120.419369,23.624803],[120.419025,23.6243],[120.418105,23.623981],[120.417441,23.623279],[120.416866,23.622935],[120.416533,23.621912],[120.416116,23.621463],[120.415795,23.621379],[120.415376,23.621529],[120.413815,23.622407],[120.413413,23.622553],[120.41268,23.622534],[120.412101,23.622261],[120.411793,23.621772],[120.411858,23.621444],[120.412113,23.621285],[120.413256,23.621544],[120.413634,23.62147],[120.413824,23.620268],[120.414274,23.619134],[120.414172,23.618483],[120.413502,23.617512],[120.412836,23.61611],[120.412098,23.615056],[120.411053,23.613959],[120.409556,23.613062],[120.408127,23.612517],[120.407496,23.611933],[120.406392,23.610051],[120.405289,23.607659],[120.405215,23.607233],[120.406981,23.606911],[120.407546,23.60653],[120.407629,23.606234],[120.40741,23.60508],[120.406551,23.604172],[120.40637,23.603424],[120.407393,23.602579],[120.408394,23.602125],[120.409493,23.601962],[120.412912,23.602116],[120.413668,23.601211],[120.414654,23.601424],[120.415742,23.604051],[120.416624,23.605026],[120.417291,23.605234],[120.420893,23.610474],[120.420151,23.613189],[120.420362,23.614461],[120.420595,23.614839],[120.422501,23.616643],[120.423753,23.617537],[120.424293,23.618276],[120.422374,23.61907],[120.422027,23.619266],[120.421799,23.619621],[120.421144,23.621434],[120.421071,23.623713]]]},"properties":{"code":"10010040008","name":"西結里","countyCode":"10010","countyName":"嘉義縣","townCode":"10010040","townName":"大林鎮","level":"village","unassigned":false,"note":"","label":[120.41538644269458,23.61149150036067],"bounds":[120.405215,23.601211,120.424293,23.625199],"focusBounds":[120.405215,23.601211,120.424293,23.625199],"color":"#dd8590"}},{"type":"Feature","id":"10010040009","geometry":{"type":"Polygon","coordinates":[[[120.467572,23.630251],[120.466139,23.630266],[120.463913,23.629428],[120.463169,23.629527],[120.460395,23.62934],[120.459394,23.628302],[120.458476,23.627671],[120.456708,23.627122],[120.45549,23.626521],[120.454,23.6263],[120.45368,23.626518],[120.451047,23.627124],[120.453366,23.628495],[120.454176,23.629812],[120.453655,23.630346],[120.452762,23.630792],[120.45236,23.630769],[120.451078,23.629837],[120.450211,23.629459],[120.449868,23.629436],[120.449006,23.629753],[120.446992,23.629653],[120.44522,23.630542],[120.444503,23.630534],[120.442642,23.628892],[120.441848,23.62712],[120.44113,23.625974],[120.440657,23.625956],[120.43805,23.626532],[120.435996,23.62607],[120.435111,23.625273],[120.4351,23.624748],[120.435493,23.624297],[120.437,23.623797],[120.437375,23.6228],[120.437167,23.622037],[120.43684,23.621789],[120.436192,23.621727],[120.433953,23.622867],[120.433624,23.622865],[120.433015,23.622165],[120.431814,23.62156],[120.43154,23.61984],[120.431081,23.619128],[120.431319,23.618798],[120.432407,23.618386],[120.433331,23.61827],[120.434056,23.619002],[120.434947,23.618976],[120.436374,23.619735],[120.43666,23.619675],[120.43698,23.619338],[120.438451,23.619334],[120.438746,23.619222],[120.439849,23.619445],[120.440119,23.619349],[120.44018,23.618308],[120.44083,23.617392],[120.441502,23.616943],[120.442033,23.617035],[120.442165,23.616622],[120.442787,23.616428],[120.44355,23.615905],[120.444473,23.615915],[120.444834,23.615646],[120.445749,23.615694],[120.446257,23.615438],[120.446683,23.615453],[120.447109,23.614855],[120.447973,23.615528],[120.449109,23.614905],[120.449631,23.615685],[120.44958,23.616279],[120.449808,23.616566],[120.450878,23.616577],[120.451187,23.616993],[120.451929,23.617312],[120.452624,23.617411],[120.454576,23.617048],[120.455553,23.618686],[120.461881,23.615586],[120.463781,23.618974],[120.464382,23.622525],[120.465538,23.624125],[120.466107,23.624274],[120.467193,23.62621],[120.467714,23.628717],[120.467572,23.630251]]]},"properties":{"code":"10010040009","name":"湖北里","countyCode":"10010","countyName":"嘉義縣","townCode":"10010040","townName":"大林鎮","level":"village","unassigned":false,"note":"","label":[120.44711371725015,23.6222586460341],"bounds":[120.431081,23.614855,120.467714,23.630792],"focusBounds":[120.431081,23.614855,120.467714,23.630792],"color":"#a49ad4"}},{"type":"Feature","id":"10010040010","geometry":{"type":"Polygon","coordinates":[[[120.461881,23.615586],[120.455553,23.618686],[120.454576,23.617048],[120.452624,23.617411],[120.451929,23.617312],[120.451187,23.616993],[120.450878,23.616577],[120.449808,23.616566],[120.44958,23.616279],[120.449631,23.615685],[120.449109,23.614905],[120.449931,23.614361],[120.450115,23.61359],[120.450336,23.613295],[120.450155,23.608545],[120.451,23.608069],[120.451585,23.607936],[120.452368,23.607792],[120.453542,23.607807],[120.454201,23.607274],[120.454659,23.607587],[120.455284,23.607603],[120.45781,23.60784],[120.45914,23.607603],[120.460543,23.607576],[120.464012,23.614501],[120.461881,23.615586]]]},"properties":{"code":"10010040010","name":"大糖里","countyCode":"10010","countyName":"嘉義縣","townCode":"10010040","townName":"大林鎮","level":"village","unassigned":false,"note":"","label":[120.45630654553737,23.61258201277638],"bounds":[120.449109,23.607274,120.464012,23.618686],"focusBounds":[120.449109,23.607274,120.464012,23.618686],"color":"#a8bf62"}},{"type":"Feature","id":"10010040011","geometry":{"type":"Polygon","coordinates":[[[120.533269,23.593045],[120.529595,23.592796],[120.506197,23.60239],[120.505212,23.603554],[120.505329,23.60403],[120.505186,23.604244],[120.504183,23.603738],[120.504475,23.603436],[120.504609,23.602658],[120.504248,23.602225],[120.503595,23.601871],[120.503491,23.601056],[120.503623,23.600826],[120.503055,23.599975],[120.50262,23.599687],[120.500496,23.599173],[120.500523,23.598263],[120.499901,23.597857],[120.499879,23.596166],[120.499295,23.596142],[120.499369,23.594898],[120.499703,23.594323],[120.499675,23.593964],[120.499121,23.593825],[120.498514,23.593861],[120.49836,23.593723],[120.498376,23.593163],[120.499207,23.592313],[120.499179,23.591258],[120.498794,23.591029],[120.497426,23.590903],[120.51178,23.587111],[120.515557,23.586265],[120.517645,23.588201],[120.51934,23.590137],[120.520221,23.589566],[120.520764,23.588746],[120.520967,23.588772],[120.52136,23.588425],[120.521711,23.588586],[120.522077,23.588328],[120.522308,23.587929],[120.522632,23.587955],[120.522701,23.587456],[120.523255,23.587546],[120.524675,23.58714],[120.525106,23.5864],[120.525235,23.58649],[120.525552,23.586191],[120.525643,23.586863],[120.526769,23.587734],[120.52776,23.587709],[120.528654,23.588267],[120.529433,23.58855],[120.529785,23.589248],[120.530688,23.589744],[120.53082,23.590093],[120.531482,23.590645],[120.531725,23.590704],[120.531948,23.590466],[120.532804,23.591192],[120.533596,23.591636],[120.533269,23.593045]]]},"properties":{"code":"10010040011","name":"大美里","countyCode":"10010","countyName":"嘉義縣","townCode":"10010040","townName":"大林鎮","level":"village","unassigned":false,"note":"","label":[120.51301477088528,23.593214255557886],"bounds":[120.497426,23.586191,120.533596,23.604244],"focusBounds":[120.497426,23.586191,120.533596,23.604244],"color":"#68bec9"}},{"type":"Feature","id":"10010040012","geometry":{"type":"Polygon","coordinates":[[[120.533372,23.596818],[120.532861,23.597229],[120.532519,23.598314],[120.532136,23.598835],[120.531267,23.599237],[120.530102,23.599547],[120.529279,23.600121],[120.528776,23.600845],[120.528079,23.60275],[120.527729,23.603207],[120.526444,23.604208],[120.525994,23.604744],[120.525333,23.604905],[120.524354,23.605544],[120.523743,23.606075],[120.522917,23.607156],[120.519568,23.609104],[120.518094,23.61046],[120.51758,23.611121],[120.517385,23.611737],[120.515469,23.611325],[120.511337,23.610772],[120.501288,23.609776],[120.50021,23.609452],[120.498302,23.605712],[120.497346,23.603481],[120.495465,23.601538],[120.496873,23.600165],[120.497368,23.599409],[120.497672,23.598489],[120.497712,23.596838],[120.496897,23.593942],[120.495574,23.592238],[120.495103,23.592548],[120.494107,23.592734],[120.492758,23.591727],[120.491786,23.59183],[120.49001,23.591691],[120.489238,23.591334],[120.489945,23.590761],[120.490876,23.590778],[120.492295,23.590489],[120.495895,23.591169],[120.497426,23.590903],[120.498794,23.591029],[120.499179,23.591258],[120.499207,23.592313],[120.498376,23.593163],[120.49836,23.593723],[120.498514,23.593861],[120.499121,23.593825],[120.499675,23.593964],[120.499703,23.594323],[120.499369,23.594898],[120.499295,23.596142],[120.499879,23.596166],[120.499901,23.597857],[120.500523,23.598263],[120.500496,23.599173],[120.50262,23.599687],[120.503055,23.599975],[120.503623,23.600826],[120.503491,23.601056],[120.503595,23.601871],[120.504248,23.602225],[120.504609,23.602658],[120.504475,23.603436],[120.504183,23.603738],[120.505186,23.604244],[120.505329,23.60403],[120.505212,23.603554],[120.506197,23.60239],[120.529595,23.592796],[120.533269,23.593045],[120.533,23.59325],[120.532938,23.593558],[120.532375,23.594],[120.532293,23.594884],[120.531996,23.595099],[120.5318,23.595627],[120.532026,23.596371],[120.532146,23.596419],[120.532598,23.596093],[120.533372,23.596818]]]},"properties":{"code":"10010040012","name":"過溪里","countyCode":"10010","countyName":"嘉義縣","townCode":"10010040","townName":"大林鎮","level":"village","unassigned":false,"note":"","label":[120.51544877635386,23.604959070892555],"bounds":[120.489238,23.590489,120.533372,23.611737],"focusBounds":[120.489238,23.590489,120.533372,23.611737],"color":"#df9f6a"}},{"type":"Feature","id":"10010040013","geometry":{"type":"Polygon","coordinates":[[[120.489238,23.591334],[120.487705,23.59128],[120.487019,23.590528],[120.486501,23.590217],[120.485492,23.588279],[120.485532,23.58797],[120.485915,23.587463],[120.485385,23.587105],[120.485089,23.587176],[120.484562,23.587635],[120.483598,23.587636],[120.483194,23.588567],[120.482,23.588608],[120.48162,23.588327],[120.481568,23.588036],[120.482223,23.586835],[120.482099,23.586543],[120.481289,23.586007],[120.48135,23.585247],[120.480426,23.58277],[120.479852,23.582258],[120.4796,23.5816],[120.479974,23.578483],[120.480639,23.57758],[120.481364,23.577563],[120.482259,23.577823],[120.483194,23.578632],[120.483921,23.578461],[120.483838,23.577512],[120.484268,23.577087],[120.486127,23.575928],[120.486609,23.576056],[120.486779,23.575973],[120.486441,23.57541],[120.485406,23.574806],[120.485111,23.573861],[120.48519,23.569889],[120.487266,23.568225],[120.489265,23.567469],[120.48964,23.567936],[120.490159,23.568178],[120.490779,23.568228],[120.492655,23.56796],[120.494345,23.567246],[120.494705,23.566958],[120.494972,23.566018],[120.49532,23.565473],[120.49521,23.564359],[120.49567,23.56403],[120.498271,23.564034],[120.498861,23.56421],[120.499427,23.563492],[120.499911,23.563299],[120.500358,23.56377],[120.500335,23.56437],[120.500646,23.564997],[120.500951,23.565162],[120.501432,23.565016],[120.501804,23.564676],[120.502087,23.564011],[120.502428,23.562439],[120.502398,23.561671],[120.50196,23.560456],[120.501152,23.559806],[120.500658,23.559127],[120.500051,23.558914],[120.499773,23.558629],[120.499549,23.55751],[120.499852,23.557067],[120.500553,23.556999],[120.501633,23.556624],[120.502105,23.556632],[120.503114,23.556131],[120.50485,23.556358],[120.505328,23.556095],[120.505947,23.555401],[120.506998,23.55492],[120.507623,23.555215],[120.507956,23.555603],[120.5078,23.557528],[120.508121,23.557707],[120.508492,23.557699],[120.50998,23.556823],[120.510706,23.555608],[120.511048,23.555704],[120.511846,23.556356],[120.512104,23.556309],[120.512334,23.556037],[120.512325,23.555172],[120.511964,23.55484],[120.511159,23.553384],[120.511213,23.552503],[120.510825,23.551722],[120.510253,23.551429],[120.510439,23.550914],[120.511175,23.550184],[120.512461,23.550165],[120.512681,23.550394],[120.512491,23.550921],[120.512615,23.551041],[120.513694,23.551277],[120.514932,23.551126],[120.516387,23.551569],[120.516415,23.552121],[120.516835,23.552445],[120.517155,23.55312],[120.518476,23.554035],[120.519154,23.554987],[120.518526,23.555787],[120.518446,23.556254],[120.518727,23.556897],[120.519311,23.55723],[120.519641,23.558075],[120.521573,23.558146],[120.523688,23.559844],[120.524374,23.56016],[120.524548,23.560597],[120.525158,23.56051],[120.525625,23.56065],[120.52603,23.560537],[120.527145,23.561428],[120.527741,23.561572],[120.528508,23.561422],[120.529039,23.560502],[120.529821,23.560009],[120.53064,23.559248],[120.530987,23.559574],[120.531378,23.560365],[120.531171,23.56095],[120.531495,23.563204],[120.530947,23.56572],[120.531118,23.566217],[120.531658,23.566651],[120.533366,23.566829],[120.534085,23.566645],[120.535024,23.567366],[120.534944,23.568168],[120.5357,23.56871],[120.535851,23.569098],[120.535382,23.569758],[120.535208,23.570555],[120.534761,23.570735],[120.53385,23.570745],[120.533296,23.571073],[120.53299,23.571371],[120.53264,23.572094],[120.532054,23.572606],[120.531574,23.573334],[120.531383,23.574115],[120.530709,23.575138],[120.530443,23.57635],[120.529809,23.576775],[120.529601,23.577373],[120.529643,23.577615],[120.530154,23.578178],[120.529969,23.578843],[120.530129,23.579733],[120.530022,23.580068],[120.529253,23.580769],[120.52895,23.580881],[120.527602,23.58075],[120.526774,23.580831],[120.526554,23.581055],[120.52642,23.581722],[120.525858,23.582097],[120.525815,23.582762],[120.52536,23.582869],[120.525346,23.583369],[120.525074,23.583754],[120.525125,23.584105],[120.524797,23.585612],[120.524803,23.585959],[120.525106,23.5864],[120.524675,23.58714],[120.523255,23.587546],[120.522701,23.587456],[120.522632,23.587955],[120.522308,23.587929],[120.522077,23.588328],[120.521711,23.588586],[120.52136,23.588425],[120.520967,23.588772],[120.520764,23.588746],[120.520221,23.589566],[120.51934,23.590137],[120.517645,23.588201],[120.515557,23.586265],[120.51178,23.587111],[120.497426,23.590903],[120.495895,23.591169],[120.492295,23.590489],[120.490876,23.590778],[120.489945,23.590761],[120.489238,23.591334]]]},"properties":{"code":"10010040013","name":"中坑里","countyCode":"10010","countyName":"嘉義縣","townCode":"10010040","townName":"大林鎮","level":"village","unassigned":false,"note":"","label":[120.51076617868766,23.574245909817797],"bounds":[120.4796,23.550165,120.535851,23.591334],"focusBounds":[120.4796,23.550165,120.535851,23.591334],"color":"#c38cb8"}},{"type":"Feature","id":"10010040014","geometry":{"type":"Polygon","coordinates":[[[120.48135,23.585247],[120.480391,23.58546],[120.479236,23.586019],[120.478819,23.585959],[120.478109,23.5855],[120.477663,23.585476],[120.477321,23.58594],[120.477426,23.587392],[120.477118,23.587614],[120.476372,23.587266],[120.475845,23.586628],[120.4755,23.586719],[120.475247,23.587278],[120.474868,23.587309],[120.47456,23.586655],[120.473624,23.5856],[120.473127,23.585456],[120.472882,23.585765],[120.472878,23.586864],[120.472506,23.587134],[120.472742,23.588462],[120.472539,23.588836],[120.47231,23.588831],[120.471956,23.588516],[120.471582,23.588627],[120.471048,23.588479],[120.4705,23.588736],[120.470621,23.587604],[120.470857,23.587067],[120.4703,23.586959],[120.469971,23.586534],[120.469697,23.586458],[120.468036,23.586843],[120.467046,23.587232],[120.465478,23.588288],[120.465259,23.588906],[120.464853,23.588961],[120.464398,23.588402],[120.46379,23.588084],[120.462661,23.587872],[120.46123,23.586919],[120.461314,23.586806],[120.462207,23.586782],[120.46227,23.585947],[120.463687,23.585081],[120.464651,23.582484],[120.465864,23.58186],[120.467963,23.581731],[120.46845,23.581425],[120.468926,23.581394],[120.469905,23.580821],[120.470072,23.579082],[120.470306,23.578527],[120.470078,23.578144],[120.469526,23.577715],[120.469388,23.57712],[120.469461,23.576514],[120.469976,23.575772],[120.470436,23.575527],[120.470743,23.575593],[120.470928,23.575322],[120.471424,23.575451],[120.471821,23.575315],[120.473501,23.575499],[120.473684,23.575582],[120.473731,23.575918],[120.474209,23.57598],[120.474967,23.576823],[120.476079,23.575496],[120.476882,23.574724],[120.478793,23.571411],[120.47979,23.570355],[120.480262,23.569348],[120.481339,23.567921],[120.482405,23.567045],[120.482859,23.56643],[120.48322,23.566217],[120.483621,23.566196],[120.484827,23.567377],[120.485666,23.567628],[120.486605,23.567608],[120.48691,23.567416],[120.48693,23.566739],[120.487483,23.5658],[120.487754,23.565564],[120.488112,23.565495],[120.489265,23.567469],[120.487266,23.568225],[120.48519,23.569889],[120.485111,23.573861],[120.485406,23.574806],[120.486441,23.57541],[120.486779,23.575973],[120.486609,23.576056],[120.486127,23.575928],[120.484268,23.577087],[120.483838,23.577512],[120.483921,23.578461],[120.483194,23.578632],[120.482259,23.577823],[120.481364,23.577563],[120.480639,23.57758],[120.479974,23.578483],[120.4796,23.5816],[120.479852,23.582258],[120.480426,23.58277],[120.48135,23.585247]]]},"properties":{"code":"10010040014","name":"上林里","countyCode":"10010","countyName":"嘉義縣","townCode":"10010040","townName":"大林鎮","level":"village","unassigned":false,"note":"","label":[120.47495579720767,23.581420803006623],"bounds":[120.46123,23.565495,120.489265,23.588961],"focusBounds":[120.46123,23.565495,120.489265,23.588961],"color":"#98b69b"}},{"type":"Feature","id":"10010040015","geometry":{"type":"Polygon","coordinates":[[[120.48162,23.588327],[120.481249,23.588813],[120.481826,23.597895],[120.480337,23.598102],[120.479848,23.598297],[120.478974,23.598165],[120.478586,23.598394],[120.477812,23.598545],[120.477525,23.598864],[120.476688,23.598658],[120.476754,23.598081],[120.475956,23.59734],[120.475579,23.597178],[120.475008,23.597303],[120.474812,23.597727],[120.474554,23.597744],[120.474141,23.597478],[120.473782,23.597495],[120.473634,23.597716],[120.47365,23.598165],[120.472904,23.598154],[120.472583,23.597805],[120.471994,23.597828],[120.47178,23.59826],[120.471951,23.599304],[120.471757,23.599533],[120.470872,23.599564],[120.470404,23.599773],[120.469564,23.599551],[120.468651,23.600049],[120.468076,23.599673],[120.467628,23.599646],[120.467334,23.599263],[120.46593,23.598588],[120.465922,23.598256],[120.465134,23.597432],[120.464306,23.596045],[120.463276,23.595267],[120.461937,23.594594],[120.460392,23.59416],[120.460015,23.593019],[120.459352,23.592635],[120.459578,23.592049],[120.459529,23.591737],[120.459124,23.591117],[120.458696,23.589867],[120.455181,23.583936],[120.45606,23.582489],[120.456535,23.581575],[120.456858,23.580273],[120.458448,23.578597],[120.459029,23.578324],[120.459606,23.578268],[120.460447,23.578716],[120.462551,23.581108],[120.463197,23.581524],[120.464095,23.582408],[120.464382,23.582574],[120.464651,23.582484],[120.463687,23.585081],[120.46227,23.585947],[120.462207,23.586782],[120.461314,23.586806],[120.46123,23.586919],[120.462661,23.587872],[120.46379,23.588084],[120.464398,23.588402],[120.464853,23.588961],[120.465259,23.588906],[120.465478,23.588288],[120.467046,23.587232],[120.468036,23.586843],[120.469697,23.586458],[120.469971,23.586534],[120.4703,23.586959],[120.470857,23.587067],[120.470621,23.587604],[120.4705,23.588736],[120.471048,23.588479],[120.471582,23.588627],[120.471956,23.588516],[120.47231,23.588831],[120.472539,23.588836],[120.472742,23.588462],[120.472506,23.587134],[120.472878,23.586864],[120.472882,23.585765],[120.473127,23.585456],[120.473624,23.5856],[120.47456,23.586655],[120.474868,23.587309],[120.475247,23.587278],[120.4755,23.586719],[120.475845,23.586628],[120.476372,23.587266],[120.477118,23.587614],[120.477426,23.587392],[120.477321,23.58594],[120.477663,23.585476],[120.478109,23.5855],[120.478819,23.585959],[120.479236,23.586019],[120.480391,23.58546],[120.48135,23.585247],[120.481289,23.586007],[120.482099,23.586543],[120.482223,23.586835],[120.481568,23.588036],[120.48162,23.588327]]]},"properties":{"code":"10010040015","name":"中林里","countyCode":"10010","countyName":"嘉義縣","townCode":"10010040","townName":"大林鎮","level":"village","unassigned":false,"note":"","label":[120.46889577191705,23.593894059082814],"bounds":[120.455181,23.578268,120.482223,23.600049],"focusBounds":[120.455181,23.578268,120.482223,23.600049],"color":"#58b99d"}},{"type":"Feature","id":"10010040016","geometry":{"type":"Polygon","coordinates":[[[120.488779,23.607501],[120.47674,23.60758],[120.476854,23.609012],[120.469691,23.607493],[120.469702,23.607211],[120.46895,23.606265],[120.468191,23.605926],[120.467422,23.605207],[120.466927,23.605002],[120.465121,23.604793],[120.464882,23.604264],[120.466178,23.602547],[120.464702,23.602476],[120.464035,23.601216],[120.465024,23.600245],[120.467334,23.599263],[120.467628,23.599646],[120.468076,23.599673],[120.468651,23.600049],[120.469564,23.599551],[120.470404,23.599773],[120.470872,23.599564],[120.471757,23.599533],[120.471951,23.599304],[120.47178,23.59826],[120.471994,23.597828],[120.472583,23.597805],[120.472904,23.598154],[120.47365,23.598165],[120.473634,23.597716],[120.473782,23.597495],[120.474141,23.597478],[120.474554,23.597744],[120.474812,23.597727],[120.475008,23.597303],[120.475579,23.597178],[120.475956,23.59734],[120.476754,23.598081],[120.476688,23.598658],[120.477525,23.598864],[120.477812,23.598545],[120.478586,23.598394],[120.478974,23.598165],[120.479848,23.598297],[120.480337,23.598102],[120.481826,23.597895],[120.481249,23.588813],[120.48162,23.588327],[120.482,23.588608],[120.483194,23.588567],[120.483598,23.587636],[120.484562,23.587635],[120.485089,23.587176],[120.485385,23.587105],[120.485915,23.587463],[120.485532,23.58797],[120.485492,23.588279],[120.486501,23.590217],[120.487019,23.590528],[120.487705,23.59128],[120.489238,23.591334],[120.49001,23.591691],[120.491786,23.59183],[120.492758,23.591727],[120.494107,23.592734],[120.495103,23.592548],[120.495574,23.592238],[120.496897,23.593942],[120.497712,23.596838],[120.497672,23.598489],[120.497368,23.599409],[120.496873,23.600165],[120.495465,23.601538],[120.497346,23.603481],[120.498302,23.605712],[120.496569,23.607799],[120.488779,23.607501]]]},"properties":{"code":"10010040016","name":"三和里","countyCode":"10010","countyName":"嘉義縣","townCode":"10010040","townName":"大林鎮","level":"village","unassigned":false,"note":"","label":[120.48828911937582,23.600180891261992],"bounds":[120.464035,23.587105,120.498302,23.609012],"focusBounds":[120.464035,23.587105,120.498302,23.609012],"color":"#efb44f"}},{"type":"Feature","id":"10010040017","geometry":{"type":"Polygon","coordinates":[[[120.480529,23.622113],[120.478151,23.622247],[120.477023,23.622805],[120.47641,23.623528],[120.477617,23.620958],[120.477757,23.619744],[120.477605,23.618173],[120.480662,23.617377],[120.486509,23.614166],[120.486605,23.614941],[120.487936,23.615552],[120.488631,23.615706],[120.488839,23.615912],[120.489353,23.616006],[120.49127,23.61699],[120.491812,23.617719],[120.492551,23.619186],[120.492861,23.620115],[120.493024,23.621639],[120.489435,23.621754],[120.488298,23.621628],[120.487785,23.621771],[120.487711,23.622292],[120.485914,23.622722],[120.484699,23.622023],[120.480529,23.622113]]]},"properties":{"code":"10010040017","name":"溝背里","countyCode":"10010","countyName":"嘉義縣","townCode":"10010040","townName":"大林鎮","level":"village","unassigned":false,"note":"","label":[120.48589826151576,23.618607144621883],"bounds":[120.47641,23.614166,120.493024,23.623528],"focusBounds":[120.47641,23.614166,120.493024,23.623528],"color":"#78a7e3"}},{"type":"Feature","id":"10010040018","geometry":{"type":"Polygon","coordinates":[[[120.486509,23.614166],[120.480662,23.617377],[120.477605,23.618173],[120.477262,23.61442],[120.464749,23.606101],[120.463554,23.605009],[120.463067,23.60491],[120.46474,23.604097],[120.464882,23.604264],[120.465121,23.604793],[120.466927,23.605002],[120.467422,23.605207],[120.468191,23.605926],[120.46895,23.606265],[120.469702,23.607211],[120.469691,23.607493],[120.476854,23.609012],[120.47674,23.60758],[120.488779,23.607501],[120.488005,23.614207],[120.486509,23.614166]]]},"properties":{"code":"10010040018","name":"義和里","countyCode":"10010","countyName":"嘉義縣","townCode":"10010040","townName":"大林鎮","level":"village","unassigned":false,"note":"","label":[120.48114922650431,23.611745688424485],"bounds":[120.463067,23.604097,120.488779,23.618173],"focusBounds":[120.463067,23.604097,120.488779,23.618173],"color":"#dd8590"}},{"type":"Feature","id":"10010040019","geometry":{"type":"Polygon","coordinates":[[[120.50021,23.609452],[120.499789,23.609803],[120.499543,23.610339],[120.499255,23.613779],[120.499044,23.614419],[120.49868,23.614924],[120.497364,23.615335],[120.496717,23.615358],[120.494419,23.61475],[120.49286,23.613966],[120.492134,23.61399],[120.491695,23.614481],[120.491972,23.615473],[120.49127,23.61699],[120.489353,23.616006],[120.488839,23.615912],[120.488631,23.615706],[120.487936,23.615552],[120.486605,23.614941],[120.486509,23.614166],[120.488005,23.614207],[120.488779,23.607501],[120.496569,23.607799],[120.498302,23.605712],[120.50021,23.609452]]]},"properties":{"code":"10010040019","name":"內林里","countyCode":"10010","countyName":"嘉義縣","townCode":"10010040","townName":"大林鎮","level":"village","unassigned":false,"note":"","label":[120.4948837614795,23.61130352686446],"bounds":[120.486509,23.605712,120.50021,23.61699],"focusBounds":[120.486509,23.605712,120.50021,23.61699],"color":"#a49ad4"}},{"type":"Feature","id":"10010040020","geometry":{"type":"Polygon","coordinates":[[[120.505944,23.633825],[120.505067,23.634413],[120.504683,23.634908],[120.503829,23.635232],[120.502492,23.635101],[120.5017,23.634795],[120.50043,23.635065],[120.499492,23.635063],[120.496731,23.634507],[120.493213,23.633127],[120.492865,23.633229],[120.491097,23.634832],[120.489056,23.635889],[120.488726,23.635896],[120.487549,23.635226],[120.487357,23.635001],[120.487168,23.634157],[120.487681,23.632414],[120.488145,23.631442],[120.48797,23.63077],[120.487294,23.630569],[120.485857,23.630631],[120.484064,23.631548],[120.483208,23.629298],[120.481944,23.626991],[120.480529,23.622113],[120.484699,23.622023],[120.485914,23.622722],[120.487711,23.622292],[120.487785,23.621771],[120.488298,23.621628],[120.489435,23.621754],[120.493024,23.621639],[120.492861,23.620115],[120.492551,23.619186],[120.491812,23.617719],[120.49127,23.61699],[120.491972,23.615473],[120.491695,23.614481],[120.492134,23.61399],[120.49286,23.613966],[120.494419,23.61475],[120.496717,23.615358],[120.497364,23.615335],[120.49868,23.614924],[120.499044,23.614419],[120.499255,23.613779],[120.499543,23.610339],[120.499789,23.609803],[120.50021,23.609452],[120.501288,23.609776],[120.511337,23.610772],[120.515469,23.611325],[120.517385,23.611737],[120.516888,23.612601],[120.515583,23.614006],[120.515038,23.615188],[120.513072,23.616871],[120.512398,23.61796],[120.51025,23.619349],[120.509457,23.621754],[120.509069,23.622143],[120.507692,23.623005],[120.507597,23.624052],[120.506618,23.625404],[120.506401,23.626094],[120.506495,23.62815],[120.506833,23.628883],[120.507647,23.630235],[120.507547,23.631043],[120.505944,23.633825]]]},"properties":{"code":"10010040020","name":"三角里","countyCode":"10010","countyName":"嘉義縣","townCode":"10010040","townName":"大林鎮","level":"village","unassigned":false,"note":"","label":[120.49884143404032,23.62649147570174],"bounds":[120.480529,23.609452,120.517385,23.635896],"focusBounds":[120.480529,23.609452,120.517385,23.635896],"color":"#a8bf62"}},{"type":"Feature","id":"10010040021","geometry":{"type":"Polygon","coordinates":[[[120.482653,23.632186],[120.479951,23.63284],[120.478956,23.632885],[120.478638,23.632632],[120.477948,23.630734],[120.477495,23.629914],[120.477023,23.629535],[120.476681,23.62948],[120.476348,23.629527],[120.474688,23.630767],[120.473994,23.631067],[120.469589,23.630232],[120.468536,23.630275],[120.467572,23.630251],[120.467714,23.628717],[120.467193,23.62621],[120.466107,23.624274],[120.465538,23.624125],[120.464382,23.622525],[120.463781,23.618974],[120.461881,23.615586],[120.464012,23.614501],[120.460543,23.607576],[120.461463,23.607212],[120.462875,23.606059],[120.463049,23.605781],[120.463067,23.60491],[120.463554,23.605009],[120.464749,23.606101],[120.477262,23.61442],[120.477605,23.618173],[120.477757,23.619744],[120.477617,23.620958],[120.47641,23.623528],[120.477023,23.622805],[120.478151,23.622247],[120.480529,23.622113],[120.481944,23.626991],[120.483208,23.629298],[120.484064,23.631548],[120.482653,23.632186]]]},"properties":{"code":"10010040021","name":"三村里","countyCode":"10010","countyName":"嘉義縣","townCode":"10010040","townName":"大林鎮","level":"village","unassigned":false,"note":"","label":[120.47073115670563,23.61919431315551],"bounds":[120.460543,23.60491,120.484064,23.632885],"focusBounds":[120.460543,23.60491,120.484064,23.632885],"color":"#68bec9"}}]}
