{"type":"FeatureCollection","features":[{"type":"Feature","id":"10014060001","geometry":{"type":"Polygon","coordinates":[[[121.212081,23.144182],[121.212,23.144084],[121.21122,23.144295],[121.210049,23.144326],[121.208511,23.143615],[121.208085,23.143859],[121.206198,23.14574],[121.204249,23.146708],[121.203314,23.147825],[121.202507,23.149261],[121.200475,23.151751],[121.198692,23.153329],[121.194968,23.15761],[121.194006,23.158392],[121.192582,23.159261],[121.191693,23.158754],[121.191123,23.158041],[121.193916,23.153933],[121.193518,23.153505],[121.192512,23.152872],[121.192353,23.152467],[121.191352,23.151344],[121.189779,23.150419],[121.188273,23.150316],[121.187066,23.150725],[121.186659,23.151737],[121.186593,23.152353],[121.186075,23.153268],[121.185905,23.154474],[121.18555,23.154855],[121.184189,23.154841],[121.183329,23.155255],[121.182679,23.155343],[121.182128,23.155048],[121.181651,23.155098],[121.181194,23.154046],[121.180211,23.154288],[121.180036,23.154301],[121.179719,23.154027],[121.178642,23.154354],[121.178037,23.154293],[121.17502,23.149361],[121.174192,23.148293],[121.173152,23.147388],[121.172887,23.146982],[121.173101,23.146648],[121.174321,23.147206],[121.176525,23.146743],[121.178459,23.146847],[121.179438,23.146167],[121.181893,23.146021],[121.185515,23.147139],[121.186923,23.147065],[121.187804,23.146811],[121.18841,23.146322],[121.188389,23.145507],[121.187095,23.143845],[121.187095,23.143464],[121.191472,23.139352],[121.194792,23.134986],[121.197154,23.131346],[121.195863,23.12963],[121.197381,23.12909],[121.198351,23.128947],[121.203801,23.127376],[121.207672,23.129154],[121.211678,23.129239],[121.211759,23.127551],[121.213736,23.127555],[121.213818,23.126798],[121.215117,23.126645],[121.217018,23.124349],[121.223276,23.127957],[121.223545,23.129212],[121.223195,23.130335],[121.223139,23.131547],[121.223946,23.134569],[121.22471,23.135218],[121.227784,23.136462],[121.229529,23.138487],[121.229862,23.138974],[121.229895,23.139524],[121.229515,23.139587],[121.224888,23.139878],[121.222411,23.141108],[121.219266,23.142339],[121.216555,23.143085],[121.214558,23.143903],[121.212081,23.144182]]]},"properties":{"code":"10014060001","name":"福文村","countyCode":"10014","countyName":"臺東縣","townCode":"10014060","townName":"池上鄉","level":"village","unassigned":false,"note":"","label":[121.20259211044977,23.138417191208532],"bounds":[121.172887,23.124349,121.229895,23.159261],"focusBounds":[121.172887,23.124349,121.229895,23.159261],"color":"#68bec9"}},{"type":"Feature","id":"10014060002","geometry":{"type":"Polygon","coordinates":[[[121.233706,23.135562],[121.233213,23.136644],[121.232288,23.137582],[121.231245,23.138984],[121.230849,23.139289],[121.229895,23.139524],[121.229862,23.138974],[121.229529,23.138487],[121.227784,23.136462],[121.22471,23.135218],[121.223946,23.134569],[121.223139,23.131547],[121.223195,23.130335],[121.223545,23.129212],[121.223276,23.127957],[121.222895,23.126463],[121.222837,23.125116],[121.223288,23.121478],[121.224463,23.116584],[121.225171,23.116685],[121.226051,23.116528],[121.228706,23.114619],[121.230596,23.113596],[121.232037,23.113091],[121.233422,23.113073],[121.233162,23.114026],[121.233322,23.115999],[121.233649,23.117071],[121.232986,23.117216],[121.231463,23.116938],[121.231239,23.117006],[121.231014,23.117354],[121.231003,23.118194],[121.231426,23.120787],[121.231036,23.121565],[121.231039,23.122346],[121.232684,23.131188],[121.23354,23.13235],[121.233811,23.133083],[121.233706,23.135562]]]},"properties":{"code":"10014060002","name":"慶豐村","countyCode":"10014","countyName":"臺東縣","townCode":"10014060","townName":"池上鄉","level":"village","unassigned":false,"note":"","label":[121.22726710339576,23.125953256075938],"bounds":[121.222837,23.113073,121.233811,23.139524],"focusBounds":[121.222837,23.113073,121.233811,23.139524],"color":"#df9f6a"}},{"type":"Feature","id":"10014060003","geometry":{"type":"Polygon","coordinates":[[[121.256007,23.12714],[121.255662,23.127556],[121.255197,23.127629],[121.254144,23.128205],[121.253347,23.128901],[121.251096,23.130212],[121.249206,23.131521],[121.248303,23.129586],[121.24678,23.129326],[121.245209,23.128407],[121.242312,23.128024],[121.240115,23.128678],[121.238455,23.128738],[121.237722,23.130207],[121.236288,23.131481],[121.234639,23.133389],[121.233989,23.134539],[121.233706,23.135562],[121.233811,23.133083],[121.23354,23.13235],[121.232684,23.131188],[121.231039,23.122346],[121.231036,23.121565],[121.231426,23.120787],[121.231003,23.118194],[121.231014,23.117354],[121.231239,23.117006],[121.231463,23.116938],[121.232986,23.117216],[121.233649,23.117071],[121.233322,23.115999],[121.233162,23.114026],[121.233422,23.113073],[121.236263,23.110037],[121.237658,23.107768],[121.238647,23.105374],[121.240124,23.104295],[121.243703,23.103091],[121.245541,23.101937],[121.247461,23.100044],[121.248269,23.100002],[121.250494,23.100419],[121.252406,23.100971],[121.254171,23.101831],[121.256079,23.102471],[121.256814,23.103001],[121.258402,23.104757],[121.259495,23.10562],[121.260622,23.105426],[121.264276,23.103825],[121.264371,23.103904],[121.264327,23.104054],[121.265509,23.106022],[121.26618,23.106725],[121.266577,23.108077],[121.267372,23.109339],[121.267316,23.110221],[121.267566,23.11086],[121.267668,23.112184],[121.267317,23.113246],[121.267267,23.114093],[121.26712,23.114319],[121.265198,23.114761],[121.264465,23.115157],[121.264202,23.115548],[121.264458,23.116747],[121.264258,23.117661],[121.26368,23.118175],[121.261748,23.119155],[121.259567,23.121016],[121.259108,23.122246],[121.259014,23.123457],[121.258223,23.12443],[121.258108,23.12549],[121.2576,23.126117],[121.256007,23.12714]]]},"properties":{"code":"10014060003","name":"大坡村","countyCode":"10014","countyName":"臺東縣","townCode":"10014060","townName":"池上鄉","level":"village","unassigned":false,"note":"","label":[121.24781943986062,23.11581195628367],"bounds":[121.231003,23.100002,121.267668,23.135562],"focusBounds":[121.231003,23.100002,121.267668,23.135562],"color":"#58b99d"}},{"type":"Feature","id":"10014060004","geometry":{"type":"MultiPolygon","coordinates":[[[[121.212282,23.120131],[121.210734,23.118136],[121.21274,23.11743],[121.214808,23.117041],[121.216331,23.120252],[121.21431,23.121569],[121.212282,23.120131]]],[[[121.195863,23.12963],[121.197154,23.131346],[121.194792,23.134986],[121.191472,23.139352],[121.187095,23.143464],[121.187095,23.143845],[121.188389,23.145507],[121.18841,23.146322],[121.187804,23.146811],[121.186923,23.147065],[121.185515,23.147139],[121.181893,23.146021],[121.179438,23.146167],[121.17965,23.145198],[121.179593,23.144812],[121.178746,23.144073],[121.177508,23.143654],[121.177476,23.143205],[121.177987,23.142439],[121.178262,23.140886],[121.178565,23.140226],[121.180154,23.137937],[121.180402,23.137718],[121.18102,23.137914],[121.182042,23.137646],[121.182579,23.137964],[121.183772,23.138252],[121.185196,23.138261],[121.18572,23.138152],[121.186532,23.137689],[121.18724,23.136986],[121.182662,23.131304],[121.186756,23.13125],[121.18991,23.131809],[121.190704,23.131765],[121.195863,23.12963]]]]},"properties":{"code":"10014060004","name":"大埔村","countyCode":"10014","countyName":"臺東縣","townCode":"10014060","townName":"池上鄉","level":"village","unassigned":false,"note":"","label":[121.1826111512306,23.14210712809301],"bounds":[121.177476,23.117041,121.216331,23.147139],"focusBounds":[121.177476,23.117041,121.216331,23.147139],"color":"#98b69b"}},{"type":"Feature","id":"10014060005","geometry":{"type":"Polygon","coordinates":[[[121.223276,23.127957],[121.217018,23.124349],[121.215117,23.126645],[121.213818,23.126798],[121.213736,23.127555],[121.211759,23.127551],[121.211678,23.129239],[121.207672,23.129154],[121.203801,23.127376],[121.204227,23.127039],[121.208697,23.125715],[121.208897,23.125059],[121.207999,23.122628],[121.207961,23.122191],[121.208274,23.122208],[121.208293,23.121881],[121.210119,23.121954],[121.210395,23.120118],[121.211446,23.120227],[121.212282,23.120131],[121.21431,23.121569],[121.216331,23.120252],[121.218923,23.112483],[121.219576,23.1135],[121.220565,23.115632],[121.221424,23.115981],[121.224463,23.116584],[121.223288,23.121478],[121.222837,23.125116],[121.222895,23.126463],[121.223276,23.127957]]]},"properties":{"code":"10014060005","name":"福原村","countyCode":"10014","countyName":"臺東縣","townCode":"10014060","townName":"池上鄉","level":"village","unassigned":false,"note":"","label":[121.21965919425904,23.121654157798744],"bounds":[121.203801,23.112483,121.224463,23.129239],"focusBounds":[121.203801,23.112483,121.224463,23.129239],"color":"#58b99d"}},{"type":"Feature","id":"10014060006","geometry":{"type":"Polygon","coordinates":[[[121.233422,23.113073],[121.232037,23.113091],[121.230596,23.113596],[121.228706,23.114619],[121.226051,23.116528],[121.225171,23.116685],[121.224463,23.116584],[121.221424,23.115981],[121.220565,23.115632],[121.219576,23.1135],[121.218923,23.112483],[121.218789,23.111944],[121.217828,23.110272],[121.215331,23.107553],[121.214142,23.105857],[121.210827,23.10263],[121.207914,23.099469],[121.207374,23.098566],[121.207358,23.097788],[121.208864,23.097975],[121.210849,23.098465],[121.218618,23.099929],[121.218937,23.099712],[121.219203,23.099161],[121.218972,23.098387],[121.21967,23.098183],[121.221027,23.096887],[121.221467,23.096173],[121.222423,23.096445],[121.224114,23.096409],[121.225106,23.096067],[121.226317,23.095386],[121.2312,23.095625],[121.232313,23.095529],[121.232925,23.095142],[121.23366,23.094294],[121.235913,23.093135],[121.236392,23.092416],[121.236259,23.092209],[121.236703,23.09193],[121.237012,23.091223],[121.237462,23.090904],[121.238374,23.090634],[121.239674,23.089398],[121.239775,23.088887],[121.241656,23.088731],[121.243162,23.089165],[121.244272,23.089079],[121.244987,23.08874],[121.246455,23.087399],[121.24769,23.086724],[121.24848,23.086088],[121.250039,23.084097],[121.251283,23.081138],[121.251898,23.076922],[121.252863,23.079289],[121.253503,23.080153],[121.253692,23.080669],[121.25397,23.083504],[121.25427,23.084696],[121.254098,23.085202],[121.253778,23.08543],[121.253739,23.085724],[121.25456,23.088359],[121.256314,23.090494],[121.256499,23.092099],[121.256752,23.092281],[121.256998,23.092098],[121.257466,23.092158],[121.258042,23.092568],[121.258498,23.093586],[121.259395,23.094521],[121.260268,23.096888],[121.261719,23.099834],[121.26259,23.101399],[121.264276,23.103825],[121.260622,23.105426],[121.259495,23.10562],[121.258402,23.104757],[121.256814,23.103001],[121.256079,23.102471],[121.254171,23.101831],[121.252406,23.100971],[121.250494,23.100419],[121.248269,23.100002],[121.247461,23.100044],[121.245541,23.101937],[121.243703,23.103091],[121.240124,23.104295],[121.238647,23.105374],[121.237658,23.107768],[121.236263,23.110037],[121.233422,23.113073]]]},"properties":{"code":"10014060006","name":"錦園村","countyCode":"10014","countyName":"臺東縣","townCode":"10014060","townName":"池上鄉","level":"village","unassigned":false,"note":"","label":[121.2289543518111,23.104999793117962],"bounds":[121.207358,23.076922,121.264276,23.116685],"focusBounds":[121.207358,23.076922,121.264276,23.116685],"color":"#efb44f"}},{"type":"Feature","id":"10014060007","geometry":{"type":"Polygon","coordinates":[[[121.195863,23.12963],[121.190704,23.131765],[121.18991,23.131809],[121.186756,23.13125],[121.182662,23.131304],[121.179618,23.127425],[121.177888,23.126797],[121.177293,23.126624],[121.176809,23.126015],[121.175345,23.12305],[121.175282,23.122476],[121.177607,23.121162],[121.179068,23.119985],[121.180127,23.118938],[121.181366,23.117361],[121.183076,23.115966],[121.185664,23.113121],[121.18696,23.111942],[121.187434,23.111099],[121.188132,23.109261],[121.18878,23.108201],[121.18995,23.105199],[121.191741,23.101626],[121.192357,23.098702],[121.193021,23.097162],[121.194103,23.093627],[121.198568,23.094638],[121.203313,23.097217],[121.207358,23.097788],[121.207374,23.098566],[121.207914,23.099469],[121.210827,23.10263],[121.214142,23.105857],[121.215331,23.107553],[121.217828,23.110272],[121.218789,23.111944],[121.218923,23.112483],[121.216331,23.120252],[121.214808,23.117041],[121.21274,23.11743],[121.210734,23.118136],[121.212282,23.120131],[121.211446,23.120227],[121.210395,23.120118],[121.210119,23.121954],[121.208293,23.121881],[121.208274,23.122208],[121.207961,23.122191],[121.207999,23.122628],[121.208897,23.125059],[121.208697,23.125715],[121.204227,23.127039],[121.203801,23.127376],[121.198351,23.128947],[121.197381,23.12909],[121.195863,23.12963]]]},"properties":{"code":"10014060007","name":"新興村","countyCode":"10014","countyName":"臺東縣","townCode":"10014060","townName":"池上鄉","level":"village","unassigned":false,"note":"","label":[121.19934130860815,23.11384344624533],"bounds":[121.175282,23.093627,121.218923,23.131809],"focusBounds":[121.175282,23.093627,121.218923,23.131809],"color":"#78a7e3"}},{"type":"Feature","id":"10014060008","geometry":{"type":"Polygon","coordinates":[[[121.196964,23.080825],[121.19815,23.081637],[121.1985,23.081722],[121.199177,23.081547],[121.19969,23.081635],[121.209978,23.08374],[121.211418,23.084831],[121.213175,23.085851],[121.215411,23.086532],[121.217871,23.087786],[121.219445,23.087997],[121.220144,23.088544],[121.220737,23.088415],[121.221644,23.088445],[121.222238,23.088557],[121.222954,23.088913],[121.223844,23.088878],[121.225353,23.089456],[121.227335,23.090932],[121.227764,23.091108],[121.228981,23.091239],[121.231235,23.092356],[121.231809,23.093556],[121.232253,23.094036],[121.23366,23.094294],[121.232925,23.095142],[121.232313,23.095529],[121.2312,23.095625],[121.226317,23.095386],[121.225106,23.096067],[121.224114,23.096409],[121.222423,23.096445],[121.221467,23.096173],[121.221027,23.096887],[121.21967,23.098183],[121.218972,23.098387],[121.219203,23.099161],[121.218937,23.099712],[121.218618,23.099929],[121.210849,23.098465],[121.208864,23.097975],[121.207358,23.097788],[121.203313,23.097217],[121.198568,23.094638],[121.194103,23.093627],[121.19488,23.09001],[121.195054,23.086901],[121.195268,23.08567],[121.195844,23.083494],[121.196964,23.080825]]]},"properties":{"code":"10014060008","name":"萬安村","countyCode":"10014","countyName":"臺東縣","townCode":"10014060","townName":"池上鄉","level":"village","unassigned":false,"note":"","label":[121.20682349108712,23.090403224262296],"bounds":[121.194103,23.080825,121.23366,23.099929],"focusBounds":[121.194103,23.080825,121.23366,23.099929],"color":"#dd8590"}},{"type":"Feature","id":"10014060009","geometry":{"type":"Polygon","coordinates":[[[121.251898,23.076922],[121.251283,23.081138],[121.250039,23.084097],[121.24848,23.086088],[121.24769,23.086724],[121.246455,23.087399],[121.244987,23.08874],[121.244272,23.089079],[121.243162,23.089165],[121.241656,23.088731],[121.239775,23.088887],[121.239674,23.089398],[121.238374,23.090634],[121.237462,23.090904],[121.237012,23.091223],[121.236703,23.09193],[121.236259,23.092209],[121.236392,23.092416],[121.235913,23.093135],[121.23366,23.094294],[121.232253,23.094036],[121.231809,23.093556],[121.231235,23.092356],[121.228981,23.091239],[121.227764,23.091108],[121.227335,23.090932],[121.225353,23.089456],[121.223844,23.088878],[121.222954,23.088913],[121.222238,23.088557],[121.221644,23.088445],[121.220737,23.088415],[121.220144,23.088544],[121.219445,23.087997],[121.217871,23.087786],[121.215411,23.086532],[121.213175,23.085851],[121.211418,23.084831],[121.209978,23.08374],[121.19969,23.081635],[121.199177,23.081547],[121.1985,23.081722],[121.19815,23.081637],[121.196964,23.080825],[121.197624,23.079952],[121.197801,23.079423],[121.198595,23.078445],[121.199689,23.075066],[121.200442,23.07332],[121.200969,23.069943],[121.201209,23.068008],[121.201184,23.066211],[121.201041,23.065391],[121.200696,23.064599],[121.200525,23.062109],[121.199811,23.060315],[121.202529,23.059681],[121.204563,23.059636],[121.206302,23.059051],[121.206679,23.058724],[121.207336,23.058736],[121.207562,23.058431],[121.208375,23.05878],[121.208997,23.05863],[121.210385,23.059141],[121.211032,23.059104],[121.211496,23.058783],[121.212309,23.058529],[121.214708,23.056842],[121.215637,23.056484],[121.22647,23.054463],[121.230964,23.052346],[121.236603,23.05082],[121.239111,23.050348],[121.239516,23.051081],[121.240051,23.05155],[121.240865,23.052978],[121.24167,23.054927],[121.241761,23.055826],[121.242532,23.057141],[121.243529,23.059611],[121.244633,23.061359],[121.245594,23.063728],[121.246393,23.064569],[121.246567,23.065143],[121.247324,23.069225],[121.247984,23.070644],[121.24812,23.072163],[121.248799,23.073446],[121.249647,23.074269],[121.250763,23.076692],[121.251898,23.076922]]]},"properties":{"code":"10014060009","name":"富興村","countyCode":"10014","countyName":"臺東縣","townCode":"10014060","townName":"池上鄉","level":"village","unassigned":false,"note":"","label":[121.2260290493904,23.072252416454162],"bounds":[121.196964,23.050348,121.251898,23.094294],"focusBounds":[121.196964,23.050348,121.251898,23.094294],"color":"#a49ad4"}},{"type":"Feature","id":"10014060010","geometry":{"type":"Polygon","coordinates":[[[121.239111,23.050348],[121.236603,23.05082],[121.230964,23.052346],[121.22647,23.054463],[121.215637,23.056484],[121.214708,23.056842],[121.212309,23.058529],[121.211496,23.058783],[121.211032,23.059104],[121.210385,23.059141],[121.208997,23.05863],[121.208375,23.05878],[121.207562,23.058431],[121.207336,23.058736],[121.206679,23.058724],[121.206302,23.059051],[121.204563,23.059636],[121.202529,23.059681],[121.199811,23.060315],[121.199025,23.058455],[121.197225,23.055573],[121.19589,23.053963],[121.194946,23.052349],[121.192706,23.050092],[121.190644,23.04764],[121.186918,23.043873],[121.18408,23.041255],[121.183087,23.039976],[121.18158,23.038968],[121.18089,23.038298],[121.180068,23.036965],[121.179549,23.035601],[121.179459,23.034637],[121.179836,23.033396],[121.180042,23.033027],[121.181617,23.032213],[121.18256,23.031054],[121.183932,23.028652],[121.185138,23.027983],[121.187047,23.028952],[121.187466,23.028827],[121.188226,23.028287],[121.189207,23.028291],[121.189825,23.028683],[121.190389,23.029958],[121.190654,23.02991],[121.191331,23.029343],[121.192186,23.029073],[121.192494,23.029113],[121.192897,23.029445],[121.192931,23.029725],[121.192694,23.030159],[121.192855,23.030368],[121.194372,23.030994],[121.194834,23.0308],[121.195021,23.02984],[121.195367,23.029609],[121.196255,23.029523],[121.197005,23.029675],[121.197782,23.029158],[121.198989,23.029569],[121.199865,23.028855],[121.200455,23.028762],[121.202524,23.029683],[121.203386,23.029795],[121.204192,23.030672],[121.204584,23.030778],[121.205692,23.030395],[121.206385,23.029389],[121.206538,23.028516],[121.207094,23.028016],[121.207827,23.02783],[121.209466,23.027958],[121.212057,23.027316],[121.212515,23.027475],[121.213195,23.027482],[121.214678,23.027188],[121.216189,23.026448],[121.217153,23.02631],[121.221819,23.026849],[121.225596,23.026334],[121.226045,23.027187],[121.226897,23.030464],[121.227128,23.031968],[121.227568,23.032857],[121.227853,23.033072],[121.228486,23.03301],[121.229732,23.033646],[121.232149,23.036249],[121.232304,23.036926],[121.233357,23.038314],[121.234057,23.040609],[121.2351,23.041531],[121.236683,23.044342],[121.237521,23.046959],[121.238687,23.048807],[121.239111,23.050348]]]},"properties":{"code":"10014060010","name":"振興村","countyCode":"10014","countyName":"臺東縣","townCode":"10014060","townName":"池上鄉","level":"village","unassigned":false,"note":"","label":[121.21020195444689,23.043424687560666],"bounds":[121.179459,23.02631,121.239111,23.060315],"focusBounds":[121.179459,23.02631,121.239111,23.060315],"color":"#a8bf62"}}]}
