{"type":"FeatureCollection","features":[{"type":"Feature","id":"10010050001","geometry":{"type":"Polygon","coordinates":[[[120.437719,23.55734],[120.43359,23.557266],[120.434653,23.562349],[120.434709,23.563535],[120.433065,23.562246],[120.432738,23.561694],[120.432542,23.560441],[120.431827,23.559016],[120.431538,23.557918],[120.43081,23.55619],[120.430371,23.556067],[120.430092,23.555312],[120.429894,23.55446],[120.430214,23.553554],[120.429964,23.552555],[120.429263,23.55192],[120.427986,23.550304],[120.425436,23.548243],[120.423927,23.547411],[120.423053,23.546276],[120.424887,23.54589],[120.42582,23.543986],[120.426434,23.543729],[120.42841,23.543633],[120.42899,23.54575],[120.433244,23.54533],[120.433997,23.554613],[120.435669,23.554763],[120.437002,23.555495],[120.437796,23.556367],[120.437567,23.556919],[120.437719,23.55734]]]},"properties":{"code":"10010050001","name":"東榮村","countyCode":"10010","countyName":"嘉義縣","townCode":"10010050","townName":"民雄鄉","level":"village","unassigned":false,"note":"","label":[120.43091717613225,23.549662073179483],"bounds":[120.423053,23.543633,120.437796,23.563535],"focusBounds":[120.423053,23.543633,120.437796,23.563535],"color":"#df9f6a"}},{"type":"Feature","id":"10010050002","geometry":{"type":"Polygon","coordinates":[[[120.431538,23.557918],[120.429402,23.558621],[120.428281,23.557908],[120.427818,23.556999],[120.427791,23.554967],[120.426737,23.553031],[120.426067,23.552116],[120.425303,23.549493],[120.423397,23.548598],[120.422693,23.548702],[120.421427,23.547792],[120.423053,23.546276],[120.423927,23.547411],[120.425436,23.548243],[120.427986,23.550304],[120.429263,23.55192],[120.429964,23.552555],[120.430214,23.553554],[120.429894,23.55446],[120.430092,23.555312],[120.430371,23.556067],[120.43081,23.55619],[120.431538,23.557918]]]},"properties":{"code":"10010050002","name":"中樂村","countyCode":"10010","countyName":"嘉義縣","townCode":"10010050","townName":"民雄鄉","level":"village","unassigned":false,"note":"","label":[120.42832331369186,23.55295423486265],"bounds":[120.421427,23.546276,120.431538,23.558621],"focusBounds":[120.421427,23.546276,120.431538,23.558621],"color":"#c38cb8"}},{"type":"Feature","id":"10010050003","geometry":{"type":"Polygon","coordinates":[[[120.429402,23.558621],[120.426845,23.559497],[120.425508,23.559702],[120.423577,23.559409],[120.423659,23.559117],[120.418611,23.559003],[120.418411,23.55886],[120.417318,23.556609],[120.416828,23.555251],[120.417471,23.55478],[120.417937,23.553951],[120.418866,23.552952],[120.419101,23.552328],[120.420141,23.550758],[120.419692,23.549941],[120.419818,23.549373],[120.421427,23.547792],[120.422693,23.548702],[120.423397,23.548598],[120.425303,23.549493],[120.426067,23.552116],[120.426737,23.553031],[120.427791,23.554967],[120.427818,23.556999],[120.428281,23.557908],[120.429402,23.558621]]]},"properties":{"code":"10010050003","name":"西安村","countyCode":"10010","countyName":"嘉義縣","townCode":"10010050","townName":"民雄鄉","level":"village","unassigned":false,"note":"","label":[120.42268218478264,23.554613083755633],"bounds":[120.416828,23.547792,120.429402,23.559702],"focusBounds":[120.416828,23.547792,120.429402,23.559702],"color":"#98b69b"}},{"type":"Feature","id":"10010050004","geometry":{"type":"Polygon","coordinates":[[[120.439763,23.579329],[120.437703,23.579568],[120.4285,23.57914],[120.42828,23.577413],[120.426461,23.579648],[120.426016,23.579624],[120.424325,23.579037],[120.422888,23.578583],[120.42195,23.578045],[120.4195,23.577631],[120.418158,23.576993],[120.416478,23.574085],[120.421529,23.571327],[120.422156,23.568482],[120.421945,23.567955],[120.421865,23.566844],[120.423103,23.562379],[120.42338,23.560014],[120.423577,23.559409],[120.425508,23.559702],[120.426845,23.559497],[120.429402,23.558621],[120.431538,23.557918],[120.431827,23.559016],[120.432542,23.560441],[120.432738,23.561694],[120.433065,23.562246],[120.434709,23.563535],[120.434754,23.565756],[120.435097,23.56704],[120.438082,23.574908],[120.439763,23.579329]]]},"properties":{"code":"10010050004","name":"寮頂村","countyCode":"10010","countyName":"嘉義縣","townCode":"10010050","townName":"民雄鄉","level":"village","unassigned":false,"note":"","label":[120.42885099425744,23.57031369809393],"bounds":[120.416478,23.557918,120.439763,23.579648],"focusBounds":[120.416478,23.557918,120.439763,23.579648],"color":"#58b99d"}},{"type":"Feature","id":"10010050005","geometry":{"type":"Polygon","coordinates":[[[120.423577,23.559409],[120.42338,23.560014],[120.423103,23.562379],[120.421865,23.566844],[120.421945,23.567955],[120.422156,23.568482],[120.421529,23.571327],[120.416478,23.574085],[120.415308,23.57272],[120.411346,23.571181],[120.408006,23.570785],[120.407221,23.570408],[120.40649,23.570256],[120.403252,23.57049],[120.403139,23.570385],[120.40378,23.568744],[120.403559,23.56718],[120.403822,23.566956],[120.403917,23.565691],[120.408554,23.562729],[120.408367,23.560164],[120.409366,23.55991],[120.409491,23.559538],[120.409434,23.558413],[120.413122,23.557682],[120.413692,23.557359],[120.414908,23.556201],[120.415871,23.555722],[120.416329,23.555604],[120.416828,23.555251],[120.417318,23.556609],[120.418411,23.55886],[120.418611,23.559003],[120.423659,23.559117],[120.423577,23.559409]]]},"properties":{"code":"10010050005","name":"福權村","countyCode":"10010","countyName":"嘉義縣","townCode":"10010050","townName":"民雄鄉","level":"village","unassigned":false,"note":"","label":[120.41521026752216,23.56495276553661],"bounds":[120.403139,23.555251,120.423659,23.574085],"focusBounds":[120.403139,23.555251,120.423659,23.574085],"color":"#efb44f"}},{"type":"Feature","id":"10010050006","geometry":{"type":"Polygon","coordinates":[[[120.460491,23.549689],[120.460156,23.550024],[120.459383,23.550154],[120.459136,23.550321],[120.458467,23.551088],[120.457174,23.551652],[120.456275,23.552796],[120.455299,23.553359],[120.454251,23.553613],[120.453822,23.553887],[120.453341,23.554291],[120.45275,23.55601],[120.452385,23.556162],[120.450022,23.556034],[120.448795,23.555815],[120.446076,23.553981],[120.44615,23.553097],[120.443911,23.553393],[120.441175,23.55581],[120.438718,23.556587],[120.437796,23.556367],[120.437002,23.555495],[120.435669,23.554763],[120.433997,23.554613],[120.433244,23.54533],[120.436273,23.545167],[120.438416,23.544509],[120.439586,23.545102],[120.440059,23.54516],[120.441995,23.544598],[120.442631,23.544885],[120.443,23.545286],[120.443306,23.545969],[120.443613,23.546178],[120.446166,23.54455],[120.447056,23.54437],[120.44796,23.544405],[120.449569,23.543151],[120.45047,23.542944],[120.451067,23.543145],[120.45253,23.54401],[120.455592,23.544703],[120.458244,23.546448],[120.459182,23.547343],[120.460053,23.54938],[120.460491,23.549689]]]},"properties":{"code":"10010050006","name":"東湖村","countyCode":"10010","countyName":"嘉義縣","townCode":"10010050","townName":"民雄鄉","level":"village","unassigned":false,"note":"","label":[120.45023863863017,23.54952150126764],"bounds":[120.433244,23.542944,120.460491,23.556587],"focusBounds":[120.433244,23.542944,120.460491,23.556587],"color":"#78a7e3"}},{"type":"Feature","id":"10010050007","geometry":{"type":"Polygon","coordinates":[[[120.446679,23.567801],[120.443661,23.573985],[120.443346,23.575014],[120.438082,23.574908],[120.435097,23.56704],[120.434754,23.565756],[120.434709,23.563535],[120.434653,23.562349],[120.43359,23.557266],[120.437719,23.55734],[120.437806,23.557848],[120.437574,23.558732],[120.437694,23.559487],[120.438038,23.560206],[120.43801,23.561901],[120.440582,23.563041],[120.441328,23.563922],[120.441741,23.56416],[120.442287,23.564361],[120.443476,23.56428],[120.44459,23.564913],[120.445842,23.565828],[120.445963,23.566555],[120.446679,23.567801]]]},"properties":{"code":"10010050007","name":"頂崙村","countyCode":"10010","countyName":"嘉義縣","townCode":"10010050","townName":"民雄鄉","level":"village","unassigned":false,"note":"","label":[120.44031576797293,23.568343095963456],"bounds":[120.43359,23.557266,120.446679,23.575014],"focusBounds":[120.43359,23.557266,120.446679,23.575014],"color":"#dd8590"}},{"type":"Feature","id":"10010050008","geometry":{"type":"Polygon","coordinates":[[[120.408367,23.560164],[120.406882,23.560174],[120.404938,23.56041],[120.404484,23.560753],[120.403747,23.561968],[120.401444,23.562283],[120.399713,23.562199],[120.39916,23.562497],[120.39707,23.564355],[120.393729,23.565713],[120.391452,23.565575],[120.389375,23.565022],[120.388344,23.565411],[120.387556,23.565503],[120.383831,23.557417],[120.386086,23.557569],[120.385895,23.555498],[120.386001,23.555187],[120.390329,23.555633],[120.390884,23.550474],[120.39304,23.551461],[120.394154,23.549412],[120.397808,23.551066],[120.397143,23.549734],[120.397251,23.548481],[120.39763,23.547431],[120.397484,23.545956],[120.397909,23.545827],[120.397709,23.545329],[120.397677,23.544674],[120.402974,23.54479],[120.40462,23.54511],[120.406835,23.545904],[120.407785,23.546817],[120.408678,23.54894],[120.409052,23.549116],[120.412016,23.549267],[120.412253,23.549521],[120.412413,23.551311],[120.413118,23.552529],[120.413241,23.553387],[120.412587,23.554813],[120.412533,23.555599],[120.415283,23.553771],[120.415871,23.555722],[120.414908,23.556201],[120.413692,23.557359],[120.413122,23.557682],[120.409434,23.558413],[120.409491,23.559538],[120.409366,23.55991],[120.408367,23.560164]]]},"properties":{"code":"10010050008","name":"菁埔村","countyCode":"10010","countyName":"嘉義縣","townCode":"10010050","townName":"民雄鄉","level":"village","unassigned":false,"note":"","label":[120.39971887784061,23.55637191912244],"bounds":[120.383831,23.544674,120.415871,23.565713],"focusBounds":[120.383831,23.544674,120.415871,23.565713],"color":"#a49ad4"}},{"type":"Feature","id":"10010050009","geometry":{"type":"Polygon","coordinates":[[[120.416828,23.555251],[120.416329,23.555604],[120.415871,23.555722],[120.415283,23.553771],[120.412533,23.555599],[120.412587,23.554813],[120.413241,23.553387],[120.413118,23.552529],[120.412413,23.551311],[120.412253,23.549521],[120.412016,23.549267],[120.409052,23.549116],[120.408678,23.54894],[120.407785,23.546817],[120.406835,23.545904],[120.40462,23.54511],[120.402974,23.54479],[120.397677,23.544674],[120.397879,23.544461],[120.398885,23.54402],[120.399245,23.54357],[120.400059,23.543144],[120.40004,23.542435],[120.401469,23.542359],[120.402267,23.543008],[120.402939,23.54323],[120.405366,23.543266],[120.408213,23.542424],[120.411381,23.541081],[120.413716,23.540234],[120.416205,23.538013],[120.416665,23.538268],[120.417114,23.538281],[120.416926,23.542308],[120.417557,23.542335],[120.41752,23.543168],[120.419089,23.542876],[120.420372,23.543603],[120.421535,23.542711],[120.423365,23.543198],[120.422919,23.545836],[120.423053,23.546276],[120.421427,23.547792],[120.419818,23.549373],[120.419692,23.549941],[120.420141,23.550758],[120.419101,23.552328],[120.418866,23.552952],[120.417937,23.553951],[120.417471,23.55478],[120.416828,23.555251]]]},"properties":{"code":"10010050009","name":"中和村","countyCode":"10010","countyName":"嘉義縣","townCode":"10010050","townName":"民雄鄉","level":"village","unassigned":false,"note":"","label":[120.41364446361446,23.545224907097264],"bounds":[120.397677,23.538013,120.423365,23.555722],"focusBounds":[120.397677,23.538013,120.423365,23.555722],"color":"#a8bf62"}},{"type":"Feature","id":"10010050010","geometry":{"type":"Polygon","coordinates":[[[120.397677,23.544674],[120.397709,23.545329],[120.397909,23.545827],[120.397484,23.545956],[120.39763,23.547431],[120.397251,23.548481],[120.397143,23.549734],[120.397808,23.551066],[120.394154,23.549412],[120.39304,23.551461],[120.390884,23.550474],[120.390329,23.555633],[120.386001,23.555187],[120.385895,23.555498],[120.385833,23.555404],[120.382263,23.555344],[120.380755,23.555547],[120.380662,23.555093],[120.380802,23.554685],[120.382698,23.554341],[120.382718,23.553],[120.384442,23.552768],[120.386075,23.552927],[120.386173,23.551783],[120.386365,23.551752],[120.386638,23.549534],[120.38584,23.54882],[120.38545,23.548263],[120.385248,23.547244],[120.385913,23.54692],[120.385592,23.546171],[120.385377,23.546249],[120.384714,23.545644],[120.384708,23.539623],[120.387155,23.534601],[120.386795,23.534692],[120.386151,23.534561],[120.38544,23.53478],[120.38521,23.534609],[120.38417,23.534548],[120.384235,23.5316],[120.385089,23.531604],[120.386075,23.534019],[120.388346,23.533721],[120.389147,23.533792],[120.389638,23.534117],[120.389685,23.535515],[120.393835,23.537106],[120.394975,23.537135],[120.397175,23.537645],[120.399941,23.539161],[120.400971,23.540504],[120.401695,23.540983],[120.403636,23.541444],[120.401469,23.542359],[120.40004,23.542435],[120.400059,23.543144],[120.399245,23.54357],[120.398885,23.54402],[120.397879,23.544461],[120.397677,23.544674]]]},"properties":{"code":"10010050010","name":"平和村","countyCode":"10010","countyName":"嘉義縣","townCode":"10010050","townName":"民雄鄉","level":"village","unassigned":false,"note":"","label":[120.39124393478987,23.54337588631339],"bounds":[120.380662,23.5316,120.403636,23.555633],"focusBounds":[120.380662,23.5316,120.403636,23.555633],"color":"#df9f6a"}},{"type":"Feature","id":"10010050011","geometry":{"type":"Polygon","coordinates":[[[120.380755,23.555547],[120.380629,23.555612],[120.380547,23.55654],[120.378831,23.555836],[120.378745,23.553368],[120.378981,23.551976],[120.378977,23.550674],[120.379386,23.549915],[120.38042,23.548824],[120.380618,23.5484],[120.380366,23.548102],[120.37996,23.548002],[120.379873,23.547781],[120.378693,23.548411],[120.376413,23.549065],[120.374775,23.541011],[120.374418,23.540816],[120.374333,23.54038],[120.374256,23.538795],[120.374408,23.537],[120.374519,23.536017],[120.374834,23.535107],[120.375188,23.53459],[120.375525,23.534373],[120.38417,23.534548],[120.38521,23.534609],[120.38544,23.53478],[120.386151,23.534561],[120.386795,23.534692],[120.387155,23.534601],[120.384708,23.539623],[120.384714,23.545644],[120.385377,23.546249],[120.385592,23.546171],[120.385913,23.54692],[120.385248,23.547244],[120.38545,23.548263],[120.38584,23.54882],[120.386638,23.549534],[120.386365,23.551752],[120.386173,23.551783],[120.386075,23.552927],[120.384442,23.552768],[120.382718,23.553],[120.382698,23.554341],[120.380802,23.554685],[120.380662,23.555093],[120.380755,23.555547]]]},"properties":{"code":"10010050011","name":"西昌村","countyCode":"10010","countyName":"嘉義縣","townCode":"10010050","townName":"民雄鄉","level":"village","unassigned":false,"note":"","label":[120.37995719899283,23.54270329268663],"bounds":[120.374256,23.534373,120.387155,23.55654],"focusBounds":[120.374256,23.534373,120.387155,23.55654],"color":"#98b69b"}},{"type":"Feature","id":"10010050012","geometry":{"type":"Polygon","coordinates":[[[120.464651,23.582484],[120.464382,23.582574],[120.464095,23.582408],[120.463197,23.581524],[120.462551,23.581108],[120.460447,23.578716],[120.459606,23.578268],[120.459029,23.578324],[120.458448,23.578597],[120.456858,23.580273],[120.456112,23.578623],[120.45424,23.577526],[120.449956,23.572986],[120.450338,23.571408],[120.45003,23.57098],[120.44994,23.569551],[120.448477,23.56914],[120.447569,23.568337],[120.446679,23.567801],[120.445963,23.566555],[120.445842,23.565828],[120.44459,23.564913],[120.443476,23.56428],[120.442287,23.564361],[120.441741,23.56416],[120.441328,23.563922],[120.440582,23.563041],[120.43801,23.561901],[120.438038,23.560206],[120.437694,23.559487],[120.437574,23.558732],[120.437806,23.557848],[120.437719,23.55734],[120.437567,23.556919],[120.437796,23.556367],[120.438718,23.556587],[120.441175,23.55581],[120.443911,23.553393],[120.44615,23.553097],[120.446076,23.553981],[120.448795,23.555815],[120.450022,23.556034],[120.452385,23.556162],[120.45275,23.55601],[120.453341,23.554291],[120.453822,23.553887],[120.454251,23.553613],[120.455299,23.553359],[120.456275,23.552796],[120.457174,23.551652],[120.458467,23.551088],[120.459136,23.550321],[120.459383,23.550154],[120.460156,23.550024],[120.460491,23.549689],[120.461601,23.550018],[120.461761,23.550887],[120.46117,23.55105],[120.460799,23.551796],[120.460805,23.552274],[120.461227,23.553606],[120.462192,23.55514],[120.4632,23.555931],[120.46488,23.556964],[120.466655,23.557582],[120.467109,23.558069],[120.46712,23.559556],[120.467227,23.559936],[120.467556,23.560203],[120.470004,23.558893],[120.473249,23.557591],[120.474021,23.557349],[120.474312,23.557402],[120.474695,23.558887],[120.475031,23.559269],[120.475055,23.559556],[120.468676,23.563828],[120.467598,23.56438],[120.466766,23.565047],[120.466661,23.565404],[120.466812,23.566409],[120.467197,23.567485],[120.468204,23.568443],[120.470055,23.569188],[120.47079,23.569012],[120.470967,23.569198],[120.470744,23.569962],[120.470565,23.570045],[120.47058,23.572415],[120.472771,23.572222],[120.473034,23.572523],[120.473185,23.573645],[120.473475,23.574041],[120.474892,23.574678],[120.476079,23.575496],[120.474967,23.576823],[120.474209,23.57598],[120.473731,23.575918],[120.473684,23.575582],[120.473501,23.575499],[120.471821,23.575315],[120.471424,23.575451],[120.470928,23.575322],[120.470743,23.575593],[120.470436,23.575527],[120.469976,23.575772],[120.469461,23.576514],[120.469388,23.57712],[120.469526,23.577715],[120.470078,23.578144],[120.470306,23.578527],[120.470072,23.579082],[120.469905,23.580821],[120.468926,23.581394],[120.46845,23.581425],[120.467963,23.581731],[120.465864,23.58186],[120.464651,23.582484]]]},"properties":{"code":"10010050012","name":"豊收村","countyCode":"10010","countyName":"嘉義縣","townCode":"10010050","townName":"民雄鄉","level":"village","unassigned":false,"note":"","label":[120.45781113863434,23.565321354871415],"bounds":[120.437567,23.549689,120.476079,23.582574],"focusBounds":[120.437567,23.549689,120.476079,23.582574],"color":"#c38cb8"}},{"type":"Feature","id":"10010050013","geometry":{"type":"Polygon","coordinates":[[[120.483621,23.566196],[120.48322,23.566217],[120.482859,23.56643],[120.482405,23.567045],[120.481339,23.567921],[120.480262,23.569348],[120.47979,23.570355],[120.478793,23.571411],[120.476882,23.574724],[120.476079,23.575496],[120.474892,23.574678],[120.473475,23.574041],[120.473185,23.573645],[120.473034,23.572523],[120.472771,23.572222],[120.47058,23.572415],[120.470565,23.570045],[120.470744,23.569962],[120.470967,23.569198],[120.47079,23.569012],[120.470055,23.569188],[120.468204,23.568443],[120.467197,23.567485],[120.466812,23.566409],[120.466661,23.565404],[120.466766,23.565047],[120.467598,23.56438],[120.468676,23.563828],[120.475055,23.559556],[120.475031,23.559269],[120.474695,23.558887],[120.474312,23.557402],[120.474021,23.557349],[120.473249,23.557591],[120.470004,23.558893],[120.467556,23.560203],[120.467227,23.559936],[120.46712,23.559556],[120.467109,23.558069],[120.466655,23.557582],[120.46488,23.556964],[120.4632,23.555931],[120.462192,23.55514],[120.461227,23.553606],[120.460805,23.552274],[120.460799,23.551796],[120.46117,23.55105],[120.461761,23.550887],[120.462442,23.551348],[120.462799,23.551358],[120.464935,23.549941],[120.465941,23.548224],[120.467357,23.548024],[120.46987,23.546287],[120.470144,23.546254],[120.470476,23.546296],[120.471216,23.547062],[120.472105,23.547166],[120.473517,23.548045],[120.473949,23.548159],[120.474491,23.548161],[120.475063,23.547644],[120.475953,23.547387],[120.476335,23.547454],[120.476737,23.548107],[120.4773,23.548024],[120.477769,23.548285],[120.477833,23.54787],[120.478495,23.547545],[120.479691,23.547368],[120.479989,23.547073],[120.480624,23.547161],[120.481582,23.546697],[120.481855,23.546689],[120.481939,23.547064],[120.482471,23.546942],[120.482956,23.547207],[120.483703,23.546898],[120.485132,23.547675],[120.485334,23.548107],[120.48663,23.548517],[120.488333,23.548765],[120.487565,23.550187],[120.489721,23.550148],[120.489704,23.549882],[120.490345,23.549636],[120.497622,23.54889],[120.499412,23.549042],[120.502818,23.549823],[120.502382,23.550393],[120.501633,23.550755],[120.500706,23.550805],[120.500253,23.550995],[120.499013,23.550718],[120.498589,23.550915],[120.497969,23.550832],[120.497325,23.551022],[120.496538,23.551618],[120.495682,23.551369],[120.495051,23.551477],[120.494558,23.551758],[120.493708,23.552609],[120.493115,23.552372],[120.485743,23.558097],[120.484266,23.559023],[120.483972,23.559356],[120.483928,23.559972],[120.48405,23.560934],[120.484431,23.561947],[120.484471,23.563617],[120.483621,23.566196]]]},"properties":{"code":"10010050013","name":"三興村","countyCode":"10010","countyName":"嘉義縣","townCode":"10010050","townName":"民雄鄉","level":"village","unassigned":false,"note":"","label":[120.48046018064368,23.55429203252708],"bounds":[120.460799,23.546254,120.502818,23.575496],"focusBounds":[120.460799,23.546254,120.502818,23.575496],"color":"#58b99d"}},{"type":"Feature","id":"10010050014","geometry":{"type":"Polygon","coordinates":[[[120.516387,23.551569],[120.514932,23.551126],[120.513694,23.551277],[120.512615,23.551041],[120.512491,23.550921],[120.512681,23.550394],[120.512461,23.550165],[120.511175,23.550184],[120.510439,23.550914],[120.510253,23.551429],[120.510825,23.551722],[120.511213,23.552503],[120.511159,23.553384],[120.511964,23.55484],[120.512325,23.555172],[120.512334,23.556037],[120.512104,23.556309],[120.511846,23.556356],[120.511048,23.555704],[120.510706,23.555608],[120.50998,23.556823],[120.508492,23.557699],[120.508121,23.557707],[120.5078,23.557528],[120.507956,23.555603],[120.507623,23.555215],[120.506998,23.55492],[120.505947,23.555401],[120.505328,23.556095],[120.50485,23.556358],[120.503114,23.556131],[120.502105,23.556632],[120.501633,23.556624],[120.500553,23.556999],[120.499852,23.557067],[120.499549,23.55751],[120.499773,23.558629],[120.500051,23.558914],[120.500658,23.559127],[120.501152,23.559806],[120.50196,23.560456],[120.502398,23.561671],[120.502428,23.562439],[120.502087,23.564011],[120.501804,23.564676],[120.501432,23.565016],[120.500951,23.565162],[120.500646,23.564997],[120.500335,23.56437],[120.500358,23.56377],[120.499911,23.563299],[120.499427,23.563492],[120.498861,23.56421],[120.498271,23.564034],[120.49567,23.56403],[120.49521,23.564359],[120.49532,23.565473],[120.494972,23.566018],[120.494705,23.566958],[120.494345,23.567246],[120.492655,23.56796],[120.490779,23.568228],[120.490159,23.568178],[120.48964,23.567936],[120.489265,23.567469],[120.488112,23.565495],[120.487754,23.565564],[120.487483,23.5658],[120.48693,23.566739],[120.48691,23.567416],[120.486605,23.567608],[120.485666,23.567628],[120.484827,23.567377],[120.483621,23.566196],[120.484471,23.563617],[120.484431,23.561947],[120.48405,23.560934],[120.483928,23.559972],[120.483972,23.559356],[120.484266,23.559023],[120.485743,23.558097],[120.493115,23.552372],[120.493708,23.552609],[120.494558,23.551758],[120.495051,23.551477],[120.495682,23.551369],[120.496538,23.551618],[120.497325,23.551022],[120.497969,23.550832],[120.498589,23.550915],[120.499013,23.550718],[120.500253,23.550995],[120.500706,23.550805],[120.501633,23.550755],[120.502382,23.550393],[120.502818,23.549823],[120.503822,23.549898],[120.504372,23.549776],[120.504936,23.550299],[120.506003,23.550321],[120.506456,23.550895],[120.506856,23.550725],[120.507285,23.550076],[120.507276,23.54981],[120.506936,23.549109],[120.506335,23.548543],[120.506068,23.548002],[120.505856,23.546256],[120.506624,23.547037],[120.507169,23.547377],[120.508047,23.547331],[120.508349,23.547138],[120.509004,23.547197],[120.509349,23.5466],[120.510079,23.546352],[120.510387,23.545658],[120.510185,23.545067],[120.510223,23.54433],[120.510063,23.543576],[120.510203,23.543236],[120.510476,23.543084],[120.510817,23.543591],[120.511844,23.543692],[120.512111,23.542572],[120.512463,23.541937],[120.513346,23.541355],[120.513631,23.541284],[120.514064,23.541556],[120.513852,23.542145],[120.513932,23.542508],[120.514151,23.542825],[120.514632,23.543071],[120.515952,23.545442],[120.516472,23.546032],[120.51812,23.547375],[120.517939,23.548239],[120.518332,23.549577],[120.519207,23.5506],[120.517311,23.551199],[120.516862,23.551639],[120.516387,23.551569]]]},"properties":{"code":"10010050014","name":"東興村","countyCode":"10010","countyName":"嘉義縣","townCode":"10010050","townName":"民雄鄉","level":"village","unassigned":false,"note":"","label":[120.49383512575037,23.558353746936625],"bounds":[120.483621,23.541284,120.519207,23.568228],"focusBounds":[120.483621,23.541284,120.519207,23.568228],"color":"#efb44f"}},{"type":"Feature","id":"10010050015","geometry":{"type":"Polygon","coordinates":[[[120.45606,23.582489],[120.454417,23.580789],[120.453668,23.582357],[120.4534,23.582494],[120.451962,23.582959],[120.451666,23.582642],[120.450559,23.582927],[120.445767,23.584904],[120.445643,23.584899],[120.445479,23.583786],[120.441803,23.584372],[120.439763,23.579329],[120.438082,23.574908],[120.443346,23.575014],[120.443661,23.573985],[120.446679,23.567801],[120.447569,23.568337],[120.448477,23.56914],[120.44994,23.569551],[120.45003,23.57098],[120.450338,23.571408],[120.449956,23.572986],[120.45424,23.577526],[120.456112,23.578623],[120.456858,23.580273],[120.456535,23.581575],[120.45606,23.582489]]]},"properties":{"code":"10010050015","name":"鎮北村","countyCode":"10010","countyName":"嘉義縣","townCode":"10010050","townName":"民雄鄉","level":"village","unassigned":false,"note":"","label":[120.44731367895439,23.578339830578024],"bounds":[120.438082,23.567801,120.456858,23.584904],"focusBounds":[120.438082,23.567801,120.456858,23.584904],"color":"#efb44f"}},{"type":"Feature","id":"10010050016","geometry":{"type":"Polygon","coordinates":[[[120.416205,23.538013],[120.413716,23.540234],[120.411381,23.541081],[120.410406,23.53835],[120.412279,23.535768],[120.412368,23.527573],[120.418132,23.524248],[120.418907,23.52352],[120.419154,23.522421],[120.419488,23.521833],[120.423077,23.520582],[120.42592,23.519816],[120.423436,23.52267],[120.423639,23.524095],[120.427265,23.523835],[120.42648,23.526415],[120.427432,23.526287],[120.428574,23.526565],[120.433229,23.529295],[120.429564,23.535194],[120.428859,23.535839],[120.428119,23.53587],[120.427828,23.535752],[120.427352,23.535204],[120.427441,23.534624],[120.428348,23.532684],[120.428008,23.531558],[120.426868,23.530258],[120.426149,23.530001],[120.425338,23.53009],[120.424891,23.530389],[120.425174,23.532428],[120.424749,23.533149],[120.424531,23.533238],[120.423428,23.532695],[120.422811,23.533331],[120.421951,23.53287],[120.42192,23.532556],[120.420579,23.533009],[120.418821,23.5357],[120.418012,23.536262],[120.416205,23.538013]]]},"properties":{"code":"10010050016","name":"興中村","countyCode":"10010","countyName":"嘉義縣","townCode":"10010050","townName":"民雄鄉","level":"village","unassigned":false,"note":"","label":[120.42066521807577,23.528238873587455],"bounds":[120.410406,23.519816,120.433229,23.541081],"focusBounds":[120.410406,23.519816,120.433229,23.541081],"color":"#78a7e3"}},{"type":"Feature","id":"10010050017","geometry":{"type":"Polygon","coordinates":[[[120.440291,23.520252],[120.438412,23.528201],[120.437452,23.530507],[120.433229,23.529295],[120.428574,23.526565],[120.427432,23.526287],[120.42648,23.526415],[120.427265,23.523835],[120.423639,23.524095],[120.423436,23.52267],[120.42592,23.519816],[120.428681,23.516553],[120.430894,23.514313],[120.431846,23.515233],[120.43217,23.515988],[120.43274,23.516539],[120.433136,23.517651],[120.433133,23.519224],[120.440291,23.520252]]]},"properties":{"code":"10010050017","name":"興南村","countyCode":"10010","countyName":"嘉義縣","townCode":"10010050","townName":"民雄鄉","level":"village","unassigned":false,"note":"","label":[120.43184381530247,23.52338866616654],"bounds":[120.423436,23.514313,120.440291,23.530507],"focusBounds":[120.423436,23.514313,120.440291,23.530507],"color":"#dd8590"}},{"type":"Feature","id":"10010050018","geometry":{"type":"Polygon","coordinates":[[[120.42592,23.519816],[120.423077,23.520582],[120.423103,23.519634],[120.422791,23.518775],[120.421139,23.518672],[120.421377,23.518152],[120.421493,23.517172],[120.420652,23.515995],[120.411647,23.514745],[120.411148,23.51237],[120.410696,23.511249],[120.408676,23.51109],[120.408606,23.510087],[120.40843,23.509594],[120.408122,23.509263],[120.408773,23.508795],[120.409109,23.508282],[120.408806,23.506572],[120.408081,23.504034],[120.407851,23.502604],[120.408318,23.498704],[120.40847,23.498437],[120.409605,23.498444],[120.412166,23.499106],[120.412594,23.499757],[120.413182,23.501962],[120.413422,23.502405],[120.415765,23.504141],[120.416754,23.505357],[120.420972,23.506056],[120.422614,23.506011],[120.423059,23.506299],[120.424518,23.506217],[120.424994,23.506441],[120.425602,23.507385],[120.42605,23.508536],[120.426281,23.508759],[120.42711,23.509074],[120.428144,23.50924],[120.43223,23.508706],[120.433357,23.509029],[120.433789,23.509836],[120.43382,23.511108],[120.43256,23.513504],[120.430894,23.514313],[120.428681,23.516553],[120.42592,23.519816]]]},"properties":{"code":"10010050018","name":"福興村","countyCode":"10010","countyName":"嘉義縣","townCode":"10010050","townName":"民雄鄉","level":"village","unassigned":false,"note":"","label":[120.4192039069109,23.510778616723897],"bounds":[120.407851,23.498437,120.43382,23.520582],"focusBounds":[120.407851,23.498437,120.43382,23.520582],"color":"#a49ad4"}},{"type":"Feature","id":"10010050019","geometry":{"type":"Polygon","coordinates":[[[120.433244,23.54533],[120.42899,23.54575],[120.42841,23.543633],[120.426434,23.543729],[120.42582,23.543986],[120.424887,23.54589],[120.423053,23.546276],[120.422919,23.545836],[120.423365,23.543198],[120.421535,23.542711],[120.420372,23.543603],[120.419089,23.542876],[120.41752,23.543168],[120.417557,23.542335],[120.416926,23.542308],[120.417114,23.538281],[120.416665,23.538268],[120.416205,23.538013],[120.418012,23.536262],[120.418821,23.5357],[120.420579,23.533009],[120.42192,23.532556],[120.421951,23.53287],[120.422811,23.533331],[120.423428,23.532695],[120.424531,23.533238],[120.424749,23.533149],[120.425174,23.532428],[120.424891,23.530389],[120.425338,23.53009],[120.426149,23.530001],[120.426868,23.530258],[120.428008,23.531558],[120.428348,23.532684],[120.427441,23.534624],[120.427352,23.535204],[120.427828,23.535752],[120.428119,23.53587],[120.428859,23.535839],[120.429564,23.535194],[120.433229,23.529295],[120.437452,23.530507],[120.437126,23.531174],[120.436316,23.536605],[120.433329,23.542427],[120.433148,23.543449],[120.433244,23.54533]]]},"properties":{"code":"10010050019","name":"文隆村","countyCode":"10010","countyName":"嘉義縣","townCode":"10010050","townName":"民雄鄉","level":"village","unassigned":false,"note":"","label":[120.42387602187429,23.53829543054969],"bounds":[120.416205,23.529295,120.437452,23.546276],"focusBounds":[120.416205,23.529295,120.437452,23.546276],"color":"#68bec9"}},{"type":"Feature","id":"10010050020","geometry":{"type":"Polygon","coordinates":[[[120.423077,23.520582],[120.419488,23.521833],[120.419154,23.522421],[120.418907,23.52352],[120.418132,23.524248],[120.412368,23.527573],[120.400021,23.527326],[120.400206,23.520483],[120.400308,23.520222],[120.400655,23.520082],[120.40011,23.519292],[120.400295,23.51896],[120.400694,23.518732],[120.401588,23.51895],[120.400749,23.517661],[120.400115,23.517168],[120.399564,23.516952],[120.399194,23.515142],[120.398572,23.514291],[120.397697,23.513978],[120.3964,23.513993],[120.394788,23.514292],[120.393528,23.514824],[120.392288,23.514667],[120.391686,23.514726],[120.390338,23.515237],[120.389706,23.515854],[120.388802,23.516067],[120.388072,23.51444],[120.38792,23.509097],[120.388981,23.507789],[120.388956,23.507125],[120.393026,23.506624],[120.404091,23.511051],[120.404767,23.511159],[120.405976,23.51112],[120.406625,23.510874],[120.407317,23.510311],[120.408122,23.509263],[120.40843,23.509594],[120.408606,23.510087],[120.408676,23.51109],[120.410696,23.511249],[120.411148,23.51237],[120.411647,23.514745],[120.420652,23.515995],[120.421493,23.517172],[120.421377,23.518152],[120.421139,23.518672],[120.422791,23.518775],[120.423103,23.519634],[120.423077,23.520582]]]},"properties":{"code":"10010050020","name":"山中村","countyCode":"10010","countyName":"嘉義縣","townCode":"10010050","townName":"民雄鄉","level":"village","unassigned":false,"note":"","label":[120.40825461457136,23.520846608180225],"bounds":[120.38792,23.506624,120.423103,23.527573],"focusBounds":[120.38792,23.506624,120.423103,23.527573],"color":"#68bec9"}},{"type":"Feature","id":"10010050021","geometry":{"type":"Polygon","coordinates":[[[120.411381,23.541081],[120.408213,23.542424],[120.405366,23.543266],[120.402939,23.54323],[120.402267,23.543008],[120.401469,23.542359],[120.403636,23.541444],[120.401695,23.540983],[120.400971,23.540504],[120.399941,23.539161],[120.397175,23.537645],[120.394975,23.537135],[120.393835,23.537106],[120.389685,23.535515],[120.389638,23.534117],[120.389147,23.533792],[120.388346,23.533721],[120.386075,23.534019],[120.385089,23.531604],[120.394316,23.53169],[120.394332,23.529633],[120.399959,23.52967],[120.400021,23.527326],[120.412368,23.527573],[120.412279,23.535768],[120.410406,23.53835],[120.411381,23.541081]]]},"properties":{"code":"10010050021","name":"中央村","countyCode":"10010","countyName":"嘉義縣","townCode":"10010050","townName":"民雄鄉","level":"village","unassigned":false,"note":"","label":[120.40494544188955,23.534102085126584],"bounds":[120.385089,23.527326,120.412368,23.543266],"focusBounds":[120.385089,23.527326,120.412368,23.543266],"color":"#c38cb8"}},{"type":"Feature","id":"10010050022","geometry":{"type":"Polygon","coordinates":[[[120.464158,23.532931],[120.461583,23.535107],[120.457439,23.538129],[120.456012,23.53865],[120.452722,23.538995],[120.452815,23.538731],[120.452234,23.53833],[120.450979,23.537043],[120.448734,23.534434],[120.449661,23.533137],[120.450573,23.532281],[120.451249,23.530735],[120.452562,23.531536],[120.455682,23.527319],[120.45631,23.525257],[120.453231,23.524346],[120.448117,23.518119],[120.448507,23.517578],[120.449237,23.517172],[120.450779,23.516817],[120.451136,23.516848],[120.453346,23.515877],[120.454688,23.515868],[120.456244,23.516859],[120.457018,23.51907],[120.457433,23.519423],[120.458048,23.519414],[120.458587,23.518983],[120.461152,23.518477],[120.463503,23.516806],[120.463633,23.517716],[120.462983,23.518603],[120.462401,23.521366],[120.462011,23.522236],[120.4626,23.523017],[120.462784,23.523472],[120.4628,23.524113],[120.4631,23.524838],[120.463527,23.525151],[120.463597,23.525447],[120.463846,23.525647],[120.463877,23.526783],[120.464071,23.527341],[120.463569,23.528064],[120.463746,23.52831],[120.461208,23.529652],[120.459754,23.5318],[120.458627,23.532618],[120.458442,23.533051],[120.458713,23.533578],[120.459272,23.533316],[120.459862,23.532663],[120.460464,23.533304],[120.460674,23.533235],[120.460793,23.532779],[120.460974,23.532637],[120.461372,23.533027],[120.462066,23.532598],[120.463899,23.532756],[120.464158,23.532931]]]},"properties":{"code":"10010050022","name":"北斗村","countyCode":"10010","countyName":"嘉義縣","townCode":"10010050","townName":"民雄鄉","level":"village","unassigned":false,"note":"","label":[120.45921622439508,23.526982842130952],"bounds":[120.448117,23.515868,120.464158,23.538995],"focusBounds":[120.448117,23.515868,120.464158,23.538995],"color":"#98b69b"}},{"type":"Feature","id":"10010050023","geometry":{"type":"Polygon","coordinates":[[[120.451067,23.543145],[120.45047,23.542944],[120.449569,23.543151],[120.44796,23.544405],[120.447056,23.54437],[120.446166,23.54455],[120.443613,23.546178],[120.443306,23.545969],[120.443,23.545286],[120.442631,23.544885],[120.441995,23.544598],[120.440059,23.54516],[120.439586,23.545102],[120.438416,23.544509],[120.436273,23.545167],[120.433244,23.54533],[120.433148,23.543449],[120.433329,23.542427],[120.436316,23.536605],[120.437126,23.531174],[120.437452,23.530507],[120.437769,23.530923],[120.438206,23.531013],[120.438606,23.531317],[120.439216,23.53129],[120.439669,23.530792],[120.439497,23.530435],[120.439585,23.530205],[120.440195,23.53009],[120.441434,23.529433],[120.441557,23.528684],[120.441768,23.5284],[120.442515,23.528505],[120.442719,23.528401],[120.442783,23.528002],[120.443302,23.527832],[120.444046,23.527982],[120.444417,23.528243],[120.444631,23.52807],[120.445466,23.528077],[120.446117,23.52875],[120.447477,23.530838],[120.448076,23.5314],[120.449254,23.532109],[120.450573,23.532281],[120.449661,23.533137],[120.448734,23.534434],[120.450979,23.537043],[120.452234,23.53833],[120.452815,23.538731],[120.452722,23.538995],[120.452548,23.539475],[120.453051,23.540622],[120.451067,23.543145]]]},"properties":{"code":"10010050023","name":"双福村","countyCode":"10010","countyName":"嘉義縣","townCode":"10010050","townName":"民雄鄉","level":"village","unassigned":false,"note":"","label":[120.4429606337398,23.53773094844199],"bounds":[120.433148,23.527832,120.453051,23.546178],"focusBounds":[120.433148,23.527832,120.453051,23.546178],"color":"#58b99d"}},{"type":"Feature","id":"10010050024","geometry":{"type":"Polygon","coordinates":[[[120.495971,23.526452],[120.492494,23.528596],[120.491198,23.528904],[120.489878,23.528398],[120.489489,23.5286],[120.489263,23.529983],[120.488773,23.530542],[120.488098,23.530469],[120.487066,23.529965],[120.486475,23.529852],[120.485364,23.529959],[120.485099,23.530148],[120.484466,23.532494],[120.484076,23.53298],[120.482873,23.533461],[120.47886,23.533448],[120.477575,23.534137],[120.476861,23.534098],[120.47528,23.53437],[120.474194,23.533613],[120.473004,23.533227],[120.471851,23.533092],[120.470452,23.533219],[120.46931,23.533668],[120.468725,23.534131],[120.467787,23.535397],[120.467409,23.535518],[120.466755,23.535276],[120.466385,23.535388],[120.466149,23.53459],[120.4654,23.534111],[120.465209,23.533521],[120.464853,23.533529],[120.464477,23.532986],[120.464191,23.533066],[120.464158,23.532931],[120.463899,23.532756],[120.462066,23.532598],[120.461372,23.533027],[120.460974,23.532637],[120.460793,23.532779],[120.460674,23.533235],[120.460464,23.533304],[120.459862,23.532663],[120.459272,23.533316],[120.458713,23.533578],[120.458442,23.533051],[120.458627,23.532618],[120.459754,23.5318],[120.461208,23.529652],[120.463746,23.52831],[120.463569,23.528064],[120.464071,23.527341],[120.463877,23.526783],[120.463846,23.525647],[120.463597,23.525447],[120.463527,23.525151],[120.4631,23.524838],[120.4628,23.524113],[120.462784,23.523472],[120.4626,23.523017],[120.462011,23.522236],[120.462401,23.521366],[120.462983,23.518603],[120.463633,23.517716],[120.463503,23.516806],[120.461152,23.518477],[120.458587,23.518983],[120.458048,23.519414],[120.457433,23.519423],[120.457018,23.51907],[120.456244,23.516859],[120.454688,23.515868],[120.456424,23.516005],[120.456987,23.515796],[120.457372,23.515289],[120.457389,23.513638],[120.457091,23.51325],[120.456447,23.513132],[120.456283,23.512944],[120.456199,23.512151],[120.456308,23.511769],[120.457777,23.508915],[120.459539,23.507707],[120.460392,23.506585],[120.461529,23.504615],[120.466198,23.506977],[120.468498,23.508321],[120.470796,23.510153],[120.473262,23.515956],[120.473891,23.516787],[120.473522,23.517312],[120.475016,23.521382],[120.478099,23.52079],[120.47918,23.520868],[120.479813,23.520683],[120.482191,23.517961],[120.485034,23.516072],[120.487488,23.514669],[120.489043,23.513348],[120.489804,23.51337],[120.490164,23.513568],[120.49124,23.515307],[120.492378,23.516255],[120.493729,23.517942],[120.495073,23.518706],[120.49557,23.519273],[120.496092,23.521504],[120.495465,23.52253],[120.495354,23.523649],[120.495446,23.524489],[120.495797,23.525367],[120.495587,23.526421],[120.495971,23.526452]]]},"properties":{"code":"10010050024","name":"大崎村","countyCode":"10010","countyName":"嘉義縣","townCode":"10010050","townName":"民雄鄉","level":"village","unassigned":false,"note":"","label":[120.476312076711,23.527662928223414],"bounds":[120.454688,23.504615,120.496092,23.535518],"focusBounds":[120.454688,23.504615,120.496092,23.535518],"color":"#78a7e3"}},{"type":"Feature","id":"10010050025","geometry":{"type":"Polygon","coordinates":[[[120.489043,23.513348],[120.487488,23.514669],[120.485034,23.516072],[120.482191,23.517961],[120.479813,23.520683],[120.47918,23.520868],[120.478099,23.52079],[120.475016,23.521382],[120.473522,23.517312],[120.473891,23.516787],[120.473262,23.515956],[120.470796,23.510153],[120.468498,23.508321],[120.466198,23.506977],[120.461529,23.504615],[120.461598,23.504482],[120.462108,23.503073],[120.462096,23.501804],[120.46262,23.500742],[120.463623,23.499616],[120.464426,23.499072],[120.4655,23.49874],[120.466503,23.49883],[120.467782,23.498856],[120.469248,23.499428],[120.46996,23.500014],[120.470303,23.50077],[120.470829,23.503819],[120.471566,23.504521],[120.472586,23.505199],[120.472857,23.505951],[120.473502,23.506847],[120.474753,23.506817],[120.476416,23.505992],[120.478143,23.504901],[120.480003,23.504337],[120.481308,23.504384],[120.483155,23.505362],[120.485225,23.506014],[120.485348,23.506191],[120.485172,23.506496],[120.485184,23.507543],[120.486527,23.508709],[120.487819,23.509491],[120.487944,23.510404],[120.490162,23.511657],[120.490763,23.512117],[120.489445,23.512906],[120.488778,23.513006],[120.488684,23.513274],[120.489043,23.513348]]]},"properties":{"code":"10010050025","name":"秀林村","countyCode":"10010","countyName":"嘉義縣","townCode":"10010050","townName":"民雄鄉","level":"village","unassigned":false,"note":"","label":[120.47891801523558,23.51209454300729],"bounds":[120.461529,23.49874,120.490763,23.521382],"focusBounds":[120.461529,23.49874,120.490763,23.521382],"color":"#efb44f"}},{"type":"Feature","id":"10010050026","geometry":{"type":"Polygon","coordinates":[[[120.502818,23.549823],[120.499412,23.549042],[120.497622,23.54889],[120.490345,23.549636],[120.489704,23.549882],[120.489721,23.550148],[120.487565,23.550187],[120.488333,23.548765],[120.48663,23.548517],[120.485334,23.548107],[120.485132,23.547675],[120.483703,23.546898],[120.482956,23.547207],[120.482471,23.546942],[120.481939,23.547064],[120.481855,23.546689],[120.481582,23.546697],[120.480624,23.547161],[120.479989,23.547073],[120.479691,23.547368],[120.478495,23.547545],[120.477833,23.54787],[120.477769,23.548285],[120.4773,23.548024],[120.476737,23.548107],[120.476335,23.547454],[120.475953,23.547387],[120.475063,23.547644],[120.474491,23.548161],[120.473949,23.548159],[120.473517,23.548045],[120.472105,23.547166],[120.471216,23.547062],[120.470476,23.546296],[120.470144,23.546254],[120.46987,23.546287],[120.467357,23.548024],[120.465941,23.548224],[120.464935,23.549941],[120.462799,23.551358],[120.462442,23.551348],[120.461761,23.550887],[120.461601,23.550018],[120.460491,23.549689],[120.462384,23.548325],[120.466904,23.545607],[120.467604,23.545501],[120.467786,23.545287],[120.467324,23.544078],[120.468137,23.541906],[120.467853,23.54144],[120.466962,23.54065],[120.467181,23.537806],[120.466179,23.536721],[120.465976,23.536041],[120.466237,23.535654],[120.467409,23.535518],[120.467787,23.535397],[120.468725,23.534131],[120.46931,23.533668],[120.470452,23.533219],[120.471851,23.533092],[120.473004,23.533227],[120.474194,23.533613],[120.47528,23.53437],[120.476861,23.534098],[120.477575,23.534137],[120.47886,23.533448],[120.482873,23.533461],[120.484076,23.53298],[120.484466,23.532494],[120.485099,23.530148],[120.485364,23.529959],[120.486475,23.529852],[120.487066,23.529965],[120.488098,23.530469],[120.488773,23.530542],[120.489263,23.529983],[120.489489,23.5286],[120.489878,23.528398],[120.491198,23.528904],[120.492494,23.528596],[120.495971,23.526452],[120.497113,23.526564],[120.497536,23.526736],[120.497681,23.527107],[120.497608,23.527848],[120.49706,23.52881],[120.497172,23.529986],[120.496819,23.530347],[120.496653,23.531093],[120.496993,23.532977],[120.497781,23.533362],[120.498218,23.533771],[120.498447,23.534288],[120.498423,23.534964],[120.498589,23.535198],[120.499789,23.53558],[120.501176,23.536671],[120.502405,23.537261],[120.503236,23.537445],[120.503791,23.537903],[120.504068,23.53921],[120.503789,23.540073],[120.503846,23.540595],[120.504493,23.541549],[120.504531,23.542124],[120.505552,23.543718],[120.505794,23.54452],[120.505773,23.544885],[120.505006,23.545159],[120.504935,23.545403],[120.505306,23.545921],[120.505856,23.546256],[120.506068,23.548002],[120.506335,23.548543],[120.506936,23.549109],[120.507276,23.54981],[120.507285,23.550076],[120.506856,23.550725],[120.506456,23.550895],[120.506003,23.550321],[120.504936,23.550299],[120.504372,23.549776],[120.503822,23.549898],[120.502818,23.549823]]]},"properties":{"code":"10010050026","name":"松山村","countyCode":"10010","countyName":"嘉義縣","townCode":"10010050","townName":"民雄鄉","level":"village","unassigned":false,"note":"","label":[120.4905873273477,23.540203952846266],"bounds":[120.460491,23.526452,120.507285,23.551358],"focusBounds":[120.460491,23.526452,120.507285,23.551358],"color":"#dd8590"}},{"type":"Feature","id":"10010050027","geometry":{"type":"Polygon","coordinates":[[[120.440723,23.518316],[120.440291,23.520252],[120.433133,23.519224],[120.433136,23.517651],[120.43274,23.516539],[120.43217,23.515988],[120.431846,23.515233],[120.430894,23.514313],[120.43256,23.513504],[120.432579,23.513823],[120.433535,23.514342],[120.433845,23.515168],[120.434023,23.516151],[120.433424,23.516572],[120.433531,23.517051],[120.433772,23.517222],[120.435043,23.517267],[120.436406,23.516301],[120.437363,23.515146],[120.437455,23.514567],[120.437142,23.514033],[120.438538,23.51263],[120.439266,23.512174],[120.440504,23.511937],[120.440999,23.512063],[120.442041,23.512981],[120.442148,23.513321],[120.440657,23.517981],[120.440723,23.518316]]]},"properties":{"code":"10010050027","name":"金興村","countyCode":"10010","countyName":"嘉義縣","townCode":"10010050","townName":"民雄鄉","level":"village","unassigned":false,"note":"","label":[120.43848380635842,23.51736155262033],"bounds":[120.430894,23.511937,120.442148,23.520252],"focusBounds":[120.430894,23.511937,120.442148,23.520252],"color":"#a8bf62"}},{"type":"Feature","id":"10010050028","geometry":{"type":"Polygon","coordinates":[[[120.448117,23.518119],[120.453231,23.524346],[120.45631,23.525257],[120.455682,23.527319],[120.452562,23.531536],[120.451249,23.530735],[120.450573,23.532281],[120.449254,23.532109],[120.448076,23.5314],[120.447477,23.530838],[120.446117,23.52875],[120.445466,23.528077],[120.444631,23.52807],[120.444417,23.528243],[120.444046,23.527982],[120.443302,23.527832],[120.442783,23.528002],[120.442719,23.528401],[120.442515,23.528505],[120.441768,23.5284],[120.441557,23.528684],[120.441434,23.529433],[120.440195,23.53009],[120.439585,23.530205],[120.439497,23.530435],[120.439669,23.530792],[120.439216,23.53129],[120.438606,23.531317],[120.438206,23.531013],[120.437769,23.530923],[120.437452,23.530507],[120.438412,23.528201],[120.440291,23.520252],[120.440723,23.518316],[120.442502,23.518075],[120.444391,23.517278],[120.445296,23.518213],[120.446201,23.518169],[120.446768,23.518428],[120.448117,23.518119]]]},"properties":{"code":"10010050028","name":"福樂村","countyCode":"10010","countyName":"嘉義縣","townCode":"10010050","townName":"民雄鄉","level":"village","unassigned":false,"note":"","label":[120.44560956039716,23.523211862679506],"bounds":[120.437452,23.517278,120.45631,23.532281],"focusBounds":[120.437452,23.517278,120.45631,23.532281],"color":"#a49ad4"}},{"type":"Feature","id":"10010050029","geometry":{"type":"Polygon","coordinates":[[[120.464158,23.532931],[120.464191,23.533066],[120.464477,23.532986],[120.464853,23.533529],[120.465209,23.533521],[120.4654,23.534111],[120.466149,23.53459],[120.466385,23.535388],[120.466755,23.535276],[120.467409,23.535518],[120.466237,23.535654],[120.465976,23.536041],[120.466179,23.536721],[120.467181,23.537806],[120.466962,23.54065],[120.467853,23.54144],[120.468137,23.541906],[120.467324,23.544078],[120.467786,23.545287],[120.467604,23.545501],[120.466904,23.545607],[120.462384,23.548325],[120.460491,23.549689],[120.460053,23.54938],[120.459182,23.547343],[120.458244,23.546448],[120.455592,23.544703],[120.45253,23.54401],[120.451067,23.543145],[120.453051,23.540622],[120.452548,23.539475],[120.452722,23.538995],[120.456012,23.53865],[120.457439,23.538129],[120.461583,23.535107],[120.464158,23.532931]]]},"properties":{"code":"10010050029","name":"新山村","countyCode":"10010","countyName":"嘉義縣","townCode":"10010050","townName":"民雄鄉","level":"village","unassigned":false,"note":"","label":[120.46153450467466,23.542039859413272],"bounds":[120.451067,23.532931,120.468137,23.549689],"focusBounds":[120.451067,23.532931,120.468137,23.549689],"color":"#a8bf62"}}]}
