{"type":"FeatureCollection","features":[{"type":"Feature","id":"10018030001","geometry":{"type":"Polygon","coordinates":[[[120.931554,24.823813],[120.930982,24.824071],[120.930337,24.824933],[120.929818,24.825016],[120.928838,24.82477],[120.926206,24.825832],[120.92506,24.825148],[120.924158,24.825713],[120.922686,24.825838],[120.921973,24.825342],[120.920671,24.82506],[120.920154,24.824803],[120.905774,24.828513],[120.903593,24.82535],[120.901786,24.822058],[120.899611,24.816521],[120.899334,24.815484],[120.899264,24.814012],[120.908691,24.809953],[120.909546,24.810093],[120.913619,24.809872],[120.919081,24.809351],[120.919667,24.809451],[120.920793,24.809998],[120.921934,24.810802],[120.923888,24.814739],[120.924079,24.814834],[120.928863,24.814824],[120.928886,24.81516],[120.930463,24.815533],[120.93308,24.817938],[120.931541,24.819418],[120.931554,24.823813]]]},"properties":{"code":"10018030001","name":"港南里","countyCode":"10018","countyName":"新竹市","townCode":"10018030","townName":"香山區","level":"village","unassigned":false,"note":"","label":[120.91479470929167,24.817972814456983],"bounds":[120.899264,24.809351,120.93308,24.828513],"focusBounds":[120.899264,24.809351,120.93308,24.828513],"color":"#a49ad4"}},{"type":"Feature","id":"10018030002","geometry":{"type":"Polygon","coordinates":[[[120.928863,24.814824],[120.924079,24.814834],[120.923888,24.814739],[120.921934,24.810802],[120.920793,24.809998],[120.919667,24.809451],[120.919081,24.809351],[120.913619,24.809872],[120.909546,24.810093],[120.908691,24.809953],[120.918975,24.805524],[120.921331,24.804177],[120.922261,24.803792],[120.925978,24.803168],[120.928558,24.803908],[120.931339,24.804728],[120.934825,24.804755],[120.935365,24.804642],[120.93607,24.804026],[120.936157,24.803683],[120.936024,24.802909],[120.936188,24.80118],[120.93633,24.800724],[120.936703,24.800393],[120.938248,24.800039],[120.940012,24.800365],[120.940797,24.800893],[120.939864,24.802656],[120.937974,24.80502],[120.938045,24.805359],[120.937188,24.805805],[120.934136,24.808239],[120.93299,24.808264],[120.932347,24.807819],[120.931487,24.808464],[120.931261,24.808396],[120.927052,24.804679],[120.926178,24.804223],[120.925287,24.804319],[120.924352,24.804732],[120.924276,24.805226],[120.92512,24.806274],[120.92509,24.806603],[120.922898,24.808681],[120.928595,24.813853],[120.928813,24.81423],[120.928863,24.814824]]]},"properties":{"code":"10018030002","name":"虎山里","countyCode":"10018","countyName":"新竹市","townCode":"10018030","townName":"香山區","level":"village","unassigned":false,"note":"","label":[120.92093083402578,24.807250401622685],"bounds":[120.908691,24.800039,120.940797,24.814834],"focusBounds":[120.908691,24.800039,120.940797,24.814834],"color":"#dd8590"}},{"type":"Feature","id":"10018030003","geometry":{"type":"Polygon","coordinates":[[[120.946248,24.808147],[120.946707,24.809316],[120.944962,24.811134],[120.943289,24.811126],[120.943286,24.813048],[120.942365,24.813133],[120.941783,24.813756],[120.941194,24.813349],[120.940006,24.813856],[120.93299,24.808264],[120.934136,24.808239],[120.937188,24.805805],[120.938045,24.805359],[120.937974,24.80502],[120.939864,24.802656],[120.940797,24.800893],[120.94103,24.801144],[120.941333,24.802217],[120.941516,24.803055],[120.942019,24.803784],[120.943111,24.804385],[120.943915,24.804424],[120.943898,24.80509],[120.94324,24.805087],[120.943352,24.807088],[120.943639,24.807268],[120.944196,24.806889],[120.945729,24.806815],[120.946248,24.808147]]]},"properties":{"code":"10018030003","name":"虎林里","countyCode":"10018","countyName":"新竹市","townCode":"10018030","townName":"香山區","level":"village","unassigned":false,"note":"","label":[120.939866345182,24.80882138128806],"bounds":[120.93299,24.800893,120.946707,24.813856],"focusBounds":[120.93299,24.800893,120.946707,24.813856],"color":"#a49ad4"}},{"type":"Feature","id":"10018030004","geometry":{"type":"Polygon","coordinates":[[[120.908691,24.809953],[120.899264,24.814012],[120.896949,24.809218],[120.896636,24.807361],[120.913388,24.801545],[120.916646,24.801424],[120.917313,24.801188],[120.922501,24.79754],[120.923845,24.79558],[120.924814,24.795109],[120.925112,24.794991],[120.925858,24.795081],[120.926415,24.794693],[120.927239,24.794532],[120.927534,24.794199],[120.928125,24.794548],[120.927814,24.795096],[120.928292,24.795084],[120.931045,24.798284],[120.931459,24.799408],[120.929146,24.800423],[120.92861,24.800951],[120.92861,24.801362],[120.929008,24.802265],[120.928558,24.803908],[120.925978,24.803168],[120.922261,24.803792],[120.921331,24.804177],[120.918975,24.805524],[120.908691,24.809953]]]},"properties":{"code":"10018030004","name":"浸水里","countyCode":"10018","countyName":"新竹市","townCode":"10018030","townName":"香山區","level":"village","unassigned":false,"note":"","label":[120.91360811215988,24.80468612820757],"bounds":[120.896636,24.794199,120.931459,24.814012],"focusBounds":[120.896636,24.794199,120.931459,24.814012],"color":"#a8bf62"}},{"type":"Feature","id":"10018030005","geometry":{"type":"Polygon","coordinates":[[[120.936188,24.80118],[120.936024,24.802909],[120.936157,24.803683],[120.93607,24.804026],[120.935365,24.804642],[120.934825,24.804755],[120.931339,24.804728],[120.928558,24.803908],[120.929008,24.802265],[120.92861,24.801362],[120.92861,24.800951],[120.929146,24.800423],[120.931459,24.799408],[120.931045,24.798284],[120.928292,24.795084],[120.927814,24.795096],[120.928125,24.794548],[120.927534,24.794199],[120.927808,24.793873],[120.928277,24.793794],[120.928403,24.793578],[120.928321,24.792801],[120.928846,24.792422],[120.928345,24.791582],[120.92827,24.791077],[120.928947,24.788399],[120.929876,24.788767],[120.931555,24.79173],[120.932162,24.792137],[120.931475,24.792554],[120.93156,24.793052],[120.932387,24.792467],[120.932506,24.794448],[120.932839,24.795098],[120.933182,24.795319],[120.933648,24.796972],[120.934208,24.797651],[120.934369,24.798369],[120.93449,24.798396],[120.934647,24.799613],[120.935516,24.800347],[120.936188,24.80118]]]},"properties":{"code":"10018030005","name":"樹下里","countyCode":"10018","countyName":"新竹市","townCode":"10018030","townName":"香山區","level":"village","unassigned":false,"note":"","label":[120.93304867822505,24.801954014228393],"bounds":[120.927534,24.788399,120.936188,24.804755],"focusBounds":[120.927534,24.788399,120.936188,24.804755],"color":"#68bec9"}},{"type":"Feature","id":"10018030006","geometry":{"type":"Polygon","coordinates":[[[120.944061,24.798002],[120.943732,24.798648],[120.943044,24.798415],[120.942052,24.80155],[120.941838,24.801884],[120.941333,24.802217],[120.94103,24.801144],[120.940797,24.800893],[120.940012,24.800365],[120.938248,24.800039],[120.936703,24.800393],[120.93633,24.800724],[120.936188,24.80118],[120.935516,24.800347],[120.934647,24.799613],[120.93449,24.798396],[120.934369,24.798369],[120.934208,24.797651],[120.933648,24.796972],[120.933182,24.795319],[120.932839,24.795098],[120.932506,24.794448],[120.932387,24.792467],[120.93156,24.793052],[120.931475,24.792554],[120.932162,24.792137],[120.93223,24.791929],[120.932635,24.791657],[120.935146,24.791525],[120.937385,24.792265],[120.938062,24.791957],[120.9384,24.791575],[120.93854,24.791128],[120.942409,24.792455],[120.941331,24.795674],[120.941041,24.796177],[120.941726,24.796568],[120.942347,24.797302],[120.944061,24.798002]]]},"properties":{"code":"10018030006","name":"埔前里","countyCode":"10018","countyName":"新竹市","townCode":"10018030","townName":"香山區","level":"village","unassigned":false,"note":"","label":[120.9374313286752,24.795948862110627],"bounds":[120.931475,24.791128,120.944061,24.802217],"focusBounds":[120.931475,24.791128,120.944061,24.802217],"color":"#df9f6a"}},{"type":"Feature","id":"10018030007","geometry":{"type":"Polygon","coordinates":[[[120.943915,24.804424],[120.943111,24.804385],[120.942019,24.803784],[120.941516,24.803055],[120.941333,24.802217],[120.941838,24.801884],[120.942052,24.80155],[120.943044,24.798415],[120.943732,24.798648],[120.944061,24.798002],[120.944133,24.797396],[120.944598,24.797035],[120.944856,24.796502],[120.944852,24.795627],[120.945715,24.795591],[120.947228,24.794388],[120.948661,24.795075],[120.948653,24.795416],[120.94906,24.795612],[120.948926,24.795842],[120.949121,24.795885],[120.949138,24.796554],[120.948806,24.796623],[120.949513,24.798535],[120.94979,24.799593],[120.948885,24.801],[120.948841,24.801427],[120.947472,24.801205],[120.946664,24.801313],[120.945008,24.802581],[120.944691,24.803794],[120.943915,24.804424]]]},"properties":{"code":"10018030007","name":"中埔里","countyCode":"10018","countyName":"新竹市","townCode":"10018030","townName":"香山區","level":"village","unassigned":false,"note":"","label":[120.94651534735682,24.79876708962429],"bounds":[120.941333,24.794388,120.94979,24.804424],"focusBounds":[120.941333,24.794388,120.94979,24.804424],"color":"#c38cb8"}},{"type":"Feature","id":"10018030008","geometry":{"type":"Polygon","coordinates":[[[120.947228,24.794388],[120.945715,24.795591],[120.944852,24.795627],[120.944856,24.796502],[120.944598,24.797035],[120.944133,24.797396],[120.944061,24.798002],[120.942347,24.797302],[120.941726,24.796568],[120.941041,24.796177],[120.941331,24.795674],[120.942409,24.792455],[120.93854,24.791128],[120.9384,24.791575],[120.938062,24.791957],[120.937385,24.792265],[120.935146,24.791525],[120.932635,24.791657],[120.93223,24.791929],[120.932162,24.792137],[120.931555,24.79173],[120.929876,24.788767],[120.928947,24.788399],[120.929169,24.787447],[120.929009,24.787388],[120.930049,24.785623],[120.930869,24.784809],[120.931717,24.785164],[120.93192,24.785031],[120.93205,24.784484],[120.933192,24.783293],[120.933421,24.783298],[120.934826,24.784129],[120.936077,24.784382],[120.936798,24.784277],[120.937174,24.784405],[120.940043,24.783732],[120.942122,24.783683],[120.943093,24.783701],[120.943768,24.784011],[120.944061,24.784345],[120.94419,24.784587],[120.944545,24.784724],[120.944739,24.785587],[120.948046,24.790443],[120.945118,24.791243],[120.94525,24.79146],[120.944638,24.792123],[120.946617,24.793664],[120.946387,24.794043],[120.947228,24.794388]]]},"properties":{"code":"10018030008","name":"牛埔里","countyCode":"10018","countyName":"新竹市","townCode":"10018030","townName":"香山區","level":"village","unassigned":false,"note":"","label":[120.94045531491719,24.78775361823662],"bounds":[120.928947,24.783293,120.948046,24.798002],"focusBounds":[120.928947,24.783293,120.948046,24.798002],"color":"#98b69b"}},{"type":"Feature","id":"10018030009","geometry":{"type":"Polygon","coordinates":[[[120.951394,24.801534],[120.950287,24.801673],[120.948841,24.801427],[120.948885,24.801],[120.94979,24.799593],[120.949513,24.798535],[120.950003,24.798876],[120.950119,24.798682],[120.950738,24.798958],[120.950866,24.798709],[120.950572,24.798554],[120.950815,24.798082],[120.951108,24.797915],[120.950797,24.797766],[120.951604,24.797651],[120.951684,24.797432],[120.951669,24.796342],[120.952448,24.796539],[120.955213,24.796558],[120.957019,24.798956],[120.954254,24.800671],[120.953824,24.800914],[120.951394,24.801534]]]},"properties":{"code":"10018030009","name":"頂埔里","countyCode":"10018","countyName":"新竹市","townCode":"10018030","townName":"香山區","level":"village","unassigned":false,"note":"","label":[120.95334569805553,24.798790420540982],"bounds":[120.948841,24.796342,120.957019,24.801673],"focusBounds":[120.948841,24.796342,120.957019,24.801673],"color":"#58b99d"}},{"type":"Feature","id":"10018030010","geometry":{"type":"Polygon","coordinates":[[[120.956205,24.784557],[120.955451,24.784508],[120.955032,24.784742],[120.954506,24.785744],[120.954197,24.787659],[120.953755,24.787638],[120.951131,24.785402],[120.95389,24.7835],[120.954633,24.782565],[120.953725,24.781225],[120.952695,24.780961],[120.950649,24.780107],[120.949727,24.780288],[120.948956,24.780631],[120.947073,24.782482],[120.946078,24.784033],[120.945729,24.777823],[120.94634,24.776985],[120.94535,24.776393],[120.945419,24.77593],[120.94386,24.775867],[120.943216,24.775679],[120.943837,24.774079],[120.945192,24.769195],[120.946148,24.76768],[120.947056,24.767123],[120.946979,24.764956],[120.947252,24.764351],[120.947398,24.764215],[120.950694,24.76338],[120.950237,24.762895],[120.949813,24.76206],[120.949748,24.761016],[120.949193,24.759704],[120.948018,24.75865],[120.948147,24.757782],[120.948831,24.757685],[120.949514,24.757978],[120.950155,24.757949],[120.950337,24.758066],[120.951907,24.757998],[120.952292,24.757803],[120.952196,24.757237],[120.952516,24.75675],[120.952872,24.755407],[120.95315,24.755005],[120.953555,24.754755],[120.955365,24.754507],[120.955462,24.75432],[120.955572,24.753261],[120.955261,24.752796],[120.955682,24.752437],[120.955788,24.752153],[120.955831,24.750634],[120.955719,24.750343],[120.955902,24.749284],[120.956185,24.748866],[120.957175,24.748289],[120.95722,24.749208],[120.957475,24.749634],[120.958563,24.749214],[120.960239,24.750197],[120.960783,24.750882],[120.95939,24.752665],[120.959013,24.753514],[120.959573,24.755157],[120.959528,24.7555],[120.959345,24.755807],[120.958044,24.756285],[120.958113,24.75714],[120.959601,24.760285],[120.959852,24.760504],[120.961083,24.760844],[120.961606,24.76158],[120.961501,24.762296],[120.961637,24.762688],[120.962349,24.763242],[120.962443,24.763663],[120.963123,24.764045],[120.963688,24.765097],[120.963452,24.766041],[120.96349,24.766553],[120.963261,24.767182],[120.963273,24.767904],[120.961986,24.767112],[120.961387,24.76703],[120.961004,24.767077],[120.960724,24.767391],[120.960647,24.76774],[120.961106,24.768856],[120.960697,24.77156],[120.960859,24.77309],[120.960441,24.774073],[120.960535,24.774475],[120.960409,24.776209],[120.961188,24.777282],[120.961462,24.77756],[120.961148,24.77811],[120.959528,24.779377],[120.959324,24.780897],[120.95815,24.783363],[120.957725,24.783829],[120.956205,24.784557]]]},"properties":{"code":"10018030010","name":"東香里","countyCode":"10018","countyName":"新竹市","townCode":"10018030","townName":"香山區","level":"village","unassigned":false,"note":"","label":[120.95301635196736,24.771843138404893],"bounds":[120.943216,24.748289,120.963688,24.787659],"focusBounds":[120.943216,24.748289,120.963688,24.787659],"color":"#efb44f"}},{"type":"Feature","id":"10018030011","geometry":{"type":"Polygon","coordinates":[[[120.93205,24.784484],[120.931737,24.78413],[120.931115,24.784617],[120.93033,24.783658],[120.929652,24.783558],[120.929162,24.784298],[120.928452,24.784903],[120.927251,24.785004],[120.926478,24.785312],[120.926018,24.785335],[120.925285,24.784741],[120.924438,24.784612],[120.924552,24.784316],[120.924934,24.784012],[120.925651,24.784046],[120.92637,24.78327],[120.926323,24.782425],[120.926534,24.782274],[120.926694,24.781502],[120.926451,24.781218],[120.926503,24.780934],[120.926692,24.780771],[120.927244,24.781191],[120.928407,24.780266],[120.928265,24.779995],[120.928378,24.778142],[120.927431,24.776747],[120.926396,24.776031],[120.925038,24.774714],[120.92534,24.774333],[120.925183,24.773773],[120.925592,24.77269],[120.925593,24.771525],[120.926165,24.770568],[120.926749,24.770998],[120.92803,24.770542],[120.928355,24.769917],[120.927953,24.769012],[120.92818,24.767823],[120.928529,24.767371],[120.930545,24.766618],[120.931067,24.765878],[120.931537,24.764698],[120.935181,24.764733],[120.936782,24.764542],[120.937963,24.761848],[120.937374,24.761078],[120.93616,24.76024],[120.936593,24.758847],[120.937408,24.758385],[120.937773,24.757512],[120.93825,24.757487],[120.9388,24.757776],[120.939294,24.758548],[120.939939,24.758984],[120.940319,24.759499],[120.942016,24.760332],[120.942154,24.76019],[120.942606,24.76022],[120.943242,24.759319],[120.94398,24.758946],[120.945509,24.759875],[120.946002,24.759875],[120.946409,24.759504],[120.946873,24.75854],[120.94778,24.757858],[120.948147,24.757782],[120.948018,24.75865],[120.949193,24.759704],[120.949748,24.761016],[120.949813,24.76206],[120.950237,24.762895],[120.950694,24.76338],[120.947398,24.764215],[120.947252,24.764351],[120.946979,24.764956],[120.947056,24.767123],[120.946148,24.76768],[120.945192,24.769195],[120.943837,24.774079],[120.943216,24.775679],[120.94386,24.775867],[120.945419,24.77593],[120.94535,24.776393],[120.94634,24.776985],[120.945729,24.777823],[120.946078,24.784033],[120.944061,24.784345],[120.943768,24.784011],[120.943093,24.783701],[120.942122,24.783683],[120.940043,24.783732],[120.937174,24.784405],[120.936798,24.784277],[120.936077,24.784382],[120.934826,24.784129],[120.933421,24.783298],[120.933192,24.783293],[120.93205,24.784484]]]},"properties":{"code":"10018030011","name":"香村里","countyCode":"10018","countyName":"新竹市","townCode":"10018030","townName":"香山區","level":"village","unassigned":false,"note":"","label":[120.93613536319086,24.772706390270468],"bounds":[120.924438,24.757487,120.950694,24.785335],"focusBounds":[120.924438,24.757487,120.950694,24.785335],"color":"#78a7e3"}},{"type":"Feature","id":"10018030012","geometry":{"type":"Polygon","coordinates":[[[120.927534,24.794199],[120.927239,24.794532],[120.926415,24.794693],[120.925858,24.795081],[120.925112,24.794991],[120.924814,24.795109],[120.924381,24.793284],[120.924106,24.793175],[120.923992,24.79278],[120.923636,24.792398],[120.923939,24.792035],[120.92388,24.791726],[120.924078,24.791435],[120.924078,24.790977],[120.923214,24.789351],[120.922866,24.788231],[120.923203,24.785979],[120.922526,24.785694],[120.923127,24.784674],[120.923288,24.784004],[120.924054,24.784557],[120.924438,24.784612],[120.925285,24.784741],[120.926018,24.785335],[120.926478,24.785312],[120.927251,24.785004],[120.928452,24.784903],[120.929162,24.784298],[120.929652,24.783558],[120.93033,24.783658],[120.931115,24.784617],[120.931737,24.78413],[120.93205,24.784484],[120.93192,24.785031],[120.931717,24.785164],[120.930869,24.784809],[120.930049,24.785623],[120.929009,24.787388],[120.929169,24.787447],[120.928947,24.788399],[120.92827,24.791077],[120.928345,24.791582],[120.928846,24.792422],[120.928321,24.792801],[120.928403,24.793578],[120.928277,24.793794],[120.927808,24.793873],[120.927534,24.794199]]]},"properties":{"code":"10018030012","name":"香山里","countyCode":"10018","countyName":"新竹市","townCode":"10018030","townName":"香山區","level":"village","unassigned":false,"note":"","label":[120.92595602961187,24.788416850011963],"bounds":[120.922526,24.783558,120.93205,24.795109],"focusBounds":[120.922526,24.783558,120.93205,24.795109],"color":"#dd8590"}},{"type":"Feature","id":"10018030013","geometry":{"type":"Polygon","coordinates":[[[120.924814,24.795109],[120.923845,24.79558],[120.922501,24.79754],[120.917313,24.801188],[120.916646,24.801424],[120.913388,24.801545],[120.896636,24.807361],[120.896846,24.805325],[120.896147,24.800822],[120.89549,24.799424],[120.893328,24.795747],[120.892646,24.794361],[120.892266,24.793018],[120.915966,24.785905],[120.920024,24.784002],[120.920917,24.785034],[120.922526,24.785694],[120.923203,24.785979],[120.922866,24.788231],[120.923214,24.789351],[120.924078,24.790977],[120.924078,24.791435],[120.92388,24.791726],[120.923939,24.792035],[120.923636,24.792398],[120.923992,24.79278],[120.924106,24.793175],[120.924381,24.793284],[120.924814,24.795109]]]},"properties":{"code":"10018030013","name":"大庄里","countyCode":"10018","countyName":"新竹市","townCode":"10018030","townName":"香山區","level":"village","unassigned":false,"note":"","label":[120.909053922723,24.795514674256623],"bounds":[120.892266,24.784002,120.924814,24.807361],"focusBounds":[120.892266,24.784002,120.924814,24.807361],"color":"#a49ad4"}},{"type":"Feature","id":"10018030014","geometry":{"type":"Polygon","coordinates":[[[120.922526,24.785694],[120.920917,24.785034],[120.920024,24.784002],[120.915966,24.785905],[120.892266,24.793018],[120.892113,24.791934],[120.892531,24.788382],[120.892521,24.787],[120.892825,24.786127],[120.892675,24.785277],[120.892917,24.783835],[120.892856,24.78194],[120.893198,24.781058],[120.893125,24.78011],[120.918935,24.777623],[120.918722,24.776492],[120.919113,24.776348],[120.919016,24.775937],[120.91981,24.775928],[120.920077,24.776344],[120.920401,24.77636],[120.920519,24.776538],[120.921297,24.776349],[120.921526,24.776096],[120.921763,24.776101],[120.922097,24.775864],[120.922452,24.776618],[120.922913,24.776548],[120.923062,24.776402],[120.923089,24.775846],[120.924023,24.775675],[120.92446,24.775393],[120.925038,24.774714],[120.926396,24.776031],[120.927431,24.776747],[120.928378,24.778142],[120.928265,24.779995],[120.928407,24.780266],[120.927244,24.781191],[120.926692,24.780771],[120.926503,24.780934],[120.926451,24.781218],[120.926694,24.781502],[120.926534,24.782274],[120.926323,24.782425],[120.92637,24.78327],[120.925651,24.784046],[120.924934,24.784012],[120.924552,24.784316],[120.924438,24.784612],[120.924054,24.784557],[120.923288,24.784004],[120.923127,24.784674],[120.922526,24.785694]]]},"properties":{"code":"10018030014","name":"美山里","countyCode":"10018","countyName":"新竹市","townCode":"10018030","townName":"香山區","level":"village","unassigned":false,"note":"","label":[120.90858597721785,24.783369928576516],"bounds":[120.892113,24.774714,120.928407,24.793018],"focusBounds":[120.892113,24.774714,120.928407,24.793018],"color":"#a8bf62"}},{"type":"Feature","id":"10018030015","geometry":{"type":"Polygon","coordinates":[[[120.925038,24.774714],[120.92446,24.775393],[120.924023,24.775675],[120.923089,24.775846],[120.923062,24.776402],[120.922913,24.776548],[120.922452,24.776618],[120.922097,24.775864],[120.921763,24.776101],[120.921526,24.776096],[120.921297,24.776349],[120.920519,24.776538],[120.920401,24.77636],[120.920077,24.776344],[120.91981,24.775928],[120.919016,24.775937],[120.919113,24.776348],[120.918722,24.776492],[120.918935,24.777623],[120.893125,24.78011],[120.89286,24.778796],[120.892331,24.778261],[120.892082,24.777253],[120.891433,24.776097],[120.891319,24.775112],[120.891754,24.773259],[120.892676,24.773185],[120.892612,24.772865],[120.892857,24.771955],[120.892581,24.771101],[120.892657,24.769586],[120.892975,24.768967],[120.893363,24.768587],[120.894805,24.767717],[120.894985,24.766723],[120.895311,24.766662],[120.895069,24.766007],[120.895147,24.765576],[120.896208,24.767799],[120.89644,24.768022],[120.89676,24.768063],[120.897519,24.76622],[120.897778,24.764681],[120.904068,24.764529],[120.905351,24.763652],[120.905663,24.764113],[120.906504,24.763614],[120.912515,24.76225],[120.913237,24.761646],[120.914106,24.761186],[120.915025,24.761419],[120.915367,24.761376],[120.91781,24.76484],[120.917992,24.764626],[120.918791,24.764391],[120.919188,24.765148],[120.919093,24.765317],[120.921957,24.767379],[120.921744,24.767844],[120.922282,24.768819],[120.923671,24.768859],[120.924676,24.76918],[120.926165,24.770568],[120.925593,24.771525],[120.925592,24.77269],[120.925183,24.773773],[120.92534,24.774333],[120.925038,24.774714]]]},"properties":{"code":"10018030015","name":"朝山里","countyCode":"10018","countyName":"新竹市","townCode":"10018030","townName":"香山區","level":"village","unassigned":false,"note":"","label":[120.90940248012076,24.77074900340665],"bounds":[120.891319,24.761186,120.926165,24.78011],"focusBounds":[120.891319,24.761186,120.926165,24.78011],"color":"#68bec9"}},{"type":"Feature","id":"10018030016","geometry":{"type":"Polygon","coordinates":[[[120.936593,24.758847],[120.93616,24.76024],[120.937374,24.761078],[120.937963,24.761848],[120.936782,24.764542],[120.935181,24.764733],[120.931537,24.764698],[120.931067,24.765878],[120.930545,24.766618],[120.928529,24.767371],[120.92818,24.767823],[120.927953,24.769012],[120.928355,24.769917],[120.92803,24.770542],[120.926749,24.770998],[120.926165,24.770568],[120.924676,24.76918],[120.923671,24.768859],[120.922282,24.768819],[120.921744,24.767844],[120.921957,24.767379],[120.919093,24.765317],[120.919188,24.765148],[120.918791,24.764391],[120.917992,24.764626],[120.91781,24.76484],[120.915367,24.761376],[120.915025,24.761419],[120.914106,24.761186],[120.913237,24.761646],[120.912515,24.76225],[120.906504,24.763614],[120.905663,24.764113],[120.905351,24.763652],[120.904068,24.764529],[120.897778,24.764681],[120.897076,24.763867],[120.895405,24.763176],[120.893497,24.76166],[120.904176,24.756323],[120.903939,24.754449],[120.906121,24.754751],[120.907856,24.754434],[120.908479,24.754181],[120.910119,24.753059],[120.910628,24.753743],[120.910754,24.754731],[120.912538,24.754045],[120.91286,24.754066],[120.912206,24.752553],[120.916975,24.754644],[120.918155,24.754552],[120.919855,24.754068],[120.920691,24.754143],[120.922211,24.753599],[120.923118,24.753896],[120.923443,24.753842],[120.923242,24.753216],[120.923228,24.752241],[120.923841,24.751533],[120.92411,24.750928],[120.928483,24.753477],[120.931992,24.755751],[120.932501,24.75469],[120.933126,24.754704],[120.935961,24.756017],[120.936002,24.756229],[120.935383,24.756838],[120.935384,24.757978],[120.935682,24.758709],[120.936593,24.758847]]]},"properties":{"code":"10018030016","name":"海山里","countyCode":"10018","countyName":"新竹市","townCode":"10018030","townName":"香山區","level":"village","unassigned":false,"note":"","label":[120.92460158025096,24.761196041931772],"bounds":[120.893497,24.750928,120.937963,24.770998],"focusBounds":[120.893497,24.750928,120.937963,24.770998],"color":"#df9f6a"}},{"type":"Feature","id":"10018030017","geometry":{"type":"Polygon","coordinates":[[[120.948147,24.757782],[120.94778,24.757858],[120.946873,24.75854],[120.946409,24.759504],[120.946002,24.759875],[120.945509,24.759875],[120.94398,24.758946],[120.943242,24.759319],[120.942606,24.76022],[120.942154,24.76019],[120.942016,24.760332],[120.940319,24.759499],[120.939939,24.758984],[120.939294,24.758548],[120.9388,24.757776],[120.93825,24.757487],[120.937773,24.757512],[120.937408,24.758385],[120.936593,24.758847],[120.935682,24.758709],[120.935384,24.757978],[120.935383,24.756838],[120.936002,24.756229],[120.935961,24.756017],[120.933126,24.754704],[120.932501,24.75469],[120.934021,24.751528],[120.93686,24.74689],[120.937218,24.74673],[120.937039,24.7465],[120.937171,24.746361],[120.937973,24.746464],[120.938709,24.746319],[120.940705,24.744956],[120.942423,24.744709],[120.944302,24.744806],[120.944904,24.744504],[120.945431,24.74513],[120.945881,24.745305],[120.94615,24.745279],[120.946516,24.744862],[120.946824,24.744792],[120.948109,24.74523],[120.94855,24.745068],[120.948931,24.74445],[120.95113,24.744513],[120.95148,24.744343],[120.951957,24.74379],[120.952245,24.743817],[120.952625,24.74414],[120.953901,24.743419],[120.954184,24.743434],[120.954606,24.743748],[120.954998,24.744391],[120.955786,24.744424],[120.956386,24.745153],[120.957486,24.745278],[120.957734,24.745502],[120.957789,24.746191],[120.95753,24.746862],[120.957605,24.747565],[120.957175,24.748289],[120.956185,24.748866],[120.955902,24.749284],[120.955719,24.750343],[120.955831,24.750634],[120.955788,24.752153],[120.955682,24.752437],[120.955261,24.752796],[120.955572,24.753261],[120.955462,24.75432],[120.955365,24.754507],[120.953555,24.754755],[120.95315,24.755005],[120.952872,24.755407],[120.952516,24.75675],[120.952196,24.757237],[120.952292,24.757803],[120.951907,24.757998],[120.950337,24.758066],[120.950155,24.757949],[120.949514,24.757978],[120.948831,24.757685],[120.948147,24.757782]]]},"properties":{"code":"10018030017","name":"茄苳里","countyCode":"10018","countyName":"新竹市","townCode":"10018030","townName":"香山區","level":"village","unassigned":false,"note":"","label":[120.94436990182086,24.751977574145556],"bounds":[120.932501,24.743419,120.957789,24.760332],"focusBounds":[120.932501,24.743419,120.957789,24.760332],"color":"#c38cb8"}},{"type":"Feature","id":"10018030018","geometry":{"type":"Polygon","coordinates":[[[120.932501,24.75469],[120.931992,24.755751],[120.928483,24.753477],[120.92411,24.750928],[120.92342,24.750174],[120.923126,24.749171],[120.922576,24.748487],[120.921318,24.747638],[120.92008,24.747107],[120.921046,24.745462],[120.921655,24.743774],[120.922191,24.742898],[120.921574,24.74227],[120.921713,24.741796],[120.91982,24.740319],[120.921325,24.739652],[120.921817,24.738165],[120.921796,24.737307],[120.922277,24.735524],[120.925027,24.737094],[120.926185,24.737625],[120.927214,24.73791],[120.92744,24.737581],[120.927462,24.736001],[120.927287,24.735231],[120.926488,24.734953],[120.926639,24.734628],[120.927562,24.734576],[120.928274,24.73548],[120.930427,24.73532],[120.930521,24.735596],[120.931918,24.735967],[120.932475,24.736337],[120.934428,24.73808],[120.935179,24.738972],[120.93581,24.739426],[120.937494,24.739851],[120.939192,24.740976],[120.939718,24.742678],[120.939717,24.743816],[120.939401,24.74475],[120.940705,24.744956],[120.938709,24.746319],[120.937973,24.746464],[120.937171,24.746361],[120.937039,24.7465],[120.937218,24.74673],[120.93686,24.74689],[120.934021,24.751528],[120.932501,24.75469]]]},"properties":{"code":"10018030018","name":"大湖里","countyCode":"10018","countyName":"新竹市","townCode":"10018030","townName":"香山區","level":"village","unassigned":false,"note":"","label":[120.92960056756202,24.744791305028695],"bounds":[120.91982,24.734576,120.940705,24.755751],"focusBounds":[120.91982,24.734576,120.940705,24.755751],"color":"#98b69b"}},{"type":"Feature","id":"10018030019","geometry":{"type":"Polygon","coordinates":[[[120.944904,24.744504],[120.944302,24.744806],[120.942423,24.744709],[120.940705,24.744956],[120.939401,24.74475],[120.939717,24.743816],[120.939718,24.742678],[120.939192,24.740976],[120.937494,24.739851],[120.93581,24.739426],[120.935179,24.738972],[120.934428,24.73808],[120.932475,24.736337],[120.931918,24.735967],[120.930521,24.735596],[120.930427,24.73532],[120.9312,24.735262],[120.93194,24.734836],[120.931368,24.734219],[120.931648,24.733899],[120.930732,24.732765],[120.930491,24.732255],[120.930479,24.731533],[120.930135,24.73123],[120.930267,24.73058],[120.929944,24.730129],[120.928794,24.729273],[120.928638,24.728943],[120.927968,24.728437],[120.927462,24.728502],[120.924716,24.727217],[120.924029,24.726539],[120.924045,24.726081],[120.922168,24.726364],[120.922331,24.725985],[120.92215,24.725683],[120.922676,24.725344],[120.922889,24.725006],[120.922709,24.72415],[120.924152,24.723885],[120.924336,24.722],[120.92473,24.721578],[120.924961,24.72054],[120.924027,24.719246],[120.923559,24.71705],[120.922147,24.715211],[120.922621,24.714806],[120.923643,24.714551],[120.923872,24.714567],[120.924319,24.715013],[120.925116,24.715451],[120.925863,24.715096],[120.926341,24.715221],[120.926598,24.715042],[120.926889,24.715046],[120.927542,24.715302],[120.928042,24.715757],[120.928839,24.715285],[120.930242,24.716633],[120.930688,24.715188],[120.931251,24.714533],[120.933044,24.713286],[120.934269,24.713141],[120.935135,24.712972],[120.935428,24.712594],[120.936074,24.713844],[120.936173,24.714251],[120.936033,24.714687],[120.936753,24.714991],[120.938627,24.716611],[120.938163,24.718322],[120.938717,24.7191],[120.938573,24.719862],[120.938842,24.720416],[120.93828,24.721464],[120.938442,24.72207],[120.939098,24.722751],[120.938866,24.723303],[120.938647,24.724875],[120.939184,24.725211],[120.939274,24.725418],[120.938699,24.726699],[120.93783,24.727243],[120.938139,24.727511],[120.938887,24.727634],[120.938953,24.727815],[120.938576,24.72892],[120.938031,24.729492],[120.938453,24.729817],[120.939112,24.729723],[120.940356,24.728989],[120.940618,24.728434],[120.941098,24.728361],[120.941822,24.728557],[120.941841,24.72929],[120.94233,24.730442],[120.941125,24.731914],[120.939899,24.732485],[120.939861,24.732744],[120.940086,24.733139],[120.94043,24.733356],[120.940704,24.734033],[120.941714,24.735061],[120.941919,24.736015],[120.941735,24.737169],[120.942477,24.737952],[120.942604,24.738443],[120.943077,24.738738],[120.943209,24.739043],[120.943052,24.739846],[120.943658,24.741322],[120.943827,24.743739],[120.944306,24.744427],[120.944904,24.744504]]]},"properties":{"code":"10018030019","name":"南隘里","countyCode":"10018","countyName":"新竹市","townCode":"10018030","townName":"香山區","level":"village","unassigned":false,"note":"","label":[120.93198651962877,24.723465005975914],"bounds":[120.922147,24.712594,120.944904,24.744956],"focusBounds":[120.922147,24.712594,120.944904,24.744956],"color":"#efb44f"}},{"type":"Feature","id":"10018030020","geometry":{"type":"Polygon","coordinates":[[[120.930427,24.73532],[120.928274,24.73548],[120.927562,24.734576],[120.926639,24.734628],[120.926488,24.734953],[120.927287,24.735231],[120.927462,24.736001],[120.92744,24.737581],[120.927214,24.73791],[120.926185,24.737625],[120.925027,24.737094],[120.922277,24.735524],[120.919222,24.734389],[120.915995,24.733744],[120.914682,24.733622],[120.91349,24.734185],[120.913189,24.734007],[120.914097,24.733409],[120.9124,24.731645],[120.912826,24.730404],[120.913087,24.728554],[120.91369,24.727862],[120.913793,24.727571],[120.913652,24.727185],[120.914182,24.727061],[120.913741,24.725003],[120.913797,24.724203],[120.91479,24.722995],[120.916071,24.721883],[120.916301,24.721379],[120.916011,24.720522],[120.914379,24.718974],[120.914264,24.718668],[120.914347,24.718017],[120.913659,24.717457],[120.913728,24.717292],[120.914366,24.717233],[120.915065,24.71676],[120.917691,24.716218],[120.91933,24.716933],[120.920586,24.716733],[120.920995,24.716538],[120.921199,24.715921],[120.921971,24.71608],[120.921934,24.715536],[120.922147,24.715211],[120.923559,24.71705],[120.924027,24.719246],[120.924961,24.72054],[120.92473,24.721578],[120.924336,24.722],[120.924152,24.723885],[120.922709,24.72415],[120.922889,24.725006],[120.922676,24.725344],[120.92215,24.725683],[120.922331,24.725985],[120.922168,24.726364],[120.924045,24.726081],[120.924029,24.726539],[120.924716,24.727217],[120.927462,24.728502],[120.927968,24.728437],[120.928638,24.728943],[120.928794,24.729273],[120.929944,24.730129],[120.930267,24.73058],[120.930135,24.73123],[120.930479,24.731533],[120.930491,24.732255],[120.930732,24.732765],[120.931648,24.733899],[120.931368,24.734219],[120.93194,24.734836],[120.9312,24.735262],[120.930427,24.73532]]]},"properties":{"code":"10018030020","name":"中隘里","countyCode":"10018","countyName":"新竹市","townCode":"10018030","townName":"香山區","level":"village","unassigned":false,"note":"","label":[120.9186208462208,24.72944327984505],"bounds":[120.9124,24.715211,120.93194,24.73791],"focusBounds":[120.9124,24.715211,120.93194,24.73791],"color":"#dd8590"}},{"type":"Feature","id":"10018030021","geometry":{"type":"Polygon","coordinates":[[[120.92411,24.750928],[120.923841,24.751533],[120.923228,24.752241],[120.923242,24.753216],[120.923443,24.753842],[120.923118,24.753896],[120.922211,24.753599],[120.920691,24.754143],[120.919855,24.754068],[120.918155,24.754552],[120.916975,24.754644],[120.912206,24.752553],[120.911219,24.750271],[120.911004,24.748415],[120.909274,24.747071],[120.908873,24.746985],[120.908521,24.747082],[120.907892,24.747942],[120.907521,24.747634],[120.907209,24.74681],[120.906874,24.746663],[120.906592,24.746803],[120.906515,24.746647],[120.906146,24.746823],[120.904518,24.74456],[120.902,24.742277],[120.902267,24.741767],[120.903065,24.741192],[120.904989,24.740685],[120.90587,24.740679],[120.907607,24.741089],[120.908536,24.740589],[120.908699,24.739499],[120.908372,24.737298],[120.908513,24.736505],[120.90903,24.735752],[120.910538,24.734388],[120.911886,24.732601],[120.9124,24.731645],[120.914097,24.733409],[120.913189,24.734007],[120.91349,24.734185],[120.914682,24.733622],[120.915995,24.733744],[120.919222,24.734389],[120.922277,24.735524],[120.921796,24.737307],[120.921817,24.738165],[120.921325,24.739652],[120.91982,24.740319],[120.921713,24.741796],[120.921574,24.74227],[120.922191,24.742898],[120.921655,24.743774],[120.921046,24.745462],[120.92008,24.747107],[120.921318,24.747638],[120.922576,24.748487],[120.923126,24.749171],[120.92342,24.750174],[120.92411,24.750928]]]},"properties":{"code":"10018030021","name":"內湖里","countyCode":"10018","countyName":"新竹市","townCode":"10018030","townName":"香山區","level":"village","unassigned":false,"note":"","label":[120.91470754045051,24.74363700026393],"bounds":[120.902,24.731645,120.92411,24.754644],"focusBounds":[120.902,24.731645,120.92411,24.754644],"color":"#78a7e3"}},{"type":"Feature","id":"10018030022","geometry":{"type":"Polygon","coordinates":[[[120.912206,24.752553],[120.91286,24.754066],[120.912538,24.754045],[120.910754,24.754731],[120.910628,24.753743],[120.910119,24.753059],[120.908479,24.754181],[120.907856,24.754434],[120.906121,24.754751],[120.903939,24.754449],[120.904176,24.756323],[120.893497,24.76166],[120.893193,24.76136],[120.891907,24.758712],[120.889908,24.756916],[120.889686,24.756211],[120.889097,24.755211],[120.887881,24.75355],[120.898822,24.746303],[120.899203,24.746507],[120.900299,24.746553],[120.902,24.742277],[120.904518,24.74456],[120.906146,24.746823],[120.906515,24.746647],[120.906592,24.746803],[120.906874,24.746663],[120.907209,24.74681],[120.907521,24.747634],[120.907892,24.747942],[120.908521,24.747082],[120.908873,24.746985],[120.909274,24.747071],[120.911004,24.748415],[120.911219,24.750271],[120.912206,24.752553]]]},"properties":{"code":"10018030022","name":"鹽水里","countyCode":"10018","countyName":"新竹市","townCode":"10018030","townName":"香山區","level":"village","unassigned":false,"note":"","label":[120.89898802146178,24.75265398491579],"bounds":[120.887881,24.742277,120.91286,24.76166],"focusBounds":[120.887881,24.742277,120.91286,24.76166],"color":"#dd8590"}},{"type":"Feature","id":"10018030023","geometry":{"type":"Polygon","coordinates":[[[120.902,24.742277],[120.900299,24.746553],[120.899203,24.746507],[120.898822,24.746303],[120.887881,24.75355],[120.885123,24.750592],[120.88263,24.746471],[120.880894,24.745701],[120.879421,24.743923],[120.877765,24.742592],[120.874537,24.73832],[120.881036,24.733288],[120.883568,24.734528],[120.883882,24.734268],[120.8848,24.732788],[120.886926,24.733417],[120.887226,24.733799],[120.887464,24.73387],[120.890957,24.731772],[120.89179,24.732429],[120.892354,24.733155],[120.892545,24.732784],[120.893385,24.732578],[120.893757,24.732329],[120.895478,24.732746],[120.897236,24.733364],[120.898259,24.734129],[120.898703,24.734237],[120.899077,24.734509],[120.899315,24.734938],[120.900885,24.736134],[120.901512,24.736355],[120.902983,24.737965],[120.903286,24.738561],[120.903926,24.739037],[120.904798,24.739404],[120.905709,24.740244],[120.90587,24.740679],[120.904989,24.740685],[120.903065,24.741192],[120.902267,24.741767],[120.902,24.742277]]]},"properties":{"code":"10018030023","name":"南港里","countyCode":"10018","countyName":"新竹市","townCode":"10018030","townName":"香山區","level":"village","unassigned":false,"note":"","label":[120.88960619778626,24.741783595611555],"bounds":[120.874537,24.731772,120.90587,24.75355],"focusBounds":[120.874537,24.731772,120.90587,24.75355],"color":"#a49ad4"}},{"type":"Feature","id":"10018030024","geometry":{"type":"Polygon","coordinates":[[[120.955213,24.796558],[120.952448,24.796539],[120.951669,24.796342],[120.951684,24.797432],[120.951604,24.797651],[120.950797,24.797766],[120.951108,24.797915],[120.950815,24.798082],[120.950572,24.798554],[120.950866,24.798709],[120.950738,24.798958],[120.950119,24.798682],[120.950003,24.798876],[120.949513,24.798535],[120.948806,24.796623],[120.949138,24.796554],[120.949121,24.795885],[120.948926,24.795842],[120.94906,24.795612],[120.948653,24.795416],[120.948661,24.795075],[120.947228,24.794388],[120.946387,24.794043],[120.946617,24.793664],[120.944638,24.792123],[120.94525,24.79146],[120.945118,24.791243],[120.948046,24.790443],[120.944739,24.785587],[120.944545,24.784724],[120.94419,24.784587],[120.944061,24.784345],[120.946078,24.784033],[120.947073,24.782482],[120.948956,24.780631],[120.949727,24.780288],[120.950649,24.780107],[120.952695,24.780961],[120.953725,24.781225],[120.954633,24.782565],[120.95389,24.7835],[120.951131,24.785402],[120.953755,24.787638],[120.954197,24.787659],[120.954183,24.788137],[120.953944,24.78848],[120.953408,24.788781],[120.952918,24.788686],[120.952706,24.788779],[120.952121,24.789753],[120.952271,24.789804],[120.951803,24.790315],[120.949716,24.79159],[120.949695,24.791781],[120.949732,24.792039],[120.95111,24.792616],[120.951601,24.792937],[120.951533,24.793078],[120.95245,24.793474],[120.953657,24.79453],[120.955213,24.796558]]]},"properties":{"code":"10018030024","name":"頂福里","countyCode":"10018","countyName":"新竹市","townCode":"10018030","townName":"香山區","level":"village","unassigned":false,"note":"","label":[120.94972170248226,24.78796588422199],"bounds":[120.944061,24.780107,120.955213,24.798958],"focusBounds":[120.944061,24.780107,120.955213,24.798958],"color":"#a8bf62"}},{"type":"Feature","id":"10018030S01","geometry":{"type":"Polygon","coordinates":[[[120.940006,24.813856],[120.938984,24.814847],[120.938083,24.81649],[120.938384,24.816987],[120.939374,24.817818],[120.939988,24.818594],[120.940125,24.819001],[120.939957,24.819425],[120.938435,24.820264],[120.937853,24.820264],[120.935205,24.822086],[120.933327,24.822925],[120.93275,24.823349],[120.931554,24.823813],[120.931541,24.819418],[120.93308,24.817938],[120.930463,24.815533],[120.928886,24.81516],[120.928863,24.814824],[120.928813,24.81423],[120.928595,24.813853],[120.922898,24.808681],[120.92509,24.806603],[120.92512,24.806274],[120.924276,24.805226],[120.924352,24.804732],[120.925287,24.804319],[120.926178,24.804223],[120.927052,24.804679],[120.931261,24.808396],[120.931487,24.808464],[120.932347,24.807819],[120.93299,24.808264],[120.940006,24.813856]]]},"properties":{"code":"10018030S01","name":"未編定村里","countyCode":"10018","countyName":"新竹市","townCode":"10018030","townName":"香山區","level":"village","unassigned":true,"note":"未編定村里","label":[120.93293635402013,24.81301660586005],"bounds":[120.922898,24.804223,120.940125,24.823813],"focusBounds":[120.922898,24.804223,120.940125,24.823813],"color":"#68bec9"}}]}
