{"type":"FeatureCollection","features":[{"type":"Feature","id":"10014050001","geometry":{"type":"Polygon","coordinates":[[[121.218421,22.984885],[121.218779,22.985476],[121.219487,22.986174],[121.218761,22.987108],[121.218529,22.988416],[121.218179,22.988742],[121.217529,22.988895],[121.217114,22.989171],[121.216739,22.989762],[121.216736,22.990626],[121.216182,22.991123],[121.216196,22.991324],[121.216841,22.991919],[121.21698,22.992831],[121.217971,22.995355],[121.218082,22.995979],[121.217942,22.996614],[121.218056,22.99742],[121.21797,22.998219],[121.217527,23.000052],[121.21714,23.00042],[121.216275,23.00086],[121.216611,23.001661],[121.216788,23.002633],[121.216537,23.004041],[121.216039,23.004995],[121.216384,23.007561],[121.216098,23.009002],[121.215889,23.009344],[121.214715,23.008751],[121.214303,23.007179],[121.21321,23.005943],[121.211036,23.004181],[121.210206,23.002683],[121.209103,23.001932],[121.204964,23.001388],[121.20433,23.001163],[121.203589,23.00155],[121.202039,23.001383],[121.201495,23.001487],[121.200663,23.001068],[121.199072,23.001691],[121.197522,23.000781],[121.196549,23.000007],[121.195195,22.999397],[121.194961,22.999158],[121.194884,22.998467],[121.194668,22.998237],[121.19433,22.998264],[121.192871,22.998943],[121.192544,22.998878],[121.192407,22.997256],[121.191666,22.996466],[121.190612,22.99422],[121.190662,22.993855],[121.191404,22.993409],[121.191335,22.993104],[121.190729,22.992924],[121.189793,22.992896],[121.188577,22.993444],[121.188303,22.993428],[121.187993,22.992529],[121.186124,22.991383],[121.185893,22.990304],[121.185601,22.98997],[121.185309,22.989823],[121.184033,22.989767],[121.183566,22.989613],[121.183335,22.98931],[121.183424,22.988551],[121.18317,22.988141],[121.181897,22.98805],[121.180938,22.986527],[121.180114,22.986024],[121.178189,22.985681],[121.175943,22.986006],[121.174771,22.985402],[121.173952,22.985299],[121.173624,22.985504],[121.173115,22.98688],[121.172838,22.987142],[121.172179,22.987312],[121.169366,22.987231],[121.168207,22.98762],[121.167002,22.988669],[121.165658,22.989309],[121.164991,22.989899],[121.164656,22.990436],[121.163737,22.99169],[121.162591,22.993779],[121.160968,22.995203],[121.159066,22.996304],[121.156859,22.996735],[121.153282,22.996347],[121.151514,22.996488],[121.148668,22.99639],[121.148706,22.993982],[121.148407,22.992723],[121.146101,22.98695],[121.145128,22.986194],[121.144829,22.985368],[121.144999,22.973983],[121.148027,22.974396],[121.150938,22.974023],[121.159025,22.97208],[121.161565,22.970696],[121.164248,22.970427],[121.168233,22.968845],[121.169934,22.967841],[121.17624,22.965396],[121.176897,22.965253],[121.178871,22.965393],[121.181698,22.966108],[121.186151,22.967966],[121.189912,22.969759],[121.19347,22.970789],[121.195126,22.971715],[121.197384,22.973904],[121.198409,22.975698],[121.200038,22.977603],[121.201232,22.979659],[121.202209,22.98066],[121.204026,22.981787],[121.208824,22.983862],[121.212563,22.984535],[121.218421,22.984885]]]},"properties":{"code":"10014050001","name":"瑞和村","countyCode":"10014","countyName":"臺東縣","townCode":"10014050","townName":"鹿野鄉","level":"village","unassigned":false,"note":"","label":[121.1779899682903,22.975520212967652],"bounds":[121.144829,22.965253,121.219487,23.009344],"focusBounds":[121.144829,22.965253,121.219487,23.009344],"color":"#98b69b"}},{"type":"Feature","id":"10014050002","geometry":{"type":"Polygon","coordinates":[[[121.144999,22.973983],[121.144829,22.985368],[121.145128,22.986194],[121.146101,22.98695],[121.148407,22.992723],[121.148706,22.993982],[121.148668,22.99639],[121.142265,22.996071],[121.140769,22.995815],[121.139497,22.995348],[121.136677,22.995007],[121.135577,22.99471],[121.130935,22.994828],[121.130327,22.994115],[121.130072,22.993436],[121.130154,22.990426],[121.129984,22.98965],[121.128711,22.98854],[121.127742,22.987443],[121.12736,22.986351],[121.126893,22.98583],[121.125536,22.985111],[121.124787,22.984529],[121.124256,22.983863],[121.123068,22.981667],[121.122793,22.981394],[121.122193,22.981148],[121.123695,22.980046],[121.125417,22.979033],[121.127443,22.97828],[121.127641,22.97809],[121.128116,22.977225],[121.127987,22.975918],[121.12807,22.973475],[121.127794,22.973207],[121.126834,22.973273],[121.12491,22.972796],[121.12237,22.972571],[121.119725,22.971911],[121.118522,22.972039],[121.118323,22.971935],[121.12055,22.970679],[121.126158,22.967916],[121.127592,22.967448],[121.129567,22.967789],[121.13302,22.966981],[121.136178,22.965594],[121.137609,22.964663],[121.138904,22.963544],[121.140855,22.963231],[121.141096,22.96396],[121.142182,22.965535],[121.143165,22.967419],[121.144856,22.971281],[121.145113,22.97254],[121.144999,22.973983]]]},"properties":{"code":"10014050002","name":"瑞豐村","countyCode":"10014","countyName":"臺東縣","townCode":"10014050","townName":"鹿野鄉","level":"village","unassigned":false,"note":"","label":[121.13584851719644,22.981642035090054],"bounds":[121.118323,22.963231,121.148706,22.99639],"focusBounds":[121.118323,22.963231,121.148706,22.99639],"color":"#58b99d"}},{"type":"Feature","id":"10014050003","geometry":{"type":"Polygon","coordinates":[[[121.218421,22.984885],[121.212563,22.984535],[121.208824,22.983862],[121.204026,22.981787],[121.202209,22.98066],[121.201232,22.979659],[121.200038,22.977603],[121.198409,22.975698],[121.197384,22.973904],[121.195126,22.971715],[121.19347,22.970789],[121.189912,22.969759],[121.186151,22.967966],[121.181698,22.966108],[121.178871,22.965393],[121.176897,22.965253],[121.17624,22.965396],[121.169934,22.967841],[121.168233,22.968845],[121.164248,22.970427],[121.161565,22.970696],[121.159025,22.97208],[121.150938,22.974023],[121.148027,22.974396],[121.144999,22.973983],[121.145113,22.97254],[121.144856,22.971281],[121.143165,22.967419],[121.142182,22.965535],[121.141096,22.96396],[121.140855,22.963231],[121.142101,22.962884],[121.152348,22.958385],[121.154706,22.957225],[121.15782,22.956048],[121.160154,22.955393],[121.162514,22.955],[121.166011,22.955469],[121.168731,22.956437],[121.170859,22.957462],[121.171819,22.95852],[121.172384,22.959623],[121.173196,22.960521],[121.174752,22.961666],[121.177301,22.961948],[121.180335,22.961818],[121.181138,22.961539],[121.182003,22.960177],[121.182192,22.959477],[121.183299,22.958641],[121.183325,22.958205],[121.182703,22.95644],[121.182729,22.955298],[121.183388,22.953516],[121.183824,22.953129],[121.184932,22.953275],[121.18716,22.951306],[121.188181,22.950627],[121.188429,22.94829],[121.188646,22.947994],[121.189546,22.947436],[121.189712,22.946905],[121.190918,22.946127],[121.192669,22.94214],[121.193534,22.94129],[121.19519,22.937345],[121.196925,22.938806],[121.197256,22.940411],[121.198372,22.941577],[121.198823,22.943683],[121.199735,22.945524],[121.201523,22.947626],[121.202611,22.948546],[121.203599,22.948958],[121.203895,22.949331],[121.204083,22.951705],[121.205293,22.953233],[121.205499,22.954345],[121.206772,22.955491],[121.206305,22.956392],[121.206321,22.956724],[121.206802,22.957125],[121.207085,22.957699],[121.208072,22.958463],[121.208817,22.95969],[121.209233,22.96076],[121.211079,22.961516],[121.211347,22.961764],[121.21139,22.962164],[121.210988,22.963386],[121.210963,22.963959],[121.211784,22.965611],[121.211578,22.966417],[121.212072,22.967669],[121.211591,22.968724],[121.212257,22.970295],[121.213501,22.971355],[121.214003,22.972767],[121.214481,22.973326],[121.214489,22.973692],[121.214721,22.974077],[121.215454,22.974748],[121.216061,22.975013],[121.216425,22.975871],[121.217009,22.976239],[121.217447,22.976819],[121.218335,22.977361],[121.218691,22.977877],[121.218835,22.978396],[121.218513,22.97989],[121.219233,22.980749],[121.219414,22.981482],[121.219217,22.982187],[121.218663,22.982636],[121.218756,22.98309],[121.218421,22.984885]]]},"properties":{"code":"10014050003","name":"瑞源村","countyCode":"10014","countyName":"臺東縣","townCode":"10014050","townName":"鹿野鄉","level":"village","unassigned":false,"note":"","label":[121.19469593386634,22.960354094900396],"bounds":[121.140855,22.937345,121.219414,22.984885],"focusBounds":[121.140855,22.937345,121.219414,22.984885],"color":"#efb44f"}},{"type":"Feature","id":"10014050004","geometry":{"type":"Polygon","coordinates":[[[121.140855,22.963231],[121.138904,22.963544],[121.137609,22.964663],[121.136178,22.965594],[121.13302,22.966981],[121.129567,22.967789],[121.127592,22.967448],[121.126158,22.967916],[121.12055,22.970679],[121.118323,22.971935],[121.118148,22.971548],[121.118185,22.9712],[121.120573,22.969332],[121.120996,22.96872],[121.121415,22.967483],[121.121747,22.965432],[121.122168,22.96469],[121.122126,22.963123],[121.12457,22.960323],[121.123824,22.959586],[121.124884,22.958812],[121.125434,22.958021],[121.126429,22.957221],[121.126763,22.956481],[121.127695,22.955791],[121.128093,22.955155],[121.128192,22.954094],[121.127762,22.952857],[121.127458,22.951975],[121.126308,22.950236],[121.125292,22.949607],[121.123777,22.948048],[121.12363,22.947732],[121.122676,22.947066],[121.121801,22.946017],[121.121541,22.945947],[121.120956,22.946465],[121.12038,22.94649],[121.120407,22.945776],[121.120883,22.945006],[121.120887,22.944273],[121.120693,22.943832],[121.120738,22.942941],[121.120328,22.941896],[121.12103,22.941638],[121.121277,22.941371],[121.121005,22.939543],[121.119896,22.93762],[121.118331,22.936957],[121.117912,22.936465],[121.115009,22.934442],[121.114575,22.933844],[121.11461,22.932424],[121.115409,22.92978],[121.115622,22.927267],[121.115955,22.92563],[121.117195,22.923958],[121.11792,22.923552],[121.118807,22.922985],[121.119155,22.922364],[121.119168,22.922061],[121.118768,22.921059],[121.118024,22.919949],[121.116889,22.918728],[121.11633,22.917785],[121.115163,22.916621],[121.114811,22.915625],[121.114516,22.913603],[121.114019,22.912905],[121.113994,22.91228],[121.116715,22.911601],[121.121111,22.911898],[121.124249,22.91256],[121.126875,22.912574],[121.128997,22.912786],[121.131189,22.913218],[121.132002,22.913046],[121.13255,22.912743],[121.133178,22.912815],[121.133709,22.913131],[121.133914,22.919669],[121.134019,22.920271],[121.134776,22.921467],[121.137435,22.923197],[121.141729,22.924279],[121.14284,22.92484],[121.144433,22.927013],[121.145187,22.927419],[121.147451,22.927902],[121.148623,22.928405],[121.150278,22.929374],[121.150072,22.932088],[121.148799,22.935561],[121.148276,22.936512],[121.147376,22.93696],[121.146707,22.937599],[121.145389,22.939463],[121.144134,22.940609],[121.143277,22.94191],[121.143237,22.943441],[121.142944,22.943714],[121.142798,22.944644],[121.142947,22.946254],[121.143682,22.948911],[121.144925,22.9513],[121.144985,22.95275],[121.142813,22.958337],[121.14183,22.96018],[121.140855,22.963231]]]},"properties":{"code":"10014050004","name":"永安村","countyCode":"10014","countyName":"臺東縣","townCode":"10014050","townName":"鹿野鄉","level":"village","unassigned":false,"note":"","label":[121.13271424495183,22.934959196509382],"bounds":[121.113994,22.911601,121.150278,22.971935],"focusBounds":[121.113994,22.911601,121.150278,22.971935],"color":"#78a7e3"}},{"type":"Feature","id":"10014050005","geometry":{"type":"Polygon","coordinates":[[[121.19519,22.937345],[121.193534,22.94129],[121.192669,22.94214],[121.190918,22.946127],[121.189712,22.946905],[121.189546,22.947436],[121.188646,22.947994],[121.188429,22.94829],[121.188181,22.950627],[121.18716,22.951306],[121.184932,22.953275],[121.183824,22.953129],[121.183388,22.953516],[121.182729,22.955298],[121.182703,22.95644],[121.183325,22.958205],[121.183299,22.958641],[121.182192,22.959477],[121.182003,22.960177],[121.181138,22.961539],[121.180335,22.961818],[121.177301,22.961948],[121.174752,22.961666],[121.173196,22.960521],[121.172384,22.959623],[121.171819,22.95852],[121.170859,22.957462],[121.168731,22.956437],[121.166011,22.955469],[121.162514,22.955],[121.160154,22.955393],[121.15782,22.956048],[121.154706,22.957225],[121.152348,22.958385],[121.142101,22.962884],[121.140855,22.963231],[121.14183,22.96018],[121.142813,22.958337],[121.144985,22.95275],[121.144925,22.9513],[121.143682,22.948911],[121.142947,22.946254],[121.142798,22.944644],[121.142944,22.943714],[121.143237,22.943441],[121.143277,22.94191],[121.144134,22.940609],[121.145389,22.939463],[121.146707,22.937599],[121.147376,22.93696],[121.148276,22.936512],[121.148799,22.935561],[121.150072,22.932088],[121.150278,22.929374],[121.150926,22.9285],[121.15214,22.927801],[121.153821,22.925411],[121.154972,22.926346],[121.156678,22.92718],[121.15739,22.92801],[121.158654,22.929964],[121.162324,22.932987],[121.170241,22.935944],[121.17185,22.936023],[121.17276,22.935907],[121.174041,22.936401],[121.174685,22.936472],[121.175726,22.935584],[121.176045,22.93497],[121.176886,22.934727],[121.177836,22.934087],[121.178114,22.933656],[121.179629,22.932227],[121.180342,22.932197],[121.180858,22.931718],[121.181343,22.931668],[121.182828,22.931838],[121.18366,22.932634],[121.184008,22.93414],[121.184631,22.934606],[121.185088,22.934762],[121.185021,22.935259],[121.185325,22.936168],[121.185778,22.936468],[121.186205,22.937179],[121.186697,22.937496],[121.188107,22.938014],[121.189132,22.938817],[121.189853,22.938947],[121.190525,22.938809],[121.191467,22.938017],[121.192786,22.937449],[121.193366,22.936868],[121.194186,22.936676],[121.19519,22.937345]]]},"properties":{"code":"10014050005","name":"瑞隆村","countyCode":"10014","countyName":"臺東縣","townCode":"10014050","townName":"鹿野鄉","level":"village","unassigned":false,"note":"","label":[121.16594037277281,22.944898278196696],"bounds":[121.140855,22.925411,121.19519,22.963231],"focusBounds":[121.140855,22.925411,121.19519,22.963231],"color":"#dd8590"}},{"type":"Feature","id":"10014050006","geometry":{"type":"Polygon","coordinates":[[[121.153821,22.925411],[121.15214,22.927801],[121.150926,22.9285],[121.150278,22.929374],[121.148623,22.928405],[121.147451,22.927902],[121.145187,22.927419],[121.144433,22.927013],[121.14284,22.92484],[121.141729,22.924279],[121.137435,22.923197],[121.134776,22.921467],[121.134019,22.920271],[121.133914,22.919669],[121.133709,22.913131],[121.134757,22.912419],[121.135237,22.911949],[121.135595,22.911309],[121.135967,22.909555],[121.136033,22.907758],[121.136325,22.906066],[121.135463,22.901825],[121.135152,22.898513],[121.134529,22.898089],[121.131566,22.897818],[121.128201,22.897821],[121.124522,22.898207],[121.122718,22.898617],[121.11821,22.898853],[121.115248,22.90023],[121.113632,22.900482],[121.111858,22.902456],[121.111259,22.902669],[121.100605,22.903014],[121.097917,22.901805],[121.095366,22.900318],[121.095188,22.900048],[121.092239,22.900302],[121.090143,22.900211],[121.088649,22.899865],[121.085891,22.899819],[121.085592,22.899456],[121.085696,22.898044],[121.086232,22.89687],[121.088,22.895025],[121.091598,22.89314],[121.092501,22.892896],[121.094997,22.892739],[121.096317,22.892826],[121.101844,22.893521],[121.103861,22.893913],[121.108068,22.893843],[121.109543,22.893655],[121.110283,22.893314],[121.111335,22.893189],[121.112742,22.893174],[121.114476,22.893363],[121.118092,22.892605],[121.119031,22.892186],[121.12045,22.891978],[121.12073,22.891729],[121.12112,22.891675],[121.125908,22.89195],[121.1273,22.892242],[121.128575,22.8923],[121.129197,22.892604],[121.129789,22.892349],[121.131494,22.89219],[121.13322,22.891635],[121.138105,22.889598],[121.139316,22.889233],[121.140441,22.888596],[121.141814,22.888633],[121.143291,22.888519],[121.143657,22.888632],[121.146904,22.891576],[121.147171,22.892045],[121.147351,22.892921],[121.147265,22.89437],[121.146399,22.898049],[121.145729,22.898824],[121.145493,22.899406],[121.145211,22.902046],[121.14472,22.904175],[121.143815,22.906454],[121.14289,22.909647],[121.142829,22.910229],[121.143146,22.911643],[121.14406,22.913886],[121.146287,22.918106],[121.147763,22.920347],[121.148908,22.921337],[121.150445,22.92309],[121.151917,22.92385],[121.153821,22.925411]]]},"properties":{"code":"10014050006","name":"鹿野村","countyCode":"10014","countyName":"臺東縣","townCode":"10014050","townName":"鹿野鄉","level":"village","unassigned":false,"note":"","label":[121.14031504436633,22.895440377594504],"bounds":[121.085592,22.888519,121.153821,22.929374],"focusBounds":[121.085592,22.888519,121.153821,22.929374],"color":"#a49ad4"}},{"type":"Feature","id":"10014050007","geometry":{"type":"Polygon","coordinates":[[[121.133709,22.913131],[121.133178,22.912815],[121.13255,22.912743],[121.132002,22.913046],[121.131189,22.913218],[121.128997,22.912786],[121.126875,22.912574],[121.124249,22.91256],[121.121111,22.911898],[121.116715,22.911601],[121.113994,22.91228],[121.114019,22.912905],[121.114516,22.913603],[121.114811,22.915625],[121.115163,22.916621],[121.11633,22.917785],[121.116889,22.918728],[121.118024,22.919949],[121.118768,22.921059],[121.119168,22.922061],[121.119155,22.922364],[121.118807,22.922985],[121.11792,22.923552],[121.11769,22.922676],[121.117264,22.922466],[121.116638,22.922457],[121.115803,22.922205],[121.11539,22.921819],[121.115214,22.921365],[121.114852,22.921142],[121.114731,22.920596],[121.114341,22.920429],[121.114459,22.919971],[121.114115,22.918528],[121.1127,22.917497],[121.112889,22.916772],[121.113417,22.916214],[121.113394,22.91572],[121.112869,22.915124],[121.112503,22.915063],[121.11185,22.914409],[121.110607,22.913701],[121.109888,22.912525],[121.109832,22.912015],[121.109243,22.911302],[121.108068,22.91059],[121.106986,22.910908],[121.104166,22.910424],[121.103039,22.910038],[121.102647,22.909718],[121.100702,22.90913],[121.100066,22.90869],[121.099704,22.908839],[121.099439,22.908753],[121.098846,22.908318],[121.098636,22.907787],[121.097548,22.906851],[121.096226,22.905786],[121.095261,22.905301],[121.09448,22.904218],[121.093304,22.902723],[121.093715,22.902502],[121.09455,22.901229],[121.095366,22.900318],[121.097917,22.901805],[121.100605,22.903014],[121.111259,22.902669],[121.111858,22.902456],[121.113632,22.900482],[121.115248,22.90023],[121.11821,22.898853],[121.122718,22.898617],[121.124522,22.898207],[121.128201,22.897821],[121.131566,22.897818],[121.134529,22.898089],[121.135152,22.898513],[121.135463,22.901825],[121.136325,22.906066],[121.136033,22.907758],[121.135967,22.909555],[121.135595,22.911309],[121.135237,22.911949],[121.134757,22.912419],[121.133709,22.913131]]]},"properties":{"code":"10014050007","name":"龍田村","countyCode":"10014","countyName":"臺東縣","townCode":"10014050","townName":"鹿野鄉","level":"village","unassigned":false,"note":"","label":[121.12005185147258,22.905291658392713],"bounds":[121.093304,22.897818,121.136325,22.923552],"focusBounds":[121.093304,22.897818,121.136325,22.923552],"color":"#a8bf62"}}]}
