{"type":"FeatureCollection","features":[{"type":"Feature","id":"10010070001","geometry":{"type":"Polygon","coordinates":[[[120.347842,23.556424],[120.346497,23.556683],[120.346406,23.55634],[120.345948,23.554173],[120.344697,23.554278],[120.34456,23.550586],[120.345056,23.551706],[120.346163,23.552018],[120.346683,23.551934],[120.347423,23.551251],[120.348283,23.550031],[120.349228,23.54978],[120.3501,23.549066],[120.350148,23.548517],[120.349596,23.548079],[120.349496,23.547797],[120.35007,23.546959],[120.351168,23.546813],[120.351611,23.546279],[120.353306,23.546415],[120.354311,23.54585],[120.354827,23.545015],[120.356057,23.544244],[120.35665,23.544298],[120.357118,23.54467],[120.357834,23.544939],[120.357904,23.549475],[120.359644,23.549482],[120.359224,23.555596],[120.347842,23.556424]]]},"properties":{"code":"10010070001","name":"宮前村","countyCode":"10010","countyName":"嘉義縣","townCode":"10010070","townName":"新港鄉","level":"village","unassigned":false,"note":"","label":[120.3536602216319,23.551539435862836],"bounds":[120.34456,23.544244,120.359644,23.556683],"focusBounds":[120.34456,23.544244,120.359644,23.556683],"color":"#58b99d"}},{"type":"Feature","id":"10010070002","geometry":{"type":"Polygon","coordinates":[[[120.360513,23.558836],[120.358634,23.5606],[120.35653,23.561522],[120.355369,23.561853],[120.35148,23.561713],[120.351254,23.561461],[120.351134,23.560368],[120.347453,23.560685],[120.347033,23.558967],[120.348395,23.558621],[120.347842,23.556424],[120.359224,23.555596],[120.360777,23.55548],[120.360513,23.558836]]]},"properties":{"code":"10010070002","name":"宮後村","countyCode":"10010","countyName":"嘉義縣","townCode":"10010070","townName":"新港鄉","level":"village","unassigned":false,"note":"","label":[120.35437961538507,23.558883032535],"bounds":[120.347033,23.55548,120.360777,23.561853],"focusBounds":[120.347033,23.55548,120.360777,23.561853],"color":"#efb44f"}},{"type":"Feature","id":"10010070003","geometry":{"type":"Polygon","coordinates":[[[120.347725,23.561731],[120.347067,23.561977],[120.341511,23.561987],[120.340726,23.563092],[120.33573,23.563046],[120.336116,23.560793],[120.339793,23.56078],[120.340045,23.56062],[120.340013,23.559793],[120.343461,23.559769],[120.343812,23.560137],[120.344066,23.560185],[120.345948,23.559877],[120.344979,23.556616],[120.346406,23.55634],[120.346497,23.556683],[120.347842,23.556424],[120.348395,23.558621],[120.347033,23.558967],[120.347453,23.560685],[120.347725,23.561731]]]},"properties":{"code":"10010070003","name":"大興村","countyCode":"10010","countyName":"嘉義縣","townCode":"10010070","townName":"新港鄉","level":"village","unassigned":false,"note":"","label":[120.34270998754471,23.560879459812828],"bounds":[120.33573,23.55634,120.348395,23.563092],"focusBounds":[120.33573,23.55634,120.348395,23.563092],"color":"#dd8590"}},{"type":"Feature","id":"10010070004","geometry":{"type":"Polygon","coordinates":[[[120.346406,23.55634],[120.344979,23.556616],[120.345948,23.559877],[120.344066,23.560185],[120.343812,23.560137],[120.343461,23.559769],[120.340013,23.559793],[120.33997,23.558504],[120.338655,23.558754],[120.338089,23.55855],[120.337881,23.552775],[120.339198,23.552717],[120.340181,23.55204],[120.34374,23.551987],[120.343799,23.551127],[120.34456,23.550586],[120.344697,23.554278],[120.345948,23.554173],[120.346406,23.55634]]]},"properties":{"code":"10010070004","name":"福德村","countyCode":"10010","countyName":"嘉義縣","townCode":"10010070","townName":"新港鄉","level":"village","unassigned":false,"note":"","label":[120.34190288255022,23.555897050643814],"bounds":[120.337881,23.550586,120.346406,23.560185],"focusBounds":[120.337881,23.550586,120.346406,23.560185],"color":"#a49ad4"}},{"type":"Feature","id":"10010070005","geometry":{"type":"Polygon","coordinates":[[[120.355517,23.571622],[120.354698,23.570973],[120.353548,23.570776],[120.353059,23.57088],[120.352495,23.571237],[120.351577,23.572172],[120.350562,23.568928],[120.349167,23.567105],[120.347725,23.561731],[120.347453,23.560685],[120.351134,23.560368],[120.351254,23.561461],[120.35148,23.561713],[120.355369,23.561853],[120.35653,23.561522],[120.358634,23.5606],[120.360513,23.558836],[120.360299,23.561456],[120.364867,23.561739],[120.364686,23.56405],[120.364347,23.563863],[120.358816,23.563479],[120.358628,23.563625],[120.356076,23.563786],[120.355517,23.571622]]]},"properties":{"code":"10010070005","name":"古民村","countyCode":"10010","countyName":"嘉義縣","townCode":"10010070","townName":"新港鄉","level":"village","unassigned":false,"note":"","label":[120.35225140167277,23.56542556077195],"bounds":[120.347453,23.558836,120.364867,23.572172],"focusBounds":[120.347453,23.558836,120.364867,23.572172],"color":"#a49ad4"}},{"type":"Feature","id":"10010070006","geometry":{"type":"Polygon","coordinates":[[[120.351577,23.572172],[120.353807,23.585491],[120.352944,23.584449],[120.351325,23.58351],[120.350339,23.582741],[120.34936,23.582251],[120.348249,23.580565],[120.348395,23.580028],[120.348151,23.579282],[120.348398,23.578525],[120.348358,23.578204],[120.348206,23.577878],[120.347069,23.577174],[120.345165,23.576665],[120.343843,23.576673],[120.338307,23.577593],[120.340634,23.573857],[120.340735,23.572944],[120.340314,23.572025],[120.338472,23.569227],[120.337963,23.568762],[120.337012,23.568341],[120.33485,23.568097],[120.33573,23.563046],[120.340726,23.563092],[120.341511,23.561987],[120.347067,23.561977],[120.347725,23.561731],[120.349167,23.567105],[120.350562,23.568928],[120.351577,23.572172]]]},"properties":{"code":"10010070006","name":"中庄村","countyCode":"10010","countyName":"嘉義縣","townCode":"10010070","townName":"新港鄉","level":"village","unassigned":false,"note":"","label":[120.3456975366042,23.571116448343048],"bounds":[120.33485,23.561731,120.353807,23.585491],"focusBounds":[120.33485,23.561731,120.353807,23.585491],"color":"#a8bf62"}},{"type":"Feature","id":"10010070007","geometry":{"type":"Polygon","coordinates":[[[120.378831,23.555836],[120.377975,23.556654],[120.376423,23.562479],[120.370179,23.56218],[120.369998,23.564448],[120.364686,23.56405],[120.364867,23.561739],[120.360299,23.561456],[120.360513,23.558836],[120.360777,23.55548],[120.359224,23.555596],[120.359644,23.549482],[120.357904,23.549475],[120.357834,23.544939],[120.357829,23.544479],[120.358801,23.543864],[120.359971,23.543725],[120.360521,23.543068],[120.361593,23.542386],[120.361849,23.540875],[120.361999,23.540667],[120.36312,23.540191],[120.36429,23.539943],[120.364609,23.539717],[120.366942,23.537658],[120.368111,23.536245],[120.368784,23.535973],[120.370105,23.535881],[120.372983,23.536403],[120.373669,23.536886],[120.374408,23.537],[120.374256,23.538795],[120.374333,23.54038],[120.374418,23.540816],[120.374775,23.541011],[120.376413,23.549065],[120.378693,23.548411],[120.379873,23.547781],[120.37996,23.548002],[120.380366,23.548102],[120.380618,23.5484],[120.38042,23.548824],[120.379386,23.549915],[120.378977,23.550674],[120.378981,23.551976],[120.378745,23.553368],[120.378831,23.555836]]]},"properties":{"code":"10010070007","name":"大潭村","countyCode":"10010","countyName":"嘉義縣","townCode":"10010070","townName":"新港鄉","level":"village","unassigned":false,"note":"","label":[120.36842196606418,23.550875766368826],"bounds":[120.357829,23.535881,120.380618,23.564448],"focusBounds":[120.357829,23.535881,120.380618,23.564448],"color":"#68bec9"}},{"type":"Feature","id":"10010070008","geometry":{"type":"Polygon","coordinates":[[[120.3875,23.571232],[120.385212,23.571963],[120.381822,23.571265],[120.381163,23.571406],[120.379751,23.5721],[120.378319,23.572347],[120.377359,23.572362],[120.376838,23.57209],[120.376497,23.571716],[120.376979,23.571468],[120.377193,23.571171],[120.377553,23.568565],[120.377297,23.568304],[120.37573,23.56786],[120.375385,23.567441],[120.375232,23.56677],[120.374563,23.569194],[120.369632,23.56888],[120.369998,23.564448],[120.370179,23.56218],[120.376423,23.562479],[120.377975,23.556654],[120.378831,23.555836],[120.380547,23.55654],[120.380629,23.555612],[120.380755,23.555547],[120.382263,23.555344],[120.385833,23.555404],[120.385895,23.555498],[120.386086,23.557569],[120.383831,23.557417],[120.387556,23.565503],[120.389979,23.570854],[120.388204,23.571009],[120.3875,23.571232]]]},"properties":{"code":"10010070008","name":"西庄村","countyCode":"10010","countyName":"嘉義縣","townCode":"10010070","townName":"新港鄉","level":"village","unassigned":false,"note":"","label":[120.38118066121439,23.5648334198842],"bounds":[120.369632,23.555344,120.389979,23.572362],"focusBounds":[120.369632,23.555344,120.389979,23.572362],"color":"#c38cb8"}},{"type":"Feature","id":"10010070009","geometry":{"type":"Polygon","coordinates":[[[120.373095,23.594466],[120.372429,23.594247],[120.367739,23.595087],[120.367256,23.59408],[120.360754,23.595264],[120.363029,23.589331],[120.361931,23.588491],[120.360211,23.587507],[120.359109,23.587247],[120.35796,23.58698],[120.356544,23.587015],[120.355469,23.586661],[120.353807,23.585491],[120.351577,23.572172],[120.352495,23.571237],[120.353059,23.57088],[120.353548,23.570776],[120.354698,23.570973],[120.355517,23.571622],[120.357275,23.574331],[120.358282,23.574927],[120.359498,23.574968],[120.360635,23.575311],[120.361088,23.575595],[120.361772,23.576377],[120.362038,23.576841],[120.362134,23.577514],[120.361251,23.581167],[120.362041,23.583234],[120.362553,23.58385],[120.364435,23.583849],[120.365807,23.582872],[120.366222,23.582982],[120.367269,23.583928],[120.367576,23.583907],[120.36845,23.583318],[120.369376,23.585083],[120.370617,23.584963],[120.371046,23.587098],[120.371051,23.587682],[120.370622,23.587826],[120.371335,23.588937],[120.372563,23.589704],[120.373553,23.594491],[120.373516,23.594616],[120.373095,23.594466]]]},"properties":{"code":"10010070009","name":"埤子村","countyCode":"10010","countyName":"嘉義縣","townCode":"10010070","townName":"新港鄉","level":"village","unassigned":false,"note":"","label":[120.35719805204324,23.579110187999795],"bounds":[120.351577,23.570776,120.373553,23.595264],"focusBounds":[120.351577,23.570776,120.373553,23.595264],"color":"#c38cb8"}},{"type":"Feature","id":"10010070010","geometry":{"type":"Polygon","coordinates":[[[120.359109,23.587247],[120.357485,23.589346],[120.356649,23.590099],[120.356664,23.591576],[120.355796,23.592093],[120.355099,23.592763],[120.354997,23.593596],[120.350315,23.592787],[120.342189,23.59185],[120.338377,23.592176],[120.336217,23.592635],[120.335245,23.592999],[120.334438,23.592673],[120.333659,23.591786],[120.33354,23.589225],[120.333429,23.58235],[120.333121,23.579202],[120.332263,23.578026],[120.328754,23.575407],[120.329568,23.573481],[120.330009,23.573713],[120.330485,23.574304],[120.330744,23.574964],[120.331415,23.575665],[120.334363,23.577375],[120.335669,23.577715],[120.338307,23.577593],[120.343843,23.576673],[120.345165,23.576665],[120.347069,23.577174],[120.348206,23.577878],[120.348358,23.578204],[120.348398,23.578525],[120.348151,23.579282],[120.348395,23.580028],[120.348249,23.580565],[120.34936,23.582251],[120.350339,23.582741],[120.351325,23.58351],[120.352944,23.584449],[120.353807,23.585491],[120.355469,23.586661],[120.356544,23.587015],[120.35796,23.58698],[120.359109,23.587247]]]},"properties":{"code":"10010070010","name":"南崙村","countyCode":"10010","countyName":"嘉義縣","townCode":"10010070","townName":"新港鄉","level":"village","unassigned":false,"note":"","label":[120.34190536573408,23.5844346108851],"bounds":[120.328754,23.573481,120.359109,23.593596],"focusBounds":[120.328754,23.573481,120.359109,23.593596],"color":"#98b69b"}},{"type":"Feature","id":"10010070011","geometry":{"type":"Polygon","coordinates":[[[120.360754,23.595264],[120.360281,23.596133],[120.359536,23.595392],[120.358624,23.594813],[120.356695,23.594036],[120.354997,23.593596],[120.355099,23.592763],[120.355796,23.592093],[120.356664,23.591576],[120.356649,23.590099],[120.357485,23.589346],[120.359109,23.587247],[120.360211,23.587507],[120.361931,23.588491],[120.363029,23.589331],[120.360754,23.595264]]]},"properties":{"code":"10010070011","name":"北崙村","countyCode":"10010","countyName":"嘉義縣","townCode":"10010070","townName":"新港鄉","level":"village","unassigned":false,"note":"","label":[120.35937360846789,23.591299142341427],"bounds":[120.354997,23.587247,120.363029,23.596133],"focusBounds":[120.354997,23.587247,120.363029,23.596133],"color":"#efb44f"}},{"type":"Feature","id":"10010070012","geometry":{"type":"Polygon","coordinates":[[[120.36845,23.583318],[120.367576,23.583907],[120.367269,23.583928],[120.366222,23.582982],[120.365807,23.582872],[120.364435,23.583849],[120.362553,23.58385],[120.362041,23.583234],[120.361251,23.581167],[120.362134,23.577514],[120.362038,23.576841],[120.361772,23.576377],[120.361088,23.575595],[120.360635,23.575311],[120.359498,23.574968],[120.358282,23.574927],[120.357275,23.574331],[120.355517,23.571622],[120.356076,23.563786],[120.358628,23.563625],[120.358816,23.563479],[120.364347,23.563863],[120.364686,23.56405],[120.369998,23.564448],[120.369632,23.56888],[120.374563,23.569194],[120.375232,23.56677],[120.375385,23.567441],[120.37573,23.56786],[120.377297,23.568304],[120.377553,23.568565],[120.377193,23.571171],[120.376979,23.571468],[120.376497,23.571716],[120.375269,23.572395],[120.374623,23.57308],[120.374276,23.573767],[120.374293,23.574019],[120.375355,23.575322],[120.375372,23.575861],[120.374752,23.576442],[120.373411,23.576677],[120.372961,23.576948],[120.372911,23.577147],[120.373091,23.578159],[120.374021,23.57889],[120.374681,23.578763],[120.375747,23.578059],[120.376122,23.578061],[120.377205,23.579595],[120.377064,23.580226],[120.376422,23.580523],[120.372276,23.580447],[120.371977,23.580541],[120.371146,23.581342],[120.369573,23.581359],[120.369383,23.581566],[120.369198,23.582277],[120.368599,23.582852],[120.36845,23.583318]]]},"properties":{"code":"10010070012","name":"海瀛村","countyCode":"10010","countyName":"嘉義縣","townCode":"10010070","townName":"新港鄉","level":"village","unassigned":false,"note":"","label":[120.3670267019708,23.573967276328744],"bounds":[120.355517,23.563479,120.377553,23.583928],"focusBounds":[120.355517,23.563479,120.377553,23.583928],"color":"#efb44f"}},{"type":"Feature","id":"10010070013","geometry":{"type":"Polygon","coordinates":[[[120.367357,23.510573],[120.368732,23.511478],[120.36907,23.512636],[120.371853,23.518305],[120.37259,23.520644],[120.359163,23.524016],[120.351944,23.522384],[120.351369,23.522079],[120.3507,23.521941],[120.350706,23.521219],[120.350359,23.520964],[120.349783,23.520715],[120.347249,23.520396],[120.347248,23.520241],[120.346211,23.520328],[120.34596,23.520193],[120.33878,23.520527],[120.338584,23.516587],[120.344905,23.516223],[120.344749,23.515107],[120.351745,23.514229],[120.352495,23.511324],[120.352807,23.511107],[120.353717,23.511181],[120.356214,23.512868],[120.356699,23.513078],[120.35702,23.513028],[120.357492,23.513218],[120.35936,23.513378],[120.359812,23.513176],[120.360493,23.512478],[120.360721,23.51244],[120.362561,23.51367],[120.363237,23.513969],[120.364023,23.514031],[120.364847,23.513554],[120.365237,23.51288],[120.366835,23.511311],[120.367357,23.510573]]]},"properties":{"code":"10010070013","name":"月眉村","countyCode":"10010","countyName":"嘉義縣","townCode":"10010070","townName":"新港鄉","level":"village","unassigned":false,"note":"","label":[120.3570643385995,23.518293716357007],"bounds":[120.338584,23.510573,120.37259,23.524016],"focusBounds":[120.338584,23.510573,120.37259,23.524016],"color":"#78a7e3"}},{"type":"Feature","id":"10010070014","geometry":{"type":"Polygon","coordinates":[[[120.33878,23.520527],[120.34596,23.520193],[120.346211,23.520328],[120.347248,23.520241],[120.347249,23.520396],[120.349783,23.520715],[120.350359,23.520964],[120.350706,23.521219],[120.3507,23.521941],[120.351369,23.522079],[120.351944,23.522384],[120.359163,23.524016],[120.359155,23.530321],[120.352468,23.530298],[120.352047,23.531941],[120.348295,23.531766],[120.342626,23.533399],[120.341191,23.528524],[120.340566,23.528187],[120.340173,23.527767],[120.33999,23.526398],[120.338693,23.523024],[120.338533,23.522764],[120.337929,23.522379],[120.338832,23.521629],[120.33878,23.520527]]]},"properties":{"code":"10010070014","name":"月潭村","countyCode":"10010","countyName":"嘉義縣","townCode":"10010070","townName":"新港鄉","level":"village","unassigned":false,"note":"","label":[120.34711699830673,23.52624627378254],"bounds":[120.337929,23.520193,120.359163,23.533399],"focusBounds":[120.337929,23.520193,120.359163,23.533399],"color":"#dd8590"}},{"type":"Feature","id":"10010070015","geometry":{"type":"Polygon","coordinates":[[[120.341191,23.528524],[120.334798,23.530551],[120.332162,23.522605],[120.332039,23.519911],[120.325521,23.520199],[120.325195,23.514048],[120.325376,23.513365],[120.32555,23.50877],[120.325398,23.506778],[120.325091,23.505682],[120.325941,23.505819],[120.328515,23.506156],[120.331676,23.507844],[120.332875,23.508181],[120.334129,23.508324],[120.334902,23.508189],[120.335678,23.507576],[120.339349,23.506429],[120.340813,23.506261],[120.341851,23.505857],[120.342533,23.505749],[120.34346,23.50586],[120.345114,23.50576],[120.346192,23.505962],[120.347044,23.506389],[120.347477,23.505527],[120.348127,23.50519],[120.349581,23.504989],[120.350967,23.505041],[120.351503,23.505197],[120.352107,23.507812],[120.352873,23.509807],[120.353253,23.510126],[120.35397,23.510243],[120.354428,23.51053],[120.356064,23.510615],[120.356323,23.512475],[120.35702,23.513028],[120.356699,23.513078],[120.356214,23.512868],[120.353717,23.511181],[120.352807,23.511107],[120.352495,23.511324],[120.351745,23.514229],[120.344749,23.515107],[120.344905,23.516223],[120.338584,23.516587],[120.33878,23.520527],[120.338832,23.521629],[120.337929,23.522379],[120.338533,23.522764],[120.338693,23.523024],[120.33999,23.526398],[120.340173,23.527767],[120.340566,23.528187],[120.341191,23.528524]]]},"properties":{"code":"10010070015","name":"溪北村","countyCode":"10010","countyName":"嘉義縣","townCode":"10010070","townName":"新港鄉","level":"village","unassigned":false,"note":"","label":[120.332340669779,23.51413598199962],"bounds":[120.325091,23.504989,120.35702,23.530551],"focusBounds":[120.325091,23.504989,120.35702,23.530551],"color":"#a49ad4"}},{"type":"Feature","id":"10010070016","geometry":{"type":"Polygon","coordinates":[[[120.400021,23.527326],[120.399959,23.52967],[120.394332,23.529633],[120.394316,23.53169],[120.385089,23.531604],[120.384235,23.5316],[120.384428,23.522628],[120.383562,23.522779],[120.382796,23.519705],[120.386802,23.51875],[120.386184,23.51664],[120.387424,23.516497],[120.388802,23.516067],[120.389706,23.515854],[120.390338,23.515237],[120.391686,23.514726],[120.392288,23.514667],[120.393528,23.514824],[120.394788,23.514292],[120.3964,23.513993],[120.397697,23.513978],[120.398572,23.514291],[120.399194,23.515142],[120.399564,23.516952],[120.400115,23.517168],[120.400749,23.517661],[120.401588,23.51895],[120.400694,23.518732],[120.400295,23.51896],[120.40011,23.519292],[120.400655,23.520082],[120.400308,23.520222],[120.400206,23.520483],[120.400021,23.527326]]]},"properties":{"code":"10010070016","name":"三間村","countyCode":"10010","countyName":"嘉義縣","townCode":"10010070","townName":"新港鄉","level":"village","unassigned":false,"note":"","label":[120.39225664535351,23.523170146068843],"bounds":[120.382796,23.513978,120.401588,23.53169],"focusBounds":[120.382796,23.513978,120.401588,23.53169],"color":"#a8bf62"}},{"type":"Feature","id":"10010070017","geometry":{"type":"Polygon","coordinates":[[[120.38417,23.534548],[120.375525,23.534373],[120.375072,23.533833],[120.374368,23.533609],[120.368001,23.533628],[120.36805,23.531368],[120.359151,23.531317],[120.359155,23.530321],[120.359163,23.524016],[120.37259,23.520644],[120.371853,23.518305],[120.36907,23.512636],[120.368732,23.511478],[120.367357,23.510573],[120.367745,23.510063],[120.368041,23.50924],[120.368376,23.506211],[120.368203,23.504418],[120.368573,23.503355],[120.369101,23.502787],[120.370027,23.502319],[120.370385,23.502288],[120.371341,23.502885],[120.371193,23.502002],[120.372388,23.502161],[120.37284,23.502542],[120.373125,23.503222],[120.374372,23.5033],[120.375713,23.503669],[120.376423,23.504374],[120.377452,23.504885],[120.377985,23.505482],[120.378651,23.507552],[120.378705,23.510454],[120.379017,23.511472],[120.379529,23.512124],[120.379813,23.51358],[120.380099,23.513926],[120.38012,23.514608],[120.380334,23.514776],[120.381797,23.515158],[120.384615,23.515438],[120.38523,23.516277],[120.386184,23.51664],[120.386802,23.51875],[120.382796,23.519705],[120.383562,23.522779],[120.384428,23.522628],[120.384235,23.5316],[120.38417,23.534548]]]},"properties":{"code":"10010070017","name":"中洋村","countyCode":"10010","countyName":"嘉義縣","townCode":"10010070","townName":"新港鄉","level":"village","unassigned":false,"note":"","label":[120.37610211787101,23.526761140242346],"bounds":[120.359151,23.502002,120.386802,23.534548],"focusBounds":[120.359151,23.502002,120.386802,23.534548],"color":"#68bec9"}},{"type":"Feature","id":"10010070018","geometry":{"type":"Polygon","coordinates":[[[120.357834,23.544939],[120.357118,23.54467],[120.35665,23.544298],[120.356057,23.544244],[120.354827,23.545015],[120.354311,23.54585],[120.353306,23.546415],[120.351611,23.546279],[120.351168,23.546813],[120.35007,23.546959],[120.349496,23.547797],[120.349596,23.548079],[120.350148,23.548517],[120.3501,23.549066],[120.349228,23.54978],[120.348283,23.550031],[120.347423,23.551251],[120.346017,23.550299],[120.345955,23.548484],[120.341193,23.53828],[120.342952,23.535139],[120.343015,23.534545],[120.342626,23.533399],[120.348295,23.531766],[120.352047,23.531941],[120.352468,23.530298],[120.359155,23.530321],[120.359151,23.531317],[120.36805,23.531368],[120.368001,23.533628],[120.374368,23.533609],[120.375072,23.533833],[120.375525,23.534373],[120.375188,23.53459],[120.374834,23.535107],[120.374519,23.536017],[120.374408,23.537],[120.373669,23.536886],[120.372983,23.536403],[120.370105,23.535881],[120.368784,23.535973],[120.368111,23.536245],[120.366942,23.537658],[120.364609,23.539717],[120.36429,23.539943],[120.36312,23.540191],[120.361999,23.540667],[120.361849,23.540875],[120.361593,23.542386],[120.360521,23.543068],[120.359971,23.543725],[120.358801,23.543864],[120.357829,23.544479],[120.357834,23.544939]]]},"properties":{"code":"10010070018","name":"菜公村","countyCode":"10010","countyName":"嘉義縣","townCode":"10010070","townName":"新港鄉","level":"village","unassigned":false,"note":"","label":[120.35440406892864,23.538002476015848],"bounds":[120.341193,23.530298,120.375525,23.551251],"focusBounds":[120.341193,23.530298,120.375525,23.551251],"color":"#df9f6a"}},{"type":"Feature","id":"10010070019","geometry":{"type":"Polygon","coordinates":[[[120.310783,23.53159],[120.308937,23.531613],[120.308236,23.51918],[120.308122,23.519088],[120.306632,23.519181],[120.30642,23.519514],[120.305993,23.519248],[120.305588,23.51856],[120.30535,23.513364],[120.305491,23.513042],[120.305797,23.51293],[120.306903,23.513261],[120.30802,23.513246],[120.309504,23.512732],[120.311297,23.511799],[120.313933,23.511526],[120.315492,23.511084],[120.316476,23.510443],[120.318874,23.507579],[120.320235,23.506677],[120.322387,23.50585],[120.323464,23.505676],[120.325091,23.505682],[120.325398,23.506778],[120.32555,23.50877],[120.325376,23.513365],[120.325195,23.514048],[120.325521,23.520199],[120.332039,23.519911],[120.332162,23.522605],[120.330243,23.523296],[120.32933,23.523412],[120.328555,23.523352],[120.328062,23.52289],[120.326715,23.52278],[120.325837,23.523408],[120.325564,23.523457],[120.324154,23.523252],[120.323264,23.522862],[120.322674,23.522225],[120.321655,23.521715],[120.321278,23.521727],[120.320143,23.522521],[120.319874,23.523509],[120.319505,23.524087],[120.317668,23.524968],[120.317102,23.524985],[120.316135,23.525646],[120.315984,23.525986],[120.315961,23.526884],[120.315074,23.529118],[120.314672,23.52939],[120.313678,23.529294],[120.313007,23.529585],[120.312633,23.529951],[120.312107,23.530949],[120.310783,23.53159]]]},"properties":{"code":"10010070019","name":"安和村","countyCode":"10010","countyName":"嘉義縣","townCode":"10010070","townName":"新港鄉","level":"village","unassigned":false,"note":"","label":[120.316017352316,23.517717779613854],"bounds":[120.30535,23.505676,120.332162,23.531613],"focusBounds":[120.30535,23.505676,120.332162,23.531613],"color":"#58b99d"}},{"type":"Feature","id":"10010070020","geometry":{"type":"Polygon","coordinates":[[[120.34456,23.550586],[120.343506,23.549474],[120.342653,23.548838],[120.342284,23.548863],[120.341814,23.549229],[120.339208,23.548677],[120.338378,23.549204],[120.337916,23.549134],[120.337188,23.548571],[120.336791,23.547429],[120.33633,23.547093],[120.335583,23.547451],[120.335658,23.548253],[120.336017,23.549035],[120.335895,23.549597],[120.335976,23.550397],[120.33572,23.55073],[120.334588,23.55044],[120.333075,23.550799],[120.332753,23.549588],[120.324243,23.551371],[120.318888,23.552718],[120.318665,23.5525],[120.317051,23.552161],[120.319133,23.543098],[120.320477,23.535144],[120.316673,23.534454],[120.315851,23.534564],[120.311998,23.533912],[120.311713,23.53337],[120.311692,23.532668],[120.311128,23.532292],[120.310783,23.53159],[120.312107,23.530949],[120.312633,23.529951],[120.313007,23.529585],[120.313678,23.529294],[120.314672,23.52939],[120.315074,23.529118],[120.315961,23.526884],[120.315984,23.525986],[120.316135,23.525646],[120.317102,23.524985],[120.317668,23.524968],[120.319505,23.524087],[120.319874,23.523509],[120.320143,23.522521],[120.321278,23.521727],[120.321655,23.521715],[120.322674,23.522225],[120.323264,23.522862],[120.324154,23.523252],[120.325564,23.523457],[120.325837,23.523408],[120.326715,23.52278],[120.328062,23.52289],[120.328555,23.523352],[120.32933,23.523412],[120.330243,23.523296],[120.332162,23.522605],[120.334798,23.530551],[120.341191,23.528524],[120.342626,23.533399],[120.343015,23.534545],[120.342952,23.535139],[120.341193,23.53828],[120.345955,23.548484],[120.346017,23.550299],[120.347423,23.551251],[120.346683,23.551934],[120.346163,23.552018],[120.345056,23.551706],[120.34456,23.550586]]]},"properties":{"code":"10010070020","name":"潭大村","countyCode":"10010","countyName":"嘉義縣","townCode":"10010070","townName":"新港鄉","level":"village","unassigned":false,"note":"","label":[120.3292660876546,23.538528214262165],"bounds":[120.310783,23.521715,120.347423,23.552718],"focusBounds":[120.310783,23.521715,120.347423,23.552718],"color":"#98b69b"}},{"type":"Feature","id":"10010070021","geometry":{"type":"Polygon","coordinates":[[[120.319755,23.562636],[120.319208,23.562397],[120.315578,23.565074],[120.318562,23.567572],[120.316742,23.568684],[120.31606,23.57062],[120.313473,23.569764],[120.310631,23.570497],[120.309215,23.571258],[120.308853,23.571306],[120.308294,23.571161],[120.307494,23.570545],[120.308135,23.569702],[120.309605,23.568083],[120.310404,23.566788],[120.310566,23.565117],[120.310547,23.564446],[120.309584,23.563933],[120.306551,23.562869],[120.305719,23.562992],[120.305337,23.560222],[120.304742,23.55805],[120.304539,23.556555],[120.307368,23.557152],[120.309173,23.55824],[120.310373,23.558719],[120.310852,23.557098],[120.308659,23.552378],[120.306987,23.548247],[120.310552,23.546896],[120.308934,23.543289],[120.308432,23.542611],[120.307798,23.542135],[120.303447,23.538674],[120.309156,23.537867],[120.309822,23.537547],[120.310336,23.536892],[120.313024,23.536222],[120.315851,23.534564],[120.316673,23.534454],[120.320477,23.535144],[120.319133,23.543098],[120.317051,23.552161],[120.318665,23.5525],[120.318888,23.552718],[120.319189,23.552915],[120.319752,23.55441],[120.320397,23.554578],[120.320474,23.556023],[120.320996,23.556759],[120.321671,23.557351],[120.322559,23.55754],[120.322759,23.55771],[120.322774,23.558529],[120.322358,23.559119],[120.322508,23.559686],[120.323098,23.560088],[120.323023,23.560325],[120.319561,23.560633],[120.319755,23.562636]]]},"properties":{"code":"10010070021","name":"南港村","countyCode":"10010","countyName":"嘉義縣","townCode":"10010070","townName":"新港鄉","level":"village","unassigned":false,"note":"","label":[120.31292192958809,23.550852718688986],"bounds":[120.303447,23.534454,120.323098,23.571306],"focusBounds":[120.303447,23.534454,120.323098,23.571306],"color":"#58b99d"}},{"type":"Feature","id":"10010070022","geometry":{"type":"Polygon","coordinates":[[[120.330485,23.574304],[120.330009,23.573713],[120.329568,23.573481],[120.328754,23.575407],[120.327002,23.574169],[120.324817,23.573209],[120.320407,23.572389],[120.319137,23.572419],[120.318155,23.57265],[120.317057,23.573297],[120.311885,23.57496],[120.310789,23.575071],[120.309349,23.574837],[120.307441,23.574654],[120.306978,23.574309],[120.306446,23.573575],[120.306352,23.573236],[120.306475,23.572063],[120.307043,23.571131],[120.307494,23.570545],[120.308294,23.571161],[120.308853,23.571306],[120.309215,23.571258],[120.310631,23.570497],[120.313473,23.569764],[120.31606,23.57062],[120.316742,23.568684],[120.318562,23.567572],[120.315578,23.565074],[120.319208,23.562397],[120.319755,23.562636],[120.322553,23.563881],[120.323924,23.564194],[120.325214,23.565712],[120.327247,23.567073],[120.328654,23.568641],[120.329287,23.569116],[120.330046,23.569329],[120.331868,23.569421],[120.332155,23.572726],[120.331718,23.573503],[120.330485,23.574304]]]},"properties":{"code":"10010070022","name":"板頭村","countyCode":"10010","countyName":"嘉義縣","townCode":"10010070","townName":"新港鄉","level":"village","unassigned":false,"note":"","label":[120.3223595986317,23.56885971532958],"bounds":[120.306352,23.562397,120.332155,23.575407],"focusBounds":[120.306352,23.562397,120.332155,23.575407],"color":"#dd8590"}},{"type":"Feature","id":"10010070023","geometry":{"type":"Polygon","coordinates":[[[120.338307,23.577593],[120.335669,23.577715],[120.334363,23.577375],[120.331415,23.575665],[120.330744,23.574964],[120.330485,23.574304],[120.331718,23.573503],[120.332155,23.572726],[120.331868,23.569421],[120.330046,23.569329],[120.329287,23.569116],[120.328654,23.568641],[120.327247,23.567073],[120.325214,23.565712],[120.323924,23.564194],[120.322553,23.563881],[120.319755,23.562636],[120.319561,23.560633],[120.323023,23.560325],[120.323098,23.560088],[120.322508,23.559686],[120.322358,23.559119],[120.322774,23.558529],[120.322759,23.55771],[120.322559,23.55754],[120.321671,23.557351],[120.320996,23.556759],[120.320474,23.556023],[120.320397,23.554578],[120.319752,23.55441],[120.319189,23.552915],[120.318888,23.552718],[120.324243,23.551371],[120.332753,23.549588],[120.333075,23.550799],[120.334588,23.55044],[120.33572,23.55073],[120.335976,23.550397],[120.335895,23.549597],[120.336017,23.549035],[120.335658,23.548253],[120.335583,23.547451],[120.33633,23.547093],[120.336791,23.547429],[120.337188,23.548571],[120.337916,23.549134],[120.338378,23.549204],[120.339208,23.548677],[120.341814,23.549229],[120.342284,23.548863],[120.342653,23.548838],[120.343506,23.549474],[120.34456,23.550586],[120.343799,23.551127],[120.34374,23.551987],[120.340181,23.55204],[120.339198,23.552717],[120.337881,23.552775],[120.338089,23.55855],[120.338655,23.558754],[120.33997,23.558504],[120.340013,23.559793],[120.340045,23.56062],[120.339793,23.56078],[120.336116,23.560793],[120.33573,23.563046],[120.33485,23.568097],[120.337012,23.568341],[120.337963,23.568762],[120.338472,23.569227],[120.340314,23.572025],[120.340735,23.572944],[120.340634,23.573857],[120.338307,23.577593]]]},"properties":{"code":"10010070023","name":"共和村","countyCode":"10010","countyName":"嘉義縣","townCode":"10010070","townName":"新港鄉","level":"village","unassigned":false,"note":"","label":[120.3295880285708,23.560309127269242],"bounds":[120.318888,23.547093,120.34456,23.577715],"focusBounds":[120.318888,23.547093,120.34456,23.577715],"color":"#78a7e3"}}]}
