{"type":"FeatureCollection","features":[{"type":"Feature","id":"10010100001","geometry":{"type":"Polygon","coordinates":[[[120.266282,23.361498],[120.262287,23.362416],[120.262624,23.364049],[120.256581,23.365408],[120.255909,23.362985],[120.252901,23.360561],[120.251898,23.360559],[120.25421,23.353011],[120.253294,23.352824],[120.251651,23.348505],[120.248964,23.342557],[120.245912,23.339847],[120.245899,23.339698],[120.24618,23.339709],[120.249199,23.339639],[120.249895,23.339374],[120.250711,23.338705],[120.253076,23.337544],[120.25405,23.339235],[120.255116,23.342538],[120.256374,23.345423],[120.260711,23.344471],[120.26136,23.345891],[120.262456,23.347014],[120.265019,23.351486],[120.266082,23.35261],[120.266101,23.359018],[120.266282,23.361498]]]},"properties":{"code":"10010100001","name":"岸腳村","countyCode":"10010","countyName":"嘉義縣","townCode":"10010100","townName":"義竹鄉","level":"village","unassigned":false,"note":"","label":[120.25956221995207,23.356583451141823],"bounds":[120.245899,23.337544,120.266282,23.365408],"focusBounds":[120.245899,23.337544,120.266282,23.365408],"color":"#efb44f"}},{"type":"Feature","id":"10010100002","geometry":{"type":"Polygon","coordinates":[[[120.260711,23.344471],[120.256374,23.345423],[120.255116,23.342538],[120.25405,23.339235],[120.253076,23.337544],[120.250711,23.338705],[120.249895,23.339374],[120.249199,23.339639],[120.24618,23.339709],[120.246735,23.339142],[120.245361,23.337081],[120.246821,23.336304],[120.24682,23.335239],[120.245921,23.334397],[120.245927,23.333018],[120.246816,23.327189],[120.249225,23.328928],[120.252026,23.329742],[120.255388,23.3307],[120.256395,23.331072],[120.257435,23.331688],[120.258296,23.332791],[120.26283,23.336769],[120.26306,23.337204],[120.266636,23.340556],[120.267051,23.340632],[120.26734,23.342923],[120.267166,23.342995],[120.267526,23.34473],[120.265723,23.344589],[120.263663,23.345093],[120.260711,23.344471]]]},"properties":{"code":"10010100002","name":"義竹村","countyCode":"10010","countyName":"嘉義縣","townCode":"10010100","townName":"義竹鄉","level":"village","unassigned":false,"note":"","label":[120.2587179338815,23.3390349239679],"bounds":[120.245361,23.327189,120.267526,23.345423],"focusBounds":[120.245361,23.327189,120.267526,23.345423],"color":"#a49ad4"}},{"type":"Feature","id":"10010100003","geometry":{"type":"Polygon","coordinates":[[[120.246816,23.327189],[120.245927,23.333018],[120.245921,23.334397],[120.24682,23.335239],[120.246821,23.336304],[120.245361,23.337081],[120.246735,23.339142],[120.24618,23.339709],[120.245899,23.339698],[120.244182,23.339692],[120.243595,23.33742],[120.243788,23.337425],[120.244164,23.336169],[120.24277,23.335832],[120.242969,23.334898],[120.24211,23.334939],[120.242022,23.333851],[120.241689,23.33384],[120.241596,23.333997],[120.239877,23.333839],[120.240003,23.333044],[120.238237,23.332937],[120.238406,23.327241],[120.239697,23.327556],[120.241093,23.327074],[120.245073,23.326798],[120.245867,23.326852],[120.246816,23.327189]]]},"properties":{"code":"10010100003","name":"六桂村","countyCode":"10010","countyName":"嘉義縣","townCode":"10010100","townName":"義竹鄉","level":"village","unassigned":false,"note":"","label":[120.24268215021853,23.33044718919045],"bounds":[120.238237,23.326798,120.246821,23.339709],"focusBounds":[120.238237,23.326798,120.246821,23.339709],"color":"#dd8590"}},{"type":"Feature","id":"10010100004","geometry":{"type":"Polygon","coordinates":[[[120.244182,23.339692],[120.243002,23.339757],[120.241993,23.341755],[120.239008,23.342171],[120.238095,23.343423],[120.237326,23.343708],[120.237078,23.342888],[120.237815,23.341329],[120.23775,23.338983],[120.23856,23.338405],[120.238244,23.33513],[120.238237,23.332937],[120.240003,23.333044],[120.239877,23.333839],[120.241596,23.333997],[120.241689,23.33384],[120.242022,23.333851],[120.24211,23.334939],[120.242969,23.334898],[120.24277,23.335832],[120.244164,23.336169],[120.243788,23.337425],[120.243595,23.33742],[120.244182,23.339692]]]},"properties":{"code":"10010100004","name":"仁里村","countyCode":"10010","countyName":"嘉義縣","townCode":"10010100","townName":"義竹鄉","level":"village","unassigned":false,"note":"","label":[120.24107889269794,23.337915918007617],"bounds":[120.237078,23.332937,120.244182,23.343708],"focusBounds":[120.237078,23.332937,120.244182,23.343708],"color":"#a49ad4"}},{"type":"Feature","id":"10010100005","geometry":{"type":"Polygon","coordinates":[[[120.253294,23.352824],[120.252487,23.353901],[120.23864,23.357035],[120.236579,23.349268],[120.236284,23.349389],[120.236119,23.349141],[120.238091,23.348148],[120.238062,23.346313],[120.237795,23.344819],[120.237326,23.343708],[120.238095,23.343423],[120.239008,23.342171],[120.241993,23.341755],[120.243002,23.339757],[120.244182,23.339692],[120.245899,23.339698],[120.245912,23.339847],[120.248964,23.342557],[120.251651,23.348505],[120.253294,23.352824]]]},"properties":{"code":"10010100005","name":"傳芳村","countyCode":"10010","countyName":"嘉義縣","townCode":"10010100","townName":"義竹鄉","level":"village","unassigned":false,"note":"","label":[120.2444921360255,23.34869625605694],"bounds":[120.236119,23.339692,120.253294,23.357035],"focusBounds":[120.236119,23.339692,120.253294,23.357035],"color":"#a8bf62"}},{"type":"Feature","id":"10010100006","geometry":{"type":"Polygon","coordinates":[[[120.237326,23.343708],[120.237795,23.344819],[120.238062,23.346313],[120.238091,23.348148],[120.236119,23.349141],[120.234023,23.34711],[120.230855,23.344496],[120.226869,23.342032],[120.226048,23.341362],[120.216396,23.337135],[120.214555,23.33714],[120.214446,23.330597],[120.214375,23.329614],[120.214664,23.32834],[120.214909,23.328152],[120.21811,23.328073],[120.218677,23.327722],[120.218729,23.327006],[120.218055,23.326111],[120.218539,23.32508],[120.218427,23.324093],[120.22884,23.322241],[120.230422,23.323739],[120.231901,23.324541],[120.232652,23.32468],[120.236225,23.324616],[120.237118,23.326091],[120.237592,23.326647],[120.238406,23.327241],[120.238237,23.332937],[120.238244,23.33513],[120.23856,23.338405],[120.23775,23.338983],[120.237815,23.341329],[120.237078,23.342888],[120.237326,23.343708]]]},"properties":{"code":"10010100006","name":"頭竹村","countyCode":"10010","countyName":"嘉義縣","townCode":"10010100","townName":"義竹鄉","level":"village","unassigned":false,"note":"","label":[120.22820649772997,23.33260641319436],"bounds":[120.214375,23.322241,120.23856,23.349141],"focusBounds":[120.214375,23.322241,120.23856,23.349141],"color":"#68bec9"}},{"type":"Feature","id":"10010100007","geometry":{"type":"Polygon","coordinates":[[[120.27689,23.34798],[120.278142,23.352442],[120.277621,23.359211],[120.275923,23.360618],[120.277388,23.363549],[120.277156,23.366136],[120.275755,23.366798],[120.272853,23.361657],[120.27382,23.361159],[120.266101,23.359018],[120.266082,23.35261],[120.266815,23.353109],[120.267853,23.353537],[120.270494,23.353689],[120.273316,23.35273],[120.274137,23.352282],[120.274783,23.351712],[120.275205,23.350633],[120.27576,23.350028],[120.275773,23.348906],[120.276295,23.348209],[120.27689,23.34798]]]},"properties":{"code":"10010100007","name":"五厝村","countyCode":"10010","countyName":"嘉義縣","townCode":"10010100","townName":"義竹鄉","level":"village","unassigned":false,"note":"","label":[120.27353731697025,23.356845175110646],"bounds":[120.266082,23.34798,120.278142,23.366798],"focusBounds":[120.266082,23.34798,120.278142,23.366798],"color":"#df9f6a"}},{"type":"Feature","id":"10010100008","geometry":{"type":"Polygon","coordinates":[[[120.268582,23.377273],[120.267654,23.377747],[120.267457,23.376697],[120.266523,23.371931],[120.266182,23.368787],[120.266333,23.368428],[120.266357,23.367061],[120.26686,23.365902],[120.267055,23.364508],[120.266282,23.361498],[120.266101,23.359018],[120.27382,23.361159],[120.272853,23.361657],[120.275755,23.366798],[120.277156,23.366136],[120.277388,23.363549],[120.275923,23.360618],[120.277621,23.359211],[120.278142,23.352442],[120.27689,23.34798],[120.278278,23.347676],[120.281414,23.348233],[120.2826,23.348944],[120.283728,23.349223],[120.28622,23.350291],[120.286443,23.351673],[120.286056,23.353961],[120.285574,23.355033],[120.284607,23.356254],[120.283834,23.358662],[120.283699,23.359736],[120.283803,23.362051],[120.284627,23.363498],[120.283111,23.363049],[120.28245,23.363168],[120.281989,23.365759],[120.281642,23.366457],[120.28022,23.366317],[120.280137,23.36693],[120.279372,23.366812],[120.278941,23.3667],[120.279273,23.367612],[120.279945,23.368363],[120.278834,23.369316],[120.278468,23.3694],[120.277627,23.369266],[120.276939,23.3694],[120.275944,23.369059],[120.274372,23.369033],[120.274185,23.370055],[120.273585,23.37172],[120.273485,23.373246],[120.273647,23.373473],[120.273546,23.373639],[120.273001,23.373724],[120.271818,23.37332],[120.27111,23.373479],[120.270542,23.373311],[120.269732,23.373346],[120.269252,23.374581],[120.269247,23.375324],[120.268679,23.375499],[120.268582,23.377273]]]},"properties":{"code":"10010100008","name":"中平村","countyCode":"10010","countyName":"嘉義縣","townCode":"10010100","townName":"義竹鄉","level":"village","unassigned":false,"note":"","label":[120.28008404376556,23.361157636657637],"bounds":[120.266101,23.347676,120.286443,23.377747],"focusBounds":[120.266101,23.347676,120.286443,23.377747],"color":"#c38cb8"}},{"type":"Feature","id":"10010100009","geometry":{"type":"Polygon","coordinates":[[[120.23864,23.357035],[120.238909,23.358174],[120.238571,23.359406],[120.23278,23.360716],[120.232503,23.359604],[120.227609,23.360696],[120.224218,23.359303],[120.224946,23.355768],[120.225463,23.352787],[120.224177,23.349238],[120.223611,23.349288],[120.222851,23.350981],[120.220895,23.351048],[120.218753,23.350816],[120.217992,23.350568],[120.217063,23.349891],[120.216242,23.348781],[120.215085,23.346014],[120.214314,23.34271],[120.214087,23.339817],[120.214555,23.33714],[120.216396,23.337135],[120.226048,23.341362],[120.226869,23.342032],[120.230855,23.344496],[120.234023,23.34711],[120.236119,23.349141],[120.236284,23.349389],[120.236579,23.349268],[120.23864,23.357035]]]},"properties":{"code":"10010100009","name":"埤前村","countyCode":"10010","countyName":"嘉義縣","townCode":"10010100","townName":"義竹鄉","level":"village","unassigned":false,"note":"","label":[120.23149639164326,23.353555596222932],"bounds":[120.214087,23.337135,120.238909,23.360716],"focusBounds":[120.214087,23.337135,120.238909,23.360716],"color":"#58b99d"}},{"type":"Feature","id":"10010100010","geometry":{"type":"Polygon","coordinates":[[[120.215542,23.360474],[120.211438,23.362549],[120.21105,23.361049],[120.210345,23.359293],[120.209319,23.357665],[120.20773,23.352389],[120.207237,23.351215],[120.20588,23.349654],[120.205195,23.34825],[120.204722,23.344394],[120.205351,23.343019],[120.206457,23.341697],[120.206595,23.340666],[120.206842,23.340266],[120.207815,23.340736],[120.208488,23.340793],[120.208791,23.3406],[120.208808,23.337517],[120.210733,23.337082],[120.214555,23.33714],[120.214087,23.339817],[120.214314,23.34271],[120.215085,23.346014],[120.216242,23.348781],[120.217063,23.349891],[120.217992,23.350568],[120.218753,23.350816],[120.220895,23.351048],[120.222851,23.350981],[120.223611,23.349288],[120.224177,23.349238],[120.225463,23.352787],[120.224946,23.355768],[120.215542,23.360474]]]},"properties":{"code":"10010100010","name":"平溪村","countyCode":"10010","countyName":"嘉義縣","townCode":"10010100","townName":"義竹鄉","level":"village","unassigned":false,"note":"","label":[120.2128645395947,23.352299196148795],"bounds":[120.204722,23.337082,120.225463,23.362549],"focusBounds":[120.204722,23.337082,120.225463,23.362549],"color":"#a49ad4"}},{"type":"Feature","id":"10010100011","geometry":{"type":"Polygon","coordinates":[[[120.20268,23.3748],[120.20176,23.373809],[120.201167,23.373918],[120.201159,23.373021],[120.199935,23.371453],[120.201983,23.370609],[120.201883,23.370279],[120.201324,23.36976],[120.200889,23.369577],[120.199959,23.369302],[120.199129,23.369286],[120.198857,23.368731],[120.196605,23.365235],[120.195724,23.36455],[120.19831,23.363241],[120.201633,23.362658],[120.202643,23.361417],[120.203309,23.360876],[120.206606,23.359004],[120.209319,23.357665],[120.210345,23.359293],[120.21105,23.361049],[120.211438,23.362549],[120.215542,23.360474],[120.216321,23.361628],[120.212576,23.367702],[120.20268,23.3748]]]},"properties":{"code":"10010100011","name":"後鎮村","countyCode":"10010","countyName":"嘉義縣","townCode":"10010100","townName":"義竹鄉","level":"village","unassigned":false,"note":"","label":[120.20597041346335,23.36590256120293],"bounds":[120.195724,23.357665,120.216321,23.3748],"focusBounds":[120.195724,23.357665,120.216321,23.3748],"color":"#dd8590"}},{"type":"Feature","id":"10010100012","geometry":{"type":"Polygon","coordinates":[[[120.209319,23.357665],[120.206606,23.359004],[120.203309,23.360876],[120.202643,23.361417],[120.201633,23.362658],[120.19831,23.363241],[120.195724,23.36455],[120.190563,23.362724],[120.189802,23.362272],[120.186198,23.35525],[120.182386,23.348247],[120.17609,23.341804],[120.175962,23.341404],[120.176345,23.3409],[120.177616,23.340216],[120.179005,23.33866],[120.179667,23.337321],[120.179727,23.336077],[120.180193,23.33501],[120.181393,23.33585],[120.182859,23.336585],[120.188827,23.340839],[120.189848,23.341251],[120.19313,23.341715],[120.19397,23.341548],[120.197688,23.338912],[120.198043,23.338221],[120.198301,23.338037],[120.199281,23.338173],[120.199493,23.338425],[120.199427,23.339921],[120.199567,23.340238],[120.20022,23.340543],[120.201173,23.340415],[120.202515,23.339675],[120.204238,23.337814],[120.205245,23.33735],[120.205899,23.33738],[120.206268,23.339292],[120.206842,23.340266],[120.206595,23.340666],[120.206457,23.341697],[120.205351,23.343019],[120.204722,23.344394],[120.205195,23.34825],[120.20588,23.349654],[120.207237,23.351215],[120.20773,23.352389],[120.209319,23.357665]]]},"properties":{"code":"10010100012","name":"北華村","countyCode":"10010","countyName":"嘉義縣","townCode":"10010100","townName":"義竹鄉","level":"village","unassigned":false,"note":"","label":[120.195860685445,23.35158594342397],"bounds":[120.175962,23.33501,120.209319,23.36455],"focusBounds":[120.175962,23.33501,120.209319,23.36455],"color":"#78a7e3"}},{"type":"Feature","id":"10010100013","geometry":{"type":"Polygon","coordinates":[[[120.206842,23.340266],[120.206268,23.339292],[120.205899,23.33738],[120.205245,23.33735],[120.204238,23.337814],[120.202515,23.339675],[120.201173,23.340415],[120.20022,23.340543],[120.199567,23.340238],[120.199427,23.339921],[120.199493,23.338425],[120.199281,23.338173],[120.198301,23.338037],[120.198043,23.338221],[120.197688,23.338912],[120.19397,23.341548],[120.19313,23.341715],[120.189848,23.341251],[120.188827,23.340839],[120.182859,23.336585],[120.181393,23.33585],[120.180193,23.33501],[120.180224,23.334313],[120.179513,23.333169],[120.179254,23.331601],[120.178548,23.330158],[120.178475,23.329723],[120.180574,23.326122],[120.180724,23.325614],[120.180717,23.324698],[120.180481,23.322682],[120.181243,23.322456],[120.181587,23.322141],[120.188003,23.317279],[120.198093,23.317983],[120.214446,23.330597],[120.214555,23.33714],[120.210733,23.337082],[120.208808,23.337517],[120.208791,23.3406],[120.208488,23.340793],[120.207815,23.340736],[120.206842,23.340266]]]},"properties":{"code":"10010100013","name":"新店村","countyCode":"10010","countyName":"嘉義縣","townCode":"10010100","townName":"義竹鄉","level":"village","unassigned":false,"note":"","label":[120.19226010158908,23.328552944949358],"bounds":[120.178475,23.317279,120.214555,23.341715],"focusBounds":[120.178475,23.317279,120.214555,23.341715],"color":"#dd8590"}},{"type":"Feature","id":"10010100014","geometry":{"type":"Polygon","coordinates":[[[120.2281,23.309633],[120.224821,23.309158],[120.216745,23.306834],[120.218924,23.309883],[120.220329,23.311192],[120.220802,23.312132],[120.214383,23.314323],[120.212982,23.314621],[120.211789,23.315222],[120.211422,23.313101],[120.210869,23.312297],[120.210684,23.311255],[120.210146,23.310617],[120.209736,23.309727],[120.209489,23.309664],[120.209066,23.308956],[120.20899,23.308305],[120.20982,23.305904],[120.209939,23.30276],[120.210618,23.301832],[120.210964,23.298221],[120.209629,23.297498],[120.210593,23.295709],[120.211911,23.292704],[120.212355,23.291694],[120.21308,23.292069],[120.214403,23.292441],[120.217344,23.294427],[120.220765,23.295945],[120.221146,23.296297],[120.224998,23.301848],[120.227056,23.305314],[120.227672,23.306755],[120.2281,23.309633]]]},"properties":{"code":"10010100014","name":"東過村","countyCode":"10010","countyName":"嘉義縣","townCode":"10010100","townName":"義竹鄉","level":"village","unassigned":false,"note":"","label":[120.21679732844797,23.30088817253266],"bounds":[120.20899,23.291694,120.2281,23.315222],"focusBounds":[120.20899,23.291694,120.2281,23.315222],"color":"#a49ad4"}},{"type":"Feature","id":"10010100015","geometry":{"type":"Polygon","coordinates":[[[120.211789,23.315222],[120.198093,23.317983],[120.188003,23.317279],[120.189033,23.316554],[120.189469,23.316018],[120.191049,23.313191],[120.191014,23.31286],[120.191178,23.312861],[120.191885,23.311195],[120.191739,23.310877],[120.191935,23.309818],[120.192947,23.30631],[120.192814,23.30391],[120.19256,23.302579],[120.192125,23.301891],[120.190843,23.300736],[120.19169,23.30027],[120.200094,23.293991],[120.201509,23.29319],[120.202123,23.29299],[120.202416,23.293126],[120.202877,23.292937],[120.204275,23.2919],[120.206513,23.291388],[120.208605,23.291295],[120.211911,23.292704],[120.210593,23.295709],[120.209629,23.297498],[120.210964,23.298221],[120.210618,23.301832],[120.209939,23.30276],[120.20982,23.305904],[120.20899,23.308305],[120.209066,23.308956],[120.209489,23.309664],[120.209736,23.309727],[120.210146,23.310617],[120.210684,23.311255],[120.210869,23.312297],[120.211422,23.313101],[120.211789,23.315222]]]},"properties":{"code":"10010100015","name":"西過村","countyCode":"10010","countyName":"嘉義縣","townCode":"10010100","townName":"義竹鄉","level":"village","unassigned":false,"note":"","label":[120.20127627139156,23.305331590563213],"bounds":[120.188003,23.291295,120.211911,23.317983],"focusBounds":[120.188003,23.291295,120.211911,23.317983],"color":"#a8bf62"}},{"type":"Feature","id":"10010100016","geometry":{"type":"Polygon","coordinates":[[[120.188003,23.317279],[120.181587,23.322141],[120.181287,23.315144],[120.180769,23.312751],[120.1817,23.310855],[120.182949,23.309821],[120.183222,23.31002],[120.185145,23.310305],[120.185935,23.310385],[120.186372,23.310207],[120.186271,23.308628],[120.187109,23.308367],[120.186889,23.308139],[120.186609,23.306712],[120.186141,23.306626],[120.185242,23.306821],[120.185308,23.306518],[120.186072,23.306295],[120.186221,23.305939],[120.185736,23.304063],[120.183441,23.304882],[120.182681,23.304198],[120.180887,23.303193],[120.179439,23.302792],[120.176102,23.301328],[120.173301,23.300412],[120.173923,23.299902],[120.173727,23.299151],[120.175359,23.295109],[120.176005,23.293908],[120.17868,23.291727],[120.180555,23.29092],[120.181672,23.290859],[120.184067,23.290318],[120.18755,23.290031],[120.188867,23.290163],[120.189272,23.290473],[120.1896,23.291339],[120.189355,23.292349],[120.188125,23.293842],[120.186151,23.295379],[120.185865,23.29606],[120.185804,23.296973],[120.186324,23.298267],[120.188121,23.300374],[120.18841,23.301233],[120.190843,23.300736],[120.192125,23.301891],[120.19256,23.302579],[120.192814,23.30391],[120.192947,23.30631],[120.191935,23.309818],[120.191739,23.310877],[120.191885,23.311195],[120.191178,23.312861],[120.191014,23.31286],[120.191049,23.313191],[120.189469,23.316018],[120.189033,23.316554],[120.188003,23.317279]]]},"properties":{"code":"10010100016","name":"官和村","countyCode":"10010","countyName":"嘉義縣","townCode":"10010100","townName":"義竹鄉","level":"village","unassigned":false,"note":"","label":[120.1803926315975,23.29746940401835],"bounds":[120.173301,23.290031,120.192947,23.322141],"focusBounds":[120.173301,23.290031,120.192947,23.322141],"color":"#68bec9"}},{"type":"Feature","id":"10010100017","geometry":{"type":"Polygon","coordinates":[[[120.181587,23.322141],[120.181243,23.322456],[120.180481,23.322682],[120.179971,23.321704],[120.179305,23.32093],[120.17715,23.31905],[120.172874,23.31722],[120.172438,23.316905],[120.171843,23.316086],[120.171523,23.315286],[120.171441,23.3131],[120.171232,23.312164],[120.170799,23.311559],[120.169936,23.310828],[120.168572,23.310204],[120.167093,23.309909],[120.165702,23.310239],[120.163399,23.311072],[120.16264,23.309984],[120.164199,23.309448],[120.166204,23.308457],[120.167816,23.3074],[120.169447,23.306075],[120.171281,23.304124],[120.172862,23.301425],[120.173301,23.300412],[120.176102,23.301328],[120.179439,23.302792],[120.180887,23.303193],[120.182681,23.304198],[120.183441,23.304882],[120.185736,23.304063],[120.186221,23.305939],[120.186072,23.306295],[120.185308,23.306518],[120.185242,23.306821],[120.186141,23.306626],[120.186609,23.306712],[120.186889,23.308139],[120.187109,23.308367],[120.186271,23.308628],[120.186372,23.310207],[120.185935,23.310385],[120.185145,23.310305],[120.183222,23.31002],[120.182949,23.309821],[120.1817,23.310855],[120.180769,23.312751],[120.181287,23.315144],[120.181587,23.322141]]]},"properties":{"code":"10010100017","name":"官順村","countyCode":"10010","countyName":"嘉義縣","townCode":"10010100","townName":"義竹鄉","level":"village","unassigned":false,"note":"","label":[120.17646152059925,23.308452376587212],"bounds":[120.16264,23.300412,120.187109,23.322682],"focusBounds":[120.16264,23.300412,120.187109,23.322682],"color":"#df9f6a"}},{"type":"Feature","id":"10010100018","geometry":{"type":"Polygon","coordinates":[[[120.236225,23.324616],[120.232652,23.32468],[120.231901,23.324541],[120.230422,23.323739],[120.22884,23.322241],[120.218427,23.324093],[120.218539,23.32508],[120.218055,23.326111],[120.218729,23.327006],[120.218677,23.327722],[120.21811,23.328073],[120.214909,23.328152],[120.214664,23.32834],[120.214375,23.329614],[120.214446,23.330597],[120.198093,23.317983],[120.211789,23.315222],[120.212982,23.314621],[120.214383,23.314323],[120.220802,23.312132],[120.220329,23.311192],[120.218924,23.309883],[120.216745,23.306834],[120.224821,23.309158],[120.2281,23.309633],[120.228187,23.309879],[120.231312,23.316329],[120.232242,23.317393],[120.233111,23.318791],[120.233805,23.319191],[120.234284,23.319808],[120.23555,23.323268],[120.236225,23.324616]]]},"properties":{"code":"10010100018","name":"新富村","countyCode":"10010","countyName":"嘉義縣","townCode":"10010100","townName":"義竹鄉","level":"village","unassigned":false,"note":"","label":[120.21844226298401,23.31851367109703],"bounds":[120.198093,23.306834,120.236225,23.330597],"focusBounds":[120.198093,23.306834,120.236225,23.330597],"color":"#58b99d"}},{"type":"Feature","id":"10010100019","geometry":{"type":"Polygon","coordinates":[[[120.267457,23.376697],[120.247081,23.387211],[120.246553,23.387351],[120.244358,23.387214],[120.244065,23.381068],[120.245743,23.380749],[120.245456,23.377619],[120.244214,23.377676],[120.244297,23.37522],[120.244883,23.374011],[120.240299,23.378063],[120.237303,23.378748],[120.231633,23.374298],[120.230833,23.372972],[120.230516,23.370539],[120.230916,23.368482],[120.231002,23.366044],[120.230245,23.365995],[120.229386,23.364531],[120.228659,23.365148],[120.228595,23.365071],[120.228371,23.364318],[120.228457,23.363979],[120.229159,23.363728],[120.22885,23.362923],[120.229185,23.361344],[120.227609,23.360696],[120.232503,23.359604],[120.23278,23.360716],[120.238571,23.359406],[120.238909,23.358174],[120.23864,23.357035],[120.252487,23.353901],[120.253294,23.352824],[120.25421,23.353011],[120.251898,23.360559],[120.252901,23.360561],[120.255909,23.362985],[120.256581,23.365408],[120.262624,23.364049],[120.262287,23.362416],[120.266282,23.361498],[120.267055,23.364508],[120.26686,23.365902],[120.266357,23.367061],[120.266333,23.368428],[120.266182,23.368787],[120.266523,23.371931],[120.267457,23.376697]]]},"properties":{"code":"10010100019","name":"東光村","countyCode":"10010","countyName":"嘉義縣","townCode":"10010100","townName":"義竹鄉","level":"village","unassigned":false,"note":"","label":[120.24804791863968,23.367186233005505],"bounds":[120.227609,23.352824,120.267457,23.387351],"focusBounds":[120.227609,23.352824,120.267457,23.387351],"color":"#98b69b"}},{"type":"Feature","id":"10010100020","geometry":{"type":"Polygon","coordinates":[[[120.244358,23.387214],[120.236595,23.386714],[120.236118,23.38686],[120.230778,23.398044],[120.230123,23.398791],[120.23003,23.397936],[120.229325,23.397191],[120.229094,23.396335],[120.227257,23.394138],[120.227518,23.39329],[120.226693,23.38951],[120.230886,23.386708],[120.22709,23.381525],[120.22696,23.381463],[120.225859,23.381993],[120.225227,23.38208],[120.222927,23.381421],[120.221822,23.380908],[120.221084,23.380427],[120.220365,23.378941],[120.21952,23.377829],[120.220609,23.377167],[120.222289,23.376641],[120.225847,23.374315],[120.2279,23.374318],[120.229412,23.374737],[120.231633,23.374298],[120.237303,23.378748],[120.240299,23.378063],[120.244883,23.374011],[120.244297,23.37522],[120.244214,23.377676],[120.245456,23.377619],[120.245743,23.380749],[120.244065,23.381068],[120.244358,23.387214]]]},"properties":{"code":"10010100020","name":"東榮村","countyCode":"10010","countyName":"嘉義縣","townCode":"10010100","townName":"義竹鄉","level":"village","unassigned":false,"note":"","label":[120.23336757857993,23.381756108903417],"bounds":[120.21952,23.374011,120.245743,23.398791],"focusBounds":[120.21952,23.374011,120.245743,23.398791],"color":"#58b99d"}},{"type":"Feature","id":"10010100021","geometry":{"type":"Polygon","coordinates":[[[120.21952,23.377829],[120.2194,23.377775],[120.217713,23.379048],[120.212018,23.381091],[120.211553,23.381095],[120.20836,23.380232],[120.207307,23.379813],[120.205254,23.376239],[120.204691,23.375764],[120.20279,23.374895],[120.20268,23.3748],[120.212576,23.367702],[120.216321,23.361628],[120.215542,23.360474],[120.224946,23.355768],[120.224218,23.359303],[120.227609,23.360696],[120.229185,23.361344],[120.22885,23.362923],[120.229159,23.363728],[120.228457,23.363979],[120.228371,23.364318],[120.228595,23.365071],[120.228659,23.365148],[120.229386,23.364531],[120.230245,23.365995],[120.231002,23.366044],[120.230916,23.368482],[120.230516,23.370539],[120.230833,23.372972],[120.231633,23.374298],[120.229412,23.374737],[120.2279,23.374318],[120.225847,23.374315],[120.222289,23.376641],[120.220609,23.377167],[120.21952,23.377829]]]},"properties":{"code":"10010100021","name":"龍蛟村","countyCode":"10010","countyName":"嘉義縣","townCode":"10010100","townName":"義竹鄉","level":"village","unassigned":false,"note":"","label":[120.22018807947032,23.369101980443155],"bounds":[120.20268,23.355768,120.231633,23.381095],"focusBounds":[120.20268,23.355768,120.231633,23.381095],"color":"#efb44f"}},{"type":"Feature","id":"10010100022","geometry":{"type":"Polygon","coordinates":[[[120.245542,23.398819],[120.244934,23.399372],[120.243654,23.400145],[120.243198,23.400664],[120.243024,23.401383],[120.243043,23.402412],[120.242878,23.402852],[120.241715,23.403578],[120.240902,23.404442],[120.239172,23.405605],[120.237676,23.406338],[120.235767,23.4076],[120.23471,23.406608],[120.232701,23.405861],[120.230858,23.403787],[120.231022,23.403579],[120.231895,23.403292],[120.234789,23.402875],[120.23593,23.402364],[120.236144,23.402161],[120.236187,23.401856],[120.236051,23.40162],[120.234572,23.400717],[120.232476,23.400369],[120.231702,23.400083],[120.230599,23.399446],[120.230123,23.398791],[120.230778,23.398044],[120.236118,23.38686],[120.236595,23.386714],[120.244358,23.387214],[120.246553,23.387351],[120.247081,23.387211],[120.267457,23.376697],[120.267654,23.377747],[120.268582,23.377273],[120.268591,23.378094],[120.269136,23.378779],[120.269494,23.380533],[120.269462,23.382878],[120.268831,23.383579],[120.269594,23.387764],[120.269537,23.387947],[120.268463,23.388745],[120.26638,23.390763],[120.264799,23.392714],[120.264332,23.392831],[120.263619,23.392712],[120.262422,23.392938],[120.260886,23.393684],[120.258112,23.39459],[120.251976,23.39599],[120.249574,23.397407],[120.248697,23.397271],[120.246986,23.397794],[120.24636,23.398347],[120.245783,23.398517],[120.245542,23.398819]]]},"properties":{"code":"10010100022","name":"溪洲村","countyCode":"10010","countyName":"嘉義縣","townCode":"10010100","townName":"義竹鄉","level":"village","unassigned":false,"note":"","label":[120.24941193010395,23.391695157254453],"bounds":[120.230123,23.376697,120.269594,23.4076],"focusBounds":[120.230123,23.376697,120.269594,23.4076],"color":"#78a7e3"}}]}
