{"type":"FeatureCollection","features":[{"type":"Feature","id":"10013320001","geometry":{"type":"Polygon","coordinates":[[[120.732675,22.17465],[120.732792,22.178227],[120.733569,22.17955],[120.734056,22.18148],[120.734217,22.183002],[120.734281,22.188143],[120.733723,22.191858],[120.733307,22.193206],[120.732891,22.194169],[120.730818,22.196574],[120.728937,22.198066],[120.723554,22.20106],[120.723509,22.201981],[120.723066,22.203059],[120.722656,22.204802],[120.722083,22.206014],[120.720615,22.207604],[120.719949,22.208005],[120.718985,22.207665],[120.717477,22.207553],[120.717108,22.207416],[120.715831,22.207623],[120.715499,22.207348],[120.714316,22.207546],[120.713329,22.207072],[120.712054,22.207445],[120.7118,22.207253],[120.710772,22.207075],[120.710441,22.206605],[120.710091,22.206514],[120.709799,22.206556],[120.709549,22.206979],[120.708747,22.206437],[120.707972,22.206313],[120.707461,22.206573],[120.706598,22.206196],[120.706159,22.205603],[120.706252,22.205114],[120.705671,22.204624],[120.705187,22.204691],[120.705074,22.204564],[120.705222,22.204335],[120.705133,22.204232],[120.704762,22.204313],[120.703718,22.203727],[120.703061,22.203837],[120.702481,22.204124],[120.70231,22.20408],[120.702674,22.203165],[120.703421,22.202141],[120.703786,22.201859],[120.704817,22.201479],[120.705397,22.200974],[120.704992,22.200605],[120.70427,22.199411],[120.704012,22.199251],[120.702593,22.199046],[120.701698,22.199604],[120.700635,22.200001],[120.700519,22.20027],[120.700966,22.200914],[120.700936,22.201399],[120.699975,22.20221],[120.699685,22.202291],[120.696357,22.198956],[120.695325,22.197662],[120.695666,22.196623],[120.695188,22.19597],[120.695177,22.195704],[120.695455,22.19539],[120.696063,22.195165],[120.696324,22.194433],[120.696989,22.194285],[120.697121,22.193593],[120.696396,22.193175],[120.696,22.193112],[120.69522,22.19249],[120.695463,22.192239],[120.695953,22.192123],[120.695948,22.191562],[120.696458,22.191526],[120.696696,22.190841],[120.696302,22.189675],[120.694998,22.188347],[120.693918,22.186439],[120.693902,22.185742],[120.694665,22.184511],[120.694606,22.1835],[120.693726,22.182187],[120.69273,22.181436],[120.693564,22.179917],[120.693881,22.18025],[120.695356,22.180993],[120.695763,22.181412],[120.696328,22.181424],[120.696772,22.182229],[120.697044,22.182392],[120.697627,22.182411],[120.699624,22.183008],[120.700231,22.182831],[120.700387,22.182506],[120.701049,22.182182],[120.701127,22.181819],[120.70136,22.181783],[120.701419,22.181494],[120.702536,22.180164],[120.704246,22.177462],[120.705128,22.176778],[120.706061,22.176818],[120.708005,22.177806],[120.710846,22.178849],[120.711257,22.178796],[120.718416,22.175914],[120.724077,22.174666],[120.729003,22.174401],[120.732553,22.17442],[120.732675,22.17465]]]},"properties":{"code":"10013320001","name":"楓林村","countyCode":"10013","countyName":"屏東縣","townCode":"10013320","townName":"獅子鄉","level":"village","unassigned":false,"note":"","label":[120.71544658984101,22.19104606140712],"bounds":[120.69273,22.174401,120.734281,22.208005],"focusBounds":[120.69273,22.174401,120.734281,22.208005],"color":"#98b69b"}},{"type":"Feature","id":"10013320002","geometry":{"type":"Polygon","coordinates":[[[120.766133,22.231024],[120.765093,22.230779],[120.763679,22.231436],[120.761896,22.231262],[120.761264,22.231051],[120.757625,22.229108],[120.756475,22.228034],[120.754251,22.224951],[120.753249,22.223877],[120.752544,22.223322],[120.750688,22.222419],[120.747951,22.220461],[120.745604,22.218258],[120.740457,22.214818],[120.739169,22.213369],[120.738642,22.213013],[120.736723,22.21241],[120.733981,22.212186],[120.733645,22.211994],[120.733149,22.211289],[120.730637,22.212339],[120.729948,22.212502],[120.729238,22.212481],[120.72855,22.211778],[120.726619,22.211318],[120.723934,22.209783],[120.721204,22.2086],[120.720783,22.208269],[120.719949,22.208005],[120.720615,22.207604],[120.722083,22.206014],[120.722656,22.204802],[120.723066,22.203059],[120.723509,22.201981],[120.723554,22.20106],[120.728937,22.198066],[120.730818,22.196574],[120.732891,22.194169],[120.733307,22.193206],[120.733723,22.191858],[120.734281,22.188143],[120.734217,22.183002],[120.734056,22.18148],[120.733569,22.17955],[120.732792,22.178227],[120.732675,22.17465],[120.733039,22.175028],[120.734361,22.175782],[120.736296,22.176338],[120.736721,22.176281],[120.738264,22.175064],[120.739337,22.174996],[120.740653,22.17528],[120.741517,22.175634],[120.742575,22.175655],[120.743951,22.176254],[120.745092,22.177231],[120.747663,22.177451],[120.748552,22.177651],[120.749115,22.177416],[120.749637,22.177786],[120.750293,22.177946],[120.750843,22.177911],[120.752059,22.177254],[120.753097,22.17726],[120.753867,22.176975],[120.754254,22.177008],[120.754856,22.176691],[120.755573,22.176635],[120.75592,22.177021],[120.756568,22.177193],[120.757423,22.177951],[120.758952,22.178333],[120.759866,22.179535],[120.7612,22.180471],[120.761619,22.181709],[120.762251,22.181253],[120.763106,22.181944],[120.764032,22.182186],[120.765069,22.182816],[120.766003,22.183873],[120.766689,22.183996],[120.767815,22.184529],[120.76805,22.18476],[120.768211,22.185371],[120.768976,22.186068],[120.769402,22.18692],[120.770473,22.187709],[120.771426,22.187954],[120.772032,22.188316],[120.773467,22.189662],[120.777671,22.191446],[120.778569,22.192316],[120.778738,22.193138],[120.779351,22.193798],[120.78025,22.194255],[120.780788,22.194256],[120.781403,22.193945],[120.781694,22.19398],[120.783938,22.195484],[120.784487,22.195574],[120.787083,22.196105],[120.788474,22.195572],[120.789407,22.195609],[120.790213,22.195823],[120.790886,22.196212],[120.791622,22.197135],[120.792882,22.197691],[120.79433,22.197558],[120.794866,22.197768],[120.795703,22.19756],[120.797013,22.197819],[120.797415,22.198449],[120.798846,22.199511],[120.799179,22.200802],[120.800526,22.201555],[120.801614,22.202714],[120.802112,22.203743],[120.801802,22.204452],[120.802748,22.204829],[120.80401,22.204588],[120.804275,22.203961],[120.804832,22.203736],[120.806075,22.203879],[120.806785,22.203711],[120.80717,22.204],[120.807731,22.204065],[120.809639,22.203664],[120.810967,22.20366],[120.811364,22.203729],[120.811826,22.204203],[120.812427,22.204494],[120.812084,22.205114],[120.807281,22.211388],[120.803107,22.217743],[120.80262,22.217576],[120.801902,22.216323],[120.801063,22.216218],[120.800146,22.216616],[120.798082,22.216829],[120.797119,22.217385],[120.796456,22.218092],[120.795173,22.21777],[120.794597,22.218236],[120.794075,22.219562],[120.794248,22.223002],[120.782864,22.224482],[120.779345,22.225086],[120.776004,22.225971],[120.772603,22.227576],[120.768551,22.229124],[120.767138,22.230021],[120.766133,22.231024]]]},"properties":{"code":"10013320002","name":"丹路村","countyCode":"10013","countyName":"屏東縣","townCode":"10013320","townName":"獅子鄉","level":"village","unassigned":false,"note":"","label":[120.76313439539607,22.20665039608479],"bounds":[120.719949,22.17465,120.812427,22.231436],"focusBounds":[120.719949,22.17465,120.812427,22.231436],"color":"#58b99d"}},{"type":"Feature","id":"10013320003","geometry":{"type":"Polygon","coordinates":[[[120.798766,22.260681],[120.79775,22.261151],[120.797484,22.261431],[120.797128,22.262575],[120.796794,22.262942],[120.796694,22.263929],[120.796319,22.26441],[120.796,22.264542],[120.794903,22.264588],[120.793981,22.265007],[120.792362,22.266647],[120.792229,22.267184],[120.791941,22.267499],[120.79206,22.268272],[120.791748,22.269326],[120.790288,22.271042],[120.789808,22.271254],[120.788892,22.270939],[120.788813,22.27158],[120.78931,22.271991],[120.789386,22.272287],[120.788,22.273776],[120.787939,22.273961],[120.788179,22.274413],[120.788011,22.27499],[120.787654,22.275252],[120.787314,22.275843],[120.786986,22.277161],[120.786671,22.277488],[120.785827,22.27762],[120.785507,22.278058],[120.78523,22.278972],[120.784406,22.279461],[120.783764,22.279259],[120.782903,22.278364],[120.781519,22.278669],[120.781239,22.278005],[120.780218,22.277601],[120.778807,22.278049],[120.777978,22.278863],[120.777702,22.278883],[120.777281,22.277965],[120.776696,22.277364],[120.775891,22.276909],[120.774615,22.276634],[120.774371,22.275936],[120.774052,22.275635],[120.773595,22.275533],[120.773235,22.275659],[120.771322,22.275507],[120.769383,22.27657],[120.768885,22.276671],[120.76804,22.276467],[120.766702,22.276634],[120.765013,22.277311],[120.764651,22.27722],[120.764058,22.276246],[120.763738,22.27614],[120.76226,22.276885],[120.761643,22.276952],[120.760718,22.276404],[120.758704,22.275823],[120.757713,22.275094],[120.757415,22.27569],[120.757101,22.275798],[120.756309,22.275081],[120.75519,22.27468],[120.754385,22.274837],[120.754082,22.275303],[120.750515,22.272968],[120.748893,22.27236],[120.746782,22.271901],[120.74709,22.271152],[120.751067,22.266626],[120.754294,22.263134],[120.755728,22.261915],[120.756445,22.261085],[120.757345,22.258198],[120.758063,22.256422],[120.759679,22.253094],[120.762124,22.242479],[120.764002,22.235835],[120.765462,22.231992],[120.766133,22.231024],[120.767138,22.230021],[120.768551,22.229124],[120.772603,22.227576],[120.776004,22.225971],[120.779345,22.225086],[120.782864,22.224482],[120.794248,22.223002],[120.794075,22.219562],[120.794597,22.218236],[120.795173,22.21777],[120.796456,22.218092],[120.797119,22.217385],[120.798082,22.216829],[120.800146,22.216616],[120.801063,22.216218],[120.801902,22.216323],[120.80262,22.217576],[120.803107,22.217743],[120.801995,22.220142],[120.801964,22.221424],[120.802608,22.224013],[120.803761,22.226055],[120.806777,22.229269],[120.811178,22.23254],[120.819892,22.238352],[120.824564,22.240728],[120.827205,22.241876],[120.834624,22.244733],[120.83517,22.244793],[120.83555,22.245323],[120.834616,22.245371],[120.833831,22.246303],[120.833227,22.246615],[120.832542,22.247254],[120.832253,22.248196],[120.831754,22.248847],[120.831505,22.25006],[120.830296,22.251684],[120.829408,22.252248],[120.829197,22.253072],[120.828747,22.25338],[120.827542,22.254912],[120.826313,22.255846],[120.825908,22.256646],[120.82225,22.258055],[120.821229,22.258711],[120.819872,22.259864],[120.818652,22.261205],[120.817687,22.261433],[120.816543,22.262438],[120.816371,22.262668],[120.815198,22.263254],[120.815071,22.26256],[120.81439,22.262274],[120.814052,22.261946],[120.81374,22.261907],[120.812997,22.262166],[120.812561,22.262112],[120.811366,22.261597],[120.811126,22.261361],[120.809385,22.260695],[120.808019,22.259361],[120.807344,22.259488],[120.806856,22.259779],[120.806129,22.259781],[120.805877,22.259521],[120.805151,22.259438],[120.804198,22.258896],[120.803615,22.258942],[120.80307,22.25841],[120.801955,22.258174],[120.800635,22.257477],[120.799519,22.257158],[120.799061,22.257161],[120.797895,22.257937],[120.798775,22.259674],[120.798766,22.260681]]]},"properties":{"code":"10013320003","name":"草埔村","countyCode":"10013","countyName":"屏東縣","townCode":"10013320","townName":"獅子鄉","level":"village","unassigned":false,"note":"","label":[120.78517131216033,22.243512653041186],"bounds":[120.746782,22.216218,120.83555,22.279461],"focusBounds":[120.746782,22.216218,120.83555,22.279461],"color":"#efb44f"}},{"type":"Feature","id":"10013320004","geometry":{"type":"Polygon","coordinates":[[[120.837248,22.244743],[120.836057,22.245459],[120.83555,22.245323],[120.83517,22.244793],[120.834624,22.244733],[120.827205,22.241876],[120.824564,22.240728],[120.819892,22.238352],[120.811178,22.23254],[120.806777,22.229269],[120.803761,22.226055],[120.802608,22.224013],[120.801964,22.221424],[120.801995,22.220142],[120.803107,22.217743],[120.807281,22.211388],[120.812084,22.205114],[120.812427,22.204494],[120.813503,22.204738],[120.814569,22.206272],[120.815062,22.20647],[120.815168,22.207909],[120.816308,22.208201],[120.817679,22.207365],[120.818077,22.207327],[120.818711,22.207814],[120.819886,22.207178],[120.820643,22.207516],[120.821704,22.207628],[120.822849,22.206909],[120.824108,22.206867],[120.824387,22.207601],[120.825536,22.208262],[120.825778,22.208746],[120.826726,22.209147],[120.828111,22.208857],[120.829056,22.209052],[120.829877,22.209621],[120.830912,22.20987],[120.832465,22.211411],[120.833032,22.211345],[120.833617,22.211044],[120.834359,22.211463],[120.834774,22.212027],[120.835774,22.212259],[120.83634,22.21211],[120.836862,22.21257],[120.837585,22.212449],[120.837939,22.212367],[120.838069,22.213528],[120.840861,22.213457],[120.842917,22.213636],[120.843419,22.213552],[120.84426,22.213085],[120.844762,22.213164],[120.846722,22.212972],[120.847786,22.213284],[120.848194,22.213275],[120.848602,22.21312],[120.850017,22.211653],[120.850753,22.211442],[120.85164,22.211436],[120.853121,22.21089],[120.856264,22.210629],[120.858034,22.211295],[120.858321,22.210867],[120.858951,22.210874],[120.859809,22.210431],[120.860615,22.209659],[120.862369,22.210272],[120.863648,22.210427],[120.863701,22.211197],[120.864089,22.211236],[120.864834,22.211023],[120.866094,22.211249],[120.86691,22.21261],[120.866518,22.21415],[120.8671,22.215737],[120.866936,22.216584],[120.866531,22.216817],[120.865177,22.218152],[120.865599,22.219375],[120.866025,22.219805],[120.866189,22.220248],[120.867428,22.220272],[120.867799,22.220894],[120.86737,22.222458],[120.867399,22.223068],[120.866897,22.223361],[120.866648,22.22498],[120.867219,22.225411],[120.867653,22.226211],[120.867208,22.226503],[120.867092,22.227537],[120.866936,22.227807],[120.867001,22.228385],[120.866429,22.229825],[120.864783,22.230409],[120.86386,22.231139],[120.863289,22.230899],[120.862515,22.230966],[120.862145,22.230707],[120.862327,22.231349],[120.864189,22.233587],[120.864298,22.234285],[120.863783,22.234942],[120.863538,22.235559],[120.862534,22.236736],[120.861616,22.237467],[120.859003,22.238635],[120.858678,22.239161],[120.858976,22.240317],[120.858668,22.240819],[120.8568,22.241327],[120.856357,22.24124],[120.855462,22.241495],[120.854269,22.242435],[120.853202,22.2425],[120.852774,22.242817],[120.850836,22.243657],[120.849515,22.243786],[120.848911,22.243491],[120.846417,22.243529],[120.845615,22.243006],[120.844882,22.242839],[120.844462,22.242925],[120.844194,22.243197],[120.842605,22.243357],[120.841396,22.24456],[120.840185,22.244286],[120.83961,22.243633],[120.838081,22.24403],[120.837248,22.244743]]]},"properties":{"code":"10013320004","name":"內文村","countyCode":"10013","countyName":"屏東縣","townCode":"10013320","townName":"獅子鄉","level":"village","unassigned":false,"note":"","label":[120.83514422665881,22.228451433450388],"bounds":[120.801964,22.204494,120.867799,22.245459],"focusBounds":[120.801964,22.204494,120.867799,22.245459],"color":"#78a7e3"}},{"type":"Feature","id":"10013320005","geometry":{"type":"Polygon","coordinates":[[[120.732553,22.17442],[120.729003,22.174401],[120.724077,22.174666],[120.718416,22.175914],[120.711257,22.178796],[120.710846,22.178849],[120.708005,22.177806],[120.706061,22.176818],[120.705128,22.176778],[120.704246,22.177462],[120.702536,22.180164],[120.701419,22.181494],[120.70136,22.181783],[120.701127,22.181819],[120.701049,22.182182],[120.700387,22.182506],[120.700231,22.182831],[120.699624,22.183008],[120.697627,22.182411],[120.697044,22.182392],[120.696772,22.182229],[120.696328,22.181424],[120.695763,22.181412],[120.695356,22.180993],[120.693881,22.18025],[120.693564,22.179917],[120.694246,22.178604],[120.694774,22.17603],[120.695412,22.174842],[120.695431,22.173433],[120.695216,22.172548],[120.694771,22.17172],[120.694686,22.171053],[120.69527,22.169929],[120.696337,22.168784],[120.696358,22.168446],[120.696551,22.16826],[120.696383,22.167697],[120.696468,22.166854],[120.696673,22.166579],[120.697119,22.166467],[120.697266,22.164306],[120.697648,22.162858],[120.697814,22.162578],[120.69817,22.162622],[120.698496,22.161701],[120.698386,22.160558],[120.69891,22.158542],[120.699488,22.157935],[120.700156,22.157878],[120.700498,22.158028],[120.700589,22.157787],[120.70151,22.157203],[120.700075,22.157413],[120.699837,22.156475],[120.69937,22.156411],[120.699844,22.154459],[120.700564,22.154177],[120.700447,22.153769],[120.700607,22.153676],[120.700802,22.153106],[120.700487,22.152592],[120.700669,22.151261],[120.700854,22.151056],[120.701439,22.150988],[120.701872,22.150461],[120.701475,22.150092],[120.701087,22.14996],[120.701266,22.148533],[120.701102,22.147968],[120.701413,22.146061],[120.700143,22.143662],[120.700066,22.143288],[120.700296,22.142564],[120.700561,22.14267],[120.701129,22.142522],[120.701932,22.142605],[120.702393,22.142405],[120.703771,22.142743],[120.703854,22.142234],[120.704225,22.141762],[120.704797,22.140069],[120.707017,22.135141],[120.708169,22.133201],[120.708543,22.132283],[120.711569,22.129101],[120.714903,22.125002],[120.717604,22.123299],[120.717955,22.12275],[120.718453,22.121516],[120.71798,22.117792],[120.717383,22.115427],[120.716152,22.113832],[120.715456,22.112661],[120.715398,22.112002],[120.715707,22.111465],[120.716608,22.111353],[120.717554,22.111897],[120.718596,22.11195],[120.718719,22.112457],[120.720211,22.113104],[120.721223,22.112887],[120.722421,22.114959],[120.722904,22.115377],[120.723941,22.11586],[120.725858,22.115816],[120.72838,22.116119],[120.730531,22.116763],[120.731189,22.11759],[120.732053,22.11806],[120.733713,22.117908],[120.736048,22.118272],[120.736006,22.119136],[120.736606,22.120623],[120.736258,22.121691],[120.736169,22.124163],[120.735903,22.12464],[120.735876,22.12515],[120.735317,22.125738],[120.735494,22.126255],[120.735459,22.127306],[120.735063,22.128372],[120.734983,22.129714],[120.735393,22.13128],[120.7355,22.134742],[120.736118,22.13628],[120.73637,22.137773],[120.737442,22.139756],[120.737055,22.140893],[120.736415,22.141595],[120.736314,22.141937],[120.736565,22.142655],[120.736596,22.143319],[120.737224,22.144563],[120.737668,22.144882],[120.737287,22.145268],[120.737357,22.145848],[120.737152,22.146911],[120.737441,22.147657],[120.738228,22.148136],[120.737941,22.149352],[120.738162,22.150713],[120.738,22.151363],[120.737242,22.152277],[120.737111,22.153088],[120.737049,22.154294],[120.737417,22.156404],[120.73655,22.157725],[120.734406,22.159247],[120.733952,22.160235],[120.73419,22.161027],[120.734069,22.161725],[120.733458,22.163102],[120.732855,22.163745],[120.733754,22.164612],[120.734057,22.165727],[120.734583,22.166434],[120.734686,22.167041],[120.734921,22.167317],[120.735029,22.168295],[120.734859,22.168847],[120.733905,22.169816],[120.733797,22.170627],[120.733201,22.172103],[120.73309,22.173192],[120.732714,22.173676],[120.732553,22.17442]]]},"properties":{"code":"10013320005","name":"竹坑村","countyCode":"10013","countyName":"屏東縣","townCode":"10013320","townName":"獅子鄉","level":"village","unassigned":false,"note":"","label":[120.71876078552123,22.150536943575105],"bounds":[120.693564,22.111353,120.738228,22.183008],"focusBounds":[120.693564,22.111353,120.738228,22.183008],"color":"#dd8590"}},{"type":"Feature","id":"10013320006","geometry":{"type":"Polygon","coordinates":[[[120.746782,22.271901],[120.745278,22.271833],[120.74456,22.27257],[120.743992,22.27345],[120.743185,22.273758],[120.742068,22.273824],[120.741472,22.274236],[120.736473,22.271979],[120.736052,22.271459],[120.735766,22.270634],[120.735466,22.270413],[120.73429,22.270122],[120.733503,22.27061],[120.733058,22.270673],[120.732518,22.27046],[120.73189,22.269942],[120.730876,22.269852],[120.729666,22.269441],[120.729125,22.26944],[120.728577,22.269866],[120.727967,22.270809],[120.727347,22.273106],[120.727671,22.273446],[120.728847,22.273411],[120.729442,22.273846],[120.729664,22.274135],[120.729697,22.274822],[120.72931,22.275589],[120.727935,22.276379],[120.727055,22.277152],[120.726264,22.277112],[120.725414,22.277332],[120.724889,22.278067],[120.723335,22.27794],[120.72231,22.277652],[120.721407,22.277799],[120.720343,22.277425],[120.719054,22.277646],[120.718122,22.276884],[120.717351,22.27658],[120.716649,22.276687],[120.715161,22.276454],[120.714275,22.275928],[120.714113,22.275547],[120.715282,22.273639],[120.717156,22.271364],[120.718504,22.268709],[120.718899,22.26553],[120.7188,22.264281],[120.717946,22.263156],[120.717468,22.26294],[120.717275,22.262136],[120.716883,22.26186],[120.714748,22.261897],[120.71395,22.2622],[120.71346,22.262707],[120.711988,22.265461],[120.711284,22.266038],[120.710549,22.266369],[120.699875,22.268837],[120.697459,22.269289],[120.695489,22.269339],[120.691191,22.268742],[120.689496,22.268323],[120.687295,22.267628],[120.685714,22.266704],[120.68352,22.266363],[120.682618,22.265802],[120.681049,22.265392],[120.67991,22.264476],[120.677064,22.262862],[120.675759,22.261236],[120.675192,22.260858],[120.674614,22.260577],[120.673901,22.260852],[120.674002,22.260524],[120.67242,22.260505],[120.669753,22.261678],[120.668974,22.261665],[120.667161,22.260698],[120.666055,22.260291],[120.664733,22.259276],[120.663728,22.258899],[120.662995,22.25881],[120.662027,22.259003],[120.661008,22.258106],[120.661975,22.257123],[120.663025,22.255722],[120.664099,22.253445],[120.665301,22.251794],[120.665427,22.250365],[120.668417,22.246248],[120.668433,22.245604],[120.66865,22.245148],[120.669635,22.244292],[120.670396,22.244109],[120.670775,22.243746],[120.670827,22.243464],[120.670524,22.243143],[120.670441,22.242472],[120.670854,22.241233],[120.670904,22.240066],[120.671246,22.239403],[120.67094,22.238705],[120.670337,22.238591],[120.669897,22.237931],[120.672634,22.234445],[120.673734,22.232452],[120.674651,22.230178],[120.675792,22.229193],[120.676012,22.229162],[120.67733,22.229016],[120.678768,22.227991],[120.6785,22.227826],[120.677483,22.228095],[120.676629,22.22803],[120.676088,22.227744],[120.675729,22.227026],[120.675851,22.226319],[120.676166,22.22569],[120.677868,22.224883],[120.678249,22.224344],[120.67818,22.223804],[120.677663,22.223163],[120.67759,22.222504],[120.678415,22.221004],[120.678977,22.219054],[120.681723,22.216264],[120.682959,22.215772],[120.68318,22.215497],[120.683143,22.215181],[120.684682,22.213232],[120.685814,22.212402],[120.686505,22.211592],[120.687464,22.210814],[120.688554,22.209533],[120.688942,22.208526],[120.689404,22.207819],[120.690201,22.20724],[120.691278,22.206859],[120.692435,22.206712],[120.693022,22.206808],[120.693734,22.207214],[120.694547,22.208602],[120.695034,22.208948],[120.695903,22.209962],[120.697351,22.210025],[120.698791,22.210498],[120.699901,22.210553],[120.701599,22.211036],[120.702735,22.210837],[120.703739,22.211336],[120.7046,22.211298],[120.705544,22.211861],[120.706005,22.212706],[120.706333,22.212989],[120.707464,22.213226],[120.708777,22.212969],[120.709923,22.212944],[120.711196,22.212202],[120.711579,22.21215],[120.71272,22.211406],[120.713315,22.210334],[120.71349,22.210321],[120.714091,22.209763],[120.715163,22.209304],[120.716273,22.208185],[120.717482,22.207752],[120.717477,22.207553],[120.718985,22.207665],[120.719949,22.208005],[120.720783,22.208269],[120.721204,22.2086],[120.723934,22.209783],[120.726619,22.211318],[120.72855,22.211778],[120.729238,22.212481],[120.729948,22.212502],[120.730637,22.212339],[120.733149,22.211289],[120.733645,22.211994],[120.733981,22.212186],[120.736723,22.21241],[120.738642,22.213013],[120.739169,22.213369],[120.740457,22.214818],[120.745604,22.218258],[120.747951,22.220461],[120.750688,22.222419],[120.752544,22.223322],[120.753249,22.223877],[120.754251,22.224951],[120.756475,22.228034],[120.757625,22.229108],[120.761264,22.231051],[120.761896,22.231262],[120.763679,22.231436],[120.765093,22.230779],[120.766133,22.231024],[120.765462,22.231992],[120.764002,22.235835],[120.762124,22.242479],[120.759679,22.253094],[120.758063,22.256422],[120.757345,22.258198],[120.756445,22.261085],[120.755728,22.261915],[120.754294,22.263134],[120.751067,22.266626],[120.74709,22.271152],[120.746782,22.271901]]]},"properties":{"code":"10013320006","name":"獅子村","countyCode":"10013","countyName":"屏東縣","townCode":"10013320","townName":"獅子鄉","level":"village","unassigned":false,"note":"","label":[120.71940787410828,22.23669282756152],"bounds":[120.661008,22.206712,120.766133,22.278067],"focusBounds":[120.661008,22.206712,120.766133,22.278067],"color":"#a49ad4"}},{"type":"Feature","id":"10013320007","geometry":{"type":"Polygon","coordinates":[[[120.792406,22.330343],[120.792388,22.331098],[120.792816,22.333753],[120.792752,22.334822],[120.792473,22.335623],[120.791692,22.336301],[120.790413,22.337],[120.789451,22.337993],[120.789235,22.338394],[120.788728,22.340946],[120.788468,22.341574],[120.787631,22.342118],[120.786547,22.342138],[120.785962,22.342734],[120.785664,22.343336],[120.783678,22.342305],[120.782964,22.341593],[120.78244,22.340594],[120.781801,22.337687],[120.781263,22.333652],[120.780835,22.332346],[120.781487,22.331056],[120.781349,22.3298],[120.781245,22.329552],[120.779372,22.327808],[120.779186,22.327386],[120.77955,22.325795],[120.779409,22.324674],[120.779096,22.324046],[120.77919,22.323376],[120.778725,22.322779],[120.777945,22.322333],[120.777072,22.32217],[120.77616,22.322184],[120.775124,22.321546],[120.77418,22.32177],[120.77382,22.321564],[120.771518,22.32143],[120.771041,22.321136],[120.770296,22.320941],[120.769632,22.320339],[120.768561,22.320819],[120.766236,22.320707],[120.765,22.320933],[120.764308,22.320519],[120.763394,22.320563],[120.762218,22.320139],[120.761455,22.320106],[120.760201,22.320644],[120.758745,22.32049],[120.758506,22.321043],[120.758296,22.321162],[120.758021,22.321002],[120.757782,22.320595],[120.756518,22.320821],[120.755949,22.320448],[120.75585,22.320854],[120.755588,22.32105],[120.755159,22.320957],[120.75433,22.321138],[120.754038,22.321788],[120.754024,22.323163],[120.753512,22.323553],[120.753098,22.323518],[120.75287,22.323322],[120.752583,22.322298],[120.751519,22.322349],[120.750827,22.322544],[120.750701,22.322406],[120.751028,22.321415],[120.753109,22.319269],[120.753019,22.318874],[120.752703,22.318605],[120.751787,22.318269],[120.749856,22.317984],[120.749166,22.317342],[120.748371,22.316927],[120.747243,22.316919],[120.746426,22.316177],[120.746477,22.315533],[120.745338,22.315699],[120.740422,22.317222],[120.736672,22.318123],[120.734671,22.318799],[120.72558,22.32337],[120.725102,22.323583],[120.72439,22.323666],[120.723101,22.323663],[120.717853,22.322277],[120.713465,22.32058],[120.712958,22.320265],[120.702357,22.31962],[120.701834,22.319314],[120.70105,22.319592],[120.69704,22.320323],[120.696415,22.320292],[120.69586,22.320724],[120.695588,22.320574],[120.695088,22.320632],[120.694784,22.320446],[120.694488,22.319959],[120.693491,22.319761],[120.692887,22.31989],[120.692181,22.31889],[120.692139,22.318594],[120.69171,22.318464],[120.69128,22.318739],[120.691013,22.318306],[120.690427,22.317992],[120.690066,22.318145],[120.689787,22.318813],[120.689381,22.319041],[120.688159,22.318833],[120.687349,22.319557],[120.687124,22.319603],[120.686463,22.319315],[120.686174,22.318869],[120.68543,22.319154],[120.68534,22.319576],[120.685186,22.319655],[120.684565,22.319189],[120.684328,22.31964],[120.683909,22.31967],[120.683367,22.319017],[120.683125,22.319001],[120.682912,22.319691],[120.682357,22.319846],[120.682603,22.320093],[120.682531,22.320322],[120.68164,22.320919],[120.681627,22.321711],[120.681236,22.322332],[120.680455,22.322777],[120.679967,22.322114],[120.678704,22.322497],[120.678497,22.322734],[120.67837,22.323972],[120.677741,22.324015],[120.676252,22.32525],[120.675408,22.325298],[120.675161,22.325874],[120.674929,22.326059],[120.674278,22.325854],[120.673923,22.325907],[120.6732,22.326416],[120.672834,22.327039],[120.672505,22.327134],[120.671957,22.326785],[120.672161,22.326047],[120.67193,22.325776],[120.671576,22.325664],[120.671237,22.324744],[120.670637,22.324725],[120.669327,22.325046],[120.669272,22.323996],[120.668469,22.323676],[120.668091,22.322974],[120.667678,22.323111],[120.666941,22.323763],[120.666199,22.323798],[120.66566,22.324259],[120.665746,22.323233],[120.666399,22.322604],[120.666023,22.322009],[120.665081,22.322181],[120.665257,22.32136],[120.665,22.321155],[120.665058,22.320975],[120.665304,22.320766],[120.665723,22.320797],[120.665833,22.320533],[120.665568,22.319548],[120.664885,22.318995],[120.664755,22.318077],[120.665615,22.316003],[120.665482,22.315874],[120.664719,22.315893],[120.664447,22.314992],[120.66332,22.31421],[120.663013,22.313399],[120.662566,22.312936],[120.661379,22.313096],[120.660714,22.31303],[120.659488,22.312572],[120.659153,22.312723],[120.658791,22.313209],[120.658388,22.31328],[120.658036,22.31316],[120.656548,22.311288],[120.655236,22.310823],[120.654628,22.310302],[120.653886,22.308688],[120.652994,22.308511],[120.65193,22.308436],[120.650411,22.308784],[120.649334,22.310307],[120.648586,22.31096],[120.648217,22.311103],[120.647187,22.311205],[120.645532,22.310669],[120.645966,22.310716],[120.647974,22.310168],[120.648335,22.309833],[120.648406,22.309536],[120.648153,22.308338],[120.646448,22.307667],[120.646328,22.307362],[120.646497,22.306642],[120.645812,22.306226],[120.64558,22.305367],[120.645207,22.305359],[120.645104,22.305012],[120.644754,22.30499],[120.645041,22.303755],[120.645434,22.30322],[120.645402,22.302724],[120.645119,22.302286],[120.645265,22.299274],[120.645167,22.298494],[120.645257,22.298035],[120.645683,22.297571],[120.645884,22.295606],[120.645349,22.295156],[120.645202,22.294075],[120.645521,22.290926],[120.645176,22.290812],[120.645129,22.29067],[120.645456,22.289556],[120.644883,22.289415],[120.644824,22.289189],[120.646045,22.285193],[120.64686,22.284453],[120.648391,22.281303],[120.649076,22.279537],[120.649699,22.277069],[120.649844,22.275485],[120.650831,22.272473],[120.652894,22.268901],[120.653397,22.265865],[120.654082,22.265993],[120.655863,22.265818],[120.656361,22.265914],[120.657124,22.265293],[120.658271,22.26555],[120.658673,22.265889],[120.658255,22.266281],[120.659477,22.266642],[120.659879,22.266625],[120.660314,22.266156],[120.661259,22.266423],[120.662246,22.265956],[120.661978,22.26525],[120.661957,22.26271],[120.662297,22.262704],[120.663276,22.263131],[120.664321,22.263145],[120.665927,22.264427],[120.666545,22.264424],[120.668352,22.264028],[120.669115,22.264134],[120.670432,22.264061],[120.670977,22.263782],[120.672114,22.263499],[120.672534,22.263217],[120.673336,22.262133],[120.673901,22.260852],[120.674614,22.260577],[120.675192,22.260858],[120.675759,22.261236],[120.677064,22.262862],[120.67991,22.264476],[120.681049,22.265392],[120.682618,22.265802],[120.68352,22.266363],[120.685714,22.266704],[120.687295,22.267628],[120.689496,22.268323],[120.691191,22.268742],[120.695489,22.269339],[120.697459,22.269289],[120.699875,22.268837],[120.710549,22.266369],[120.711284,22.266038],[120.711988,22.265461],[120.71346,22.262707],[120.71395,22.2622],[120.714748,22.261897],[120.716883,22.26186],[120.717275,22.262136],[120.717468,22.26294],[120.717946,22.263156],[120.7188,22.264281],[120.718899,22.26553],[120.718504,22.268709],[120.717156,22.271364],[120.715282,22.273639],[120.714113,22.275547],[120.714275,22.275928],[120.715161,22.276454],[120.716649,22.276687],[120.717351,22.27658],[120.718122,22.276884],[120.719054,22.277646],[120.720343,22.277425],[120.721407,22.277799],[120.72231,22.277652],[120.723335,22.27794],[120.724889,22.278067],[120.725414,22.277332],[120.726264,22.277112],[120.727055,22.277152],[120.727935,22.276379],[120.72931,22.275589],[120.729697,22.274822],[120.729664,22.274135],[120.729442,22.273846],[120.728847,22.273411],[120.727671,22.273446],[120.727347,22.273106],[120.727967,22.270809],[120.728577,22.269866],[120.729125,22.26944],[120.729666,22.269441],[120.730876,22.269852],[120.73189,22.269942],[120.732518,22.27046],[120.733058,22.270673],[120.733503,22.27061],[120.73429,22.270122],[120.735466,22.270413],[120.735766,22.270634],[120.736052,22.271459],[120.736473,22.271979],[120.741472,22.274236],[120.742068,22.273824],[120.743185,22.273758],[120.743992,22.27345],[120.74456,22.27257],[120.745278,22.271833],[120.746782,22.271901],[120.748893,22.27236],[120.750515,22.272968],[120.754082,22.275303],[120.754385,22.274837],[120.75519,22.27468],[120.756309,22.275081],[120.757101,22.275798],[120.757415,22.27569],[120.757713,22.275094],[120.758704,22.275823],[120.760718,22.276404],[120.761643,22.276952],[120.76226,22.276885],[120.763738,22.27614],[120.764058,22.276246],[120.764651,22.27722],[120.765013,22.277311],[120.766702,22.276634],[120.76804,22.276467],[120.768885,22.276671],[120.769383,22.27657],[120.771322,22.275507],[120.773235,22.275659],[120.773595,22.275533],[120.774052,22.275635],[120.774371,22.275936],[120.774615,22.276634],[120.775891,22.276909],[120.776696,22.277364],[120.777281,22.277965],[120.777702,22.278883],[120.777978,22.278863],[120.778807,22.278049],[120.780218,22.277601],[120.781239,22.278005],[120.781519,22.278669],[120.782903,22.278364],[120.783764,22.279259],[120.784406,22.279461],[120.78523,22.278972],[120.785507,22.278058],[120.785827,22.27762],[120.786671,22.277488],[120.786986,22.277161],[120.787314,22.275843],[120.787654,22.275252],[120.788011,22.27499],[120.788179,22.274413],[120.787939,22.273961],[120.788,22.273776],[120.789386,22.272287],[120.78931,22.271991],[120.788813,22.27158],[120.788892,22.270939],[120.789808,22.271254],[120.790288,22.271042],[120.791748,22.269326],[120.79206,22.268272],[120.791941,22.267499],[120.792229,22.267184],[120.792362,22.266647],[120.793981,22.265007],[120.794903,22.264588],[120.796,22.264542],[120.796319,22.26441],[120.796694,22.263929],[120.796794,22.262942],[120.797128,22.262575],[120.797484,22.261431],[120.79775,22.261151],[120.798766,22.260681],[120.798947,22.262264],[120.798572,22.263567],[120.798624,22.263836],[120.799403,22.264557],[120.799576,22.265098],[120.7986,22.265996],[120.79727,22.266484],[120.796542,22.267138],[120.796204,22.267788],[120.796369,22.268768],[120.796287,22.269924],[120.796585,22.270817],[120.797526,22.272407],[120.797976,22.273847],[120.798097,22.27462],[120.798009,22.276257],[120.79819,22.276461],[120.799226,22.276761],[120.799625,22.277102],[120.800586,22.277352],[120.801608,22.27711],[120.803053,22.276993],[120.804255,22.277354],[120.804562,22.277237],[120.804868,22.276785],[120.806774,22.277158],[120.807088,22.278118],[120.806959,22.279555],[120.807212,22.280189],[120.807012,22.280334],[120.806449,22.280364],[120.805864,22.281183],[120.805817,22.281596],[120.806063,22.282367],[120.805695,22.283795],[120.805295,22.284173],[120.804423,22.283979],[120.803465,22.284286],[120.800686,22.284247],[120.800209,22.284899],[120.799195,22.285396],[120.797757,22.285186],[120.796017,22.28515],[120.793211,22.28579],[120.792581,22.287],[120.791551,22.287675],[120.790979,22.288411],[120.791128,22.290647],[120.790208,22.292321],[120.789898,22.293308],[120.788607,22.294002],[120.78822,22.294005],[120.787918,22.293825],[120.786906,22.294341],[120.785725,22.294273],[120.782127,22.294468],[120.780835,22.294953],[120.780109,22.295611],[120.779735,22.296405],[120.778617,22.296923],[120.777743,22.297972],[120.776834,22.302584],[120.777054,22.303902],[120.777793,22.305372],[120.778151,22.308497],[120.781436,22.308955],[120.783199,22.309461],[120.786411,22.309124],[120.787131,22.309207],[120.78995,22.311067],[120.792687,22.312151],[120.792961,22.312414],[120.794219,22.31468],[120.795925,22.316209],[120.796586,22.317171],[120.79679,22.318324],[120.796549,22.319414],[120.796373,22.319885],[120.795324,22.321017],[120.795307,22.322097],[120.7951,22.322571],[120.794828,22.323018],[120.793405,22.323645],[120.793462,22.325057],[120.792873,22.326282],[120.792682,22.327227],[120.792406,22.330343]]]},"properties":{"code":"10013320007","name":"內獅村","countyCode":"10013","countyName":"屏東縣","townCode":"10013320","townName":"獅子鄉","level":"village","unassigned":false,"note":"","label":[120.72105181358177,22.300449082902983],"bounds":[120.644754,22.260577,120.807212,22.343336],"focusBounds":[120.644754,22.260577,120.807212,22.343336],"color":"#a8bf62"}},{"type":"Feature","id":"10013320008","geometry":{"type":"Polygon","coordinates":[[[120.743458,22.367261],[120.740978,22.367355],[120.740388,22.367235],[120.73955,22.366783],[120.736056,22.366764],[120.733801,22.367013],[120.733375,22.366664],[120.732316,22.364824],[120.729903,22.362856],[120.729192,22.361319],[120.726308,22.358649],[120.723724,22.35778],[120.72094,22.356169],[120.720295,22.355701],[120.719812,22.355095],[120.718913,22.354679],[120.717737,22.354638],[120.715997,22.355141],[120.715588,22.355401],[120.713937,22.355483],[120.713021,22.355329],[120.710146,22.354055],[120.709013,22.353364],[120.708529,22.353588],[120.707965,22.353551],[120.707129,22.352671],[120.706035,22.351829],[120.705583,22.351165],[120.704657,22.350408],[120.704138,22.350287],[120.703173,22.349443],[120.702868,22.348723],[120.702604,22.348504],[120.702282,22.34857],[120.701733,22.349221],[120.701271,22.349269],[120.70096,22.349027],[120.700745,22.348196],[120.69979,22.347772],[120.699153,22.347786],[120.6984,22.347594],[120.697363,22.348372],[120.69676,22.34806],[120.695173,22.348001],[120.694356,22.348413],[120.693852,22.348381],[120.693602,22.347942],[120.693889,22.347334],[120.693812,22.34719],[120.692376,22.346499],[120.690481,22.34626],[120.689511,22.345781],[120.689402,22.344431],[120.688997,22.343899],[120.689319,22.34332],[120.689324,22.342932],[120.688544,22.341762],[120.687586,22.341238],[120.687158,22.341325],[120.686125,22.342217],[120.684775,22.342964],[120.684371,22.343468],[120.683896,22.34377],[120.682075,22.344273],[120.680234,22.344198],[120.679815,22.3443],[120.678814,22.344171],[120.677305,22.344415],[120.676639,22.344246],[120.675606,22.343695],[120.674834,22.343534],[120.673605,22.344438],[120.673045,22.344596],[120.672583,22.344575],[120.671549,22.344155],[120.670549,22.344537],[120.668936,22.344252],[120.668781,22.344502],[120.668886,22.345448],[120.668282,22.345701],[120.667034,22.345492],[120.666729,22.344398],[120.666385,22.344039],[120.666009,22.344018],[120.66562,22.344196],[120.665129,22.345491],[120.66396,22.345794],[120.663457,22.346747],[120.662896,22.346961],[120.662187,22.346665],[120.660554,22.345327],[120.660376,22.344516],[120.660926,22.343511],[120.660923,22.343146],[120.659507,22.3413],[120.658939,22.341085],[120.658271,22.341439],[120.6574,22.342318],[120.655947,22.343071],[120.655474,22.343588],[120.655254,22.344202],[120.654705,22.344972],[120.652689,22.346011],[120.651521,22.346099],[120.650652,22.34646],[120.650101,22.347694],[120.648861,22.348979],[120.648362,22.34909],[120.647559,22.349032],[120.645868,22.34837],[120.645302,22.348328],[120.644657,22.348525],[120.643234,22.349539],[120.641916,22.351415],[120.641382,22.35187],[120.640474,22.351231],[120.639132,22.351504],[120.636017,22.351365],[120.635331,22.351663],[120.634954,22.351659],[120.634219,22.350815],[120.630532,22.348197],[120.629806,22.347906],[120.628538,22.347739],[120.626594,22.34649],[120.625578,22.346037],[120.625025,22.345557],[120.624546,22.344612],[120.624816,22.34405],[120.62526,22.343669],[120.627578,22.343546],[120.627159,22.342573],[120.62777,22.341663],[120.627942,22.341647],[120.629129,22.342555],[120.629841,22.341694],[120.63022,22.341883],[120.630327,22.341729],[120.630249,22.340922],[120.62893,22.340004],[120.62892,22.339857],[120.629237,22.339606],[120.629102,22.338748],[120.629441,22.338341],[120.629753,22.338211],[120.62963,22.337781],[120.630361,22.334981],[120.630822,22.33438],[120.631227,22.332907],[120.63175,22.331746],[120.631891,22.331619],[120.632616,22.331625],[120.632521,22.331306],[120.632681,22.329901],[120.63294,22.329307],[120.633372,22.328996],[120.633466,22.327485],[120.633778,22.32688],[120.633746,22.325362],[120.635217,22.3235],[120.63612,22.321944],[120.636446,22.321746],[120.636385,22.321212],[120.636653,22.319385],[120.636167,22.317888],[120.637572,22.315513],[120.637522,22.315008],[120.637804,22.314445],[120.639204,22.312773],[120.639419,22.31234],[120.639343,22.311897],[120.639506,22.31161],[120.641239,22.309232],[120.641595,22.309063],[120.642149,22.309215],[120.643513,22.310226],[120.645532,22.310669],[120.647187,22.311205],[120.648217,22.311103],[120.648586,22.31096],[120.649334,22.310307],[120.650411,22.308784],[120.65193,22.308436],[120.652994,22.308511],[120.653886,22.308688],[120.654628,22.310302],[120.655236,22.310823],[120.656548,22.311288],[120.658036,22.31316],[120.658388,22.31328],[120.658791,22.313209],[120.659153,22.312723],[120.659488,22.312572],[120.660714,22.31303],[120.661379,22.313096],[120.662566,22.312936],[120.663013,22.313399],[120.66332,22.31421],[120.664447,22.314992],[120.664719,22.315893],[120.665482,22.315874],[120.665615,22.316003],[120.664755,22.318077],[120.664885,22.318995],[120.665568,22.319548],[120.665833,22.320533],[120.665723,22.320797],[120.665304,22.320766],[120.665058,22.320975],[120.665,22.321155],[120.665257,22.32136],[120.665081,22.322181],[120.666023,22.322009],[120.666399,22.322604],[120.665746,22.323233],[120.66566,22.324259],[120.666199,22.323798],[120.666941,22.323763],[120.667678,22.323111],[120.668091,22.322974],[120.668469,22.323676],[120.669272,22.323996],[120.669327,22.325046],[120.670637,22.324725],[120.671237,22.324744],[120.671576,22.325664],[120.67193,22.325776],[120.672161,22.326047],[120.671957,22.326785],[120.672505,22.327134],[120.672834,22.327039],[120.6732,22.326416],[120.673923,22.325907],[120.674278,22.325854],[120.674929,22.326059],[120.675161,22.325874],[120.675408,22.325298],[120.676252,22.32525],[120.677741,22.324015],[120.67837,22.323972],[120.678497,22.322734],[120.678704,22.322497],[120.679967,22.322114],[120.680455,22.322777],[120.681236,22.322332],[120.681627,22.321711],[120.68164,22.320919],[120.682531,22.320322],[120.682603,22.320093],[120.682357,22.319846],[120.682912,22.319691],[120.683125,22.319001],[120.683367,22.319017],[120.683909,22.31967],[120.684328,22.31964],[120.684565,22.319189],[120.685186,22.319655],[120.68534,22.319576],[120.68543,22.319154],[120.686174,22.318869],[120.686463,22.319315],[120.687124,22.319603],[120.687349,22.319557],[120.688159,22.318833],[120.689381,22.319041],[120.689787,22.318813],[120.690066,22.318145],[120.690427,22.317992],[120.691013,22.318306],[120.69128,22.318739],[120.69171,22.318464],[120.692139,22.318594],[120.692181,22.31889],[120.692887,22.31989],[120.693491,22.319761],[120.694488,22.319959],[120.694784,22.320446],[120.695088,22.320632],[120.695588,22.320574],[120.69586,22.320724],[120.696415,22.320292],[120.69704,22.320323],[120.70105,22.319592],[120.701834,22.319314],[120.702357,22.31962],[120.712958,22.320265],[120.713465,22.32058],[120.717853,22.322277],[120.723101,22.323663],[120.72439,22.323666],[120.725102,22.323583],[120.72558,22.32337],[120.734671,22.318799],[120.736672,22.318123],[120.740422,22.317222],[120.745338,22.315699],[120.746477,22.315533],[120.746426,22.316177],[120.747243,22.316919],[120.748371,22.316927],[120.749166,22.317342],[120.749856,22.317984],[120.751787,22.318269],[120.752703,22.318605],[120.753019,22.318874],[120.753109,22.319269],[120.751028,22.321415],[120.750701,22.322406],[120.750827,22.322544],[120.751519,22.322349],[120.752583,22.322298],[120.75287,22.323322],[120.753098,22.323518],[120.753512,22.323553],[120.754024,22.323163],[120.754038,22.321788],[120.75433,22.321138],[120.755159,22.320957],[120.755588,22.32105],[120.75585,22.320854],[120.755949,22.320448],[120.756518,22.320821],[120.757782,22.320595],[120.758021,22.321002],[120.758296,22.321162],[120.758506,22.321043],[120.758745,22.32049],[120.760201,22.320644],[120.761455,22.320106],[120.762218,22.320139],[120.763394,22.320563],[120.764308,22.320519],[120.765,22.320933],[120.766236,22.320707],[120.768561,22.320819],[120.769632,22.320339],[120.770296,22.320941],[120.771041,22.321136],[120.771518,22.32143],[120.77382,22.321564],[120.77418,22.32177],[120.775124,22.321546],[120.77616,22.322184],[120.777072,22.32217],[120.777945,22.322333],[120.778725,22.322779],[120.77919,22.323376],[120.779096,22.324046],[120.779409,22.324674],[120.77955,22.325795],[120.779186,22.327386],[120.779372,22.327808],[120.781245,22.329552],[120.781349,22.3298],[120.781487,22.331056],[120.780835,22.332346],[120.781263,22.333652],[120.781801,22.337687],[120.78244,22.340594],[120.782964,22.341593],[120.783678,22.342305],[120.785664,22.343336],[120.785126,22.344484],[120.785057,22.345523],[120.784723,22.345778],[120.783277,22.346184],[120.78106,22.346373],[120.779106,22.347914],[120.777773,22.348096],[120.776815,22.348542],[120.775796,22.348744],[120.775178,22.349353],[120.774053,22.348531],[120.771671,22.348631],[120.770335,22.347788],[120.769514,22.347479],[120.768158,22.347384],[120.767263,22.34761],[120.765256,22.349504],[120.76338,22.352784],[120.76282,22.356692],[120.763153,22.357929],[120.76318,22.358968],[120.762981,22.359145],[120.761004,22.360419],[120.759824,22.360278],[120.758431,22.35945],[120.758102,22.359415],[120.756114,22.36001],[120.755544,22.360397],[120.754901,22.360463],[120.753946,22.360225],[120.752672,22.360395],[120.751749,22.361451],[120.750423,22.362113],[120.74738,22.364137],[120.745378,22.365907],[120.745039,22.365998],[120.743632,22.36698],[120.743458,22.367261]]]},"properties":{"code":"10013320008","name":"南世村","countyCode":"10013","countyName":"屏東縣","townCode":"10013320","townName":"獅子鄉","level":"village","unassigned":false,"note":"","label":[120.74126364684454,22.342152576421682],"bounds":[120.624546,22.308436,120.785664,22.367355],"focusBounds":[120.624546,22.308436,120.785664,22.367355],"color":"#df9f6a"}}]}
