{"type":"FeatureCollection","features":[{"type":"Feature","id":"63000110001","geometry":{"type":"Polygon","coordinates":[[[121.526678,25.091246],[121.525976,25.092333],[121.524421,25.091948],[121.524426,25.091712],[121.523945,25.091135],[121.52418,25.090948],[121.523691,25.090514],[121.525501,25.089998],[121.525039,25.088574],[121.525543,25.086106],[121.526887,25.087892],[121.527247,25.088759],[121.527311,25.089528],[121.526678,25.091246]]]},"properties":{"code":"63000110001","name":"仁勇里","countyCode":"63000","countyName":"臺北市","townCode":"63000110","townName":"士林區","level":"village","unassigned":false,"note":"","label":[121.52629129698433,25.089226050185587],"bounds":[121.523691,25.086106,121.527311,25.092333],"focusBounds":[121.523691,25.086106,121.527311,25.092333],"color":"#a49ad4"}},{"type":"Feature","id":"63000110002","geometry":{"type":"Polygon","coordinates":[[[121.525543,25.086106],[121.525039,25.088574],[121.525501,25.089998],[121.523691,25.090514],[121.52418,25.090948],[121.523945,25.091135],[121.521602,25.088834],[121.523102,25.086199],[121.52352,25.084245],[121.523595,25.084113],[121.525348,25.084182],[121.525668,25.085776],[121.525543,25.086106]]]},"properties":{"code":"63000110002","name":"義信里","countyCode":"63000","countyName":"臺北市","townCode":"63000110","townName":"士林區","level":"village","unassigned":false,"note":"","label":[121.52390779739022,25.087521243655964],"bounds":[121.521602,25.084113,121.525668,25.091135],"focusBounds":[121.521602,25.084113,121.525668,25.091135],"color":"#c38cb8"}},{"type":"Feature","id":"63000110003","geometry":{"type":"Polygon","coordinates":[[[121.538483,25.099276],[121.537136,25.100152],[121.536205,25.099092],[121.532314,25.09655],[121.527901,25.095745],[121.525549,25.095211],[121.526948,25.091319],[121.526678,25.091246],[121.527311,25.089528],[121.527247,25.088759],[121.526887,25.087892],[121.525543,25.086106],[121.525668,25.085776],[121.525348,25.084182],[121.525415,25.083119],[121.525115,25.082112],[121.525255,25.081933],[121.525703,25.081326],[121.526523,25.081663],[121.526936,25.082023],[121.526892,25.082429],[121.528888,25.084502],[121.529196,25.084329],[121.530873,25.08493],[121.531404,25.085941],[121.532745,25.087591],[121.533934,25.088157],[121.535897,25.090128],[121.537995,25.091315],[121.538337,25.09165],[121.539925,25.092087],[121.540807,25.092212],[121.541017,25.092751],[121.541475,25.092868],[121.54176,25.092677],[121.542324,25.091838],[121.542751,25.091715],[121.544064,25.091719],[121.544415,25.091406],[121.545,25.090356],[121.546485,25.090654],[121.547637,25.090658],[121.548973,25.091241],[121.549592,25.091846],[121.550009,25.092749],[121.550026,25.093287],[121.549513,25.094116],[121.548556,25.094181],[121.548461,25.094756],[121.547135,25.094775],[121.544872,25.095943],[121.543852,25.095899],[121.543254,25.096299],[121.542336,25.097642],[121.541231,25.09805],[121.540286,25.098059],[121.539743,25.09827],[121.538972,25.098718],[121.538483,25.099276]]]},"properties":{"code":"63000110003","name":"福林里","countyCode":"63000","countyName":"臺北市","townCode":"63000110","townName":"士林區","level":"village","unassigned":false,"note":"","label":[121.53133082447069,25.091652549422278],"bounds":[121.525115,25.081326,121.550026,25.100152],"focusBounds":[121.525115,25.081326,121.550026,25.100152],"color":"#68bec9"}},{"type":"Feature","id":"63000110004","geometry":{"type":"Polygon","coordinates":[[[121.526678,25.091246],[121.526948,25.091319],[121.525549,25.095211],[121.524638,25.095004],[121.521454,25.09425],[121.51864,25.092427],[121.521602,25.088834],[121.523945,25.091135],[121.524426,25.091712],[121.524421,25.091948],[121.525976,25.092333],[121.526678,25.091246]]]},"properties":{"code":"63000110004","name":"福德里","countyCode":"63000","countyName":"臺北市","townCode":"63000110","townName":"士林區","level":"village","unassigned":false,"note":"","label":[121.52234586581308,25.09239035859641],"bounds":[121.51864,25.088834,121.526948,25.095211],"focusBounds":[121.51864,25.088834,121.526948,25.095211],"color":"#df9f6a"}},{"type":"Feature","id":"63000110005","geometry":{"type":"Polygon","coordinates":[[[121.537136,25.100152],[121.535746,25.100772],[121.534908,25.100869],[121.534436,25.100848],[121.533901,25.100618],[121.532753,25.100631],[121.532357,25.100702],[121.531921,25.100557],[121.529579,25.099564],[121.528149,25.100282],[121.527381,25.100303],[121.526697,25.100081],[121.527901,25.095745],[121.532314,25.09655],[121.536205,25.099092],[121.537136,25.100152]]]},"properties":{"code":"63000110005","name":"福志里","countyCode":"63000","countyName":"臺北市","townCode":"63000110","townName":"士林區","level":"village","unassigned":false,"note":"","label":[121.53146960501618,25.0983809869794],"bounds":[121.526697,25.095745,121.537136,25.100869],"focusBounds":[121.526697,25.095745,121.537136,25.100869],"color":"#58b99d"}},{"type":"Feature","id":"63000110006","geometry":{"type":"Polygon","coordinates":[[[121.526697,25.100081],[121.52612,25.09989],[121.525646,25.100331],[121.525216,25.100214],[121.524077,25.099008],[121.523598,25.098844],[121.524638,25.095004],[121.525549,25.095211],[121.527901,25.095745],[121.526697,25.100081]]]},"properties":{"code":"63000110006","name":"舊佳里","countyCode":"63000","countyName":"臺北市","townCode":"63000110","townName":"士林區","level":"village","unassigned":false,"note":"","label":[121.52567332585906,25.097526757512107],"bounds":[121.523598,25.095004,121.527901,25.100331],"focusBounds":[121.523598,25.095004,121.527901,25.100331],"color":"#98b69b"}},{"type":"Feature","id":"63000110007","geometry":{"type":"Polygon","coordinates":[[[121.523598,25.098844],[121.522399,25.098293],[121.52141,25.098201],[121.52076,25.098384],[121.519571,25.09911],[121.516914,25.099367],[121.515421,25.09908],[121.513101,25.098291],[121.514027,25.09604],[121.515481,25.09629],[121.51864,25.092427],[121.521454,25.09425],[121.524638,25.095004],[121.523598,25.098844]]]},"properties":{"code":"63000110007","name":"福佳里","countyCode":"63000","countyName":"臺北市","townCode":"63000110","townName":"士林區","level":"village","unassigned":false,"note":"","label":[121.51918804590188,25.09622702807198],"bounds":[121.513101,25.092427,121.524638,25.099367],"focusBounds":[121.513101,25.092427,121.524638,25.099367],"color":"#58b99d"}},{"type":"Feature","id":"63000110008","geometry":{"type":"Polygon","coordinates":[[[121.51864,25.092427],[121.515481,25.09629],[121.514027,25.09604],[121.513101,25.098291],[121.512036,25.0979],[121.510453,25.097259],[121.508807,25.095914],[121.509206,25.095849],[121.510272,25.094963],[121.512809,25.092215],[121.51354,25.090643],[121.513654,25.089111],[121.51414,25.089434],[121.515493,25.08934],[121.519888,25.088611],[121.520864,25.088438],[121.521602,25.088834],[121.51864,25.092427]]]},"properties":{"code":"63000110008","name":"後港里","countyCode":"63000","countyName":"臺北市","townCode":"63000110","townName":"士林區","level":"village","unassigned":false,"note":"","label":[121.51558363015299,25.092163686620356],"bounds":[121.508807,25.088438,121.521602,25.098291],"focusBounds":[121.508807,25.088438,121.521602,25.098291],"color":"#efb44f"}},{"type":"Feature","id":"63000110009","geometry":{"type":"Polygon","coordinates":[[[121.519888,25.088611],[121.515493,25.08934],[121.51414,25.089434],[121.513654,25.089111],[121.513988,25.084963],[121.516799,25.085178],[121.516801,25.085039],[121.51726,25.08504],[121.517264,25.08533],[121.519354,25.085069],[121.519465,25.086774],[121.519888,25.088611]]]},"properties":{"code":"63000110009","name":"福中里","countyCode":"63000","countyName":"臺北市","townCode":"63000110","townName":"士林區","level":"village","unassigned":false,"note":"","label":[121.51650805403565,25.087163577534284],"bounds":[121.513654,25.084963,121.519888,25.089434],"focusBounds":[121.513654,25.084963,121.519888,25.089434],"color":"#78a7e3"}},{"type":"Feature","id":"63000110010","geometry":{"type":"Polygon","coordinates":[[[121.52352,25.084245],[121.523102,25.086199],[121.521602,25.088834],[121.520864,25.088438],[121.519888,25.088611],[121.519465,25.086774],[121.519354,25.085069],[121.52029,25.084907],[121.520455,25.083169],[121.521342,25.083695],[121.52352,25.084245]]]},"properties":{"code":"63000110010","name":"前港里","countyCode":"63000","countyName":"臺北市","townCode":"63000110","townName":"士林區","level":"village","unassigned":false,"note":"","label":[121.52128986673281,25.086165332543345],"bounds":[121.519354,25.083169,121.52352,25.088834],"focusBounds":[121.519354,25.083169,121.52352,25.088834],"color":"#dd8590"}},{"type":"Feature","id":"63000110011","geometry":{"type":"Polygon","coordinates":[[[121.519354,25.085069],[121.517264,25.08533],[121.51726,25.08504],[121.516801,25.085039],[121.516799,25.085178],[121.513988,25.084963],[121.513943,25.084042],[121.51422,25.083073],[121.514672,25.082406],[121.516826,25.083276],[121.517664,25.083206],[121.519421,25.083433],[121.519518,25.082442],[121.520455,25.083169],[121.52029,25.084907],[121.519354,25.085069]]]},"properties":{"code":"63000110011","name":"百齡里","countyCode":"63000","countyName":"臺北市","townCode":"63000110","townName":"士林區","level":"village","unassigned":false,"note":"","label":[121.51716009272938,25.084143836330284],"bounds":[121.513943,25.082406,121.520455,25.08533],"focusBounds":[121.513943,25.082406,121.520455,25.08533],"color":"#a49ad4"}},{"type":"Feature","id":"63000110012","geometry":{"type":"Polygon","coordinates":[[[121.525348,25.084182],[121.523595,25.084113],[121.52352,25.084245],[121.521342,25.083695],[121.520455,25.083169],[121.519518,25.082442],[121.522532,25.08099],[121.522418,25.080736],[121.524313,25.080362],[121.524291,25.080864],[121.524539,25.081385],[121.524729,25.08158],[121.525002,25.081603],[121.525255,25.081933],[121.525115,25.082112],[121.525415,25.083119],[121.525348,25.084182]]]},"properties":{"code":"63000110012","name":"承德里","countyCode":"63000","countyName":"臺北市","townCode":"63000110","townName":"士林區","level":"village","unassigned":false,"note":"","label":[121.52322194807114,25.082542032501763],"bounds":[121.519518,25.080362,121.525415,25.084245],"focusBounds":[121.519518,25.080362,121.525415,25.084245],"color":"#a8bf62"}},{"type":"Feature","id":"63000110013","geometry":{"type":"Polygon","coordinates":[[[121.519518,25.082442],[121.519421,25.083433],[121.517664,25.083206],[121.516826,25.083276],[121.514672,25.082406],[121.516219,25.080242],[121.516258,25.080223],[121.518229,25.080714],[121.519287,25.081474],[121.522139,25.080222],[121.522418,25.080736],[121.522532,25.08099],[121.519518,25.082442]]]},"properties":{"code":"63000110013","name":"福華里","countyCode":"63000","countyName":"臺北市","townCode":"63000110","townName":"士林區","level":"village","unassigned":false,"note":"","label":[121.51750185952591,25.081876047006766],"bounds":[121.514672,25.080222,121.522532,25.083433],"focusBounds":[121.514672,25.080222,121.522532,25.083433],"color":"#68bec9"}},{"type":"Feature","id":"63000110014","geometry":{"type":"Polygon","coordinates":[[[121.522418,25.080736],[121.522139,25.080222],[121.519287,25.081474],[121.518229,25.080714],[121.516258,25.080223],[121.51846,25.078899],[121.520883,25.077999],[121.522501,25.077111],[121.523618,25.076244],[121.524974,25.074335],[121.525192,25.074242],[121.525654,25.074579],[121.525775,25.075237],[121.525226,25.076797],[121.525042,25.077997],[121.524313,25.080362],[121.522418,25.080736]]]},"properties":{"code":"63000110014","name":"明勝里","countyCode":"63000","countyName":"臺北市","townCode":"63000110","townName":"士林區","level":"village","unassigned":false,"note":"","label":[121.52283470494349,25.078752728068714],"bounds":[121.516258,25.074242,121.525775,25.081474],"focusBounds":[121.516258,25.074242,121.525775,25.081474],"color":"#df9f6a"}},{"type":"Feature","id":"63000110015","geometry":{"type":"Polygon","coordinates":[[[121.514672,25.082406],[121.51422,25.083073],[121.513943,25.084042],[121.511672,25.083805],[121.510083,25.083362],[121.510229,25.082627],[121.510596,25.080964],[121.511271,25.078985],[121.513307,25.079951],[121.513125,25.080633],[121.513542,25.080792],[121.514113,25.079413],[121.516219,25.080242],[121.514672,25.082406]]]},"properties":{"code":"63000110015","name":"福順里","countyCode":"63000","countyName":"臺北市","townCode":"63000110","townName":"士林區","level":"village","unassigned":false,"note":"","label":[121.51212147572002,25.08197086492003],"bounds":[121.510083,25.078985,121.516219,25.084042],"focusBounds":[121.510083,25.078985,121.516219,25.084042],"color":"#c38cb8"}},{"type":"Feature","id":"63000110016","geometry":{"type":"Polygon","coordinates":[[[121.510229,25.082627],[121.50791,25.082703],[121.507951,25.082578],[121.503464,25.081263],[121.504052,25.080088],[121.504678,25.078121],[121.508228,25.078402],[121.508821,25.078734],[121.509619,25.078681],[121.509795,25.078858],[121.511271,25.078985],[121.510596,25.080964],[121.510229,25.082627]]]},"properties":{"code":"63000110016","name":"富光里","countyCode":"63000","countyName":"臺北市","townCode":"63000110","townName":"士林區","level":"village","unassigned":false,"note":"","label":[121.50746597002984,25.080388543954037],"bounds":[121.503464,25.078121,121.511271,25.082703],"focusBounds":[121.503464,25.078121,121.511271,25.082703],"color":"#98b69b"}},{"type":"Feature","id":"63000110017","geometry":{"type":"Polygon","coordinates":[[[121.510083,25.083362],[121.509252,25.086695],[121.501642,25.084489],[121.502513,25.083197],[121.503464,25.081263],[121.507951,25.082578],[121.50791,25.082703],[121.510229,25.082627],[121.510083,25.083362]]]},"properties":{"code":"63000110017","name":"葫蘆里","countyCode":"63000","countyName":"臺北市","townCode":"63000110","townName":"士林區","level":"village","unassigned":false,"note":"","label":[121.50619950089728,25.08393724397994],"bounds":[121.501642,25.081263,121.510229,25.086695],"focusBounds":[121.501642,25.081263,121.510229,25.086695],"color":"#58b99d"}},{"type":"Feature","id":"63000110018","geometry":{"type":"Polygon","coordinates":[[[121.513988,25.084963],[121.513654,25.089111],[121.510629,25.087057],[121.509854,25.086756],[121.509252,25.086695],[121.510083,25.083362],[121.511672,25.083805],[121.513943,25.084042],[121.513988,25.084963]]]},"properties":{"code":"63000110018","name":"葫東里","countyCode":"63000","countyName":"臺北市","townCode":"63000110","townName":"士林區","level":"village","unassigned":false,"note":"","label":[121.51195838532816,25.085762061525415],"bounds":[121.509252,25.083362,121.513988,25.089111],"focusBounds":[121.509252,25.083362,121.513988,25.089111],"color":"#efb44f"}},{"type":"Feature","id":"63000110019","geometry":{"type":"Polygon","coordinates":[[[121.508807,25.095914],[121.508379,25.095803],[121.507857,25.095936],[121.507558,25.095166],[121.508516,25.094081],[121.508801,25.09146],[121.50841,25.09023],[121.507844,25.089424],[121.507965,25.088952],[121.508822,25.087974],[121.509252,25.086695],[121.509854,25.086756],[121.510629,25.087057],[121.513654,25.089111],[121.51354,25.090643],[121.512809,25.092215],[121.510272,25.094963],[121.509206,25.095849],[121.508807,25.095914]]]},"properties":{"code":"63000110019","name":"社子里","countyCode":"63000","countyName":"臺北市","townCode":"63000110","townName":"士林區","level":"village","unassigned":false,"note":"","label":[121.51101886285379,25.090389427532017],"bounds":[121.507558,25.086695,121.513654,25.095936],"focusBounds":[121.507558,25.086695,121.513654,25.095936],"color":"#78a7e3"}},{"type":"Feature","id":"63000110020","geometry":{"type":"Polygon","coordinates":[[[121.505286,25.089392],[121.503486,25.089408],[121.501307,25.090518],[121.498583,25.088368],[121.499767,25.087235],[121.501642,25.084489],[121.509252,25.086695],[121.508822,25.087974],[121.507965,25.088952],[121.507029,25.08952],[121.505286,25.089392]]]},"properties":{"code":"63000110020","name":"社新里","countyCode":"63000","countyName":"臺北市","townCode":"63000110","townName":"士林區","level":"village","unassigned":false,"note":"","label":[121.50331982695988,25.087234016258144],"bounds":[121.498583,25.084489,121.509252,25.090518],"focusBounds":[121.498583,25.084489,121.509252,25.090518],"color":"#dd8590"}},{"type":"Feature","id":"63000110021","geometry":{"type":"Polygon","coordinates":[[[121.507857,25.095936],[121.506336,25.096361],[121.505687,25.0921],[121.505162,25.09221],[121.504985,25.0914],[121.505286,25.089392],[121.507029,25.08952],[121.507965,25.088952],[121.507844,25.089424],[121.50841,25.09023],[121.508801,25.09146],[121.508516,25.094081],[121.507558,25.095166],[121.507857,25.095936]]]},"properties":{"code":"63000110021","name":"社園里","countyCode":"63000","countyName":"臺北市","townCode":"63000110","townName":"士林區","level":"village","unassigned":false,"note":"","label":[121.50721269422031,25.092108187995333],"bounds":[121.504985,25.088952,121.508801,25.096361],"focusBounds":[121.504985,25.088952,121.508801,25.096361],"color":"#a49ad4"}},{"type":"Feature","id":"63000110022","geometry":{"type":"Polygon","coordinates":[[[121.506336,25.096361],[121.504912,25.096475],[121.502129,25.096424],[121.5007,25.096664],[121.500128,25.093906],[121.498533,25.094132],[121.497814,25.093913],[121.495343,25.091202],[121.498583,25.088368],[121.501307,25.090518],[121.503486,25.089408],[121.505286,25.089392],[121.504985,25.0914],[121.505162,25.09221],[121.505687,25.0921],[121.506336,25.096361]]]},"properties":{"code":"63000110022","name":"永倫里","countyCode":"63000","countyName":"臺北市","townCode":"63000110","townName":"士林區","level":"village","unassigned":false,"note":"","label":[121.50267084439092,25.093128286099518],"bounds":[121.495343,25.088368,121.506336,25.096664],"focusBounds":[121.495343,25.088368,121.506336,25.096664],"color":"#a8bf62"}},{"type":"Feature","id":"63000110023","geometry":{"type":"Polygon","coordinates":[[[121.494979,25.112824],[121.491481,25.114946],[121.490423,25.115238],[121.489048,25.115341],[121.487091,25.11499],[121.480531,25.113004],[121.477909,25.112384],[121.475347,25.111437],[121.476109,25.111553],[121.478628,25.109303],[121.480662,25.109649],[121.483137,25.109518],[121.485965,25.109764],[121.486227,25.109487],[121.486418,25.109497],[121.486533,25.108598],[121.486979,25.108007],[121.492197,25.10758],[121.493151,25.107679],[121.494296,25.106291],[121.48831,25.103799],[121.487215,25.103623],[121.487186,25.103366],[121.486848,25.103265],[121.486818,25.102778],[121.486423,25.10201],[121.484138,25.099479],[121.486071,25.098768],[121.488748,25.09714],[121.491148,25.094765],[121.495343,25.091202],[121.497814,25.093913],[121.498533,25.094132],[121.500128,25.093906],[121.5007,25.096664],[121.499467,25.097384],[121.497573,25.09807],[121.497179,25.098542],[121.496934,25.100453],[121.497115,25.105071],[121.496822,25.108786],[121.496452,25.110264],[121.495899,25.111578],[121.494979,25.112824]]]},"properties":{"code":"63000110023","name":"福安里","countyCode":"63000","countyName":"臺北市","townCode":"63000110","townName":"士林區","level":"village","unassigned":false,"note":"","label":[121.49213478114378,25.100235210278736],"bounds":[121.475347,25.091202,121.5007,25.115341],"focusBounds":[121.475347,25.091202,121.5007,25.115341],"color":"#df9f6a"}},{"type":"Feature","id":"63000110024","geometry":{"type":"Polygon","coordinates":[[[121.475347,25.111437],[121.473534,25.110835],[121.472322,25.110661],[121.46988,25.110723],[121.468613,25.110952],[121.466886,25.111696],[121.463326,25.114031],[121.461956,25.115056],[121.46093,25.116181],[121.459028,25.112722],[121.458176,25.111412],[121.457195,25.108648],[121.457294,25.107194],[121.457792,25.106587],[121.461396,25.103853],[121.462667,25.103164],[121.463737,25.102606],[121.466384,25.101655],[121.473212,25.10159],[121.478716,25.101339],[121.481169,25.100847],[121.484138,25.099479],[121.486423,25.10201],[121.486818,25.102778],[121.486848,25.103265],[121.487186,25.103366],[121.487215,25.103623],[121.48831,25.103799],[121.494296,25.106291],[121.493151,25.107679],[121.492197,25.10758],[121.486979,25.108007],[121.486533,25.108598],[121.486418,25.109497],[121.486227,25.109487],[121.485965,25.109764],[121.483137,25.109518],[121.480662,25.109649],[121.478628,25.109303],[121.476109,25.111553],[121.475347,25.111437]]]},"properties":{"code":"63000110024","name":"富洲里","countyCode":"63000","countyName":"臺北市","townCode":"63000110","townName":"士林區","level":"village","unassigned":false,"note":"","label":[121.47351968839438,25.10620441185193],"bounds":[121.457195,25.099479,121.494296,25.116181],"focusBounds":[121.457195,25.099479,121.494296,25.116181],"color":"#c38cb8"}},{"type":"Feature","id":"63000110025","geometry":{"type":"Polygon","coordinates":[[[121.538946,25.103124],[121.538512,25.103648],[121.537504,25.105652],[121.537042,25.106266],[121.537001,25.106621],[121.537252,25.107325],[121.536434,25.108419],[121.535784,25.108541],[121.534714,25.108074],[121.534434,25.107601],[121.533351,25.107661],[121.53271,25.10774],[121.532379,25.106585],[121.531285,25.105766],[121.531152,25.104595],[121.532763,25.104277],[121.533149,25.104014],[121.53346,25.103443],[121.533607,25.101391],[121.533436,25.101304],[121.532902,25.101513],[121.532753,25.100631],[121.533901,25.100618],[121.534436,25.100848],[121.534908,25.100869],[121.535746,25.100772],[121.537136,25.100152],[121.538483,25.099276],[121.538515,25.099589],[121.539106,25.099938],[121.539931,25.100705],[121.540028,25.101644],[121.539439,25.102093],[121.538946,25.103124]]]},"properties":{"code":"63000110025","name":"岩山里","countyCode":"63000","countyName":"臺北市","townCode":"63000110","townName":"士林區","level":"village","unassigned":false,"note":"","label":[121.5357425385292,25.103841019714068],"bounds":[121.531152,25.099276,121.540028,25.108541],"focusBounds":[121.531152,25.099276,121.540028,25.108541],"color":"#c38cb8"}},{"type":"Feature","id":"63000110026","geometry":{"type":"Polygon","coordinates":[[[121.532753,25.100631],[121.532902,25.101513],[121.533436,25.101304],[121.533607,25.101391],[121.53346,25.103443],[121.533149,25.104014],[121.532763,25.104277],[121.531152,25.104595],[121.531285,25.105766],[121.530686,25.105439],[121.52976,25.105357],[121.528881,25.105498],[121.527223,25.104431],[121.526306,25.104165],[121.524826,25.103997],[121.526697,25.100081],[121.527381,25.100303],[121.528149,25.100282],[121.529579,25.099564],[121.531921,25.100557],[121.532357,25.100702],[121.532753,25.100631]]]},"properties":{"code":"63000110026","name":"名山里","countyCode":"63000","countyName":"臺北市","townCode":"63000110","townName":"士林區","level":"village","unassigned":false,"note":"","label":[121.52947268645065,25.102510504248652],"bounds":[121.524826,25.099564,121.533607,25.105766],"focusBounds":[121.524826,25.099564,121.533607,25.105766],"color":"#98b69b"}},{"type":"Feature","id":"63000110027","geometry":{"type":"Polygon","coordinates":[[[121.524826,25.103997],[121.52489,25.106453],[121.523326,25.105686],[121.522151,25.104721],[121.522689,25.101859],[121.523598,25.098844],[121.524077,25.099008],[121.525216,25.100214],[121.525646,25.100331],[121.52612,25.09989],[121.526697,25.100081],[121.524826,25.103997]]]},"properties":{"code":"63000110027","name":"德行里","countyCode":"63000","countyName":"臺北市","townCode":"63000110","townName":"士林區","level":"village","unassigned":false,"note":"","label":[121.52408038174552,25.102223965783317],"bounds":[121.522151,25.098844,121.526697,25.106453],"focusBounds":[121.522151,25.098844,121.526697,25.106453],"color":"#58b99d"}},{"type":"Feature","id":"63000110028","geometry":{"type":"Polygon","coordinates":[[[121.523598,25.098844],[121.522689,25.101859],[121.522151,25.104721],[121.5196,25.103254],[121.51926,25.10385],[121.518676,25.103601],[121.518337,25.103148],[121.517594,25.101337],[121.51767,25.100455],[121.517281,25.09972],[121.516914,25.099367],[121.519571,25.09911],[121.52076,25.098384],[121.52141,25.098201],[121.522399,25.098293],[121.523598,25.098844]]]},"properties":{"code":"63000110028","name":"德華里","countyCode":"63000","countyName":"臺北市","townCode":"63000110","townName":"士林區","level":"village","unassigned":false,"note":"","label":[121.52052660141548,25.101156663340344],"bounds":[121.516914,25.098201,121.523598,25.104721],"focusBounds":[121.516914,25.098201,121.523598,25.104721],"color":"#efb44f"}},{"type":"Feature","id":"63000110029","geometry":{"type":"Polygon","coordinates":[[[121.533351,25.107661],[121.533594,25.108904],[121.533827,25.10899],[121.534128,25.109717],[121.530312,25.108364],[121.52989,25.106883],[121.528881,25.105498],[121.52976,25.105357],[121.530686,25.105439],[121.531285,25.105766],[121.532379,25.106585],[121.53271,25.10774],[121.533351,25.107661]]]},"properties":{"code":"63000110029","name":"聖山里","countyCode":"63000","countyName":"臺北市","townCode":"63000110","townName":"士林區","level":"village","unassigned":false,"note":"","label":[121.53126869203841,25.107349210536903],"bounds":[121.528881,25.105357,121.534128,25.109717],"focusBounds":[121.528881,25.105357,121.534128,25.109717],"color":"#78a7e3"}},{"type":"Feature","id":"63000110030","geometry":{"type":"Polygon","coordinates":[[[121.528881,25.105498],[121.52989,25.106883],[121.530312,25.108364],[121.529024,25.107911],[121.52489,25.106453],[121.524826,25.103997],[121.526306,25.104165],[121.527223,25.104431],[121.528881,25.105498]]]},"properties":{"code":"63000110030","name":"忠誠里","countyCode":"63000","countyName":"臺北市","townCode":"63000110","townName":"士林區","level":"village","unassigned":false,"note":"","label":[121.52710386452019,25.10593971933835],"bounds":[121.524826,25.103997,121.530312,25.108364],"focusBounds":[121.524826,25.103997,121.530312,25.108364],"color":"#dd8590"}},{"type":"Feature","id":"63000110031","geometry":{"type":"Polygon","coordinates":[[[121.549981,25.118943],[121.547679,25.119017],[121.546453,25.118882],[121.546349,25.119255],[121.546104,25.119264],[121.545736,25.119529],[121.546094,25.117993],[121.545536,25.116206],[121.54294,25.112852],[121.542074,25.11198],[121.541681,25.111985],[121.541146,25.112257],[121.540747,25.11221],[121.540605,25.111726],[121.540792,25.11133],[121.540729,25.110841],[121.540413,25.110432],[121.54006,25.110473],[121.539943,25.110676],[121.537573,25.110292],[121.537349,25.113459],[121.534551,25.112829],[121.535078,25.109877],[121.534128,25.109717],[121.533827,25.10899],[121.533594,25.108904],[121.533351,25.107661],[121.534434,25.107601],[121.534714,25.108074],[121.535784,25.108541],[121.536434,25.108419],[121.537252,25.107325],[121.537001,25.106621],[121.537042,25.106266],[121.537504,25.105652],[121.538512,25.103648],[121.538946,25.103124],[121.539663,25.103969],[121.540509,25.104067],[121.540696,25.104648],[121.541041,25.105094],[121.541203,25.105787],[121.541878,25.106042],[121.542149,25.10631],[121.542754,25.107214],[121.54365,25.109295],[121.544368,25.110267],[121.545166,25.110682],[121.549759,25.112137],[121.550283,25.113709],[121.550911,25.115238],[121.550986,25.116438],[121.550544,25.118021],[121.549981,25.118943]]]},"properties":{"code":"63000110031","name":"芝山里","countyCode":"63000","countyName":"臺北市","townCode":"63000110","townName":"士林區","level":"village","unassigned":false,"note":"","label":[121.53977113932862,25.107715872650907],"bounds":[121.533351,25.103124,121.550986,25.119529],"focusBounds":[121.533351,25.103124,121.550986,25.119529],"color":"#a49ad4"}},{"type":"Feature","id":"63000110032","geometry":{"type":"Polygon","coordinates":[[[121.546542,25.127676],[121.546022,25.1291],[121.545677,25.129352],[121.545116,25.130291],[121.544622,25.13122],[121.544486,25.131816],[121.543975,25.132492],[121.543524,25.132421],[121.542675,25.133143],[121.54273,25.133582],[121.541521,25.131836],[121.539926,25.128726],[121.5393,25.125536],[121.539515,25.125311],[121.540675,25.125747],[121.540909,25.125096],[121.540882,25.122831],[121.541908,25.121603],[121.541907,25.121378],[121.54144,25.120892],[121.541484,25.120386],[121.540907,25.119646],[121.540229,25.119015],[121.538937,25.118155],[121.539145,25.113908],[121.537349,25.113459],[121.537573,25.110292],[121.539943,25.110676],[121.54006,25.110473],[121.540413,25.110432],[121.540729,25.110841],[121.540792,25.11133],[121.540605,25.111726],[121.540747,25.11221],[121.541146,25.112257],[121.541681,25.111985],[121.542074,25.11198],[121.54294,25.112852],[121.545536,25.116206],[121.546094,25.117993],[121.545736,25.119529],[121.546104,25.119264],[121.546349,25.119255],[121.546453,25.118882],[121.547679,25.119017],[121.549981,25.118943],[121.546542,25.127676]]]},"properties":{"code":"63000110032","name":"東山里","countyCode":"63000","countyName":"臺北市","townCode":"63000110","townName":"士林區","level":"village","unassigned":false,"note":"","label":[121.54469598331339,25.123387193018225],"bounds":[121.537349,25.110292,121.549981,25.133582],"focusBounds":[121.537349,25.110292,121.549981,25.133582],"color":"#df9f6a"}},{"type":"Feature","id":"63000110033","geometry":{"type":"Polygon","coordinates":[[[121.537349,25.113459],[121.539145,25.113908],[121.538937,25.118155],[121.534655,25.118073],[121.534533,25.117418],[121.534071,25.116447],[121.531795,25.113435],[121.531056,25.112386],[121.530004,25.112234],[121.529024,25.107911],[121.530312,25.108364],[121.534128,25.109717],[121.535078,25.109877],[121.534551,25.112829],[121.537349,25.113459]]]},"properties":{"code":"63000110033","name":"三玉里","countyCode":"63000","countyName":"臺北市","townCode":"63000110","townName":"士林區","level":"village","unassigned":false,"note":"","label":[121.5363840963081,25.115673821856625],"bounds":[121.529024,25.107911,121.539145,25.118155],"focusBounds":[121.529024,25.107911,121.539145,25.118155],"color":"#68bec9"}},{"type":"Feature","id":"63000110034","geometry":{"type":"Polygon","coordinates":[[[121.529024,25.107911],[121.530004,25.112234],[121.525945,25.111682],[121.525601,25.110891],[121.52489,25.106453],[121.529024,25.107911]]]},"properties":{"code":"63000110034","name":"蘭雅里","countyCode":"63000","countyName":"臺北市","townCode":"63000110","townName":"士林區","level":"village","unassigned":false,"note":"","label":[121.52740120297011,25.109609162157803],"bounds":[121.52489,25.106453,121.530004,25.112234],"focusBounds":[121.52489,25.106453,121.530004,25.112234],"color":"#df9f6a"}},{"type":"Feature","id":"63000110035","geometry":{"type":"Polygon","coordinates":[[[121.526514,25.112752],[121.526305,25.112851],[121.526013,25.113572],[121.525418,25.113769],[121.525812,25.112833],[121.525245,25.111463],[121.524733,25.11125],[121.522775,25.110939],[121.522625,25.110792],[121.522609,25.109919],[121.522445,25.109489],[121.521154,25.108917],[121.521284,25.107102],[121.521076,25.106456],[121.520013,25.10439],[121.51926,25.10385],[121.5196,25.103254],[121.522151,25.104721],[121.523326,25.105686],[121.52489,25.106453],[121.525601,25.110891],[121.525945,25.111682],[121.526514,25.112752]]]},"properties":{"code":"63000110035","name":"蘭興里","countyCode":"63000","countyName":"臺北市","townCode":"63000110","townName":"士林區","level":"village","unassigned":false,"note":"","label":[121.52318967315682,25.10779464610131],"bounds":[121.51926,25.103254,121.526514,25.113769],"focusBounds":[121.51926,25.103254,121.526514,25.113769],"color":"#c38cb8"}},{"type":"Feature","id":"63000110036","geometry":{"type":"Polygon","coordinates":[[[121.534568,25.118071],[121.531699,25.117995],[121.530068,25.118254],[121.528575,25.116412],[121.529638,25.114424],[121.531795,25.113435],[121.534071,25.116447],[121.534533,25.117418],[121.534655,25.118073],[121.534568,25.118071]]]},"properties":{"code":"63000110036","name":"天福里","countyCode":"63000","countyName":"臺北市","townCode":"63000110","townName":"士林區","level":"village","unassigned":false,"note":"","label":[121.53149002009332,25.116148713316605],"bounds":[121.528575,25.113435,121.534655,25.118254],"focusBounds":[121.528575,25.113435,121.534655,25.118254],"color":"#98b69b"}},{"type":"Feature","id":"63000110037","geometry":{"type":"Polygon","coordinates":[[[121.531795,25.113435],[121.529638,25.114424],[121.528575,25.116412],[121.526514,25.112752],[121.525945,25.111682],[121.530004,25.112234],[121.531056,25.112386],[121.531795,25.113435]]]},"properties":{"code":"63000110037","name":"天祿里","countyCode":"63000","countyName":"臺北市","townCode":"63000110","townName":"士林區","level":"village","unassigned":false,"note":"","label":[121.5285646239203,25.113550671604983],"bounds":[121.525945,25.111682,121.531795,25.116412],"focusBounds":[121.525945,25.111682,121.531795,25.116412],"color":"#58b99d"}},{"type":"Feature","id":"63000110038","geometry":{"type":"Polygon","coordinates":[[[121.530144,25.118347],[121.525066,25.11845],[121.523999,25.118627],[121.523577,25.117713],[121.523625,25.117237],[121.524979,25.116132],[121.52506,25.114635],[121.525418,25.113769],[121.526013,25.113572],[121.526305,25.112851],[121.526514,25.112752],[121.528575,25.116412],[121.530068,25.118254],[121.530144,25.118347]]]},"properties":{"code":"63000110038","name":"天壽里","countyCode":"63000","countyName":"臺北市","townCode":"63000110","townName":"士林區","level":"village","unassigned":false,"note":"","label":[121.52658690939745,25.11654572958922],"bounds":[121.523577,25.112752,121.530144,25.118627],"focusBounds":[121.523577,25.112752,121.530144,25.118627],"color":"#efb44f"}},{"type":"Feature","id":"63000110039","geometry":{"type":"Polygon","coordinates":[[[121.538937,25.118155],[121.53931,25.118629],[121.539366,25.118975],[121.539347,25.123201],[121.53766,25.123264],[121.536988,25.123453],[121.536366,25.124398],[121.536381,25.124826],[121.536163,25.12529],[121.536475,25.12563],[121.536401,25.126237],[121.535308,25.12584],[121.534455,25.125747],[121.533719,25.125288],[121.533841,25.124676],[121.534075,25.124462],[121.533877,25.123946],[121.533952,25.123355],[121.532814,25.120788],[121.533266,25.119907],[121.534047,25.119378],[121.534575,25.118398],[121.534568,25.118071],[121.534655,25.118073],[121.538937,25.118155]]]},"properties":{"code":"63000110039","name":"天和里","countyCode":"63000","countyName":"臺北市","townCode":"63000110","townName":"士林區","level":"village","unassigned":false,"note":"","label":[121.53620967553032,25.12089763285367],"bounds":[121.532814,25.118071,121.539366,25.126237],"focusBounds":[121.532814,25.118071,121.539366,25.126237],"color":"#78a7e3"}},{"type":"Feature","id":"63000110040","geometry":{"type":"Polygon","coordinates":[[[121.534568,25.118071],[121.534575,25.118398],[121.534047,25.119378],[121.533266,25.119907],[121.532814,25.120788],[121.533952,25.123355],[121.533877,25.123946],[121.534075,25.124462],[121.533841,25.124676],[121.533719,25.125288],[121.532764,25.124696],[121.531541,25.12149],[121.530523,25.118816],[121.530144,25.118347],[121.530068,25.118254],[121.531699,25.117995],[121.534568,25.118071]]]},"properties":{"code":"63000110040","name":"天山里","countyCode":"63000","countyName":"臺北市","townCode":"63000110","townName":"士林區","level":"village","unassigned":false,"note":"","label":[121.53212918687063,25.119290269654762],"bounds":[121.530068,25.117995,121.534575,25.125288],"focusBounds":[121.530068,25.117995,121.534575,25.125288],"color":"#dd8590"}},{"type":"Feature","id":"63000110041","geometry":{"type":"Polygon","coordinates":[[[121.531541,25.12149],[121.529353,25.12218],[121.528497,25.122261],[121.528201,25.12249],[121.52753,25.12213],[121.527122,25.122338],[121.526784,25.122239],[121.526352,25.123313],[121.525879,25.12258],[121.525614,25.121696],[121.525734,25.120721],[121.524747,25.120066],[121.523999,25.118627],[121.525066,25.11845],[121.530144,25.118347],[121.530523,25.118816],[121.531541,25.12149]]]},"properties":{"code":"63000110041","name":"天玉里","countyCode":"63000","countyName":"臺北市","townCode":"63000110","townName":"士林區","level":"village","unassigned":false,"note":"","label":[121.52789633670554,25.120359298132172],"bounds":[121.523999,25.118347,121.531541,25.123313],"focusBounds":[121.523999,25.118347,121.531541,25.123313],"color":"#68bec9"}},{"type":"Feature","id":"63000110042","geometry":{"type":"Polygon","coordinates":[[[121.54273,25.133582],[121.541172,25.134252],[121.540744,25.134633],[121.539884,25.134949],[121.539685,25.13515],[121.537047,25.135545],[121.537069,25.135791],[121.537302,25.135982],[121.538129,25.136243],[121.538815,25.137152],[121.540511,25.137559],[121.541121,25.137842],[121.541725,25.137881],[121.542135,25.13833],[121.542589,25.138462],[121.542606,25.139076],[121.542797,25.139316],[121.543484,25.1393],[121.543153,25.140503],[121.542513,25.141089],[121.542382,25.141414],[121.542501,25.141855],[121.542368,25.142522],[121.541993,25.14217],[121.541869,25.141732],[121.541294,25.141263],[121.540478,25.141575],[121.540021,25.141563],[121.539511,25.141213],[121.539238,25.140452],[121.538454,25.14031],[121.537981,25.139906],[121.537229,25.139788],[121.536519,25.139175],[121.534924,25.139171],[121.534741,25.139037],[121.534571,25.138484],[121.533732,25.138256],[121.533271,25.137476],[121.532242,25.137211],[121.531517,25.137314],[121.53062,25.135977],[121.530334,25.134386],[121.530388,25.134199],[121.531087,25.133812],[121.531207,25.132959],[121.530802,25.132044],[121.53117,25.130279],[121.531407,25.127907],[121.531005,25.126822],[121.52982,25.126259],[121.529736,25.125327],[121.529504,25.124266],[121.528509,25.123819],[121.526745,25.12366],[121.526352,25.123313],[121.526784,25.122239],[121.527122,25.122338],[121.52753,25.12213],[121.528201,25.12249],[121.528497,25.122261],[121.529353,25.12218],[121.531541,25.12149],[121.532764,25.124696],[121.533719,25.125288],[121.534455,25.125747],[121.535308,25.12584],[121.536401,25.126237],[121.536475,25.12563],[121.536163,25.12529],[121.536381,25.124826],[121.536366,25.124398],[121.536988,25.123453],[121.53766,25.123264],[121.539347,25.123201],[121.539366,25.118975],[121.53931,25.118629],[121.538937,25.118155],[121.540229,25.119015],[121.540907,25.119646],[121.541484,25.120386],[121.54144,25.120892],[121.541907,25.121378],[121.541908,25.121603],[121.540882,25.122831],[121.540909,25.125096],[121.540675,25.125747],[121.539515,25.125311],[121.5393,25.125536],[121.539926,25.128726],[121.541521,25.131836],[121.54273,25.133582]]]},"properties":{"code":"63000110042","name":"天母里","countyCode":"63000","countyName":"臺北市","townCode":"63000110","townName":"士林區","level":"village","unassigned":false,"note":"","label":[121.53595417452414,25.131066535180942],"bounds":[121.526352,25.118155,121.543484,25.142522],"focusBounds":[121.526352,25.118155,121.543484,25.142522],"color":"#a8bf62"}},{"type":"Feature","id":"63000110043","geometry":{"type":"Polygon","coordinates":[[[121.556805,25.113171],[121.556264,25.11415],[121.556309,25.115888],[121.556486,25.116621],[121.555629,25.115784],[121.555218,25.114704],[121.553993,25.115081],[121.553498,25.114999],[121.55284,25.114361],[121.551594,25.113578],[121.550283,25.113709],[121.549759,25.112137],[121.545166,25.110682],[121.544368,25.110267],[121.54365,25.109295],[121.542754,25.107214],[121.542149,25.10631],[121.541878,25.106042],[121.541203,25.105787],[121.541041,25.105094],[121.540696,25.104648],[121.540509,25.104067],[121.539663,25.103969],[121.538946,25.103124],[121.539439,25.102093],[121.540028,25.101644],[121.539931,25.100705],[121.539106,25.099938],[121.540079,25.099308],[121.543193,25.09833],[121.543662,25.098416],[121.543929,25.098789],[121.544531,25.098875],[121.544907,25.099357],[121.544738,25.101973],[121.544848,25.102291],[121.545186,25.10262],[121.548887,25.103749],[121.552588,25.107351],[121.554042,25.109368],[121.55497,25.110131],[121.555203,25.110584],[121.555146,25.111144],[121.555583,25.111945],[121.556624,25.113216],[121.556805,25.113171]]]},"properties":{"code":"63000110043","name":"永福里","countyCode":"63000","countyName":"臺北市","townCode":"63000110","townName":"士林區","level":"village","unassigned":false,"note":"","label":[121.54731176986752,25.10731496661205],"bounds":[121.538946,25.09833,121.556805,25.116621],"focusBounds":[121.538946,25.09833,121.556805,25.116621],"color":"#68bec9"}},{"type":"Feature","id":"63000110044","geometry":{"type":"Polygon","coordinates":[[[121.567723,25.124227],[121.566631,25.125419],[121.565234,25.127944],[121.565856,25.128533],[121.566197,25.129123],[121.566277,25.130026],[121.567247,25.131244],[121.565265,25.131949],[121.564052,25.134453],[121.563,25.135112],[121.560736,25.136111],[121.559765,25.139431],[121.558726,25.140206],[121.55887,25.140951],[121.558563,25.141466],[121.558255,25.14165],[121.557719,25.141472],[121.556984,25.14096],[121.556785,25.140626],[121.556867,25.139931],[121.556753,25.1397],[121.556188,25.139445],[121.555877,25.139035],[121.555397,25.138805],[121.554777,25.138833],[121.554551,25.138602],[121.554387,25.137958],[121.555044,25.137795],[121.555718,25.137324],[121.558814,25.136422],[121.559521,25.135555],[121.560592,25.132733],[121.559356,25.129898],[121.559439,25.127792],[121.559141,25.126336],[121.558695,25.12555],[121.558344,25.12535],[121.556755,25.125004],[121.556319,25.124728],[121.557139,25.12405],[121.557435,25.123486],[121.557209,25.123111],[121.556723,25.122748],[121.557001,25.118957],[121.55679,25.117865],[121.55639,25.117316],[121.556486,25.116621],[121.556309,25.115888],[121.556264,25.11415],[121.556805,25.113171],[121.557032,25.112885],[121.558339,25.113913],[121.559633,25.115312],[121.564334,25.118576],[121.564831,25.121528],[121.565941,25.121671],[121.566359,25.123302],[121.567435,25.123853],[121.567723,25.124227]]]},"properties":{"code":"63000110044","name":"公館里","countyCode":"63000","countyName":"臺北市","townCode":"63000110","townName":"士林區","level":"village","unassigned":false,"note":"","label":[121.56234612468378,25.124479144967943],"bounds":[121.554387,25.112885,121.567723,25.14165],"focusBounds":[121.554387,25.112885,121.567723,25.14165],"color":"#df9f6a"}},{"type":"Feature","id":"63000110045","geometry":{"type":"Polygon","coordinates":[[[121.556486,25.116621],[121.55639,25.117316],[121.55679,25.117865],[121.557001,25.118957],[121.556723,25.122748],[121.557209,25.123111],[121.557435,25.123486],[121.557139,25.12405],[121.556319,25.124728],[121.556755,25.125004],[121.558344,25.12535],[121.558695,25.12555],[121.559141,25.126336],[121.559439,25.127792],[121.559356,25.129898],[121.560592,25.132733],[121.559521,25.135555],[121.558814,25.136422],[121.555718,25.137324],[121.555044,25.137795],[121.554387,25.137958],[121.553891,25.137629],[121.552649,25.136123],[121.552016,25.134105],[121.551937,25.133437],[121.55223,25.131795],[121.552898,25.129554],[121.551757,25.128755],[121.550799,25.128325],[121.551134,25.126521],[121.550928,25.126345],[121.550169,25.12668],[121.54931,25.126665],[121.548651,25.127728],[121.547153,25.127343],[121.546542,25.127676],[121.549981,25.118943],[121.550544,25.118021],[121.550986,25.116438],[121.550911,25.115238],[121.550283,25.113709],[121.551594,25.113578],[121.55284,25.114361],[121.553498,25.114999],[121.553993,25.115081],[121.555218,25.114704],[121.555629,25.115784],[121.556486,25.116621]]]},"properties":{"code":"63000110045","name":"新安里","countyCode":"63000","countyName":"臺北市","townCode":"63000110","townName":"士林區","level":"village","unassigned":false,"note":"","label":[121.5529523782704,25.122926212726384],"bounds":[121.546542,25.113578,121.560592,25.137958],"focusBounds":[121.546542,25.113578,121.560592,25.137958],"color":"#c38cb8"}},{"type":"Feature","id":"63000110046","geometry":{"type":"Polygon","coordinates":[[[121.554387,25.137958],[121.553145,25.139852],[121.552904,25.140644],[121.553501,25.14208],[121.553537,25.142649],[121.553003,25.143383],[121.55141,25.144395],[121.551597,25.146187],[121.5519,25.147544],[121.553339,25.149929],[121.556269,25.15361],[121.556574,25.155156],[121.555564,25.155513],[121.553349,25.154927],[121.552979,25.153979],[121.552086,25.153198],[121.550541,25.151452],[121.550288,25.151471],[121.550086,25.151288],[121.550011,25.150263],[121.549497,25.149674],[121.549125,25.147734],[121.549067,25.147217],[121.549298,25.146396],[121.548695,25.145568],[121.548921,25.144925],[121.54801,25.143527],[121.546107,25.142521],[121.545771,25.141587],[121.545177,25.141608],[121.54465,25.141845],[121.543902,25.141825],[121.543331,25.142354],[121.542368,25.142522],[121.542501,25.141855],[121.542382,25.141414],[121.542513,25.141089],[121.543153,25.140503],[121.543484,25.1393],[121.542797,25.139316],[121.542606,25.139076],[121.542589,25.138462],[121.542135,25.13833],[121.541725,25.137881],[121.541121,25.137842],[121.540511,25.137559],[121.538815,25.137152],[121.538129,25.136243],[121.537302,25.135982],[121.537069,25.135791],[121.537047,25.135545],[121.539685,25.13515],[121.539884,25.134949],[121.540744,25.134633],[121.541172,25.134252],[121.54273,25.133582],[121.542675,25.133143],[121.543524,25.132421],[121.543975,25.132492],[121.544486,25.131816],[121.544622,25.13122],[121.545116,25.130291],[121.545677,25.129352],[121.546022,25.1291],[121.546542,25.127676],[121.547153,25.127343],[121.548651,25.127728],[121.54931,25.126665],[121.550169,25.12668],[121.550928,25.126345],[121.551134,25.126521],[121.550799,25.128325],[121.551757,25.128755],[121.552898,25.129554],[121.55223,25.131795],[121.551937,25.133437],[121.552016,25.134105],[121.552649,25.136123],[121.553891,25.137629],[121.554387,25.137958]]]},"properties":{"code":"63000110046","name":"陽明里","countyCode":"63000","countyName":"臺北市","townCode":"63000110","townName":"士林區","level":"village","unassigned":false,"note":"","label":[121.54780163350016,25.137238279540966],"bounds":[121.537047,25.126345,121.556574,25.155513],"focusBounds":[121.537047,25.126345,121.556574,25.155513],"color":"#98b69b"}},{"type":"Feature","id":"63000110047","geometry":{"type":"Polygon","coordinates":[[[121.577032,25.167108],[121.577382,25.168615],[121.577242,25.169165],[121.577384,25.170155],[121.578634,25.171054],[121.579431,25.172057],[121.5803,25.172517],[121.580953,25.173237],[121.581719,25.17379],[121.58221,25.174601],[121.582896,25.175318],[121.58301,25.17644],[121.583145,25.176681],[121.583504,25.176838],[121.583285,25.177551],[121.582214,25.178969],[121.58217,25.179798],[121.581629,25.180058],[121.581274,25.180448],[121.58138,25.180916],[121.580868,25.181794],[121.580931,25.182072],[121.581322,25.182405],[121.581727,25.18342],[121.582505,25.183664],[121.582613,25.183819],[121.582739,25.184605],[121.581852,25.185795],[121.581788,25.186188],[121.582213,25.187039],[121.583018,25.187591],[121.582988,25.18856],[121.583997,25.188791],[121.58401,25.18906],[121.583778,25.189436],[121.584003,25.190052],[121.583696,25.190674],[121.583852,25.190957],[121.583632,25.191468],[121.583777,25.191985],[121.582704,25.193094],[121.583018,25.194002],[121.583764,25.194594],[121.58306,25.195005],[121.580547,25.19535],[121.579743,25.194951],[121.579172,25.194117],[121.578536,25.194518],[121.577754,25.194738],[121.577245,25.195268],[121.576108,25.195326],[121.575737,25.195235],[121.575603,25.194586],[121.574647,25.194667],[121.57342,25.19412],[121.57301,25.193389],[121.572112,25.193101],[121.571483,25.191619],[121.568877,25.190321],[121.568489,25.189802],[121.567771,25.189585],[121.567033,25.188715],[121.566962,25.188537],[121.567288,25.187167],[121.56818,25.186144],[121.568169,25.185934],[121.567563,25.18552],[121.567587,25.185099],[121.567943,25.18481],[121.568024,25.183793],[121.567216,25.183211],[121.567154,25.182063],[121.566438,25.181828],[121.566048,25.181371],[121.566084,25.180457],[121.565468,25.178927],[121.564716,25.178211],[121.564042,25.178241],[121.5626,25.177688],[121.561206,25.175786],[121.560946,25.175173],[121.560858,25.174414],[121.561112,25.173685],[121.561982,25.171908],[121.562923,25.170705],[121.563111,25.169978],[121.562764,25.169365],[121.562767,25.168807],[121.56218,25.168017],[121.562029,25.167118],[121.561009,25.164554],[121.561094,25.163003],[121.560501,25.162207],[121.559386,25.161928],[121.558289,25.161055],[121.556682,25.16072],[121.555857,25.160108],[121.555169,25.159065],[121.553922,25.15619],[121.553389,25.155253],[121.553349,25.154927],[121.555564,25.155513],[121.556574,25.155156],[121.556269,25.15361],[121.553339,25.149929],[121.5519,25.147544],[121.551597,25.146187],[121.55141,25.144395],[121.553003,25.143383],[121.553537,25.142649],[121.553501,25.14208],[121.552904,25.140644],[121.553145,25.139852],[121.554387,25.137958],[121.554551,25.138602],[121.554777,25.138833],[121.555397,25.138805],[121.555877,25.139035],[121.556188,25.139445],[121.556753,25.1397],[121.556867,25.139931],[121.556785,25.140626],[121.556984,25.14096],[121.557719,25.141472],[121.558255,25.14165],[121.558563,25.141466],[121.55887,25.140951],[121.558726,25.140206],[121.559765,25.139431],[121.560736,25.136111],[121.563,25.135112],[121.564052,25.134453],[121.565265,25.131949],[121.567247,25.131244],[121.566277,25.130026],[121.566197,25.129123],[121.565856,25.128533],[121.565234,25.127944],[121.566631,25.125419],[121.567723,25.124227],[121.567916,25.12471],[121.567274,25.12566],[121.567073,25.126547],[121.566751,25.126765],[121.56665,25.127108],[121.56747,25.127555],[121.567778,25.128035],[121.567696,25.128641],[121.568124,25.12923],[121.567871,25.129728],[121.567925,25.130334],[121.568096,25.130457],[121.56864,25.130378],[121.568981,25.130578],[121.569105,25.131587],[121.571052,25.1329],[121.571229,25.133677],[121.573227,25.135719],[121.574136,25.13716],[121.574193,25.13848],[121.573696,25.145022],[121.573971,25.14558],[121.574875,25.146058],[121.57503,25.146353],[121.575015,25.146726],[121.57461,25.147457],[121.574496,25.148592],[121.575608,25.149691],[121.575763,25.150094],[121.575008,25.15252],[121.574502,25.153454],[121.572953,25.153693],[121.572767,25.153927],[121.572565,25.154487],[121.572504,25.156009],[121.57227,25.156865],[121.572546,25.157671],[121.573592,25.159159],[121.574394,25.159528],[121.574822,25.160008],[121.574509,25.162308],[121.574561,25.16251],[121.575262,25.163067],[121.575452,25.163749],[121.575441,25.16507],[121.575057,25.166609],[121.575109,25.166889],[121.575348,25.167012],[121.577032,25.167108]]]},"properties":{"code":"63000110047","name":"菁山里","countyCode":"63000","countyName":"臺北市","townCode":"63000110","townName":"士林區","level":"village","unassigned":false,"note":"","label":[121.56471801293081,25.148978800167384],"bounds":[121.55141,25.124227,121.58401,25.19535],"focusBounds":[121.55141,25.124227,121.58401,25.19535],"color":"#58b99d"}},{"type":"Feature","id":"63000110048","geometry":{"type":"Polygon","coordinates":[[[121.589846,25.163732],[121.588784,25.163101],[121.587928,25.162973],[121.587492,25.163349],[121.586623,25.163441],[121.586077,25.163661],[121.584493,25.16484],[121.583597,25.165056],[121.583219,25.165813],[121.582471,25.16545],[121.579936,25.165424],[121.578857,25.16561],[121.577802,25.166314],[121.577032,25.167108],[121.575348,25.167012],[121.575109,25.166889],[121.575057,25.166609],[121.575441,25.16507],[121.575452,25.163749],[121.575262,25.163067],[121.574561,25.16251],[121.574509,25.162308],[121.574822,25.160008],[121.574394,25.159528],[121.573592,25.159159],[121.572546,25.157671],[121.57227,25.156865],[121.572504,25.156009],[121.572565,25.154487],[121.572767,25.153927],[121.572953,25.153693],[121.574502,25.153454],[121.575008,25.15252],[121.575763,25.150094],[121.575608,25.149691],[121.574496,25.148592],[121.57461,25.147457],[121.575015,25.146726],[121.57503,25.146353],[121.574875,25.146058],[121.573971,25.14558],[121.573696,25.145022],[121.574193,25.13848],[121.574136,25.13716],[121.573227,25.135719],[121.571229,25.133677],[121.571052,25.1329],[121.569105,25.131587],[121.568981,25.130578],[121.56864,25.130378],[121.568096,25.130457],[121.567925,25.130334],[121.567871,25.129728],[121.568124,25.12923],[121.567696,25.128641],[121.567778,25.128035],[121.56747,25.127555],[121.56665,25.127108],[121.566751,25.126765],[121.567073,25.126547],[121.567274,25.12566],[121.567916,25.12471],[121.567723,25.124227],[121.569323,25.122115],[121.570541,25.118487],[121.57115,25.118745],[121.571543,25.118679],[121.57208,25.118823],[121.57278,25.119261],[121.573621,25.119373],[121.574216,25.120284],[121.575056,25.120216],[121.575343,25.120345],[121.575962,25.122694],[121.577484,25.12464],[121.578745,25.124903],[121.580341,25.125713],[121.581135,25.127261],[121.5813,25.12819],[121.581142,25.128795],[121.581437,25.130704],[121.582068,25.13173],[121.58283,25.133882],[121.583154,25.134305],[121.582007,25.137558],[121.582455,25.137834],[121.583996,25.138285],[121.584383,25.140748],[121.586716,25.145995],[121.587007,25.147055],[121.587015,25.148639],[121.587307,25.149862],[121.587237,25.150172],[121.587686,25.150595],[121.587778,25.151003],[121.588639,25.151587],[121.589448,25.152641],[121.590386,25.153305],[121.590796,25.154624],[121.591593,25.155116],[121.59184,25.155885],[121.591548,25.156983],[121.59178,25.157659],[121.590509,25.160391],[121.590467,25.16132],[121.589846,25.163732]]]},"properties":{"code":"63000110048","name":"平等里","countyCode":"63000","countyName":"臺北市","townCode":"63000110","townName":"士林區","level":"village","unassigned":false,"note":"","label":[121.58209449497514,25.15668155957172],"bounds":[121.56665,25.118487,121.59184,25.167108],"focusBounds":[121.56665,25.118487,121.59184,25.167108],"color":"#efb44f"}},{"type":"Feature","id":"63000110049","geometry":{"type":"Polygon","coordinates":[[[121.607821,25.130211],[121.606774,25.130503],[121.604873,25.130694],[121.604591,25.130853],[121.60458,25.131647],[121.60487,25.132722],[121.604528,25.133765],[121.604572,25.134538],[121.605259,25.135521],[121.605378,25.13644],[121.605692,25.136742],[121.605026,25.136975],[121.604641,25.136415],[121.604075,25.136175],[121.603405,25.137058],[121.602523,25.137609],[121.601665,25.137902],[121.600512,25.139368],[121.598391,25.140306],[121.598182,25.14103],[121.597528,25.141686],[121.596946,25.142572],[121.596083,25.143087],[121.595793,25.143431],[121.596012,25.144758],[121.595251,25.14658],[121.594684,25.147387],[121.593916,25.148053],[121.59381,25.149758],[121.593581,25.150299],[121.592939,25.150802],[121.591799,25.150953],[121.589845,25.152034],[121.58939,25.152386],[121.589448,25.152641],[121.588639,25.151587],[121.587778,25.151003],[121.587686,25.150595],[121.587237,25.150172],[121.587307,25.149862],[121.587015,25.148639],[121.587007,25.147055],[121.586716,25.145995],[121.584383,25.140748],[121.583996,25.138285],[121.582455,25.137834],[121.582007,25.137558],[121.583154,25.134305],[121.58283,25.133882],[121.582068,25.13173],[121.581437,25.130704],[121.581142,25.128795],[121.5813,25.12819],[121.581135,25.127261],[121.580341,25.125713],[121.578745,25.124903],[121.577484,25.12464],[121.575962,25.122694],[121.575343,25.120345],[121.575056,25.120216],[121.574216,25.120284],[121.573621,25.119373],[121.57278,25.119261],[121.57208,25.118823],[121.571543,25.118679],[121.57115,25.118745],[121.570541,25.118487],[121.569323,25.122115],[121.567723,25.124227],[121.567435,25.123853],[121.566359,25.123302],[121.565941,25.121671],[121.564831,25.121528],[121.564334,25.118576],[121.559633,25.115312],[121.558339,25.113913],[121.557032,25.112885],[121.558622,25.112096],[121.558828,25.111956],[121.560196,25.112224],[121.561001,25.111979],[121.561409,25.111549],[121.561914,25.111383],[121.56253,25.11182],[121.563073,25.111983],[121.565531,25.112523],[121.567109,25.112539],[121.56849,25.111687],[121.569689,25.110573],[121.570085,25.110373],[121.572444,25.110056],[121.573307,25.109339],[121.57357,25.108865],[121.573951,25.10673],[121.574331,25.106683],[121.575248,25.106906],[121.576589,25.106871],[121.577109,25.105952],[121.578219,25.105284],[121.57899,25.105079],[121.579774,25.106458],[121.580309,25.106963],[121.580801,25.107044],[121.581516,25.106784],[121.581957,25.106835],[121.582709,25.107325],[121.583652,25.107614],[121.584287,25.108295],[121.585244,25.10855],[121.586616,25.110793],[121.587697,25.113217],[121.588143,25.113884],[121.589407,25.11395],[121.589867,25.114229],[121.590306,25.113638],[121.591582,25.114359],[121.592759,25.1147],[121.593519,25.11515],[121.594086,25.114602],[121.594378,25.114536],[121.594758,25.114836],[121.595685,25.114156],[121.596102,25.114357],[121.597501,25.116212],[121.597382,25.116596],[121.598074,25.117811],[121.598868,25.120117],[121.599361,25.120419],[121.599811,25.120332],[121.600766,25.121847],[121.600851,25.122479],[121.601185,25.123254],[121.601168,25.124325],[121.601719,25.126025],[121.602733,25.126197],[121.603462,25.1255],[121.603782,25.125767],[121.60432,25.125852],[121.604974,25.126773],[121.605579,25.127212],[121.607512,25.129163],[121.607821,25.130211]]]},"properties":{"code":"63000110049","name":"溪山里","countyCode":"63000","countyName":"臺北市","townCode":"63000110","townName":"士林區","level":"village","unassigned":false,"note":"","label":[121.59103734536411,25.12694114862607],"bounds":[121.557032,25.105079,121.607821,25.152641],"focusBounds":[121.557032,25.105079,121.607821,25.152641],"color":"#78a7e3"}},{"type":"Feature","id":"63000110050","geometry":{"type":"Polygon","coordinates":[[[121.573951,25.10673],[121.57357,25.108865],[121.573307,25.109339],[121.572444,25.110056],[121.570085,25.110373],[121.569689,25.110573],[121.56849,25.111687],[121.567109,25.112539],[121.565531,25.112523],[121.563073,25.111983],[121.56253,25.11182],[121.561914,25.111383],[121.561409,25.111549],[121.561001,25.111979],[121.560196,25.112224],[121.558828,25.111956],[121.558622,25.112096],[121.557732,25.110938],[121.558817,25.110926],[121.559036,25.110007],[121.55876,25.108642],[121.558984,25.108018],[121.559081,25.106325],[121.55867,25.105946],[121.559677,25.103609],[121.560172,25.101687],[121.55993,25.100384],[121.561293,25.099076],[121.561997,25.098007],[121.563401,25.098565],[121.5644,25.098622],[121.565085,25.09899],[121.566995,25.099128],[121.567693,25.100757],[121.568894,25.102562],[121.569394,25.104348],[121.570265,25.105382],[121.571132,25.105697],[121.572299,25.105897],[121.572688,25.106053],[121.573482,25.106754],[121.573951,25.10673]]]},"properties":{"code":"63000110050","name":"翠山里","countyCode":"63000","countyName":"臺北市","townCode":"63000110","townName":"士林區","level":"village","unassigned":false,"note":"","label":[121.5643916616089,25.106373621484558],"bounds":[121.557732,25.098007,121.573951,25.112539],"focusBounds":[121.557732,25.098007,121.573951,25.112539],"color":"#dd8590"}},{"type":"Feature","id":"63000110051","geometry":{"type":"Polygon","coordinates":[[[121.556805,25.113171],[121.556624,25.113216],[121.555583,25.111945],[121.555146,25.111144],[121.555203,25.110584],[121.55497,25.110131],[121.554042,25.109368],[121.552588,25.107351],[121.548887,25.103749],[121.545186,25.10262],[121.544848,25.102291],[121.544738,25.101973],[121.544907,25.099357],[121.544531,25.098875],[121.543929,25.098789],[121.543662,25.098416],[121.543193,25.09833],[121.540079,25.099308],[121.539106,25.099938],[121.538515,25.099589],[121.538483,25.099276],[121.538972,25.098718],[121.539743,25.09827],[121.540286,25.098059],[121.541231,25.09805],[121.542336,25.097642],[121.543254,25.096299],[121.543852,25.095899],[121.544872,25.095943],[121.547135,25.094775],[121.548461,25.094756],[121.548556,25.094181],[121.549513,25.094116],[121.550026,25.093287],[121.550009,25.092749],[121.549592,25.091846],[121.551377,25.091771],[121.552173,25.092406],[121.552598,25.092528],[121.553521,25.092403],[121.554487,25.092722],[121.554663,25.093881],[121.554902,25.09408],[121.55595,25.09437],[121.556361,25.094836],[121.556363,25.095191],[121.556818,25.096181],[121.557713,25.096403],[121.558119,25.09776],[121.558612,25.098212],[121.558761,25.098732],[121.559697,25.098132],[121.560411,25.098274],[121.561037,25.098046],[121.561997,25.098007],[121.561293,25.099076],[121.55993,25.100384],[121.560172,25.101687],[121.559677,25.103609],[121.55867,25.105946],[121.559081,25.106325],[121.558984,25.108018],[121.55876,25.108642],[121.559036,25.110007],[121.558817,25.110926],[121.557732,25.110938],[121.558622,25.112096],[121.557032,25.112885],[121.556805,25.113171]]]},"properties":{"code":"63000110051","name":"臨溪里","countyCode":"63000","countyName":"臺北市","townCode":"63000110","townName":"士林區","level":"village","unassigned":false,"note":"","label":[121.5528390009276,25.100097336421356],"bounds":[121.538483,25.091771,121.561997,25.113216],"focusBounds":[121.538483,25.091771,121.561997,25.113216],"color":"#a49ad4"}}]}
