{"type":"FeatureCollection","features":[{"type":"Feature","id":"63000060001","geometry":{"type":"Polygon","coordinates":[[[121.511863,25.052049],[121.510421,25.051997],[121.510288,25.053265],[121.508681,25.05335],[121.506263,25.054032],[121.505694,25.05202],[121.504642,25.049752],[121.506332,25.048954],[121.508095,25.048615],[121.508993,25.048288],[121.50952,25.04827],[121.509886,25.048462],[121.510683,25.048327],[121.511516,25.048665],[121.512043,25.049854],[121.511863,25.052049]]]},"properties":{"code":"63000060001","name":"玉泉里","countyCode":"63000","countyName":"臺北市","townCode":"63000060","townName":"大同區","level":"village","unassigned":false,"note":"","label":[121.50819939684716,25.051031706318483],"bounds":[121.504642,25.04827,121.512043,25.054032],"focusBounds":[121.504642,25.04827,121.512043,25.054032],"color":"#efb44f"}},{"type":"Feature","id":"63000060002","geometry":{"type":"Polygon","coordinates":[[[121.515449,25.051222],[121.513927,25.051586],[121.513355,25.049418],[121.517382,25.04843],[121.518658,25.048367],[121.519446,25.04908],[121.519997,25.050181],[121.515449,25.051222]]]},"properties":{"code":"63000060002","name":"建明里","countyCode":"63000","countyName":"臺北市","townCode":"63000060","townName":"大同區","level":"village","unassigned":false,"note":"","label":[121.5165083077502,25.049811938205284],"bounds":[121.513355,25.048367,121.519997,25.051586],"focusBounds":[121.513355,25.048367,121.519997,25.051586],"color":"#78a7e3"}},{"type":"Feature","id":"63000060003","geometry":{"type":"Polygon","coordinates":[[[121.516102,25.053578],[121.514979,25.053839],[121.514727,25.054166],[121.514424,25.054081],[121.513099,25.053948],[121.513206,25.052881],[121.511863,25.052049],[121.512043,25.049854],[121.513355,25.049418],[121.513927,25.051586],[121.515449,25.051222],[121.516102,25.053578]]]},"properties":{"code":"63000060003","name":"建功里","countyCode":"63000","countyName":"臺北市","townCode":"63000060","townName":"大同區","level":"village","unassigned":false,"note":"","label":[121.51436927090764,25.052681413284112],"bounds":[121.511863,25.049418,121.516102,25.054166],"focusBounds":[121.511863,25.049418,121.516102,25.054166],"color":"#dd8590"}},{"type":"Feature","id":"63000060004","geometry":{"type":"Polygon","coordinates":[[[121.517728,25.053212],[121.516102,25.053578],[121.515449,25.051222],[121.519997,25.050181],[121.520213,25.051109],[121.520301,25.052639],[121.517728,25.053212]]]},"properties":{"code":"63000060004","name":"建泰里","countyCode":"63000","countyName":"臺北市","townCode":"63000060","townName":"大同區","level":"village","unassigned":false,"note":"","label":[121.51798701116603,25.05189776316452],"bounds":[121.515449,25.050181,121.520301,25.053578],"focusBounds":[121.515449,25.050181,121.520301,25.053578],"color":"#a49ad4"}},{"type":"Feature","id":"63000060005","geometry":{"type":"Polygon","coordinates":[[[121.511863,25.052049],[121.511567,25.056929],[121.506068,25.056766],[121.506391,25.055758],[121.506263,25.054032],[121.508681,25.05335],[121.510288,25.053265],[121.510421,25.051997],[121.511863,25.052049]]]},"properties":{"code":"63000060005","name":"永樂里","countyCode":"63000","countyName":"臺北市","townCode":"63000060","townName":"大同區","level":"village","unassigned":false,"note":"","label":[121.50928557002283,25.05508951865918],"bounds":[121.506068,25.051997,121.511863,25.056929],"focusBounds":[121.506068,25.051997,121.511863,25.056929],"color":"#a8bf62"}},{"type":"Feature","id":"63000060006","geometry":{"type":"Polygon","coordinates":[[[121.514424,25.054081],[121.51378,25.05694],[121.511567,25.056929],[121.511863,25.052049],[121.513206,25.052881],[121.513099,25.053948],[121.514424,25.054081]]]},"properties":{"code":"63000060006","name":"朝陽里","countyCode":"63000","countyName":"臺北市","townCode":"63000060","townName":"大同區","level":"village","unassigned":false,"note":"","label":[121.51289514777375,25.055138219006515],"bounds":[121.511567,25.052049,121.514424,25.05694],"focusBounds":[121.511567,25.052049,121.514424,25.05694],"color":"#68bec9"}},{"type":"Feature","id":"63000060007","geometry":{"type":"Polygon","coordinates":[[[121.517728,25.053212],[121.518187,25.054726],[121.518173,25.057317],[121.51558,25.056989],[121.51378,25.05694],[121.514424,25.054081],[121.514727,25.054166],[121.514979,25.053839],[121.516102,25.053578],[121.517728,25.053212]]]},"properties":{"code":"63000060007","name":"星明里","countyCode":"63000","countyName":"臺北市","townCode":"63000060","townName":"大同區","level":"village","unassigned":false,"note":"","label":[121.51627600262783,25.05530793619883],"bounds":[121.51378,25.053212,121.518187,25.057317],"focusBounds":[121.51378,25.053212,121.518187,25.057317],"color":"#df9f6a"}},{"type":"Feature","id":"63000060008","geometry":{"type":"Polygon","coordinates":[[[121.520301,25.052639],[121.520623,25.057621],[121.518173,25.057317],[121.518187,25.054726],[121.517728,25.053212],[121.520301,25.052639]]]},"properties":{"code":"63000060008","name":"光能里","countyCode":"63000","countyName":"臺北市","townCode":"63000060","townName":"大同區","level":"village","unassigned":false,"note":"","label":[121.51931145603164,25.05515888455151],"bounds":[121.517728,25.052639,121.520623,25.057621],"focusBounds":[121.517728,25.052639,121.520623,25.057621],"color":"#c38cb8"}},{"type":"Feature","id":"63000060009","geometry":{"type":"Polygon","coordinates":[[[121.511567,25.056929],[121.511326,25.060618],[121.505559,25.060339],[121.505425,25.058551],[121.506068,25.056766],[121.511567,25.056929]]]},"properties":{"code":"63000060009","name":"大有里","countyCode":"63000","countyName":"臺北市","townCode":"63000060","townName":"大同區","level":"village","unassigned":false,"note":"","label":[121.50854510642374,25.058661212241695],"bounds":[121.505425,25.056766,121.511567,25.060618],"focusBounds":[121.505425,25.056766,121.511567,25.060618],"color":"#98b69b"}},{"type":"Feature","id":"63000060010","geometry":{"type":"Polygon","coordinates":[[[121.513638,25.059201],[121.513561,25.060757],[121.511326,25.060618],[121.511567,25.056929],[121.51378,25.05694],[121.513638,25.059201]]]},"properties":{"code":"63000060010","name":"延平里","countyCode":"63000","countyName":"臺北市","townCode":"63000060","townName":"大同區","level":"village","unassigned":false,"note":"","label":[121.51256133218034,25.058814151526867],"bounds":[121.511326,25.056929,121.51378,25.060757],"focusBounds":[121.511326,25.056929,121.51378,25.060757],"color":"#58b99d"}},{"type":"Feature","id":"63000060011","geometry":{"type":"Polygon","coordinates":[[[121.520623,25.057621],[121.520636,25.059504],[121.520371,25.060318],[121.517701,25.060187],[121.514732,25.059528],[121.514794,25.059346],[121.513638,25.059201],[121.51378,25.05694],[121.51558,25.056989],[121.518173,25.057317],[121.520623,25.057621]]]},"properties":{"code":"63000060011","name":"雙連里","countyCode":"63000","countyName":"臺北市","townCode":"63000060","townName":"大同區","level":"village","unassigned":false,"note":"","label":[121.5172425343022,25.05864243433969],"bounds":[121.513638,25.05694,121.520636,25.060318],"focusBounds":[121.513638,25.05694,121.520636,25.060318],"color":"#efb44f"}},{"type":"Feature","id":"63000060012","geometry":{"type":"Polygon","coordinates":[[[121.511248,25.06287],[121.50649,25.063662],[121.505559,25.060339],[121.511326,25.060618],[121.513561,25.060757],[121.513561,25.062955],[121.511248,25.06287]]]},"properties":{"code":"63000060012","name":"南芳里","countyCode":"63000","countyName":"臺北市","townCode":"63000060","townName":"大同區","level":"village","unassigned":false,"note":"","label":[121.5094816475376,25.061846306602185],"bounds":[121.505559,25.060339,121.513561,25.063662],"focusBounds":[121.505559,25.060339,121.513561,25.063662],"color":"#78a7e3"}},{"type":"Feature","id":"63000060013","geometry":{"type":"Polygon","coordinates":[[[121.514736,25.062953],[121.513561,25.062955],[121.513561,25.060757],[121.513638,25.059201],[121.514794,25.059346],[121.514732,25.059528],[121.517701,25.060187],[121.520371,25.060318],[121.519333,25.062833],[121.514736,25.062953]]]},"properties":{"code":"63000060013","name":"民權里","countyCode":"63000","countyName":"臺北市","townCode":"63000060","townName":"大同區","level":"village","unassigned":false,"note":"","label":[121.51642029237838,25.0614062323807],"bounds":[121.513561,25.059201,121.520371,25.062955],"focusBounds":[121.513561,25.059201,121.520371,25.062955],"color":"#dd8590"}},{"type":"Feature","id":"63000060014","geometry":{"type":"Polygon","coordinates":[[[121.511248,25.06287],[121.511096,25.06461],[121.510353,25.064597],[121.510382,25.065863],[121.506868,25.065702],[121.506814,25.064659],[121.50649,25.063662],[121.511248,25.06287]]]},"properties":{"code":"63000060014","name":"景星里","countyCode":"63000","countyName":"臺北市","townCode":"63000060","townName":"大同區","level":"village","unassigned":false,"note":"","label":[121.50897094422474,25.06452353659978],"bounds":[121.50649,25.06287,121.511248,25.065863],"focusBounds":[121.50649,25.06287,121.511248,25.065863],"color":"#a49ad4"}},{"type":"Feature","id":"63000060015","geometry":{"type":"Polygon","coordinates":[[[121.513703,25.065861],[121.511019,25.065885],[121.510382,25.065863],[121.510353,25.064597],[121.511096,25.06461],[121.511248,25.06287],[121.513561,25.062955],[121.514736,25.062953],[121.515278,25.064377],[121.51413,25.06475],[121.513677,25.064731],[121.513703,25.065861]]]},"properties":{"code":"63000060015","name":"隆和里","countyCode":"63000","countyName":"臺北市","townCode":"63000060","townName":"大同區","level":"village","unassigned":false,"note":"","label":[121.51246782863771,25.06425260970244],"bounds":[121.510353,25.06287,121.515278,25.065885],"focusBounds":[121.510353,25.06287,121.515278,25.065885],"color":"#a8bf62"}},{"type":"Feature","id":"63000060016","geometry":{"type":"Polygon","coordinates":[[[121.519267,25.066005],[121.518351,25.066025],[121.51835,25.065827],[121.516022,25.065875],[121.513703,25.065861],[121.513677,25.064731],[121.51413,25.06475],[121.515278,25.064377],[121.514736,25.062953],[121.519333,25.062833],[121.518985,25.064442],[121.519267,25.066005]]]},"properties":{"code":"63000060016","name":"蓬萊里","countyCode":"63000","countyName":"臺北市","townCode":"63000060","townName":"大同區","level":"village","unassigned":false,"note":"","label":[121.5167904755849,25.06437929256858],"bounds":[121.513677,25.062833,121.519333,25.066025],"focusBounds":[121.513677,25.062833,121.519333,25.066025],"color":"#68bec9"}},{"type":"Feature","id":"63000060017","geometry":{"type":"Polygon","coordinates":[[[121.510854,25.06867],[121.506995,25.068738],[121.506868,25.065702],[121.510382,25.065863],[121.511019,25.065885],[121.510854,25.06867]]]},"properties":{"code":"63000060017","name":"國順里","countyCode":"63000","countyName":"臺北市","townCode":"63000060","townName":"大同區","level":"village","unassigned":false,"note":"","label":[121.50890527202635,25.067249716871345],"bounds":[121.506868,25.065702,121.511019,25.068738],"focusBounds":[121.506868,25.065702,121.511019,25.068738],"color":"#df9f6a"}},{"type":"Feature","id":"63000060018","geometry":{"type":"Polygon","coordinates":[[[121.513739,25.068583],[121.513764,25.070518],[121.512247,25.070492],[121.51224,25.068645],[121.510854,25.06867],[121.511019,25.065885],[121.513703,25.065861],[121.513739,25.068583]]]},"properties":{"code":"63000060018","name":"國慶里","countyCode":"63000","countyName":"臺北市","townCode":"63000060","townName":"大同區","level":"village","unassigned":false,"note":"","label":[121.51233411857876,25.067268792680057],"bounds":[121.510854,25.065861,121.513764,25.070518],"focusBounds":[121.510854,25.065861,121.513764,25.070518],"color":"#c38cb8"}},{"type":"Feature","id":"63000060019","geometry":{"type":"Polygon","coordinates":[[[121.515843,25.068544],[121.513739,25.068583],[121.513703,25.065861],[121.516022,25.065875],[121.515843,25.068544]]]},"properties":{"code":"63000060019","name":"揚雅里","countyCode":"63000","countyName":"臺北市","townCode":"63000060","townName":"大同區","level":"village","unassigned":false,"note":"","label":[121.51482347533091,25.067215340663655],"bounds":[121.513703,25.065861,121.516022,25.068583],"focusBounds":[121.513703,25.065861,121.516022,25.068583],"color":"#98b69b"}},{"type":"Feature","id":"63000060020","geometry":{"type":"Polygon","coordinates":[[[121.519614,25.068484],[121.515843,25.068544],[121.516022,25.065875],[121.51835,25.065827],[121.518351,25.066025],[121.519267,25.066005],[121.519614,25.068484]]]},"properties":{"code":"63000060020","name":"斯文里","countyCode":"63000","countyName":"臺北市","townCode":"63000060","townName":"大同區","level":"village","unassigned":false,"note":"","label":[121.51766075366179,25.067177888194617],"bounds":[121.515843,25.065827,121.519614,25.068544],"focusBounds":[121.515843,25.065827,121.519614,25.068544],"color":"#58b99d"}},{"type":"Feature","id":"63000060021","geometry":{"type":"Polygon","coordinates":[[[121.513793,25.07202],[121.506601,25.072271],[121.50701,25.070726],[121.506995,25.068738],[121.510854,25.06867],[121.51224,25.068645],[121.512247,25.070492],[121.513764,25.070518],[121.513793,25.07202]]]},"properties":{"code":"63000060021","name":"鄰江里","countyCode":"63000","countyName":"臺北市","townCode":"63000060","townName":"大同區","level":"village","unassigned":false,"note":"","label":[121.50995672118222,25.070419684377974],"bounds":[121.506601,25.068645,121.513793,25.072271],"focusBounds":[121.506601,25.068645,121.513793,25.072271],"color":"#efb44f"}},{"type":"Feature","id":"63000060022","geometry":{"type":"Polygon","coordinates":[[[121.520102,25.071839],[121.513793,25.07202],[121.513764,25.070518],[121.513739,25.068583],[121.515843,25.068544],[121.519614,25.068484],[121.520102,25.071839]]]},"properties":{"code":"63000060022","name":"至聖里","countyCode":"63000","countyName":"臺北市","townCode":"63000060","townName":"大同區","level":"village","unassigned":false,"note":"","label":[121.51680152292687,25.070231087749974],"bounds":[121.513739,25.068484,121.520102,25.07202],"focusBounds":[121.513739,25.068484,121.520102,25.07202],"color":"#78a7e3"}},{"type":"Feature","id":"63000060024","geometry":{"type":"Polygon","coordinates":[[[121.513853,25.074552],[121.513933,25.077856],[121.513307,25.079951],[121.511271,25.078985],[121.509795,25.078858],[121.509619,25.078681],[121.508821,25.078734],[121.508228,25.078402],[121.504678,25.078121],[121.505976,25.075059],[121.506601,25.072271],[121.513793,25.07202],[121.513853,25.074552]]]},"properties":{"code":"63000060024","name":"老師里","countyCode":"63000","countyName":"臺北市","townCode":"63000060","townName":"大同區","level":"village","unassigned":false,"note":"","label":[121.50997891063832,25.07551348784391],"bounds":[121.504678,25.07202,121.513933,25.079951],"focusBounds":[121.504678,25.07202,121.513933,25.079951],"color":"#dd8590"}},{"type":"Feature","id":"63000060025","geometry":{"type":"Polygon","coordinates":[[[121.516219,25.080242],[121.514113,25.079413],[121.513542,25.080792],[121.513125,25.080633],[121.513307,25.079951],[121.513933,25.077856],[121.513853,25.074552],[121.517297,25.074628],[121.520723,25.073617],[121.522501,25.077111],[121.520883,25.077999],[121.51846,25.078899],[121.516258,25.080223],[121.516219,25.080242]]]},"properties":{"code":"63000060025","name":"重慶里","countyCode":"63000","countyName":"臺北市","townCode":"63000060","townName":"大同區","level":"village","unassigned":false,"note":"","label":[121.51745590869844,25.076828056969454],"bounds":[121.513125,25.073617,121.522501,25.080792],"focusBounds":[121.513125,25.073617,121.522501,25.080792],"color":"#a49ad4"}},{"type":"Feature","id":"63000060026","geometry":{"type":"Polygon","coordinates":[[[121.520723,25.073617],[121.517297,25.074628],[121.513853,25.074552],[121.513793,25.07202],[121.520102,25.071839],[121.520723,25.073617]]]},"properties":{"code":"63000060026","name":"保安里","countyCode":"63000","countyName":"臺北市","townCode":"63000060","townName":"大同區","level":"village","unassigned":false,"note":"","label":[121.5169827778642,25.07327486274243],"bounds":[121.513793,25.071839,121.520723,25.074628],"focusBounds":[121.513793,25.071839,121.520723,25.074628],"color":"#a8bf62"}}]}
