{"type":"FeatureCollection","features":[{"type":"Feature","id":"63000070001","geometry":{"type":"Polygon","coordinates":[[[121.510683,25.048327],[121.509886,25.048462],[121.50952,25.04827],[121.508993,25.048288],[121.508095,25.048615],[121.506332,25.048954],[121.504642,25.049752],[121.503294,25.048391],[121.502015,25.046791],[121.508988,25.045134],[121.509651,25.047317],[121.510683,25.048327]]]},"properties":{"code":"63000070001","name":"福星里","countyCode":"63000","countyName":"臺北市","townCode":"63000070","townName":"萬華區","level":"village","unassigned":false,"note":"","label":[121.5063275418216,25.047361226355623],"bounds":[121.502015,25.045134,121.510683,25.049752],"focusBounds":[121.502015,25.045134,121.510683,25.049752],"color":"#c38cb8"}},{"type":"Feature","id":"63000070002","geometry":{"type":"Polygon","coordinates":[[[121.508988,25.045134],[121.502015,25.046791],[121.501358,25.045952],[121.500203,25.045106],[121.502845,25.044464],[121.50847,25.043189],[121.508988,25.045134]]]},"properties":{"code":"63000070002","name":"萬壽里","countyCode":"63000","countyName":"臺北市","townCode":"63000070","townName":"萬華區","level":"village","unassigned":false,"note":"","label":[121.50492985832815,25.04504481511409],"bounds":[121.500203,25.043189,121.508988,25.046791],"focusBounds":[121.500203,25.043189,121.508988,25.046791],"color":"#df9f6a"}},{"type":"Feature","id":"63000070003","geometry":{"type":"Polygon","coordinates":[[[121.50847,25.043189],[121.502845,25.044464],[121.502275,25.041679],[121.504527,25.041492],[121.505969,25.041642],[121.506958,25.041443],[121.507652,25.042285],[121.508153,25.04209],[121.50847,25.043189]]]},"properties":{"code":"63000070003","name":"西門里","countyCode":"63000","countyName":"臺北市","townCode":"63000070","townName":"萬華區","level":"village","unassigned":false,"note":"","label":[121.50504768555479,25.042755155596947],"bounds":[121.502275,25.041443,121.50847,25.044464],"focusBounds":[121.502275,25.041443,121.50847,25.044464],"color":"#c38cb8"}},{"type":"Feature","id":"63000070004","geometry":{"type":"Polygon","coordinates":[[[121.508153,25.04209],[121.507652,25.042285],[121.506958,25.041443],[121.505969,25.041642],[121.504527,25.041492],[121.502275,25.041679],[121.501986,25.040046],[121.5042,25.039715],[121.507285,25.039221],[121.508153,25.04209]]]},"properties":{"code":"63000070004","name":"新起里","countyCode":"63000","countyName":"臺北市","townCode":"63000070","townName":"萬華區","level":"village","unassigned":false,"note":"","label":[121.5052367576381,25.040557354092346],"bounds":[121.501986,25.039221,121.508153,25.042285],"focusBounds":[121.501986,25.039221,121.508153,25.042285],"color":"#98b69b"}},{"type":"Feature","id":"63000070005","geometry":{"type":"Polygon","coordinates":[[[121.502845,25.044464],[121.500203,25.045106],[121.495658,25.042959],[121.495139,25.042844],[121.493512,25.042875],[121.497972,25.040023],[121.499869,25.040097],[121.501678,25.040203],[121.501986,25.040046],[121.502275,25.041679],[121.502845,25.044464]]]},"properties":{"code":"63000070005","name":"菜園里","countyCode":"63000","countyName":"臺北市","townCode":"63000070","townName":"萬華區","level":"village","unassigned":false,"note":"","label":[121.49931908179573,25.042382053216972],"bounds":[121.493512,25.040023,121.502845,25.045106],"focusBounds":[121.493512,25.040023,121.502845,25.045106],"color":"#58b99d"}},{"type":"Feature","id":"63000070006","geometry":{"type":"Polygon","coordinates":[[[121.493512,25.042875],[121.491305,25.042891],[121.489096,25.042703],[121.496143,25.03879],[121.497057,25.038405],[121.494383,25.035387],[121.499297,25.035245],[121.499348,25.036683],[121.49979,25.038441],[121.499869,25.040097],[121.497972,25.040023],[121.493512,25.042875]]]},"properties":{"code":"63000070006","name":"青山里","countyCode":"63000","countyName":"臺北市","townCode":"63000070","townName":"萬華區","level":"village","unassigned":false,"note":"","label":[121.49783158696259,25.036965290773153],"bounds":[121.489096,25.035245,121.499869,25.042891],"focusBounds":[121.489096,25.035245,121.499869,25.042891],"color":"#efb44f"}},{"type":"Feature","id":"63000070007","geometry":{"type":"Polygon","coordinates":[[[121.501986,25.040046],[121.501678,25.040203],[121.499869,25.040097],[121.49979,25.038441],[121.499348,25.036683],[121.499297,25.035245],[121.501222,25.035211],[121.501986,25.040046]]]},"properties":{"code":"63000070007","name":"富民里","countyCode":"63000","countyName":"臺北市","townCode":"63000070","townName":"萬華區","level":"village","unassigned":false,"note":"","label":[121.50060371674195,25.037680959400582],"bounds":[121.499297,25.035211,121.501986,25.040203],"focusBounds":[121.499297,25.035211,121.501986,25.040203],"color":"#78a7e3"}},{"type":"Feature","id":"63000070008","geometry":{"type":"Polygon","coordinates":[[[121.5042,25.039715],[121.501986,25.040046],[121.501222,25.035211],[121.503235,25.035146],[121.503511,25.036528],[121.5042,25.039715]]]},"properties":{"code":"63000070008","name":"福音里","countyCode":"63000","countyName":"臺北市","townCode":"63000070","townName":"萬華區","level":"village","unassigned":false,"note":"","label":[121.50265654042164,25.037555221358645],"bounds":[121.501222,25.035146,121.5042,25.040046],"focusBounds":[121.501222,25.035146,121.5042,25.040046],"color":"#dd8590"}},{"type":"Feature","id":"63000070009","geometry":{"type":"Polygon","coordinates":[[[121.507285,25.039221],[121.5042,25.039715],[121.503511,25.036528],[121.504846,25.036475],[121.506497,25.036023],[121.50688,25.037271],[121.506735,25.037481],[121.507285,25.039221]]]},"properties":{"code":"63000070009","name":"仁德里","countyCode":"63000","countyName":"臺北市","townCode":"63000070","townName":"萬華區","level":"village","unassigned":false,"note":"","label":[121.50534136810731,25.037936011658093],"bounds":[121.503511,25.036023,121.507285,25.039715],"focusBounds":[121.503511,25.036023,121.507285,25.039715],"color":"#a49ad4"}},{"type":"Feature","id":"63000070010","geometry":{"type":"Polygon","coordinates":[[[121.506497,25.036023],[121.504846,25.036475],[121.503511,25.036528],[121.503235,25.035146],[121.501222,25.035211],[121.499297,25.035245],[121.497941,25.033115],[121.5005,25.032896],[121.504728,25.03388],[121.505279,25.033401],[121.506497,25.036023]]]},"properties":{"code":"63000070010","name":"富福里","countyCode":"63000","countyName":"臺北市","townCode":"63000070","townName":"萬華區","level":"village","unassigned":false,"note":"","label":[121.5020186626275,25.034217424066604],"bounds":[121.497941,25.032896,121.506497,25.036528],"focusBounds":[121.497941,25.032896,121.506497,25.036528],"color":"#a8bf62"}},{"type":"Feature","id":"63000070011","geometry":{"type":"Polygon","coordinates":[[[121.505279,25.033401],[121.504728,25.03388],[121.5005,25.032896],[121.500497,25.029378],[121.501821,25.029548],[121.504135,25.029978],[121.50416,25.031323],[121.505279,25.033401]]]},"properties":{"code":"63000070011","name":"頂碩里","countyCode":"63000","countyName":"臺北市","townCode":"63000070","townName":"萬華區","level":"village","unassigned":false,"note":"","label":[121.50237905858135,25.03149270730672],"bounds":[121.500497,25.029378,121.505279,25.03388],"focusBounds":[121.500497,25.029378,121.505279,25.03388],"color":"#df9f6a"}},{"type":"Feature","id":"63000070012","geometry":{"type":"Polygon","coordinates":[[[121.5005,25.032896],[121.497941,25.033115],[121.495577,25.028599],[121.496008,25.028672],[121.496384,25.029021],[121.497319,25.029247],[121.500497,25.029378],[121.5005,25.032896]]]},"properties":{"code":"63000070012","name":"雙園里","countyCode":"63000","countyName":"臺北市","townCode":"63000070","townName":"萬華區","level":"village","unassigned":false,"note":"","label":[121.49860714232464,25.03089768955811],"bounds":[121.495577,25.028599,121.5005,25.033115],"focusBounds":[121.495577,25.028599,121.5005,25.033115],"color":"#c38cb8"}},{"type":"Feature","id":"63000070013","geometry":{"type":"Polygon","coordinates":[[[121.504808,25.029205],[121.504135,25.029978],[121.501821,25.029548],[121.502182,25.027866],[121.502667,25.02797],[121.502713,25.027845],[121.503654,25.028085],[121.503548,25.028371],[121.504808,25.029205]]]},"properties":{"code":"63000070013","name":"新忠里","countyCode":"63000","countyName":"臺北市","townCode":"63000070","townName":"萬華區","level":"village","unassigned":false,"note":"","label":[121.50312610318441,25.029041257587423],"bounds":[121.501821,25.027845,121.504808,25.029978],"focusBounds":[121.501821,25.027845,121.504808,25.029978],"color":"#c38cb8"}},{"type":"Feature","id":"63000070014","geometry":{"type":"Polygon","coordinates":[[[121.5071,25.026762],[121.504808,25.029205],[121.503548,25.028371],[121.503654,25.028085],[121.502713,25.027845],[121.503533,25.025665],[121.503735,25.025173],[121.506455,25.026036],[121.5071,25.026762]]]},"properties":{"code":"63000070014","name":"新和里","countyCode":"63000","countyName":"臺北市","townCode":"63000070","townName":"萬華區","level":"village","unassigned":false,"note":"","label":[121.50480215768451,25.027057229495263],"bounds":[121.502713,25.025173,121.5071,25.029205],"focusBounds":[121.502713,25.025173,121.5071,25.029205],"color":"#98b69b"}},{"type":"Feature","id":"63000070015","geometry":{"type":"Polygon","coordinates":[[[121.499297,25.035245],[121.494383,25.035387],[121.493028,25.033872],[121.49401,25.033231],[121.493746,25.031965],[121.494827,25.031737],[121.496178,25.03275],[121.496819,25.032989],[121.497941,25.033115],[121.499297,25.035245]]]},"properties":{"code":"63000070015","name":"糖廍里","countyCode":"63000","countyName":"臺北市","townCode":"63000070","townName":"萬華區","level":"village","unassigned":false,"note":"","label":[121.49590585362824,25.03394407935556],"bounds":[121.493028,25.031737,121.499297,25.035387],"focusBounds":[121.493028,25.031737,121.499297,25.035387],"color":"#58b99d"}},{"type":"Feature","id":"63000070016","geometry":{"type":"Polygon","coordinates":[[[121.495577,25.028599],[121.497941,25.033115],[121.496819,25.032989],[121.496178,25.03275],[121.494827,25.031737],[121.491661,25.028864],[121.492326,25.028433],[121.495173,25.028798],[121.495577,25.028599]]]},"properties":{"code":"63000070016","name":"和平里","countyCode":"63000","countyName":"臺北市","townCode":"63000070","townName":"萬華區","level":"village","unassigned":false,"note":"","label":[121.49495271632485,25.03015754102227],"bounds":[121.491661,25.028433,121.497941,25.033115],"focusBounds":[121.491661,25.028433,121.497941,25.033115],"color":"#efb44f"}},{"type":"Feature","id":"63000070017","geometry":{"type":"Polygon","coordinates":[[[121.494827,25.031737],[121.493746,25.031965],[121.49401,25.033231],[121.493028,25.033872],[121.489215,25.02956],[121.488994,25.028579],[121.489407,25.027493],[121.490808,25.028175],[121.491661,25.028864],[121.494827,25.031737]]]},"properties":{"code":"63000070017","name":"綠堤里","countyCode":"63000","countyName":"臺北市","townCode":"63000070","townName":"萬華區","level":"village","unassigned":false,"note":"","label":[121.49177453168278,25.0305785663407],"bounds":[121.488994,25.027493,121.494827,25.033872],"focusBounds":[121.488994,25.027493,121.494827,25.033872],"color":"#78a7e3"}},{"type":"Feature","id":"63000070018","geometry":{"type":"Polygon","coordinates":[[[121.493028,25.033872],[121.494383,25.035387],[121.483643,25.035292],[121.484223,25.033422],[121.484641,25.032405],[121.484939,25.031475],[121.486533,25.028441],[121.486873,25.027748],[121.48732,25.027393],[121.487548,25.027063],[121.489407,25.027493],[121.488994,25.028579],[121.489215,25.02956],[121.493028,25.033872]]]},"properties":{"code":"63000070018","name":"華江里","countyCode":"63000","countyName":"臺北市","townCode":"63000070","townName":"萬華區","level":"village","unassigned":false,"note":"","label":[121.48792561717212,25.03246054114665],"bounds":[121.483643,25.027063,121.494383,25.035387],"focusBounds":[121.483643,25.027063,121.494383,25.035387],"color":"#dd8590"}},{"type":"Feature","id":"63000070019","geometry":{"type":"Polygon","coordinates":[[[121.494383,25.035387],[121.497057,25.038405],[121.496143,25.03879],[121.489096,25.042703],[121.485233,25.039225],[121.484472,25.038265],[121.483983,25.037357],[121.483666,25.036299],[121.483643,25.035292],[121.494383,25.035387]]]},"properties":{"code":"63000070019","name":"柳鄉里","countyCode":"63000","countyName":"臺北市","townCode":"63000070","townName":"萬華區","level":"village","unassigned":false,"note":"","label":[121.48981211239284,25.038442532261833],"bounds":[121.483643,25.035292,121.497057,25.042703],"focusBounds":[121.483643,25.035292,121.497057,25.042703],"color":"#a49ad4"}},{"type":"Feature","id":"63000070020","geometry":{"type":"Polygon","coordinates":[[[121.50045,25.026303],[121.500497,25.029378],[121.497319,25.029247],[121.496384,25.029021],[121.496008,25.028672],[121.495577,25.028599],[121.495339,25.028254],[121.496833,25.025112],[121.499834,25.026308],[121.50045,25.026303]]]},"properties":{"code":"63000070020","name":"日善里","countyCode":"63000","countyName":"臺北市","townCode":"63000070","townName":"萬華區","level":"village","unassigned":false,"note":"","label":[121.49810982241243,25.02745004542244],"bounds":[121.495339,25.025112,121.500497,25.029378],"focusBounds":[121.495339,25.025112,121.500497,25.029378],"color":"#a8bf62"}},{"type":"Feature","id":"63000070021","geometry":{"type":"Polygon","coordinates":[[[121.502713,25.027845],[121.502667,25.02797],[121.502182,25.027866],[121.501821,25.029548],[121.500497,25.029378],[121.50045,25.026303],[121.500427,25.025341],[121.501734,25.025411],[121.503533,25.025665],[121.502713,25.027845]]]},"properties":{"code":"63000070021","name":"新安里","countyCode":"63000","countyName":"臺北市","townCode":"63000070","townName":"萬華區","level":"village","unassigned":false,"note":"","label":[121.50166630951956,25.026758135581034],"bounds":[121.500427,25.025341,121.503533,25.029548],"focusBounds":[121.500427,25.025341,121.503533,25.029548],"color":"#68bec9"}},{"type":"Feature","id":"63000070022","geometry":{"type":"Polygon","coordinates":[[[121.496833,25.025112],[121.495339,25.028254],[121.49371,25.026848],[121.494113,25.026462],[121.494915,25.024764],[121.495408,25.023654],[121.497172,25.024382],[121.496833,25.025112]]]},"properties":{"code":"63000070022","name":"忠德里","countyCode":"63000","countyName":"臺北市","townCode":"63000070","townName":"萬華區","level":"village","unassigned":false,"note":"","label":[121.49543689349032,25.025857164390633],"bounds":[121.49371,25.023654,121.497172,25.028254],"focusBounds":[121.49371,25.023654,121.497172,25.028254],"color":"#df9f6a"}},{"type":"Feature","id":"63000070023","geometry":{"type":"Polygon","coordinates":[[[121.495408,25.023654],[121.494915,25.024764],[121.492103,25.022969],[121.488574,25.021855],[121.488404,25.02079],[121.492077,25.021894],[121.493132,25.022378],[121.495687,25.022738],[121.495408,25.023654]]]},"properties":{"code":"63000070023","name":"孝德里","countyCode":"63000","countyName":"臺北市","townCode":"63000070","townName":"萬華區","level":"village","unassigned":false,"note":"","label":[121.49397776450019,25.023331604860914],"bounds":[121.488404,25.02079,121.495687,25.024764],"focusBounds":[121.488404,25.02079,121.495687,25.024764],"color":"#c38cb8"}},{"type":"Feature","id":"63000070024","geometry":{"type":"Polygon","coordinates":[[[121.495577,25.028599],[121.495173,25.028798],[121.492326,25.028433],[121.491661,25.028864],[121.490808,25.028175],[121.489407,25.027493],[121.487548,25.027063],[121.487588,25.02606],[121.488669,25.023645],[121.490808,25.024396],[121.49371,25.026848],[121.495339,25.028254],[121.495577,25.028599]]]},"properties":{"code":"63000070024","name":"和德里","countyCode":"63000","countyName":"臺北市","townCode":"63000070","townName":"萬華區","level":"village","unassigned":false,"note":"","label":[121.49020812473488,25.02603414222189],"bounds":[121.487548,25.023645,121.495577,25.028864],"focusBounds":[121.487548,25.023645,121.495577,25.028864],"color":"#98b69b"}},{"type":"Feature","id":"63000070025","geometry":{"type":"Polygon","coordinates":[[[121.494915,25.024764],[121.494113,25.026462],[121.49371,25.026848],[121.490808,25.024396],[121.488669,25.023645],[121.488711,25.023547],[121.488803,25.023347],[121.488574,25.021855],[121.492103,25.022969],[121.494915,25.024764]]]},"properties":{"code":"63000070025","name":"錦德里","countyCode":"63000","countyName":"臺北市","townCode":"63000070","townName":"萬華區","level":"village","unassigned":false,"note":"","label":[121.49206747765716,25.024209089455507],"bounds":[121.488574,25.021855,121.494915,25.026848],"focusBounds":[121.488574,25.021855,121.494915,25.026848],"color":"#58b99d"}},{"type":"Feature","id":"63000070026","geometry":{"type":"Polygon","coordinates":[[[121.50045,25.026303],[121.499834,25.026308],[121.496833,25.025112],[121.497172,25.024382],[121.498418,25.021694],[121.498673,25.021541],[121.500007,25.023681],[121.500427,25.025341],[121.50045,25.026303]]]},"properties":{"code":"63000070026","name":"全德里","countyCode":"63000","countyName":"臺北市","townCode":"63000070","townName":"萬華區","level":"village","unassigned":false,"note":"","label":[121.49878762934966,25.02430089316965],"bounds":[121.496833,25.021541,121.50045,25.026308],"focusBounds":[121.496833,25.021541,121.50045,25.026308],"color":"#efb44f"}},{"type":"Feature","id":"63000070027","geometry":{"type":"Polygon","coordinates":[[[121.498673,25.021541],[121.498418,25.021694],[121.497172,25.024382],[121.495408,25.023654],[121.495687,25.022738],[121.49609,25.021352],[121.497499,25.021331],[121.498263,25.020918],[121.498673,25.021541]]]},"properties":{"code":"63000070027","name":"保德里","countyCode":"63000","countyName":"臺北市","townCode":"63000070","townName":"萬華區","level":"village","unassigned":false,"note":"","label":[121.49682467429561,25.022567197221413],"bounds":[121.495408,25.020918,121.498673,25.024382],"focusBounds":[121.495408,25.020918,121.498673,25.024382],"color":"#78a7e3"}},{"type":"Feature","id":"63000070028","geometry":{"type":"Polygon","coordinates":[[[121.49609,25.021352],[121.495687,25.022738],[121.493132,25.022378],[121.492077,25.021894],[121.488404,25.02079],[121.488521,25.019254],[121.492756,25.020306],[121.49609,25.021352]]]},"properties":{"code":"63000070028","name":"銘德里","countyCode":"63000","countyName":"臺北市","townCode":"63000070","townName":"萬華區","level":"village","unassigned":false,"note":"","label":[121.49220538830042,25.02106107295566],"bounds":[121.488404,25.019254,121.49609,25.022738],"focusBounds":[121.488404,25.019254,121.49609,25.022738],"color":"#a49ad4"}},{"type":"Feature","id":"63000070029","geometry":{"type":"Polygon","coordinates":[[[121.488599,25.016663],[121.494442,25.018516],[121.49483,25.018825],[121.495838,25.020442],[121.49609,25.021352],[121.492756,25.020306],[121.488521,25.019254],[121.488599,25.016663]]]},"properties":{"code":"63000070029","name":"榮德里","countyCode":"63000","countyName":"臺北市","townCode":"63000070","townName":"萬華區","level":"village","unassigned":false,"note":"","label":[121.49196918243072,25.018921143825896],"bounds":[121.488521,25.016663,121.49609,25.021352],"focusBounds":[121.488521,25.016663,121.49609,25.021352],"color":"#a8bf62"}},{"type":"Feature","id":"63000070030","geometry":{"type":"Polygon","coordinates":[[[121.501615,25.021979],[121.501501,25.023007],[121.501734,25.025411],[121.500427,25.025341],[121.500007,25.023681],[121.498673,25.021541],[121.499921,25.021156],[121.500229,25.021135],[121.501615,25.021979]]]},"properties":{"code":"63000070030","name":"壽德里","countyCode":"63000","countyName":"臺北市","townCode":"63000070","townName":"萬華區","level":"village","unassigned":false,"note":"","label":[121.50055315746657,25.02271365852501],"bounds":[121.498673,25.021135,121.501734,25.025411],"focusBounds":[121.498673,25.021135,121.501734,25.025411],"color":"#a8bf62"}},{"type":"Feature","id":"63000070031","geometry":{"type":"Polygon","coordinates":[[[121.499921,25.021156],[121.498673,25.021541],[121.498263,25.020918],[121.495674,25.016713],[121.49552,25.016045],[121.495376,25.00932],[121.497295,25.01004],[121.500274,25.011953],[121.501537,25.013216],[121.503693,25.015992],[121.501561,25.018555],[121.501918,25.018756],[121.501456,25.019188],[121.501195,25.019024],[121.500105,25.020434],[121.49985,25.0209],[121.499921,25.021156]]]},"properties":{"code":"63000070031","name":"興德里","countyCode":"63000","countyName":"臺北市","townCode":"63000070","townName":"萬華區","level":"village","unassigned":false,"note":"","label":[121.49888960282674,25.015323875928043],"bounds":[121.495376,25.00932,121.503693,25.021541],"focusBounds":[121.495376,25.00932,121.503693,25.021541],"color":"#68bec9"}},{"type":"Feature","id":"63000070032","geometry":{"type":"Polygon","coordinates":[[[121.498263,25.020918],[121.497499,25.021331],[121.49609,25.021352],[121.495838,25.020442],[121.49483,25.018825],[121.494442,25.018516],[121.488599,25.016663],[121.488695,25.01576],[121.488821,25.015169],[121.489394,25.014098],[121.489565,25.013177],[121.490187,25.012898],[121.490497,25.012572],[121.491366,25.011539],[121.492659,25.009526],[121.493117,25.009227],[121.494035,25.009186],[121.495376,25.00932],[121.49552,25.016045],[121.495674,25.016713],[121.498263,25.020918]]]},"properties":{"code":"63000070032","name":"華中里","countyCode":"63000","countyName":"臺北市","townCode":"63000070","townName":"萬華區","level":"village","unassigned":false,"note":"","label":[121.49254898305114,25.01468523942176],"bounds":[121.488599,25.009186,121.498263,25.021352],"focusBounds":[121.488599,25.009186,121.498263,25.021352],"color":"#c38cb8"}},{"type":"Feature","id":"63000070033","geometry":{"type":"Polygon","coordinates":[[[121.505914,25.018551],[121.502499,25.021182],[121.502611,25.022006],[121.501615,25.021979],[121.500229,25.021135],[121.499921,25.021156],[121.49985,25.0209],[121.500105,25.020434],[121.501195,25.019024],[121.501456,25.019188],[121.501918,25.018756],[121.501561,25.018555],[121.503693,25.015992],[121.505914,25.018551]]]},"properties":{"code":"63000070033","name":"日祥里","countyCode":"63000","countyName":"臺北市","townCode":"63000070","townName":"萬華區","level":"village","unassigned":false,"note":"","label":[121.50332628030695,25.01876412997835],"bounds":[121.49985,25.015992,121.505914,25.022006],"focusBounds":[121.49985,25.015992,121.505914,25.022006],"color":"#c38cb8"}},{"type":"Feature","id":"63000070034","geometry":{"type":"Polygon","coordinates":[[[121.503735,25.025173],[121.503533,25.025665],[121.501734,25.025411],[121.501501,25.023007],[121.501615,25.021979],[121.502611,25.022006],[121.502861,25.024239],[121.503735,25.025173]]]},"properties":{"code":"63000070034","name":"忠貞里","countyCode":"63000","countyName":"臺北市","townCode":"63000070","townName":"萬華區","level":"village","unassigned":false,"note":"","label":[121.50221935932213,25.023992948919727],"bounds":[121.501501,25.021979,121.503735,25.025665],"focusBounds":[121.501501,25.021979,121.503735,25.025665],"color":"#58b99d"}},{"type":"Feature","id":"63000070035","geometry":{"type":"Polygon","coordinates":[[[121.509118,25.024939],[121.5071,25.026762],[121.506455,25.026036],[121.5083,25.024134],[121.509118,25.024939]]]},"properties":{"code":"63000070035","name":"凌霄里","countyCode":"63000","countyName":"臺北市","townCode":"63000070","townName":"萬華區","level":"village","unassigned":false,"note":"","label":[121.50775156831409,25.025436611928466],"bounds":[121.506455,25.024134,121.509118,25.026762],"focusBounds":[121.506455,25.024134,121.509118,25.026762],"color":"#58b99d"}},{"type":"Feature","id":"63000070036","geometry":{"type":"Polygon","coordinates":[[[121.509118,25.024939],[121.5083,25.024134],[121.506455,25.026036],[121.503735,25.025173],[121.502861,25.024239],[121.502611,25.022006],[121.502499,25.021182],[121.505914,25.018551],[121.509053,25.02131],[121.510772,25.021803],[121.512403,25.021743],[121.512341,25.02399],[121.51221,25.024037],[121.510103,25.024654],[121.509118,25.024939]]]},"properties":{"code":"63000070036","name":"騰雲里","countyCode":"63000","countyName":"臺北市","townCode":"63000070","townName":"萬華區","level":"village","unassigned":false,"note":"","label":[121.50568449782826,25.022485143462518],"bounds":[121.502499,25.018551,121.512403,25.026036],"focusBounds":[121.502499,25.018551,121.512403,25.026036],"color":"#efb44f"}}]}
