{"type":"FeatureCollection","features":[{"type":"Feature","id":"64000060001","geometry":{"type":"Polygon","coordinates":[[[120.30555,22.622888],[120.308844,22.623986],[120.309477,22.622346],[120.312128,22.623244],[120.312111,22.623297],[120.311506,22.624874],[120.310936,22.626399],[120.308252,22.625517],[120.304959,22.624419],[120.30555,22.622888]]]},"properties":{"code":"64000060001","name":"浩然里","countyCode":"64000","countyName":"高雄市","townCode":"64000060","townName":"新興區","level":"village","unassigned":false,"note":"","label":[120.31010189132742,22.62466722663615],"bounds":[120.304959,22.622346,120.312128,22.626399],"focusBounds":[120.304959,22.622346,120.312128,22.626399],"color":"#a49ad4"}},{"type":"Feature","id":"64000060002","geometry":{"type":"Polygon","coordinates":[[[120.30555,22.622888],[120.304959,22.624419],[120.300988,22.623097],[120.301557,22.621561],[120.30555,22.622888]]]},"properties":{"code":"64000060002","name":"振成里","countyCode":"64000","countyName":"高雄市","townCode":"64000060","townName":"新興區","level":"village","unassigned":false,"note":"","label":[120.30326420905945,22.62299149191341],"bounds":[120.300988,22.621561,120.30555,22.624419],"focusBounds":[120.300988,22.621561,120.30555,22.624419],"color":"#68bec9"}},{"type":"Feature","id":"64000060003","geometry":{"type":"Polygon","coordinates":[[[120.314224,22.627511],[120.313738,22.628659],[120.310459,22.62757],[120.310027,22.627556],[120.307872,22.627486],[120.307966,22.626258],[120.308252,22.625517],[120.310936,22.626399],[120.314201,22.627502],[120.314224,22.627511]]]},"properties":{"code":"64000060003","name":"德生里","countyCode":"64000","countyName":"高雄市","townCode":"64000060","townName":"新興區","level":"village","unassigned":false,"note":"","label":[120.31080995736305,22.627021939276677],"bounds":[120.307872,22.625517,120.314224,22.628659],"focusBounds":[120.307872,22.625517,120.314224,22.628659],"color":"#68bec9"}},{"type":"Feature","id":"64000060004","geometry":{"type":"Polygon","coordinates":[[[120.306184,22.621246],[120.30555,22.622888],[120.301557,22.621561],[120.302168,22.619914],[120.302198,22.619924],[120.30456,22.620701],[120.306184,22.621246]]]},"properties":{"code":"64000060004","name":"振華里","countyCode":"64000","countyName":"高雄市","townCode":"64000060","townName":"新興區","level":"village","unassigned":false,"note":"","label":[120.30387359930938,22.621403125292154],"bounds":[120.301557,22.619914,120.306184,22.622888],"focusBounds":[120.301557,22.619914,120.306184,22.622888],"color":"#df9f6a"}},{"type":"Feature","id":"64000060005","geometry":{"type":"Polygon","coordinates":[[[120.309477,22.622346],[120.308844,22.623986],[120.30555,22.622888],[120.306184,22.621246],[120.307442,22.621667],[120.309477,22.622346]]]},"properties":{"code":"64000060005","name":"正氣里","countyCode":"64000","countyName":"高雄市","townCode":"64000060","townName":"新興區","level":"village","unassigned":false,"note":"","label":[120.30751345357606,22.622616925760006],"bounds":[120.30555,22.621246,120.309477,22.623986],"focusBounds":[120.30555,22.621246,120.309477,22.623986],"color":"#c38cb8"}},{"type":"Feature","id":"64000060006","geometry":{"type":"Polygon","coordinates":[[[120.30733,22.631006],[120.306045,22.631095],[120.305856,22.628798],[120.307142,22.628709],[120.30733,22.631006]]]},"properties":{"code":"64000060006","name":"德政里","countyCode":"64000","countyName":"高雄市","townCode":"64000060","townName":"新興區","level":"village","unassigned":false,"note":"","label":[120.3065931611761,22.629901933045744],"bounds":[120.305856,22.628709,120.30733,22.631095],"focusBounds":[120.305856,22.628709,120.30733,22.631095],"color":"#98b69b"}},{"type":"Feature","id":"64000060007","geometry":{"type":"Polygon","coordinates":[[[120.308155,22.630946],[120.30733,22.631006],[120.307142,22.628709],[120.307039,22.627462],[120.307872,22.627486],[120.308155,22.630946]]]},"properties":{"code":"64000060007","name":"仁聲里","countyCode":"64000","countyName":"高雄市","townCode":"64000060","townName":"新興區","level":"village","unassigned":false,"note":"","label":[120.30759736927689,22.629232342029695],"bounds":[120.307039,22.627462,120.308155,22.631006],"focusBounds":[120.307039,22.627462,120.308155,22.631006],"color":"#58b99d"}},{"type":"Feature","id":"64000060008","geometry":{"type":"Polygon","coordinates":[[[120.310291,22.630797],[120.308155,22.630946],[120.307872,22.627486],[120.310027,22.627556],[120.310291,22.630797]]]},"properties":{"code":"64000060008","name":"德望里","countyCode":"64000","countyName":"高雄市","townCode":"64000060","townName":"新興區","level":"village","unassigned":false,"note":"","label":[120.30909045980759,22.62920341309967],"bounds":[120.307872,22.627486,120.310291,22.630946],"focusBounds":[120.307872,22.627486,120.310291,22.630946],"color":"#efb44f"}},{"type":"Feature","id":"64000060009","geometry":{"type":"Polygon","coordinates":[[[120.305856,22.628798],[120.304473,22.628896],[120.304349,22.627378],[120.307039,22.627462],[120.307142,22.628709],[120.305856,22.628798]]]},"properties":{"code":"64000060009","name":"華聲里","countyCode":"64000","countyName":"高雄市","townCode":"64000060","townName":"新興區","level":"village","unassigned":false,"note":"","label":[120.30570693534261,22.62811462268546],"bounds":[120.304349,22.627378,120.307142,22.628896],"focusBounds":[120.304349,22.627378,120.307142,22.628896],"color":"#78a7e3"}},{"type":"Feature","id":"64000060010","geometry":{"type":"Polygon","coordinates":[[[120.306045,22.631095],[120.304661,22.631193],[120.304473,22.628896],[120.305856,22.628798],[120.306045,22.631095]]]},"properties":{"code":"64000060010","name":"蕉園里","countyCode":"64000","countyName":"高雄市","townCode":"64000060","townName":"新興區","level":"village","unassigned":false,"note":"","label":[120.30525888669547,22.629995483743272],"bounds":[120.304473,22.628798,120.306045,22.631193],"focusBounds":[120.304473,22.628798,120.306045,22.631193],"color":"#dd8590"}},{"type":"Feature","id":"64000060011","geometry":{"type":"Polygon","coordinates":[[[120.308252,22.625517],[120.307966,22.626258],[120.307872,22.627486],[120.307039,22.627462],[120.304349,22.627378],[120.304356,22.626202],[120.304959,22.624419],[120.308252,22.625517]]]},"properties":{"code":"64000060011","name":"永寧里","countyCode":"64000","countyName":"高雄市","townCode":"64000060","townName":"新興區","level":"village","unassigned":false,"note":"","label":[120.30614858283393,22.626124925693055],"bounds":[120.304349,22.624419,120.308252,22.627486],"focusBounds":[120.304349,22.624419,120.308252,22.627486],"color":"#a8bf62"}},{"type":"Feature","id":"64000060012","geometry":{"type":"Polygon","coordinates":[[[120.304959,22.624419],[120.304356,22.626202],[120.304349,22.627378],[120.301516,22.627288],[120.300988,22.623097],[120.304959,22.624419]]]},"properties":{"code":"64000060012","name":"玉衡里","countyCode":"64000","countyName":"高雄市","townCode":"64000060","townName":"新興區","level":"village","unassigned":false,"note":"","label":[120.30286376589989,22.62541275073358],"bounds":[120.300988,22.623097,120.304959,22.627378],"focusBounds":[120.300988,22.623097,120.304959,22.627378],"color":"#df9f6a"}},{"type":"Feature","id":"64000060013","geometry":{"type":"Polygon","coordinates":[[[120.31675,22.634294],[120.31375,22.636597],[120.31352,22.633787],[120.313454,22.632978],[120.316989,22.632729],[120.316698,22.633457],[120.31675,22.634294]]]},"properties":{"code":"64000060013","name":"順昌里","countyCode":"64000","countyName":"高雄市","townCode":"64000060","townName":"新興區","level":"village","unassigned":false,"note":"","label":[120.31482504077432,22.634124766294807],"bounds":[120.313454,22.632729,120.316989,22.636597],"focusBounds":[120.313454,22.632729,120.316989,22.636597],"color":"#df9f6a"}},{"type":"Feature","id":"64000060014","geometry":{"type":"Polygon","coordinates":[[[120.316989,22.632729],[120.313454,22.632978],[120.313258,22.630589],[120.313286,22.630587],[120.317906,22.630261],[120.316989,22.632729]]]},"properties":{"code":"64000060014","name":"文昌里","countyCode":"64000","countyName":"高雄市","townCode":"64000060","townName":"新興區","level":"village","unassigned":false,"note":"","label":[120.31541709550918,22.631638234333153],"bounds":[120.313258,22.630261,120.317906,22.632978],"focusBounds":[120.313258,22.630261,120.317906,22.632978],"color":"#c38cb8"}},{"type":"Feature","id":"64000060015","geometry":{"type":"Polygon","coordinates":[[[120.313258,22.630589],[120.310291,22.630797],[120.310027,22.627556],[120.310459,22.62757],[120.313738,22.628659],[120.313215,22.62989],[120.313286,22.630587],[120.313258,22.630589]]]},"properties":{"code":"64000060015","name":"光耀里","countyCode":"64000","countyName":"高雄市","townCode":"64000060","townName":"新興區","level":"village","unassigned":false,"note":"","label":[120.31161722457526,22.629329218783397],"bounds":[120.310027,22.627556,120.313738,22.630797],"focusBounds":[120.310027,22.627556,120.313738,22.630797],"color":"#98b69b"}},{"type":"Feature","id":"64000060016","geometry":{"type":"Polygon","coordinates":[[[120.31352,22.633787],[120.310551,22.633993],[120.310291,22.630797],[120.313258,22.630589],[120.313454,22.632978],[120.31352,22.633787]]]},"properties":{"code":"64000060016","name":"興昌里","countyCode":"64000","countyName":"高雄市","townCode":"64000060","townName":"新興區","level":"village","unassigned":false,"note":"","label":[120.31190511050677,22.632291470870804],"bounds":[120.310291,22.630589,120.31352,22.633993],"focusBounds":[120.310291,22.630589,120.31352,22.633993],"color":"#58b99d"}},{"type":"Feature","id":"64000060017","geometry":{"type":"Polygon","coordinates":[[[120.31375,22.636597],[120.310763,22.636836],[120.309539,22.636852],[120.308625,22.636704],[120.308416,22.634144],[120.310551,22.633993],[120.31352,22.633787],[120.31375,22.636597]]]},"properties":{"code":"64000060017","name":"開平里","countyCode":"64000","countyName":"高雄市","townCode":"64000060","townName":"新興區","level":"village","unassigned":false,"note":"","label":[120.3111053604224,22.63538159268567],"bounds":[120.308416,22.633787,120.31375,22.636852],"focusBounds":[120.308416,22.633787,120.31375,22.636852],"color":"#efb44f"}},{"type":"Feature","id":"64000060018","geometry":{"type":"Polygon","coordinates":[[[120.306306,22.634291],[120.304923,22.634389],[120.304794,22.632814],[120.304661,22.631193],[120.306045,22.631095],[120.30733,22.631006],[120.308155,22.630946],[120.308287,22.632568],[120.306177,22.632717],[120.306306,22.634291]]]},"properties":{"code":"64000060018","name":"成功里","countyCode":"64000","countyName":"高雄市","townCode":"64000060","townName":"新興區","level":"village","unassigned":false,"note":"","label":[120.30618299383904,22.631900817650106],"bounds":[120.304661,22.630946,120.308287,22.634389],"focusBounds":[120.304661,22.630946,120.308287,22.634389],"color":"#efb44f"}},{"type":"Feature","id":"64000060019","geometry":{"type":"Polygon","coordinates":[[[120.305097,22.636516],[120.30238,22.636694],[120.302205,22.634582],[120.304923,22.634389],[120.305097,22.636516]]]},"properties":{"code":"64000060019","name":"新江里","countyCode":"64000","countyName":"高雄市","townCode":"64000060","townName":"新興區","level":"village","unassigned":false,"note":"","label":[120.30365279811525,22.63554468718781],"bounds":[120.302205,22.634389,120.305097,22.636694],"focusBounds":[120.302205,22.634389,120.305097,22.636694],"color":"#78a7e3"}},{"type":"Feature","id":"64000060020","geometry":{"type":"Polygon","coordinates":[[[120.304923,22.634389],[120.302205,22.634582],[120.302083,22.633065],[120.302078,22.633006],[120.304794,22.632814],[120.304923,22.634389]]]},"properties":{"code":"64000060020","name":"黎明里","countyCode":"64000","countyName":"高雄市","townCode":"64000060","townName":"新興區","level":"village","unassigned":false,"note":"","label":[120.30349998337338,22.633697876292498],"bounds":[120.302078,22.632814,120.304923,22.634582],"focusBounds":[120.302078,22.632814,120.304923,22.634582],"color":"#dd8590"}},{"type":"Feature","id":"64000060021","geometry":{"type":"Polygon","coordinates":[[[120.304794,22.632814],[120.302078,22.633006],[120.301934,22.631384],[120.304661,22.631193],[120.304794,22.632814]]]},"properties":{"code":"64000060021","name":"愛平里","countyCode":"64000","countyName":"高雄市","townCode":"64000060","townName":"新興區","level":"village","unassigned":false,"note":"","label":[120.30336691569119,22.632099374777667],"bounds":[120.301934,22.631193,120.304794,22.633006],"focusBounds":[120.301934,22.631193,120.304794,22.633006],"color":"#a49ad4"}},{"type":"Feature","id":"64000060022","geometry":{"type":"Polygon","coordinates":[[[120.308416,22.634144],[120.308625,22.636704],[120.306816,22.636405],[120.305097,22.636516],[120.304923,22.634389],[120.306306,22.634291],[120.308416,22.634144]]]},"properties":{"code":"64000060022","name":"南港里","countyCode":"64000","countyName":"高雄市","townCode":"64000060","townName":"新興區","level":"village","unassigned":false,"note":"","label":[120.30681815532523,22.635330497041217],"bounds":[120.304923,22.634144,120.308625,22.636704],"focusBounds":[120.304923,22.634144,120.308625,22.636704],"color":"#68bec9"}},{"type":"Feature","id":"64000060023","geometry":{"type":"Polygon","coordinates":[[[120.308416,22.634144],[120.306306,22.634291],[120.306177,22.632717],[120.308287,22.632568],[120.308155,22.630946],[120.310291,22.630797],[120.310551,22.633993],[120.308416,22.634144]]]},"properties":{"code":"64000060023","name":"中東里","countyCode":"64000","countyName":"高雄市","townCode":"64000060","townName":"新興區","level":"village","unassigned":false,"note":"","label":[120.30933562977842,22.632971326480217],"bounds":[120.306177,22.630797,120.310551,22.634291],"focusBounds":[120.306177,22.630797,120.310551,22.634291],"color":"#df9f6a"}},{"type":"Feature","id":"64000060024","geometry":{"type":"Polygon","coordinates":[[[120.302078,22.633006],[120.302083,22.633065],[120.299839,22.632314],[120.298702,22.631934],[120.299257,22.630488],[120.301934,22.631384],[120.302078,22.633006]]]},"properties":{"code":"64000060024","name":"明莊里","countyCode":"64000","countyName":"高雄市","townCode":"64000060","townName":"新興區","level":"village","unassigned":false,"note":"","label":[120.30049022192449,22.63171640691623],"bounds":[120.298702,22.630488,120.302083,22.633065],"focusBounds":[120.298702,22.630488,120.302083,22.633065],"color":"#df9f6a"}},{"type":"Feature","id":"64000060025","geometry":{"type":"Polygon","coordinates":[[[120.301687,22.62918],[120.301934,22.631384],[120.299257,22.630488],[120.299969,22.628645],[120.301687,22.62918]]]},"properties":{"code":"64000060025","name":"大明里","countyCode":"64000","countyName":"高雄市","townCode":"64000060","townName":"新興區","level":"village","unassigned":false,"note":"","label":[120.30073315762368,22.62993243968354],"bounds":[120.299257,22.628645,120.301934,22.631384],"focusBounds":[120.299257,22.628645,120.301934,22.631384],"color":"#c38cb8"}},{"type":"Feature","id":"64000060026","geometry":{"type":"Polygon","coordinates":[[[120.302205,22.634582],[120.3004,22.634708],[120.299083,22.634268],[120.299839,22.632314],[120.302083,22.633065],[120.302205,22.634582]]]},"properties":{"code":"64000060026","name":"秋山里","countyCode":"64000","countyName":"高雄市","townCode":"64000060","townName":"新興區","level":"village","unassigned":false,"note":"","label":[120.30070519310988,22.633645127885124],"bounds":[120.299083,22.632314,120.302205,22.634708],"focusBounds":[120.299083,22.632314,120.302205,22.634708],"color":"#98b69b"}},{"type":"Feature","id":"64000060027","geometry":{"type":"Polygon","coordinates":[[[120.299839,22.632314],[120.299083,22.634268],[120.297942,22.633889],[120.298702,22.631934],[120.299839,22.632314]]]},"properties":{"code":"64000060027","name":"長驛里","countyCode":"64000","countyName":"高雄市","townCode":"64000060","townName":"新興區","level":"village","unassigned":false,"note":"","label":[120.29889136491093,22.633101054077393],"bounds":[120.297942,22.631934,120.299839,22.634268],"focusBounds":[120.297942,22.631934,120.299839,22.634268],"color":"#58b99d"}},{"type":"Feature","id":"64000060028","geometry":{"type":"Polygon","coordinates":[[[120.300632,22.636822],[120.299715,22.636904],[120.29933,22.63681],[120.297104,22.636057],[120.297942,22.633889],[120.299083,22.634268],[120.298494,22.635793],[120.299605,22.636169],[120.300574,22.636101],[120.300632,22.636822]]]},"properties":{"code":"64000060028","name":"建興里","countyCode":"64000","countyName":"高雄市","townCode":"64000060","townName":"新興區","level":"village","unassigned":false,"note":"","label":[120.2980449711751,22.63530982807181],"bounds":[120.297104,22.633889,120.300632,22.636904],"focusBounds":[120.297104,22.633889,120.300632,22.636904],"color":"#78a7e3"}},{"type":"Feature","id":"64000060029","geometry":{"type":"Polygon","coordinates":[[[120.30238,22.636694],[120.300632,22.636822],[120.300574,22.636101],[120.299605,22.636169],[120.298494,22.635793],[120.299083,22.634268],[120.3004,22.634708],[120.302205,22.634582],[120.30238,22.636694]]]},"properties":{"code":"64000060029","name":"建華里","countyCode":"64000","countyName":"高雄市","townCode":"64000060","townName":"新興區","level":"village","unassigned":false,"note":"","label":[120.30118521471445,22.635495212631838],"bounds":[120.298494,22.634268,120.30238,22.636822],"focusBounds":[120.298494,22.634268,120.30238,22.636822],"color":"#dd8590"}},{"type":"Feature","id":"64000060030","geometry":{"type":"Polygon","coordinates":[[[120.304473,22.628896],[120.301677,22.629091],[120.301482,22.627418],[120.301516,22.627288],[120.304349,22.627378],[120.304473,22.628896]]]},"properties":{"code":"64000060030","name":"漢民里","countyCode":"64000","countyName":"高雄市","townCode":"64000060","townName":"新興區","level":"village","unassigned":false,"note":"","label":[120.30295118167149,22.628168107170268],"bounds":[120.301482,22.627288,120.304473,22.629091],"focusBounds":[120.301482,22.627288,120.304473,22.629091],"color":"#dd8590"}},{"type":"Feature","id":"64000060031","geometry":{"type":"Polygon","coordinates":[[[120.301677,22.629091],[120.301687,22.62918],[120.299969,22.628645],[120.297574,22.62783],[120.298141,22.626323],[120.301482,22.627418],[120.301677,22.629091]]]},"properties":{"code":"64000060031","name":"榮治里","countyCode":"64000","countyName":"高雄市","townCode":"64000060","townName":"新興區","level":"village","unassigned":false,"note":"","label":[120.29971825116391,22.627699672786676],"bounds":[120.297574,22.626323,120.301687,22.62918],"focusBounds":[120.297574,22.626323,120.301687,22.62918],"color":"#a49ad4"}},{"type":"Feature","id":"64000060032","geometry":{"type":"Polygon","coordinates":[[[120.304661,22.631193],[120.301934,22.631384],[120.301687,22.62918],[120.301677,22.629091],[120.304473,22.628896],[120.304661,22.631193]]]},"properties":{"code":"64000060032","name":"東坡里","countyCode":"64000","countyName":"高雄市","townCode":"64000060","townName":"新興區","level":"village","unassigned":false,"note":"","label":[120.30318603507996,22.630141166103094],"bounds":[120.301677,22.628896,120.304661,22.631384],"focusBounds":[120.301677,22.628896,120.304661,22.631384],"color":"#a8bf62"}}]}
