{"type":"FeatureCollection","features":[{"type":"Feature","id":"64000240001","geometry":{"type":"Polygon","coordinates":[[[120.241647,22.868758],[120.240378,22.868301],[120.239848,22.868956],[120.239312,22.869232],[120.238495,22.86935],[120.237949,22.869113],[120.236869,22.870668],[120.235454,22.869857],[120.235234,22.869952],[120.233068,22.868237],[120.232418,22.868869],[120.231255,22.868284],[120.230961,22.868287],[120.230147,22.868975],[120.228779,22.870654],[120.228146,22.871543],[120.228067,22.871978],[120.227641,22.872334],[120.227631,22.872632],[120.225239,22.87281],[120.225225,22.872809],[120.227292,22.863578],[120.228528,22.853411],[120.229187,22.853407],[120.229414,22.853124],[120.229672,22.85208],[120.230879,22.852163],[120.231059,22.852272],[120.231039,22.852529],[120.232715,22.852555],[120.234201,22.85272],[120.234228,22.852829],[120.237147,22.851644],[120.237818,22.850799],[120.238543,22.849319],[120.239718,22.849509],[120.240113,22.8498],[120.243717,22.850919],[120.242848,22.856268],[120.241668,22.857028],[120.241354,22.857586],[120.241027,22.85879],[120.240191,22.859772],[120.240136,22.860063],[120.240187,22.860522],[120.240601,22.86121],[120.241965,22.861919],[120.241647,22.868758]]]},"properties":{"code":"64000240001","name":"竹滬里","countyCode":"64000","countyName":"高雄市","townCode":"64000240","townName":"路竹區","level":"village","unassigned":false,"note":"","label":[120.23399439945447,22.86087862304114],"bounds":[120.225225,22.849319,120.243717,22.87281],"focusBounds":[120.225225,22.849319,120.243717,22.87281],"color":"#98b69b"}},{"type":"Feature","id":"64000240002","geometry":{"type":"Polygon","coordinates":[[[120.228528,22.853411],[120.227292,22.863578],[120.225225,22.872809],[120.224285,22.872496],[120.222736,22.872276],[120.222424,22.871727],[120.221317,22.870855],[120.220648,22.87065],[120.219934,22.870638],[120.218916,22.870726],[120.218486,22.870567],[120.217703,22.869273],[120.216743,22.867106],[120.216852,22.866959],[120.217589,22.866739],[120.21738,22.865769],[120.220588,22.864573],[120.220339,22.863978],[120.220102,22.863904],[120.219423,22.862352],[120.219037,22.860341],[120.219101,22.859843],[120.218741,22.857342],[120.213385,22.851152],[120.216358,22.849358],[120.225619,22.851015],[120.22638,22.85126],[120.226506,22.852756],[120.228528,22.853411]]]},"properties":{"code":"64000240002","name":"頂寮里","countyCode":"64000","countyName":"高雄市","townCode":"64000240","townName":"路竹區","level":"village","unassigned":false,"note":"","label":[120.22340237782232,22.859085332373958],"bounds":[120.213385,22.849358,120.228528,22.872809],"focusBounds":[120.213385,22.849358,120.228528,22.872809],"color":"#78a7e3"}},{"type":"Feature","id":"64000240003","geometry":{"type":"Polygon","coordinates":[[[120.238543,22.849319],[120.237818,22.850799],[120.237147,22.851644],[120.234228,22.852829],[120.234201,22.85272],[120.232715,22.852555],[120.231039,22.852529],[120.231059,22.852272],[120.230879,22.852163],[120.229672,22.85208],[120.229414,22.853124],[120.229187,22.853407],[120.228528,22.853411],[120.226506,22.852756],[120.22638,22.85126],[120.225619,22.851015],[120.216358,22.849358],[120.21798,22.848372],[120.21888,22.847445],[120.220002,22.84674],[120.223827,22.845434],[120.226674,22.839231],[120.226807,22.839181],[120.229509,22.840299],[120.228775,22.842105],[120.229026,22.842243],[120.229999,22.841363],[120.231864,22.838974],[120.233062,22.839424],[120.234192,22.839541],[120.232963,22.843235],[120.233883,22.843476],[120.236857,22.842723],[120.238632,22.846192],[120.238786,22.847934],[120.238543,22.849319]]]},"properties":{"code":"64000240003","name":"新達里","countyCode":"64000","countyName":"高雄市","townCode":"64000240","townName":"路竹區","level":"village","unassigned":false,"note":"","label":[120.22952617810094,22.847230668495666],"bounds":[120.216358,22.838974,120.238786,22.853411],"focusBounds":[120.216358,22.838974,120.238786,22.853411],"color":"#dd8590"}},{"type":"Feature","id":"64000240004","geometry":{"type":"Polygon","coordinates":[[[120.255798,22.840259],[120.255676,22.841315],[120.255361,22.842009],[120.251025,22.844712],[120.249447,22.842505],[120.245659,22.844652],[120.246597,22.845571],[120.247198,22.846617],[120.246353,22.846924],[120.244409,22.846477],[120.243717,22.850919],[120.240113,22.8498],[120.239718,22.849509],[120.238543,22.849319],[120.238786,22.847934],[120.238632,22.846192],[120.236857,22.842723],[120.233883,22.843476],[120.232963,22.843235],[120.234192,22.839541],[120.236297,22.839972],[120.236655,22.839494],[120.237584,22.839143],[120.237922,22.838695],[120.238902,22.838068],[120.239264,22.83532],[120.24019,22.835665],[120.240671,22.834837],[120.240229,22.834272],[120.240656,22.833601],[120.240994,22.832204],[120.241178,22.83209],[120.241653,22.832224],[120.241826,22.831642],[120.242621,22.831824],[120.24278,22.831155],[120.243101,22.830619],[120.243392,22.829271],[120.245265,22.829479],[120.247664,22.829329],[120.249541,22.830014],[120.250291,22.829043],[120.255019,22.831474],[120.256797,22.828546],[120.257213,22.82856],[120.256727,22.832543],[120.255798,22.840259]]]},"properties":{"code":"64000240004","name":"後鄉里","countyCode":"64000","countyName":"高雄市","townCode":"64000240","townName":"路竹區","level":"village","unassigned":false,"note":"","label":[120.2469969155337,22.8366324756932],"bounds":[120.232963,22.828546,120.257213,22.850919],"focusBounds":[120.232963,22.828546,120.257213,22.850919],"color":"#a49ad4"}},{"type":"Feature","id":"64000240005","geometry":{"type":"Polygon","coordinates":[[[120.268071,22.838637],[120.264241,22.838879],[120.265191,22.833709],[120.256727,22.832543],[120.257213,22.82856],[120.256797,22.828546],[120.256955,22.828273],[120.253844,22.826625],[120.254746,22.824988],[120.25813,22.824441],[120.258163,22.823969],[120.264062,22.823229],[120.268118,22.822493],[120.267492,22.821632],[120.266912,22.821401],[120.266792,22.820614],[120.266936,22.820267],[120.267572,22.820152],[120.267993,22.820314],[120.269207,22.820224],[120.270101,22.820447],[120.270376,22.820485],[120.273204,22.818318],[120.27437,22.817215],[120.274498,22.816716],[120.274693,22.816656],[120.277089,22.816707],[120.277655,22.816862],[120.278995,22.81679],[120.280035,22.817268],[120.280535,22.818545],[120.282426,22.818469],[120.283412,22.818741],[120.283938,22.820668],[120.283839,22.822434],[120.28406,22.823407],[120.283104,22.823674],[120.282281,22.824499],[120.281744,22.824453],[120.281283,22.824729],[120.281061,22.825398],[120.280748,22.825641],[120.280919,22.826504],[120.280604,22.827383],[120.278027,22.828451],[120.27726,22.829242],[120.276611,22.829259],[120.275745,22.828889],[120.274869,22.829071],[120.274543,22.829349],[120.273857,22.830048],[120.270652,22.834569],[120.269974,22.834697],[120.269719,22.834881],[120.269432,22.836006],[120.268071,22.838637]]]},"properties":{"code":"64000240005","name":"北嶺里","countyCode":"64000","countyName":"高雄市","townCode":"64000240","townName":"路竹區","level":"village","unassigned":false,"note":"","label":[120.26819631188302,22.827973446252876],"bounds":[120.253844,22.816656,120.28406,22.838879],"focusBounds":[120.253844,22.816656,120.28406,22.838879],"color":"#dd8590"}},{"type":"Feature","id":"64000240006","geometry":{"type":"Polygon","coordinates":[[[120.267996,22.869699],[120.266913,22.870448],[120.266785,22.871095],[120.264792,22.872036],[120.256902,22.873688],[120.255767,22.87371],[120.259009,22.865397],[120.259777,22.863956],[120.26116,22.862014],[120.262434,22.863487],[120.262693,22.863213],[120.267149,22.863163],[120.266794,22.865325],[120.267006,22.86705],[120.266607,22.867651],[120.266583,22.868566],[120.267467,22.868595],[120.26788,22.869545],[120.267996,22.869699]]]},"properties":{"code":"64000240006","name":"社西里","countyCode":"64000","countyName":"高雄市","townCode":"64000240","townName":"路竹區","level":"village","unassigned":false,"note":"","label":[120.26228223978822,22.868285988407987],"bounds":[120.255767,22.862014,120.267996,22.87371],"focusBounds":[120.255767,22.862014,120.267996,22.87371],"color":"#a49ad4"}},{"type":"Feature","id":"64000240007","geometry":{"type":"Polygon","coordinates":[[[120.269842,22.896695],[120.266699,22.898648],[120.263686,22.899922],[120.260535,22.901755],[120.258775,22.901865],[120.257929,22.901647],[120.257513,22.901198],[120.257051,22.900439],[120.256829,22.899541],[120.256936,22.898973],[120.258781,22.896862],[120.258969,22.896114],[120.258771,22.895338],[120.259139,22.894877],[120.259583,22.892966],[120.260311,22.891491],[120.260883,22.890692],[120.260654,22.889941],[120.260702,22.889217],[120.260232,22.888737],[120.259676,22.887494],[120.259612,22.88556],[120.259094,22.885377],[120.262657,22.884723],[120.264045,22.884646],[120.263843,22.882762],[120.264472,22.882442],[120.26586,22.882618],[120.265798,22.881771],[120.266315,22.881643],[120.266422,22.881217],[120.26625,22.880227],[120.270379,22.88],[120.270374,22.872789],[120.27153,22.872661],[120.271711,22.87121],[120.274484,22.871668],[120.281319,22.869358],[120.281903,22.870053],[120.281977,22.870401],[120.282546,22.870449],[120.282676,22.870804],[120.282631,22.871452],[120.283072,22.871964],[120.281138,22.875999],[120.277655,22.882528],[120.27803,22.883107],[120.278675,22.883399],[120.278671,22.884079],[120.27489,22.895293],[120.274054,22.895249],[120.272988,22.895412],[120.269842,22.896695]]]},"properties":{"code":"64000240007","name":"甲北里","countyCode":"64000","countyName":"高雄市","townCode":"64000240","townName":"路竹區","level":"village","unassigned":false,"note":"","label":[120.26988270121018,22.88835284507448],"bounds":[120.256829,22.869358,120.283072,22.901865],"focusBounds":[120.256829,22.869358,120.283072,22.901865],"color":"#a8bf62"}},{"type":"Feature","id":"64000240008","geometry":{"type":"Polygon","coordinates":[[[120.281319,22.869358],[120.274484,22.871668],[120.271711,22.87121],[120.27153,22.872661],[120.270374,22.872789],[120.270379,22.88],[120.26625,22.880227],[120.266422,22.881217],[120.266315,22.881643],[120.265798,22.881771],[120.26586,22.882618],[120.264472,22.882442],[120.263843,22.882762],[120.264045,22.884646],[120.262657,22.884723],[120.259094,22.885377],[120.256423,22.885044],[120.255154,22.884495],[120.252568,22.884424],[120.252889,22.882059],[120.252454,22.882012],[120.252909,22.878442],[120.252879,22.877436],[120.25258,22.877054],[120.253937,22.873854],[120.253813,22.873823],[120.253997,22.87374],[120.255767,22.87371],[120.256902,22.873688],[120.264792,22.872036],[120.266785,22.871095],[120.266913,22.870448],[120.267996,22.869699],[120.269105,22.86976],[120.270066,22.869038],[120.270184,22.867934],[120.273651,22.866505],[120.278411,22.86571],[120.280053,22.865674],[120.280671,22.865508],[120.280683,22.865632],[120.280738,22.865969],[120.28147,22.866428],[120.281766,22.867375],[120.281487,22.868002],[120.281554,22.86851],[120.281243,22.86901],[120.281319,22.869358]]]},"properties":{"code":"64000240008","name":"甲南里","countyCode":"64000","countyName":"高雄市","townCode":"64000240","townName":"路竹區","level":"village","unassigned":false,"note":"","label":[120.25937920517504,22.879247019372322],"bounds":[120.252454,22.865508,120.281766,22.885377],"focusBounds":[120.252454,22.865508,120.281766,22.885377],"color":"#68bec9"}},{"type":"Feature","id":"64000240009","geometry":{"type":"Polygon","coordinates":[[[120.304443,22.867564],[120.29392,22.868258],[120.292433,22.869073],[120.288697,22.870587],[120.283072,22.871964],[120.282631,22.871452],[120.282676,22.870804],[120.282546,22.870449],[120.281977,22.870401],[120.281903,22.870053],[120.281319,22.869358],[120.281243,22.86901],[120.281554,22.86851],[120.281487,22.868002],[120.281766,22.867375],[120.28147,22.866428],[120.280738,22.865969],[120.280683,22.865632],[120.283718,22.864639],[120.285888,22.864344],[120.285969,22.861359],[120.286133,22.860507],[120.287893,22.86023],[120.291158,22.852418],[120.293442,22.848626],[120.297001,22.843402],[120.297352,22.843622],[120.297483,22.843923],[120.297344,22.844724],[120.297456,22.845195],[120.298485,22.848236],[120.298952,22.849053],[120.301506,22.850525],[120.302808,22.850852],[120.303716,22.851642],[120.304174,22.851773],[120.305343,22.851597],[120.305712,22.851811],[120.305992,22.852491],[120.306076,22.853263],[120.305991,22.854332],[120.305561,22.855249],[120.304746,22.857334],[120.30663,22.860807],[120.306826,22.862061],[120.306168,22.863495],[120.306021,22.865162],[120.304252,22.866187],[120.30414,22.866657],[120.304443,22.867564]]]},"properties":{"code":"64000240009","name":"下坑里","countyCode":"64000","countyName":"高雄市","townCode":"64000240","townName":"路竹區","level":"village","unassigned":false,"note":"","label":[120.29662340007447,22.86017723060982],"bounds":[120.280683,22.843402,120.306826,22.871964],"focusBounds":[120.280683,22.843402,120.306826,22.871964],"color":"#c38cb8"}},{"type":"Feature","id":"64000240010","geometry":{"type":"Polygon","coordinates":[[[120.302716,22.881793],[120.301897,22.88195],[120.301958,22.88266],[120.301821,22.883341],[120.300169,22.883751],[120.299856,22.881688],[120.292348,22.88219],[120.292466,22.886161],[120.291783,22.886574],[120.291172,22.88654],[120.289353,22.885444],[120.289098,22.885645],[120.288756,22.886414],[120.288699,22.887003],[120.289261,22.887875],[120.289226,22.888249],[120.288829,22.888689],[120.288731,22.889239],[120.288148,22.889878],[120.287954,22.891287],[120.287999,22.892105],[120.287199,22.892374],[120.286836,22.893033],[120.286472,22.893291],[120.285419,22.893095],[120.284663,22.893335],[120.283069,22.89323],[120.281744,22.893705],[120.2809,22.893678],[120.280244,22.894076],[120.279399,22.894373],[120.278891,22.894399],[120.278078,22.895202],[120.278186,22.896182],[120.276412,22.896081],[120.276602,22.895507],[120.27489,22.895293],[120.278671,22.884079],[120.278675,22.883399],[120.27803,22.883107],[120.277655,22.882528],[120.281138,22.875999],[120.283072,22.871964],[120.288697,22.870587],[120.292433,22.869073],[120.29392,22.868258],[120.304443,22.867564],[120.304213,22.868521],[120.304493,22.871497],[120.304279,22.871852],[120.303812,22.872193],[120.303669,22.872546],[120.304376,22.873155],[120.304502,22.87344],[120.305067,22.873612],[120.305207,22.873877],[120.30488,22.875621],[120.304901,22.876391],[120.30406,22.878009],[120.304486,22.878619],[120.304197,22.879666],[120.304547,22.880146],[120.304519,22.880983],[120.304293,22.881475],[120.30395,22.881684],[120.302716,22.881793]]]},"properties":{"code":"64000240010","name":"竹園里","countyCode":"64000","countyName":"高雄市","townCode":"64000240","townName":"路竹區","level":"village","unassigned":false,"note":"","label":[120.28724878697051,22.8782043371519],"bounds":[120.27489,22.867564,120.305207,22.896182],"focusBounds":[120.27489,22.867564,120.305207,22.896182],"color":"#98b69b"}},{"type":"Feature","id":"64000240011","geometry":{"type":"Polygon","coordinates":[[[120.26116,22.862014],[120.259777,22.863956],[120.259009,22.865397],[120.255767,22.87371],[120.253997,22.87374],[120.255363,22.870439],[120.255988,22.86748],[120.256491,22.865931],[120.257645,22.863384],[120.260278,22.858695],[120.260617,22.857735],[120.261238,22.85716],[120.262825,22.857829],[120.263164,22.857822],[120.263597,22.85758],[120.264168,22.857673],[120.26116,22.862014]]]},"properties":{"code":"64000240011","name":"竹東里","countyCode":"64000","countyName":"高雄市","townCode":"64000240","townName":"路竹區","level":"village","unassigned":false,"note":"","label":[120.25903323089786,22.863131891820906],"bounds":[120.253997,22.85716,120.264168,22.87374],"focusBounds":[120.253997,22.85716,120.264168,22.87374],"color":"#98b69b"}},{"type":"Feature","id":"64000240012","geometry":{"type":"Polygon","coordinates":[[[120.253813,22.873823],[120.252623,22.873699],[120.25254,22.874057],[120.252144,22.87406],[120.251928,22.873574],[120.25192,22.873067],[120.25135,22.872877],[120.250859,22.872235],[120.249056,22.872105],[120.248774,22.871605],[120.248154,22.871526],[120.248165,22.871015],[120.24787,22.870467],[120.246189,22.869082],[120.24581,22.86841],[120.245715,22.867468],[120.245833,22.866502],[120.246823,22.866096],[120.248043,22.865969],[120.248273,22.865265],[120.248987,22.865402],[120.249075,22.865027],[120.249898,22.865198],[120.249832,22.864826],[120.251072,22.864066],[120.250918,22.863562],[120.251636,22.86327],[120.251825,22.862943],[120.252446,22.862698],[120.253415,22.862018],[120.253812,22.861505],[120.255218,22.861715],[120.25532,22.861501],[120.256839,22.861723],[120.256957,22.860247],[120.257027,22.86001],[120.257246,22.860077],[120.257809,22.858002],[120.258958,22.858172],[120.260278,22.858695],[120.257645,22.863384],[120.256491,22.865931],[120.255988,22.86748],[120.255363,22.870439],[120.253997,22.87374],[120.253813,22.873823]]]},"properties":{"code":"64000240012","name":"竹西里","countyCode":"64000","countyName":"高雄市","townCode":"64000240","townName":"路竹區","level":"village","unassigned":false,"note":"","label":[120.25260540167191,22.86718749059129],"bounds":[120.245715,22.858002,120.260278,22.87406],"focusBounds":[120.245715,22.858002,120.260278,22.87406],"color":"#58b99d"}},{"type":"Feature","id":"64000240013","geometry":{"type":"Polygon","coordinates":[[[120.248154,22.871526],[120.24718,22.871341],[120.246894,22.871681],[120.246336,22.871641],[120.246083,22.871784],[120.244844,22.871898],[120.244548,22.872061],[120.24363,22.871564],[120.24384,22.870606],[120.241703,22.869607],[120.241647,22.868758],[120.241965,22.861919],[120.240601,22.86121],[120.240187,22.860522],[120.240136,22.860063],[120.240191,22.859772],[120.241027,22.85879],[120.241354,22.857586],[120.251543,22.857083],[120.254295,22.857426],[120.255983,22.858052],[120.25771,22.857997],[120.257809,22.858002],[120.257246,22.860077],[120.257027,22.86001],[120.256957,22.860247],[120.256839,22.861723],[120.25532,22.861501],[120.255218,22.861715],[120.253812,22.861505],[120.253415,22.862018],[120.252446,22.862698],[120.251825,22.862943],[120.251636,22.86327],[120.250918,22.863562],[120.251072,22.864066],[120.249832,22.864826],[120.249898,22.865198],[120.249075,22.865027],[120.248987,22.865402],[120.248273,22.865265],[120.248043,22.865969],[120.246823,22.866096],[120.245833,22.866502],[120.245715,22.867468],[120.24581,22.86841],[120.246189,22.869082],[120.24787,22.870467],[120.248165,22.871015],[120.248154,22.871526]]]},"properties":{"code":"64000240013","name":"文北里","countyCode":"64000","countyName":"高雄市","townCode":"64000240","townName":"路竹區","level":"village","unassigned":false,"note":"","label":[120.24651346651467,22.861375553481295],"bounds":[120.240136,22.857083,120.257809,22.872061],"focusBounds":[120.240136,22.857083,120.257809,22.872061],"color":"#efb44f"}},{"type":"Feature","id":"64000240014","geometry":{"type":"Polygon","coordinates":[[[120.25771,22.857997],[120.255983,22.858052],[120.254295,22.857426],[120.251543,22.857083],[120.241354,22.857586],[120.241668,22.857028],[120.242848,22.856268],[120.243717,22.850919],[120.244409,22.846477],[120.246353,22.846924],[120.247198,22.846617],[120.246597,22.845571],[120.245659,22.844652],[120.249447,22.842505],[120.251025,22.844712],[120.255361,22.842009],[120.255676,22.841315],[120.255798,22.840259],[120.25767,22.84067],[120.256919,22.841899],[120.255545,22.842972],[120.256307,22.843639],[120.256928,22.845098],[120.258982,22.845686],[120.258805,22.846139],[120.259611,22.84672],[120.258872,22.848306],[120.258233,22.848965],[120.257912,22.849652],[120.257145,22.850197],[120.256226,22.852044],[120.255999,22.852804],[120.256,22.853092],[120.257767,22.853155],[120.257904,22.854582],[120.257613,22.857146],[120.25771,22.857997]]]},"properties":{"code":"64000240014","name":"文南里","countyCode":"64000","countyName":"高雄市","townCode":"64000240","townName":"路竹區","level":"village","unassigned":false,"note":"","label":[120.25086443846418,22.85080178085045],"bounds":[120.241354,22.840259,120.259611,22.858052],"focusBounds":[120.241354,22.840259,120.259611,22.858052],"color":"#78a7e3"}},{"type":"Feature","id":"64000240015","geometry":{"type":"Polygon","coordinates":[[[120.293909,22.839712],[120.291717,22.840685],[120.290539,22.841745],[120.289386,22.842081],[120.288218,22.840295],[120.287611,22.838766],[120.285421,22.837659],[120.285018,22.837594],[120.284417,22.838858],[120.2825,22.840779],[120.277306,22.841776],[120.277066,22.84157],[120.27688,22.841689],[120.276616,22.841475],[120.276129,22.841771],[120.275159,22.841317],[120.273356,22.84132],[120.274607,22.839328],[120.273135,22.838418],[120.268071,22.838637],[120.269432,22.836006],[120.269719,22.834881],[120.269974,22.834697],[120.270652,22.834569],[120.273857,22.830048],[120.274543,22.829349],[120.274869,22.829071],[120.275745,22.828889],[120.276611,22.829259],[120.27726,22.829242],[120.278027,22.828451],[120.280604,22.827383],[120.280919,22.826504],[120.280748,22.825641],[120.281061,22.825398],[120.281283,22.824729],[120.281744,22.824453],[120.282281,22.824499],[120.283104,22.823674],[120.28406,22.823407],[120.284489,22.823895],[120.28523,22.824319],[120.285816,22.82433],[120.286657,22.823983],[120.287162,22.824041],[120.288147,22.825034],[120.289819,22.825448],[120.291176,22.826667],[120.292392,22.826827],[120.292888,22.826916],[120.293886,22.827446],[120.294998,22.828865],[120.295166,22.829118],[120.294476,22.83032],[120.29359,22.830805],[120.292842,22.8323],[120.291638,22.832924],[120.291472,22.833168],[120.292173,22.835181],[120.292025,22.836015],[120.292095,22.836505],[120.292347,22.836828],[120.293377,22.837364],[120.293471,22.83817],[120.294062,22.838903],[120.294,22.839638],[120.293909,22.839712]]]},"properties":{"code":"64000240015","name":"三爺里","countyCode":"64000","countyName":"高雄市","townCode":"64000240","townName":"路竹區","level":"village","unassigned":false,"note":"","label":[120.28554517393394,22.83102338498735],"bounds":[120.268071,22.823407,120.295166,22.842081],"focusBounds":[120.268071,22.823407,120.295166,22.842081],"color":"#a49ad4"}},{"type":"Feature","id":"64000240016","geometry":{"type":"Polygon","coordinates":[[[120.266962,22.853338],[120.266146,22.853286],[120.265299,22.853669],[120.264599,22.852889],[120.264916,22.845731],[120.264638,22.845574],[120.262897,22.845878],[120.264241,22.838879],[120.268071,22.838637],[120.273135,22.838418],[120.274607,22.839328],[120.273356,22.84132],[120.275159,22.841317],[120.276129,22.841771],[120.276616,22.841475],[120.27688,22.841689],[120.277066,22.84157],[120.277306,22.841776],[120.2825,22.840779],[120.284417,22.838858],[120.285018,22.837594],[120.285421,22.837659],[120.287611,22.838766],[120.288218,22.840295],[120.289386,22.842081],[120.286774,22.843067],[120.285002,22.845486],[120.284019,22.847243],[120.283574,22.847661],[120.28189,22.847865],[120.280169,22.847833],[120.279219,22.848018],[120.278901,22.848285],[120.278733,22.849969],[120.276833,22.850001],[120.276676,22.848959],[120.275422,22.849137],[120.275061,22.848568],[120.273028,22.849539],[120.270943,22.85106],[120.270314,22.851181],[120.269338,22.85163],[120.268955,22.851028],[120.268395,22.850843],[120.266962,22.853338]]]},"properties":{"code":"64000240016","name":"鴨寮里","countyCode":"64000","countyName":"高雄市","townCode":"64000240","townName":"路竹區","level":"village","unassigned":false,"note":"","label":[120.26985563832703,22.844975940035106],"bounds":[120.262897,22.837594,120.289386,22.853669],"focusBounds":[120.262897,22.837594,120.289386,22.853669],"color":"#68bec9"}},{"type":"Feature","id":"64000240017","geometry":{"type":"Polygon","coordinates":[[[120.280683,22.865632],[120.280671,22.865508],[120.280053,22.865674],[120.278411,22.86571],[120.273651,22.866505],[120.270184,22.867934],[120.270066,22.869038],[120.269105,22.86976],[120.267996,22.869699],[120.26788,22.869545],[120.268704,22.869553],[120.268778,22.868637],[120.268582,22.868588],[120.268632,22.866015],[120.26845,22.866066],[120.2683,22.865932],[120.2683,22.864973],[120.267835,22.864986],[120.268044,22.864125],[120.267856,22.863499],[120.268106,22.863349],[120.268455,22.85997],[120.270578,22.860098],[120.270437,22.858977],[120.271137,22.857362],[120.272156,22.855874],[120.273874,22.853846],[120.274347,22.852956],[120.274765,22.852782],[120.276142,22.853246],[120.276859,22.853107],[120.278273,22.853218],[120.278733,22.849969],[120.278901,22.848285],[120.279219,22.848018],[120.280169,22.847833],[120.28189,22.847865],[120.283574,22.847661],[120.284019,22.847243],[120.285002,22.845486],[120.286774,22.843067],[120.289386,22.842081],[120.290539,22.841745],[120.291717,22.840685],[120.293909,22.839712],[120.293686,22.839938],[120.293447,22.841084],[120.29359,22.842142],[120.295945,22.84277],[120.297001,22.843402],[120.293442,22.848626],[120.291158,22.852418],[120.287893,22.86023],[120.286133,22.860507],[120.285969,22.861359],[120.285888,22.864344],[120.283718,22.864639],[120.280683,22.865632]]]},"properties":{"code":"64000240017","name":"社東里","countyCode":"64000","countyName":"高雄市","townCode":"64000240","townName":"路竹區","level":"village","unassigned":false,"note":"","label":[120.2797256108547,22.85945184287712],"bounds":[120.267835,22.839712,120.297001,22.86976],"focusBounds":[120.267835,22.839712,120.297001,22.86976],"color":"#a8bf62"}},{"type":"Feature","id":"64000240018","geometry":{"type":"Polygon","coordinates":[[[120.267856,22.863499],[120.268044,22.864125],[120.267835,22.864986],[120.2683,22.864973],[120.2683,22.865932],[120.26845,22.866066],[120.268632,22.866015],[120.268582,22.868588],[120.268778,22.868637],[120.268704,22.869553],[120.26788,22.869545],[120.267467,22.868595],[120.266583,22.868566],[120.266607,22.867651],[120.267006,22.86705],[120.266794,22.865325],[120.267149,22.863163],[120.267856,22.863499]]]},"properties":{"code":"64000240018","name":"社中里","countyCode":"64000","countyName":"高雄市","townCode":"64000240","townName":"路竹區","level":"village","unassigned":false,"note":"","label":[120.26779423869247,22.866658993130564],"bounds":[120.266583,22.863163,120.268778,22.869553],"focusBounds":[120.266583,22.863163,120.268778,22.869553],"color":"#68bec9"}},{"type":"Feature","id":"64000240019","geometry":{"type":"Polygon","coordinates":[[[120.264168,22.857673],[120.263597,22.85758],[120.263164,22.857822],[120.262825,22.857829],[120.261238,22.85716],[120.260617,22.857735],[120.260278,22.858695],[120.258958,22.858172],[120.257809,22.858002],[120.25771,22.857997],[120.257613,22.857146],[120.257904,22.854582],[120.257767,22.853155],[120.256,22.853092],[120.255999,22.852804],[120.256226,22.852044],[120.257145,22.850197],[120.257912,22.849652],[120.258233,22.848965],[120.258872,22.848306],[120.259611,22.84672],[120.258805,22.846139],[120.258982,22.845686],[120.256928,22.845098],[120.256307,22.843639],[120.255545,22.842972],[120.256919,22.841899],[120.25767,22.84067],[120.255798,22.840259],[120.256727,22.832543],[120.265191,22.833709],[120.264241,22.838879],[120.262897,22.845878],[120.264638,22.845574],[120.264916,22.845731],[120.264599,22.852889],[120.265299,22.853669],[120.266146,22.853286],[120.266962,22.853338],[120.264168,22.857673]]]},"properties":{"code":"64000240019","name":"竹南里","countyCode":"64000","countyName":"高雄市","townCode":"64000240","townName":"路竹區","level":"village","unassigned":false,"note":"","label":[120.26065330118666,22.83723748661453],"bounds":[120.255545,22.832543,120.266962,22.858695],"focusBounds":[120.255545,22.832543,120.266962,22.858695],"color":"#df9f6a"}},{"type":"Feature","id":"64000240020","geometry":{"type":"Polygon","coordinates":[[[120.267149,22.863163],[120.262693,22.863213],[120.262434,22.863487],[120.26116,22.862014],[120.264168,22.857673],[120.266962,22.853338],[120.268395,22.850843],[120.268955,22.851028],[120.269338,22.85163],[120.270314,22.851181],[120.270943,22.85106],[120.273028,22.849539],[120.275061,22.848568],[120.275422,22.849137],[120.276676,22.848959],[120.276833,22.850001],[120.278733,22.849969],[120.278273,22.853218],[120.276859,22.853107],[120.276142,22.853246],[120.274765,22.852782],[120.274347,22.852956],[120.273874,22.853846],[120.272156,22.855874],[120.271137,22.857362],[120.270437,22.858977],[120.270578,22.860098],[120.268455,22.85997],[120.268106,22.863349],[120.267856,22.863499],[120.267149,22.863163]]]},"properties":{"code":"64000240020","name":"社南里","countyCode":"64000","countyName":"高雄市","townCode":"64000240","townName":"路竹區","level":"village","unassigned":false,"note":"","label":[120.26929661568991,22.85499435137826],"bounds":[120.26116,22.848568,120.278733,22.863499],"focusBounds":[120.26116,22.848568,120.278733,22.863499],"color":"#c38cb8"}}]}
