{"type":"FeatureCollection","features":[{"type":"Feature","id":"64000100001","geometry":{"type":"Polygon","coordinates":[[[120.269469,22.614167],[120.2693,22.614237],[120.269384,22.614386],[120.267502,22.615039],[120.267272,22.614555],[120.266641,22.614627],[120.266591,22.614796],[120.266403,22.614829],[120.265989,22.614459],[120.265796,22.614654],[120.266294,22.615133],[120.266155,22.61574],[120.264694,22.616248],[120.263649,22.615446],[120.262288,22.613912],[120.263249,22.612849],[120.263284,22.611753],[120.262989,22.611273],[120.263185,22.610349],[120.263531,22.610331],[120.264187,22.611395],[120.264452,22.611378],[120.265425,22.612971],[120.265909,22.613377],[120.266978,22.61299],[120.267373,22.613594],[120.268483,22.613103],[120.26876,22.61359],[120.269469,22.614167]]]},"properties":{"code":"64000100001","name":"旗下里","countyCode":"64000","countyName":"高雄市","townCode":"64000100","townName":"旗津區","level":"village","unassigned":false,"note":"","label":[120.26433705191441,22.61400613336597],"bounds":[120.262288,22.610331,120.269469,22.616248],"focusBounds":[120.262288,22.610331,120.269469,22.616248],"color":"#68bec9"}},{"type":"Feature","id":"64000100002","geometry":{"type":"Polygon","coordinates":[[[120.268483,22.613103],[120.267373,22.613594],[120.266978,22.61299],[120.265909,22.613377],[120.265425,22.612971],[120.264452,22.611378],[120.26495,22.611183],[120.265802,22.610529],[120.265888,22.609186],[120.266539,22.60974],[120.268483,22.613103]]]},"properties":{"code":"64000100002","name":"永安里","countyCode":"64000","countyName":"高雄市","townCode":"64000100","townName":"旗津區","level":"village","unassigned":false,"note":"","label":[120.26624069472186,22.611830030752888],"bounds":[120.264452,22.609186,120.268483,22.613594],"focusBounds":[120.264452,22.609186,120.268483,22.613594],"color":"#df9f6a"}},{"type":"Feature","id":"64000100003","geometry":{"type":"Polygon","coordinates":[[[120.265948,22.60895],[120.269425,22.611279],[120.269815,22.611382],[120.270177,22.611635],[120.270102,22.611731],[120.271197,22.612408],[120.271322,22.612486],[120.271814,22.612118],[120.271894,22.612232],[120.274191,22.610854],[120.275222,22.612436],[120.273803,22.613286],[120.273558,22.612912],[120.274828,22.612132],[120.274571,22.611734],[120.271715,22.613466],[120.271268,22.612974],[120.271451,22.61286],[120.271179,22.612669],[120.271266,22.612556],[120.270782,22.612364],[120.269851,22.613545],[120.270033,22.61367],[120.270961,22.613151],[120.270824,22.613281],[120.270934,22.613462],[120.270466,22.613736],[120.269928,22.613693],[120.269469,22.614167],[120.26876,22.61359],[120.268483,22.613103],[120.266539,22.60974],[120.265888,22.609186],[120.265948,22.60895]]]},"properties":{"code":"64000100003","name":"振興里","countyCode":"64000","countyName":"高雄市","townCode":"64000100","townName":"旗津區","level":"village","unassigned":false,"note":"","label":[120.26922480951306,22.612344698193453],"bounds":[120.265888,22.60895,120.275222,22.614167],"focusBounds":[120.265888,22.60895,120.275222,22.614167],"color":"#c38cb8"}},{"type":"Feature","id":"64000100004","geometry":{"type":"Polygon","coordinates":[[[120.271197,22.612408],[120.270102,22.611731],[120.270177,22.611635],[120.269815,22.611382],[120.269425,22.611279],[120.265948,22.60895],[120.265311,22.606783],[120.269711,22.609576],[120.271331,22.607459],[120.272332,22.608052],[120.27196,22.608586],[120.273105,22.609329],[120.272723,22.609951],[120.27261,22.609905],[120.272123,22.610417],[120.271781,22.611041],[120.27123,22.611628],[120.271036,22.612104],[120.271197,22.612408]]]},"properties":{"code":"64000100004","name":"慈愛里","countyCode":"64000","countyName":"高雄市","townCode":"64000100","townName":"旗津區","level":"village","unassigned":false,"note":"","label":[120.27081410925156,22.610153037069285],"bounds":[120.265311,22.606783,120.273105,22.612408],"focusBounds":[120.265311,22.606783,120.273105,22.612408],"color":"#98b69b"}},{"type":"Feature","id":"64000100005","geometry":{"type":"Polygon","coordinates":[[[120.277315,22.601839],[120.276571,22.602134],[120.274586,22.604473],[120.274121,22.6052],[120.273841,22.606009],[120.272332,22.608052],[120.271331,22.607459],[120.272907,22.605393],[120.272668,22.605242],[120.274284,22.603165],[120.267292,22.598854],[120.26763,22.598088],[120.268508,22.596877],[120.274359,22.600473],[120.277315,22.601839]]]},"properties":{"code":"64000100005","name":"復興里","countyCode":"64000","countyName":"高雄市","townCode":"64000100","townName":"旗津區","level":"village","unassigned":false,"note":"","label":[120.27270332430325,22.600822874817155],"bounds":[120.267292,22.596877,120.277315,22.608052],"focusBounds":[120.267292,22.596877,120.277315,22.608052],"color":"#58b99d"}},{"type":"Feature","id":"64000100006","geometry":{"type":"Polygon","coordinates":[[[120.271331,22.607459],[120.269711,22.609576],[120.265311,22.606783],[120.263703,22.605126],[120.263232,22.6036],[120.262959,22.601726],[120.263032,22.601388],[120.263446,22.601544],[120.263773,22.601902],[120.265594,22.600894],[120.26679,22.59999],[120.267292,22.598854],[120.274284,22.603165],[120.272668,22.605242],[120.272907,22.605393],[120.271331,22.607459]]]},"properties":{"code":"64000100006","name":"中華里","countyCode":"64000","countyName":"高雄市","townCode":"64000100","townName":"旗津區","level":"village","unassigned":false,"note":"","label":[120.26838179270861,22.60412909945558],"bounds":[120.262959,22.598854,120.274284,22.609576],"focusBounds":[120.262959,22.598854,120.274284,22.609576],"color":"#efb44f"}},{"type":"Feature","id":"64000100007","geometry":{"type":"Polygon","coordinates":[[[120.27867,22.602294],[120.277659,22.603577],[120.27836,22.604526],[120.278245,22.604902],[120.278772,22.605298],[120.278834,22.605693],[120.279438,22.605964],[120.279689,22.606286],[120.278483,22.608202],[120.278181,22.60837],[120.277279,22.606939],[120.276683,22.607185],[120.277417,22.608385],[120.277104,22.608557],[120.27628,22.607373],[120.27581,22.607565],[120.275456,22.607023],[120.275223,22.607156],[120.276862,22.609841],[120.274886,22.610897],[120.274652,22.610565],[120.274887,22.610423],[120.2739,22.60889],[120.273744,22.608899],[120.27384,22.608633],[120.27357,22.608699],[120.273105,22.609329],[120.27196,22.608586],[120.272332,22.608052],[120.273841,22.606009],[120.274121,22.6052],[120.274586,22.604473],[120.276571,22.602134],[120.277315,22.601839],[120.27867,22.602294]]]},"properties":{"code":"64000100007","name":"實踐里","countyCode":"64000","countyName":"高雄市","townCode":"64000100","townName":"旗津區","level":"village","unassigned":false,"note":"","label":[120.27639327096433,22.605290715249808],"bounds":[120.27196,22.601839,120.279689,22.610897],"focusBounds":[120.27196,22.601839,120.279689,22.610897],"color":"#78a7e3"}},{"type":"Feature","id":"64000100008","geometry":{"type":"Polygon","coordinates":[[[120.282081,22.596563],[120.282029,22.596826],[120.282287,22.596908],[120.282136,22.596882],[120.282255,22.597007],[120.281921,22.596891],[120.281876,22.597019],[120.282134,22.597104],[120.281867,22.597039],[120.281853,22.597179],[120.282107,22.597268],[120.281831,22.597202],[120.281731,22.597565],[120.281989,22.597695],[120.28173,22.597623],[120.281756,22.597847],[120.281532,22.598029],[120.281964,22.598112],[120.281572,22.598151],[120.281534,22.598381],[120.28177,22.598443],[120.281459,22.598532],[120.281569,22.598774],[120.281406,22.598744],[120.281341,22.598943],[120.281581,22.599131],[120.281461,22.599286],[120.281832,22.599518],[120.281444,22.599367],[120.281739,22.599649],[120.281367,22.599512],[120.28128,22.599665],[120.281561,22.599749],[120.281634,22.600043],[120.282498,22.600593],[120.28061,22.603818],[120.280492,22.603802],[120.280332,22.602641],[120.279658,22.602737],[120.279646,22.60261],[120.280357,22.602516],[120.281163,22.600685],[120.280167,22.600247],[120.279199,22.601574],[120.280074,22.602222],[120.279126,22.601667],[120.27867,22.602294],[120.277315,22.601839],[120.274359,22.600473],[120.268508,22.596877],[120.269818,22.595652],[120.270374,22.594223],[120.271291,22.592781],[120.273176,22.590589],[120.278186,22.594168],[120.282081,22.596563]]]},"properties":{"code":"64000100008","name":"北汕里","countyCode":"64000","countyName":"高雄市","townCode":"64000100","townName":"旗津區","level":"village","unassigned":false,"note":"","label":[120.2756977246846,22.597059093012135],"bounds":[120.268508,22.590589,120.282498,22.603818],"focusBounds":[120.268508,22.590589,120.282498,22.603818],"color":"#dd8590"}},{"type":"Feature","id":"64000100009","geometry":{"type":"Polygon","coordinates":[[[120.291589,22.586632],[120.291756,22.586939],[120.287853,22.593086],[120.28571,22.591938],[120.283931,22.594585],[120.284043,22.594146],[120.283673,22.593972],[120.283351,22.59433],[120.283482,22.594482],[120.283339,22.59444],[120.28317,22.594781],[120.282862,22.594967],[120.282722,22.595503],[120.28282,22.595599],[120.282491,22.595358],[120.282535,22.595498],[120.282352,22.595497],[120.282596,22.595717],[120.282066,22.596489],[120.282333,22.596615],[120.282081,22.596563],[120.278186,22.594168],[120.273176,22.590589],[120.278363,22.584359],[120.282683,22.580378],[120.291589,22.586632]]]},"properties":{"code":"64000100009","name":"南汕里","countyCode":"64000","countyName":"高雄市","townCode":"64000100","townName":"旗津區","level":"village","unassigned":false,"note":"","label":[120.28271089257723,22.587556243766116],"bounds":[120.273176,22.580378,120.291756,22.596615],"focusBounds":[120.273176,22.580378,120.291756,22.596615],"color":"#a49ad4"}},{"type":"Feature","id":"64000100010","geometry":{"type":"Polygon","coordinates":[[[120.298274,22.577226],[120.297824,22.577596],[120.297979,22.577906],[120.297683,22.577553],[120.29747,22.57778],[120.297465,22.577947],[120.297742,22.578023],[120.297674,22.578205],[120.297397,22.578021],[120.297289,22.578122],[120.297338,22.578734],[120.297136,22.578711],[120.297057,22.578805],[120.29719,22.578908],[120.297083,22.578862],[120.296821,22.57915],[120.297097,22.579361],[120.296938,22.579306],[120.296764,22.579513],[120.296884,22.579642],[120.296605,22.579492],[120.296456,22.579658],[120.296101,22.579503],[120.295996,22.57962],[120.296316,22.579911],[120.296197,22.580043],[120.295872,22.579809],[120.295424,22.580207],[120.295706,22.580662],[120.295353,22.580419],[120.295063,22.580709],[120.294917,22.581137],[120.294575,22.581364],[120.294615,22.581597],[120.295175,22.582035],[120.294538,22.581709],[120.294207,22.582236],[120.293908,22.58223],[120.293667,22.582423],[120.293563,22.58261],[120.293688,22.582697],[120.293466,22.582973],[120.293684,22.583101],[120.29363,22.583193],[120.293421,22.583072],[120.293216,22.583467],[120.292859,22.583637],[120.292725,22.584006],[120.293283,22.584372],[120.292685,22.584063],[120.29246,22.584402],[120.292237,22.584476],[120.29256,22.58473],[120.292263,22.584564],[120.292138,22.584744],[120.292249,22.584939],[120.292085,22.584852],[120.291872,22.585068],[120.292269,22.585458],[120.291838,22.585233],[120.291366,22.585764],[120.291507,22.585958],[120.291405,22.586132],[120.291772,22.586328],[120.291589,22.586632],[120.282683,22.580378],[120.284497,22.578074],[120.285771,22.577855],[120.289759,22.573162],[120.295394,22.576963],[120.296258,22.575822],[120.298274,22.577226]]]},"properties":{"code":"64000100010","name":"上竹里","countyCode":"64000","countyName":"高雄市","townCode":"64000100","townName":"旗津區","level":"village","unassigned":false,"note":"","label":[120.29026346709365,22.57960171493494],"bounds":[120.282683,22.573162,120.298274,22.586632],"focusBounds":[120.282683,22.573162,120.298274,22.586632],"color":"#a8bf62"}},{"type":"Feature","id":"64000100011","geometry":{"type":"Polygon","coordinates":[[[120.301261,22.573555],[120.301105,22.573712],[120.301252,22.573895],[120.301092,22.573734],[120.300919,22.573905],[120.301182,22.574238],[120.300829,22.574638],[120.301114,22.574244],[120.300647,22.573904],[120.300324,22.574275],[120.30061,22.573874],[120.300026,22.573402],[120.299945,22.573562],[120.29958,22.573531],[120.299151,22.574125],[120.298889,22.574652],[120.299425,22.574919],[120.299872,22.574404],[120.299456,22.574948],[120.299561,22.574902],[120.299899,22.575253],[120.300371,22.574779],[120.300586,22.574924],[120.300077,22.575502],[120.299658,22.575218],[120.299321,22.575643],[120.299703,22.5759],[120.299586,22.576044],[120.298576,22.575649],[120.29834,22.575872],[120.298746,22.576223],[120.297903,22.575572],[120.297492,22.576026],[120.298847,22.577021],[120.299467,22.576398],[120.298817,22.57712],[120.298445,22.576967],[120.298273,22.577169],[120.298561,22.577412],[120.298274,22.577226],[120.296258,22.575822],[120.299048,22.572436],[120.300032,22.572756],[120.301261,22.573555]]]},"properties":{"code":"64000100011","name":"中洲里","countyCode":"64000","countyName":"高雄市","townCode":"64000100","townName":"旗津區","level":"village","unassigned":false,"note":"","label":[120.2981327561027,22.574761697257415],"bounds":[120.296258,22.572436,120.301261,22.577412],"focusBounds":[120.296258,22.572436,120.301261,22.577412],"color":"#68bec9"}},{"type":"Feature","id":"64000100012","geometry":{"type":"Polygon","coordinates":[[[120.303268,22.572142],[120.30237,22.573193],[120.30213,22.573009],[120.302241,22.572879],[120.301581,22.572448],[120.301292,22.572611],[120.301254,22.572742],[120.301617,22.573037],[120.301517,22.573287],[120.301628,22.573375],[120.30148,22.573287],[120.301347,22.573408],[120.301439,22.573528],[120.301261,22.573555],[120.300032,22.572756],[120.299048,22.572436],[120.299917,22.571458],[120.300871,22.569978],[120.303268,22.572142]]]},"properties":{"code":"64000100012","name":"安順里","countyCode":"64000","countyName":"高雄市","townCode":"64000100","townName":"旗津區","level":"village","unassigned":false,"note":"","label":[120.30103747473565,22.57157728813469],"bounds":[120.299048,22.569978,120.303268,22.573555],"focusBounds":[120.299048,22.569978,120.303268,22.573555],"color":"#df9f6a"}},{"type":"Feature","id":"64000100013","geometry":{"type":"Polygon","coordinates":[[[120.296258,22.575822],[120.295394,22.576963],[120.289759,22.573162],[120.302838,22.55777],[120.303341,22.554262],[120.304311,22.555184],[120.304555,22.555193],[120.304804,22.554902],[120.30462,22.555249],[120.305486,22.555975],[120.306638,22.554611],[120.30621,22.554282],[120.305052,22.554622],[120.306151,22.554217],[120.307251,22.552927],[120.312881,22.553899],[120.313815,22.553628],[120.313884,22.553852],[120.314713,22.553374],[120.315386,22.553311],[120.315968,22.55353],[120.316747,22.554116],[120.316511,22.554413],[120.31754,22.555221],[120.317535,22.555379],[120.303268,22.572142],[120.300871,22.569978],[120.299917,22.571458],[120.299048,22.572436],[120.296258,22.575822]]]},"properties":{"code":"64000100013","name":"中興里","countyCode":"64000","countyName":"高雄市","townCode":"64000100","townName":"旗津區","level":"village","unassigned":false,"note":"","label":[120.3035253892745,22.564384323469582],"bounds":[120.289759,22.552927,120.31754,22.576963],"focusBounds":[120.289759,22.552927,120.31754,22.576963],"color":"#c38cb8"}},{"type":"Feature","id":"64000100I01","geometry":{"type":"MultiPolygon","coordinates":[[[[116.71886,20.701877],[116.718712,20.701863],[116.71907,20.701697],[116.71886,20.701877]]],[[[116.718075,20.702115],[116.717869,20.702057],[116.718213,20.701971],[116.718257,20.702113],[116.718075,20.702115]]],[[[116.718584,20.702332],[116.718248,20.702282],[116.718497,20.70227],[116.718663,20.702058],[116.719018,20.702091],[116.718886,20.702352],[116.718584,20.702332]]],[[[116.70867,20.703317],[116.708584,20.703484],[116.708442,20.703254],[116.708545,20.702883],[116.708903,20.702937],[116.708832,20.703341],[116.70867,20.703317]]],[[[116.707798,20.704128],[116.706913,20.704715],[116.707017,20.704445],[116.707668,20.704094],[116.707626,20.703749],[116.70734,20.703452],[116.707704,20.703262],[116.707588,20.703525],[116.707834,20.703797],[116.707798,20.704128]]],[[[116.71662,20.709669],[116.715351,20.709425],[116.713758,20.709384],[116.712857,20.708791],[116.71168,20.708433],[116.711257,20.707582],[116.710755,20.706989],[116.710903,20.706416],[116.711358,20.705964],[116.711758,20.705802],[116.712086,20.705748],[116.712523,20.705953],[116.712427,20.706272],[116.712188,20.705996],[116.712242,20.706282],[116.711956,20.706437],[116.711589,20.706991],[116.711859,20.707672],[116.712114,20.707556],[116.712017,20.707475],[116.712467,20.707379],[116.713291,20.707691],[116.714589,20.707417],[116.715331,20.707449],[116.715541,20.707275],[116.715531,20.706453],[116.716008,20.706861],[116.716901,20.706177],[116.718323,20.705931],[116.71853,20.705745],[116.718512,20.705553],[116.718023,20.705399],[116.718273,20.705289],[116.7191,20.70559],[116.720371,20.705814],[116.721555,20.705577],[116.722462,20.705752],[116.723174,20.705463],[116.7234,20.705231],[116.723716,20.705235],[116.72435,20.704804],[116.724032,20.704834],[116.724233,20.704276],[116.724622,20.704958],[116.72523,20.705044],[116.725974,20.704924],[116.72672,20.703923],[116.726734,20.703328],[116.725032,20.703427],[116.72458,20.703057],[116.723048,20.702592],[116.721631,20.702342],[116.721084,20.702036],[116.721059,20.70175],[116.721893,20.701864],[116.721992,20.701727],[116.72239,20.702175],[116.723155,20.702101],[116.723853,20.70159],[116.724015,20.701241],[116.723923,20.700725],[116.723431,20.700011],[116.723001,20.699765],[116.722355,20.699959],[116.721107,20.700984],[116.720072,20.70145],[116.719179,20.701469],[116.717692,20.70198],[116.71691,20.702042],[116.715636,20.703158],[116.714977,20.702955],[116.714817,20.702557],[116.714295,20.70276],[116.713084,20.703707],[116.713247,20.704708],[116.712919,20.705185],[116.712077,20.70524],[116.710854,20.705034],[116.710246,20.70431],[116.710324,20.703854],[116.712317,20.702878],[116.71529,20.701675],[116.717766,20.70136],[116.721648,20.699659],[116.724794,20.698807],[116.724984,20.698666],[116.724906,20.698147],[116.725274,20.698705],[116.727329,20.698245],[116.727816,20.69805],[116.727708,20.697404],[116.728,20.697995],[116.728141,20.697903],[116.728094,20.697679],[116.728203,20.697965],[116.728208,20.697662],[116.728302,20.697899],[116.729191,20.697725],[116.729231,20.697464],[116.729413,20.697651],[116.729813,20.697626],[116.73027,20.697411],[116.730788,20.697405],[116.730924,20.697219],[116.731387,20.697495],[116.732482,20.697476],[116.732621,20.697592],[116.733136,20.69737],[116.734855,20.697476],[116.734246,20.697533],[116.7334,20.699358],[116.733465,20.699613],[116.733857,20.699685],[116.733137,20.699689],[116.732864,20.700333],[116.732629,20.701988],[116.733367,20.702196],[116.732555,20.702083],[116.731878,20.703276],[116.730923,20.703287],[116.730607,20.703468],[116.729153,20.704957],[116.727568,20.705924],[116.727111,20.705877],[116.725802,20.706162],[116.725791,20.705971],[116.725601,20.705946],[116.723077,20.706624],[116.720939,20.707596],[116.718392,20.709259],[116.717758,20.709513],[116.71662,20.709669]]]]},"properties":{"code":"64000100I01","name":"未編定村里","countyCode":"64000","countyName":"高雄市","townCode":"64000100","townName":"旗津區","level":"village","unassigned":true,"note":"未編定村里","label":[116.72891892260594,20.700879927851453],"bounds":[116.706913,20.697219,116.734855,20.709669],"focusBounds":[116.706913,20.697219,116.734855,20.709669],"color":"#98b69b"}},{"type":"Feature","id":"64000100I02","geometry":{"type":"Polygon","coordinates":[[[114.369813,10.379938],[114.367676,10.379459],[114.363157,10.377698],[114.362003,10.37737],[114.361923,10.377228],[114.361747,10.377462],[114.361714,10.377199],[114.361595,10.377369],[114.36149,10.3773],[114.361584,10.377091],[114.361176,10.377023],[114.361149,10.376843],[114.360614,10.376561],[114.361067,10.376878],[114.36088,10.376811],[114.360034,10.376286],[114.35929,10.375258],[114.359534,10.374631],[114.360198,10.374229],[114.359676,10.372127],[114.361574,10.371348],[114.361651,10.371529],[114.359955,10.372225],[114.36027,10.373548],[114.360566,10.373482],[114.360684,10.373973],[114.360638,10.373466],[114.360731,10.373717],[114.361131,10.373601],[114.361144,10.374184],[114.361422,10.374481],[114.361735,10.374563],[114.3618,10.374825],[114.362111,10.374852],[114.362469,10.374198],[114.362394,10.373699],[114.36199,10.373316],[114.361989,10.373103],[114.362152,10.373021],[114.362343,10.37322],[114.362507,10.373081],[114.362884,10.373283],[114.363171,10.373781],[114.362966,10.373929],[114.363048,10.373736],[114.362497,10.373197],[114.362442,10.373317],[114.36275,10.37373],[114.362818,10.374105],[114.363674,10.374549],[114.36494,10.374679],[114.367396,10.375573],[114.367966,10.376067],[114.369952,10.377212],[114.370691,10.377786],[114.371412,10.378601],[114.37116,10.379596],[114.370422,10.379885],[114.369813,10.379938]]]},"properties":{"code":"64000100I02","name":"未編定村里","countyCode":"64000","countyName":"高雄市","townCode":"64000100","townName":"旗津區","level":"village","unassigned":true,"note":"未編定村里","label":[114.36525006908087,10.376652707198474],"bounds":[114.35929,10.371348,114.371412,10.379938],"focusBounds":[114.35929,10.371348,114.371412,10.379938],"color":"#58b99d"}},{"type":"Feature","id":"64000100S01","geometry":{"type":"Polygon","coordinates":[[[120.2776,22.611099],[120.276393,22.612044],[120.274213,22.613436],[120.270992,22.614923],[120.263431,22.61752],[120.25651,22.61958],[120.256134,22.617698],[120.257384,22.617076],[120.259013,22.615888],[120.262288,22.613912],[120.263649,22.615446],[120.264694,22.616248],[120.266155,22.61574],[120.266294,22.615133],[120.265796,22.614654],[120.265989,22.614459],[120.266403,22.614829],[120.266591,22.614796],[120.266641,22.614627],[120.267272,22.614555],[120.267502,22.615039],[120.269384,22.614386],[120.2693,22.614237],[120.269469,22.614167],[120.269928,22.613693],[120.270466,22.613736],[120.270934,22.613462],[120.270824,22.613281],[120.270961,22.613151],[120.270033,22.61367],[120.269851,22.613545],[120.270782,22.612364],[120.271266,22.612556],[120.271179,22.612669],[120.271451,22.61286],[120.271268,22.612974],[120.271715,22.613466],[120.274571,22.611734],[120.274828,22.612132],[120.273558,22.612912],[120.273803,22.613286],[120.275222,22.612436],[120.274191,22.610854],[120.271894,22.612232],[120.271814,22.612118],[120.271322,22.612486],[120.271197,22.612408],[120.271036,22.612104],[120.27123,22.611628],[120.271781,22.611041],[120.272123,22.610417],[120.27261,22.609905],[120.272723,22.609951],[120.273105,22.609329],[120.27357,22.608699],[120.27384,22.608633],[120.273744,22.608899],[120.2739,22.60889],[120.274887,22.610423],[120.274652,22.610565],[120.274886,22.610897],[120.276862,22.609841],[120.275223,22.607156],[120.275456,22.607023],[120.27581,22.607565],[120.27628,22.607373],[120.277104,22.608557],[120.277417,22.608385],[120.276683,22.607185],[120.277279,22.606939],[120.278181,22.60837],[120.278483,22.608202],[120.279689,22.606286],[120.279438,22.605964],[120.278834,22.605693],[120.278772,22.605298],[120.278245,22.604902],[120.27836,22.604526],[120.277659,22.603577],[120.27867,22.602294],[120.279126,22.601667],[120.280074,22.602222],[120.279199,22.601574],[120.280167,22.600247],[120.281163,22.600685],[120.280357,22.602516],[120.279646,22.60261],[120.279658,22.602737],[120.280332,22.602641],[120.280492,22.603802],[120.28061,22.603818],[120.282498,22.600593],[120.281634,22.600043],[120.281561,22.599749],[120.28128,22.599665],[120.281367,22.599512],[120.281739,22.599649],[120.281444,22.599367],[120.281832,22.599518],[120.281461,22.599286],[120.281581,22.599131],[120.281341,22.598943],[120.281406,22.598744],[120.281569,22.598774],[120.281459,22.598532],[120.28177,22.598443],[120.281534,22.598381],[120.281572,22.598151],[120.281964,22.598112],[120.281532,22.598029],[120.281756,22.597847],[120.28173,22.597623],[120.281989,22.597695],[120.281731,22.597565],[120.281831,22.597202],[120.282107,22.597268],[120.281853,22.597179],[120.281867,22.597039],[120.282134,22.597104],[120.281876,22.597019],[120.281921,22.596891],[120.282255,22.597007],[120.282136,22.596882],[120.282287,22.596908],[120.282029,22.596826],[120.282081,22.596563],[120.282333,22.596615],[120.282066,22.596489],[120.282596,22.595717],[120.282352,22.595497],[120.282535,22.595498],[120.282491,22.595358],[120.28282,22.595599],[120.282722,22.595503],[120.282862,22.594967],[120.28317,22.594781],[120.283339,22.59444],[120.283482,22.594482],[120.283351,22.59433],[120.283673,22.593972],[120.284043,22.594146],[120.283931,22.594585],[120.28571,22.591938],[120.287853,22.593086],[120.291756,22.586939],[120.291589,22.586632],[120.291772,22.586328],[120.291405,22.586132],[120.291507,22.585958],[120.291366,22.585764],[120.291838,22.585233],[120.292269,22.585458],[120.291872,22.585068],[120.292085,22.584852],[120.292249,22.584939],[120.292138,22.584744],[120.292263,22.584564],[120.29256,22.58473],[120.292237,22.584476],[120.29246,22.584402],[120.292685,22.584063],[120.293283,22.584372],[120.292725,22.584006],[120.292859,22.583637],[120.293216,22.583467],[120.293421,22.583072],[120.29363,22.583193],[120.293684,22.583101],[120.293466,22.582973],[120.293688,22.582697],[120.293563,22.58261],[120.293667,22.582423],[120.293908,22.58223],[120.294207,22.582236],[120.294538,22.581709],[120.295175,22.582035],[120.294615,22.581597],[120.294575,22.581364],[120.294917,22.581137],[120.295063,22.580709],[120.295353,22.580419],[120.295706,22.580662],[120.295424,22.580207],[120.295872,22.579809],[120.296197,22.580043],[120.296316,22.579911],[120.295996,22.57962],[120.296101,22.579503],[120.296456,22.579658],[120.296605,22.579492],[120.296884,22.579642],[120.296764,22.579513],[120.296938,22.579306],[120.297097,22.579361],[120.296821,22.57915],[120.297083,22.578862],[120.29719,22.578908],[120.297057,22.578805],[120.297136,22.578711],[120.297338,22.578734],[120.297289,22.578122],[120.297397,22.578021],[120.297674,22.578205],[120.297742,22.578023],[120.297465,22.577947],[120.29747,22.57778],[120.297683,22.577553],[120.297979,22.577906],[120.297824,22.577596],[120.298274,22.577226],[120.298561,22.577412],[120.298273,22.577169],[120.298445,22.576967],[120.298817,22.57712],[120.299467,22.576398],[120.298847,22.577021],[120.297492,22.576026],[120.297903,22.575572],[120.298746,22.576223],[120.29834,22.575872],[120.298576,22.575649],[120.299586,22.576044],[120.299703,22.5759],[120.299321,22.575643],[120.299658,22.575218],[120.300077,22.575502],[120.300586,22.574924],[120.300371,22.574779],[120.299899,22.575253],[120.299561,22.574902],[120.299456,22.574948],[120.299872,22.574404],[120.299425,22.574919],[120.298889,22.574652],[120.299151,22.574125],[120.29958,22.573531],[120.299945,22.573562],[120.300026,22.573402],[120.30061,22.573874],[120.300324,22.574275],[120.300647,22.573904],[120.301114,22.574244],[120.300829,22.574638],[120.301182,22.574238],[120.300919,22.573905],[120.301092,22.573734],[120.301252,22.573895],[120.301105,22.573712],[120.301261,22.573555],[120.301439,22.573528],[120.301347,22.573408],[120.30148,22.573287],[120.301628,22.573375],[120.301517,22.573287],[120.301617,22.573037],[120.301254,22.572742],[120.301292,22.572611],[120.301581,22.572448],[120.302241,22.572879],[120.30213,22.573009],[120.30237,22.573193],[120.303268,22.572142],[120.317535,22.555379],[120.31754,22.555221],[120.316511,22.554413],[120.316747,22.554116],[120.315968,22.55353],[120.315386,22.553311],[120.314713,22.553374],[120.313884,22.553852],[120.313815,22.553628],[120.312881,22.553899],[120.307251,22.552927],[120.306151,22.554217],[120.305052,22.554622],[120.30621,22.554282],[120.306638,22.554611],[120.305486,22.555975],[120.30462,22.555249],[120.304804,22.554902],[120.304555,22.555193],[120.304311,22.555184],[120.303341,22.554262],[120.301828,22.552648],[120.300957,22.551468],[120.300656,22.551279],[120.300681,22.551067],[120.300071,22.550019],[120.299223,22.549038],[120.298541,22.547504],[120.298986,22.547402],[120.301763,22.545813],[120.301464,22.54501],[120.301702,22.544933],[120.302008,22.545753],[120.303404,22.545515],[120.31557,22.55184],[120.320343,22.555257],[120.317108,22.559067],[120.308491,22.5688],[120.305482,22.571814],[120.301772,22.577249],[120.297583,22.581787],[120.29329,22.588111],[120.283041,22.604512],[120.281859,22.606657],[120.280137,22.608832],[120.2776,22.611099]]]},"properties":{"code":"64000100S01","name":"未編定村里","countyCode":"64000","countyName":"高雄市","townCode":"64000100","townName":"旗津區","level":"village","unassigned":true,"note":"未編定村里","label":[120.30458035147015,22.550746012045327],"bounds":[120.256134,22.544933,120.320343,22.61958],"focusBounds":[120.256134,22.544933,120.320343,22.61958],"color":"#efb44f"}}]}
