{"type":"FeatureCollection","features":[{"type":"Feature","id":"64000210001","geometry":{"type":"Polygon","coordinates":[[[120.383619,22.819899],[120.383033,22.818677],[120.382411,22.819113],[120.381909,22.819783],[120.38102,22.81972],[120.380412,22.820803],[120.380288,22.821608],[120.379332,22.821926],[120.379138,22.822868],[120.378389,22.823762],[120.377904,22.824077],[120.378162,22.824589],[120.378108,22.824834],[120.37722,22.824818],[120.376597,22.825011],[120.375931,22.824932],[120.375765,22.825131],[120.376164,22.825809],[120.375991,22.82603],[120.375208,22.825746],[120.374693,22.825363],[120.374078,22.825325],[120.373417,22.82562],[120.373113,22.825037],[120.372159,22.824969],[120.371644,22.824238],[120.371461,22.824237],[120.370184,22.825523],[120.368779,22.825166],[120.368276,22.826124],[120.366459,22.826187],[120.365783,22.827658],[120.364997,22.828349],[120.363342,22.826791],[120.363086,22.82636],[120.362919,22.825522],[120.362543,22.825329],[120.361897,22.825394],[120.361557,22.825749],[120.361313,22.826646],[120.360165,22.827116],[120.359868,22.828367],[120.359052,22.829409],[120.358631,22.830765],[120.358061,22.83121],[120.356481,22.830253],[120.355057,22.83045],[120.354077,22.830388],[120.352921,22.829544],[120.351662,22.828033],[120.350812,22.827491],[120.350323,22.826852],[120.350414,22.826041],[120.350845,22.825381],[120.350997,22.824968],[120.350845,22.824802],[120.350233,22.824661],[120.348833,22.824803],[120.348589,22.823872],[120.347152,22.823634],[120.346901,22.823228],[120.347103,22.822889],[120.347746,22.82246],[120.34717,22.821821],[120.34758,22.820877],[120.348226,22.82025],[120.348542,22.818616],[120.348953,22.818208],[120.349742,22.817765],[120.350065,22.817338],[120.349395,22.816896],[120.352751,22.813765],[120.353017,22.812818],[120.352927,22.811738],[120.353482,22.81],[120.354369,22.808396],[120.35416,22.80676],[120.356099,22.806646],[120.356589,22.806201],[120.356771,22.805615],[120.35737,22.80494],[120.359546,22.804807],[120.360926,22.803394],[120.361992,22.802547],[120.362366,22.802359],[120.363045,22.802339],[120.364386,22.80213],[120.365994,22.801401],[120.366771,22.800828],[120.367768,22.800875],[120.370172,22.799613],[120.372003,22.799632],[120.373146,22.799336],[120.373486,22.799771],[120.374404,22.799975],[120.374782,22.79922],[120.375058,22.79912],[120.375712,22.799558],[120.376874,22.799978],[120.378184,22.799301],[120.379046,22.79921],[120.379423,22.798794],[120.379879,22.799272],[120.380092,22.800176],[120.38047,22.80057],[120.381254,22.800568],[120.382345,22.800286],[120.382731,22.800041],[120.38378,22.800842],[120.383993,22.801606],[120.384049,22.80292],[120.384393,22.803558],[120.384309,22.803843],[120.38445,22.804071],[120.385738,22.804072],[120.386776,22.805329],[120.388257,22.806468],[120.388564,22.80727],[120.389238,22.807946],[120.389375,22.809156],[120.390268,22.809532],[120.391056,22.809594],[120.391251,22.809841],[120.391189,22.810132],[120.391394,22.81034],[120.392019,22.810397],[120.392879,22.810913],[120.39302,22.812157],[120.393274,22.81258],[120.395527,22.813533],[120.395667,22.813813],[120.395595,22.814161],[120.395873,22.814207],[120.39561,22.815477],[120.395926,22.816861],[120.395726,22.817326],[120.395095,22.817433],[120.394274,22.817201],[120.392853,22.817853],[120.391887,22.817582],[120.391302,22.817851],[120.390551,22.818618],[120.390267,22.818676],[120.389694,22.818576],[120.389044,22.818662],[120.388621,22.818439],[120.387924,22.817744],[120.387413,22.818612],[120.386625,22.819394],[120.384921,22.820639],[120.384599,22.820729],[120.384211,22.820601],[120.383619,22.819899]]]},"properties":{"code":"64000210001","name":"尖山里","countyCode":"64000","countyName":"高雄市","townCode":"64000210","townName":"燕巢區","level":"village","unassigned":false,"note":"","label":[120.36985527330883,22.812609498441926],"bounds":[120.346901,22.798794,120.395926,22.83121],"focusBounds":[120.346901,22.798794,120.395926,22.83121],"color":"#df9f6a"}},{"type":"Feature","id":"64000210002","geometry":{"type":"Polygon","coordinates":[[[120.316411,22.784169],[120.318511,22.784011],[120.320459,22.782719],[120.32044,22.78189],[120.320906,22.781836],[120.321099,22.781024],[120.322323,22.780785],[120.323276,22.780396],[120.320699,22.787864],[120.323587,22.788685],[120.325785,22.78913],[120.330784,22.789199],[120.341429,22.791074],[120.341343,22.791595],[120.341535,22.792014],[120.341473,22.792754],[120.34098,22.793504],[120.340937,22.793822],[120.341486,22.794337],[120.341661,22.794868],[120.342055,22.795208],[120.352778,22.795514],[120.353157,22.796008],[120.353071,22.796872],[120.351893,22.796639],[120.349228,22.79652],[120.349137,22.798644],[120.349547,22.799815],[120.348846,22.801029],[120.348192,22.801236],[120.347245,22.801081],[120.34638,22.801385],[120.345545,22.801361],[120.343701,22.80237],[120.343153,22.802498],[120.342599,22.802365],[120.34228,22.802948],[120.340746,22.803723],[120.339545,22.803928],[120.338226,22.803661],[120.337989,22.804281],[120.337444,22.80438],[120.336331,22.805163],[120.336846,22.805671],[120.337178,22.805752],[120.338435,22.805488],[120.338934,22.80554],[120.340871,22.806891],[120.340908,22.807165],[120.340574,22.808154],[120.339951,22.809308],[120.339099,22.808797],[120.338809,22.809123],[120.338109,22.809414],[120.337323,22.809357],[120.336697,22.809085],[120.336111,22.808294],[120.335578,22.808318],[120.334516,22.807751],[120.333059,22.805818],[120.332557,22.805566],[120.331822,22.804696],[120.330648,22.804614],[120.330233,22.804949],[120.329869,22.805043],[120.328815,22.804476],[120.328532,22.804107],[120.328315,22.803172],[120.328015,22.802702],[120.327909,22.801924],[120.328275,22.800979],[120.329072,22.801084],[120.329037,22.800689],[120.328624,22.800425],[120.327209,22.800428],[120.326786,22.800863],[120.326169,22.802384],[120.325145,22.803168],[120.325137,22.803361],[120.325381,22.803568],[120.326224,22.803966],[120.326278,22.804071],[120.325887,22.804552],[120.326212,22.804882],[120.326133,22.805055],[120.32588,22.8052],[120.325324,22.80501],[120.324761,22.80532],[120.324046,22.805132],[120.323889,22.804443],[120.324165,22.803535],[120.324134,22.802568],[120.322961,22.801556],[120.322662,22.800451],[120.322467,22.80025],[120.321874,22.800254],[120.320841,22.801029],[120.320203,22.801117],[120.319711,22.800297],[120.319801,22.799264],[120.319631,22.79823],[120.31915,22.797574],[120.318887,22.796684],[120.318928,22.79626],[120.318481,22.795637],[120.318324,22.795495],[120.317694,22.794879],[120.317111,22.794673],[120.316075,22.794738],[120.315184,22.794978],[120.314854,22.794921],[120.314408,22.794311],[120.313589,22.792406],[120.313571,22.791021],[120.314402,22.789632],[120.314247,22.78876],[120.315219,22.787571],[120.316781,22.787859],[120.31643,22.786743],[120.316357,22.785888],[120.316937,22.785442],[120.316459,22.784762],[120.316411,22.784169]]]},"properties":{"code":"64000210002","name":"瓊林里","countyCode":"64000","countyName":"高雄市","townCode":"64000210","townName":"燕巢區","level":"village","unassigned":false,"note":"","label":[120.33448922216795,22.79698418428191],"bounds":[120.313571,22.780396,120.353157,22.809414],"focusBounds":[120.313571,22.780396,120.353157,22.809414],"color":"#df9f6a"}},{"type":"Feature","id":"64000210003","geometry":{"type":"Polygon","coordinates":[[[120.323276,22.780396],[120.32406,22.780199],[120.32433,22.78045],[120.324462,22.780975],[120.324788,22.781123],[120.325381,22.781735],[120.325482,22.782307],[120.325792,22.782536],[120.32603,22.783043],[120.326967,22.783279],[120.327763,22.784093],[120.328164,22.784171],[120.328529,22.78502],[120.329234,22.784998],[120.329301,22.784674],[120.32928,22.784988],[120.332125,22.785225],[120.335898,22.783434],[120.335384,22.783155],[120.335588,22.78274],[120.336932,22.782688],[120.338003,22.782278],[120.338866,22.783183],[120.339337,22.783164],[120.339587,22.783363],[120.340107,22.783197],[120.340845,22.783628],[120.340979,22.7834],[120.34158,22.783566],[120.341618,22.783781],[120.342452,22.784139],[120.342733,22.783528],[120.344418,22.784173],[120.346131,22.784555],[120.348438,22.781643],[120.349636,22.780901],[120.350031,22.78044],[120.351233,22.780519],[120.35536,22.779373],[120.361015,22.778594],[120.361592,22.782057],[120.362186,22.784563],[120.362524,22.788597],[120.357357,22.787436],[120.355863,22.792727],[120.355379,22.794865],[120.352778,22.795514],[120.342055,22.795208],[120.341661,22.794868],[120.341486,22.794337],[120.340937,22.793822],[120.34098,22.793504],[120.341473,22.792754],[120.341535,22.792014],[120.341343,22.791595],[120.341429,22.791074],[120.330784,22.789199],[120.325785,22.78913],[120.323587,22.788685],[120.320699,22.787864],[120.323276,22.780396]]]},"properties":{"code":"64000210003","name":"安招里","countyCode":"64000","countyName":"高雄市","townCode":"64000210","townName":"燕巢區","level":"village","unassigned":false,"note":"","label":[120.35046137334682,22.788908461327864],"bounds":[120.320699,22.778594,120.362524,22.795514],"focusBounds":[120.320699,22.778594,120.362524,22.795514],"color":"#c38cb8"}},{"type":"Feature","id":"64000210004","geometry":{"type":"Polygon","coordinates":[[[120.361015,22.778594],[120.35536,22.779373],[120.351233,22.780519],[120.350031,22.78044],[120.349636,22.780901],[120.348438,22.781643],[120.346131,22.784555],[120.344418,22.784173],[120.342733,22.783528],[120.342452,22.784139],[120.341618,22.783781],[120.34158,22.783566],[120.340979,22.7834],[120.340845,22.783628],[120.340107,22.783197],[120.339587,22.783363],[120.339337,22.783164],[120.338866,22.783183],[120.338003,22.782278],[120.336932,22.782688],[120.335588,22.78274],[120.335384,22.783155],[120.335898,22.783434],[120.332125,22.785225],[120.32928,22.784988],[120.329301,22.784674],[120.329234,22.784998],[120.328529,22.78502],[120.328164,22.784171],[120.327763,22.784093],[120.326967,22.783279],[120.32603,22.783043],[120.325792,22.782536],[120.325482,22.782307],[120.325381,22.781735],[120.324788,22.781123],[120.324462,22.780975],[120.32433,22.78045],[120.32406,22.780199],[120.323276,22.780396],[120.322323,22.780785],[120.321099,22.781024],[120.320906,22.781836],[120.32044,22.78189],[120.320459,22.782719],[120.318511,22.784011],[120.316411,22.784169],[120.316582,22.781809],[120.317157,22.780215],[120.316712,22.77994],[120.315858,22.779949],[120.315734,22.779343],[120.315809,22.778761],[120.315053,22.778177],[120.315474,22.777711],[120.316181,22.777431],[120.316439,22.777146],[120.317384,22.775087],[120.317032,22.774615],[120.315301,22.774114],[120.314879,22.772171],[120.314846,22.770851],[120.315095,22.770012],[120.315738,22.769872],[120.316461,22.76904],[120.316996,22.768754],[120.317854,22.768666],[120.318895,22.769284],[120.319222,22.769329],[120.321821,22.768772],[120.32326,22.768628],[120.323934,22.769407],[120.329774,22.774621],[120.33101,22.772758],[120.331541,22.771468],[120.331638,22.770802],[120.33272,22.768286],[120.332548,22.76754],[120.332682,22.766799],[120.332585,22.766561],[120.333168,22.765277],[120.333746,22.764409],[120.333851,22.763774],[120.333708,22.763289],[120.333982,22.762922],[120.334575,22.762789],[120.336046,22.763131],[120.336857,22.763717],[120.337408,22.763893],[120.342134,22.763441],[120.341571,22.762429],[120.342264,22.761107],[120.342531,22.760133],[120.342052,22.759812],[120.342134,22.759352],[120.344077,22.76018],[120.344729,22.760855],[120.345501,22.761222],[120.345865,22.761998],[120.345861,22.762756],[120.347207,22.763213],[120.348022,22.76433],[120.348267,22.764432],[120.349038,22.764131],[120.349421,22.763728],[120.350041,22.764006],[120.350631,22.763965],[120.350983,22.763746],[120.351796,22.763731],[120.352139,22.763172],[120.352619,22.763046],[120.35274,22.762518],[120.3532,22.762529],[120.353426,22.762114],[120.354038,22.762187],[120.354288,22.76265],[120.354696,22.762609],[120.355174,22.762799],[120.35574,22.762324],[120.356083,22.762432],[120.356607,22.76222],[120.357121,22.762357],[120.357542,22.762013],[120.358669,22.762862],[120.358943,22.762757],[120.359087,22.762295],[120.359786,22.761937],[120.359974,22.761935],[120.360518,22.762551],[120.362194,22.762176],[120.363168,22.762476],[120.363963,22.761913],[120.369142,22.763669],[120.372889,22.765474],[120.372962,22.765973],[120.372497,22.766685],[120.371882,22.767071],[120.371659,22.767616],[120.371477,22.767342],[120.370956,22.767605],[120.370339,22.767489],[120.369588,22.767915],[120.368712,22.767715],[120.368112,22.767905],[120.367405,22.767889],[120.36707,22.76798],[120.366809,22.768279],[120.366098,22.768116],[120.365913,22.768508],[120.364915,22.76819],[120.363978,22.767694],[120.363672,22.767804],[120.363428,22.768532],[120.363869,22.770026],[120.365098,22.770275],[120.365349,22.77105],[120.365257,22.771671],[120.365424,22.772231],[120.364945,22.772938],[120.364367,22.773306],[120.363877,22.773857],[120.362807,22.774203],[120.362694,22.774363],[120.363542,22.775181],[120.365602,22.775675],[120.365977,22.775889],[120.366088,22.776544],[120.365647,22.776926],[120.36561,22.777628],[120.365267,22.777888],[120.364872,22.777948],[120.364186,22.777839],[120.362776,22.778296],[120.361015,22.778594]]]},"properties":{"code":"64000210004","name":"角宿里","countyCode":"64000","countyName":"高雄市","townCode":"64000210","townName":"燕巢區","level":"village","unassigned":false,"note":"","label":[120.34308786053879,22.773031928091687],"bounds":[120.314846,22.759352,120.372962,22.785225],"focusBounds":[120.314846,22.759352,120.372962,22.785225],"color":"#98b69b"}},{"type":"Feature","id":"64000210005","geometry":{"type":"Polygon","coordinates":[[[120.363963,22.761913],[120.363168,22.762476],[120.362194,22.762176],[120.360518,22.762551],[120.359974,22.761935],[120.359786,22.761937],[120.359087,22.762295],[120.358943,22.762757],[120.358669,22.762862],[120.357542,22.762013],[120.357121,22.762357],[120.356607,22.76222],[120.356083,22.762432],[120.35574,22.762324],[120.355174,22.762799],[120.354696,22.762609],[120.354288,22.76265],[120.354038,22.762187],[120.353426,22.762114],[120.3532,22.762529],[120.35274,22.762518],[120.352619,22.763046],[120.352139,22.763172],[120.351796,22.763731],[120.350983,22.763746],[120.350631,22.763965],[120.350041,22.764006],[120.349421,22.763728],[120.349038,22.764131],[120.348267,22.764432],[120.348022,22.76433],[120.347207,22.763213],[120.345861,22.762756],[120.345865,22.761998],[120.345501,22.761222],[120.344729,22.760855],[120.344077,22.76018],[120.342134,22.759352],[120.342052,22.759812],[120.342531,22.760133],[120.342264,22.761107],[120.341571,22.762429],[120.342134,22.763441],[120.337408,22.763893],[120.336857,22.763717],[120.336046,22.763131],[120.334575,22.762789],[120.334731,22.762704],[120.334562,22.761558],[120.335274,22.760689],[120.335049,22.760284],[120.337569,22.757685],[120.337588,22.75723],[120.337263,22.756938],[120.336408,22.756791],[120.335676,22.757228],[120.335058,22.756986],[120.334721,22.757191],[120.333663,22.756607],[120.333053,22.756545],[120.332378,22.75663],[120.332117,22.757071],[120.331812,22.757085],[120.331277,22.756449],[120.331082,22.755081],[120.331595,22.75434],[120.331775,22.752961],[120.332431,22.752342],[120.332964,22.752031],[120.334358,22.752426],[120.334731,22.749642],[120.334798,22.749394],[120.336103,22.749039],[120.336719,22.74931],[120.337197,22.749168],[120.339028,22.747466],[120.339612,22.747827],[120.340209,22.749045],[120.341162,22.749656],[120.341246,22.749849],[120.341164,22.750793],[120.340844,22.751335],[120.340511,22.752635],[120.340652,22.753236],[120.341227,22.753726],[120.341741,22.753887],[120.342492,22.753676],[120.343419,22.752966],[120.34411,22.752952],[120.344242,22.753434],[120.343473,22.754468],[120.343296,22.755085],[120.343566,22.755641],[120.343994,22.755808],[120.344448,22.755811],[120.344918,22.755574],[120.345544,22.754937],[120.346272,22.753453],[120.346696,22.752902],[120.347536,22.75272],[120.348326,22.751617],[120.351502,22.752527],[120.353216,22.75243],[120.353779,22.752795],[120.354238,22.752887],[120.357202,22.751834],[120.360077,22.751511],[120.361473,22.751158],[120.36153,22.751438],[120.363038,22.751119],[120.363618,22.751401],[120.366691,22.751495],[120.36744,22.750204],[120.367913,22.74979],[120.369941,22.752054],[120.369904,22.752349],[120.369454,22.752912],[120.369482,22.753203],[120.369726,22.753367],[120.36981,22.755307],[120.367743,22.756846],[120.367667,22.757931],[120.36738,22.759014],[120.366713,22.759343],[120.36614,22.760041],[120.365021,22.760481],[120.363747,22.761767],[120.363963,22.761913]]]},"properties":{"code":"64000210005","name":"鳳雄里","countyCode":"64000","countyName":"高雄市","townCode":"64000210","townName":"燕巢區","level":"village","unassigned":false,"note":"","label":[120.35018000535017,22.758072327673244],"bounds":[120.331082,22.747466,120.369941,22.764432],"focusBounds":[120.331082,22.747466,120.369941,22.764432],"color":"#58b99d"}},{"type":"Feature","id":"64000210006","geometry":{"type":"Polygon","coordinates":[[[120.418014,22.808465],[120.417106,22.809059],[120.416619,22.809823],[120.416332,22.810009],[120.416038,22.810675],[120.414904,22.810867],[120.413734,22.810624],[120.412894,22.810664],[120.412116,22.8111],[120.41171,22.811803],[120.411193,22.812002],[120.409948,22.813072],[120.410215,22.814883],[120.409492,22.815706],[120.407575,22.815604],[120.407049,22.815342],[120.406555,22.815458],[120.404181,22.815306],[120.403671,22.815438],[120.403406,22.815717],[120.402603,22.816043],[120.40212,22.816092],[120.401689,22.816484],[120.401347,22.816481],[120.401157,22.816043],[120.401032,22.816039],[120.399796,22.816548],[120.399458,22.816464],[120.399281,22.816075],[120.398062,22.815847],[120.397562,22.815231],[120.397463,22.814664],[120.396656,22.813971],[120.395873,22.814207],[120.395595,22.814161],[120.395667,22.813813],[120.395527,22.813533],[120.393274,22.81258],[120.39302,22.812157],[120.392879,22.810913],[120.392019,22.810397],[120.391394,22.81034],[120.391189,22.810132],[120.391251,22.809841],[120.391056,22.809594],[120.390268,22.809532],[120.389375,22.809156],[120.389238,22.807946],[120.388564,22.80727],[120.388257,22.806468],[120.386776,22.805329],[120.385738,22.804072],[120.38445,22.804071],[120.384309,22.803843],[120.384393,22.803558],[120.384049,22.80292],[120.383993,22.801606],[120.38378,22.800842],[120.384752,22.800982],[120.384998,22.801138],[120.385386,22.80109],[120.385876,22.800528],[120.387229,22.799867],[120.387311,22.799373],[120.387912,22.798596],[120.388128,22.79875],[120.388417,22.799417],[120.389214,22.799705],[120.389475,22.799261],[120.389505,22.79888],[120.390102,22.798401],[120.390335,22.798766],[120.391855,22.799401],[120.392283,22.799886],[120.39328,22.799827],[120.393607,22.799501],[120.393552,22.798841],[120.394071,22.798656],[120.394404,22.799174],[120.395292,22.799107],[120.395687,22.799253],[120.395862,22.799491],[120.395758,22.799683],[120.395026,22.799815],[120.39463,22.80017],[120.394629,22.800455],[120.395097,22.800911],[120.396198,22.801208],[120.396775,22.800926],[120.397338,22.800978],[120.398281,22.800771],[120.398654,22.800969],[120.398892,22.801431],[120.399357,22.801839],[120.399935,22.801988],[120.400947,22.801813],[120.401562,22.802651],[120.402241,22.803044],[120.403504,22.801974],[120.404414,22.801783],[120.404721,22.801764],[120.405478,22.802275],[120.406331,22.802594],[120.407746,22.802351],[120.4108,22.801164],[120.414981,22.799301],[120.4159,22.80067],[120.416484,22.801049],[120.416996,22.801142],[120.417991,22.801007],[120.419448,22.800126],[120.420349,22.799982],[120.420467,22.801198],[120.420335,22.801572],[120.419599,22.802359],[120.419711,22.803109],[120.418784,22.803846],[120.418305,22.803913],[120.417489,22.804498],[120.416429,22.804982],[120.415389,22.806195],[120.41568,22.806754],[120.416611,22.807582],[120.417655,22.80807],[120.418014,22.808465]]]},"properties":{"code":"64000210006","name":"金山里","countyCode":"64000","countyName":"高雄市","townCode":"64000210","townName":"燕巢區","level":"village","unassigned":false,"note":"","label":[120.40052533014251,22.809066793095397],"bounds":[120.38378,22.798401,120.420467,22.816548],"focusBounds":[120.38378,22.798401,120.420467,22.816548],"color":"#78a7e3"}},{"type":"Feature","id":"64000210007","geometry":{"type":"Polygon","coordinates":[[[120.38378,22.800842],[120.382731,22.800041],[120.382345,22.800286],[120.381254,22.800568],[120.38047,22.80057],[120.380092,22.800176],[120.379879,22.799272],[120.379423,22.798794],[120.379046,22.79921],[120.378184,22.799301],[120.376874,22.799978],[120.375712,22.799558],[120.375058,22.79912],[120.374782,22.79922],[120.374404,22.799975],[120.373486,22.799771],[120.373146,22.799336],[120.372003,22.799632],[120.370172,22.799613],[120.367768,22.800875],[120.366771,22.800828],[120.365994,22.801401],[120.364386,22.80213],[120.363045,22.802339],[120.363669,22.797975],[120.364013,22.796907],[120.36425,22.796727],[120.364607,22.795338],[120.365531,22.793917],[120.366046,22.793996],[120.366375,22.793846],[120.36673,22.792619],[120.366605,22.790706],[120.366777,22.789142],[120.366503,22.788574],[120.366706,22.788209],[120.368071,22.788283],[120.369568,22.78876],[120.373034,22.787672],[120.372963,22.786751],[120.37209,22.785616],[120.371964,22.784322],[120.371484,22.783959],[120.371372,22.783505],[120.372139,22.783503],[120.372756,22.784126],[120.373096,22.784263],[120.373906,22.784241],[120.375579,22.785291],[120.379206,22.786775],[120.379591,22.787165],[120.38086,22.787799],[120.383836,22.78756],[120.384008,22.787502],[120.384229,22.787088],[120.384814,22.786763],[120.38601,22.787341],[120.387125,22.788365],[120.388393,22.788393],[120.389493,22.787923],[120.390846,22.787104],[120.39208,22.787366],[120.392834,22.787895],[120.394125,22.788166],[120.395683,22.78894],[120.396576,22.78918],[120.397477,22.790098],[120.397948,22.790312],[120.398431,22.790795],[120.398996,22.791016],[120.398962,22.791948],[120.399421,22.793093],[120.3993,22.793485],[120.399777,22.795334],[120.400128,22.795924],[120.400356,22.796783],[120.400125,22.799496],[120.400556,22.800193],[120.400947,22.801813],[120.399935,22.801988],[120.399357,22.801839],[120.398892,22.801431],[120.398654,22.800969],[120.398281,22.800771],[120.397338,22.800978],[120.396775,22.800926],[120.396198,22.801208],[120.395097,22.800911],[120.394629,22.800455],[120.39463,22.80017],[120.395026,22.799815],[120.395758,22.799683],[120.395862,22.799491],[120.395687,22.799253],[120.395292,22.799107],[120.394404,22.799174],[120.394071,22.798656],[120.393552,22.798841],[120.393607,22.799501],[120.39328,22.799827],[120.392283,22.799886],[120.391855,22.799401],[120.390335,22.798766],[120.390102,22.798401],[120.389505,22.79888],[120.389475,22.799261],[120.389214,22.799705],[120.388417,22.799417],[120.388128,22.79875],[120.387912,22.798596],[120.387311,22.799373],[120.387229,22.799867],[120.385876,22.800528],[120.385386,22.80109],[120.384998,22.801138],[120.384752,22.800982],[120.38378,22.800842]]]},"properties":{"code":"64000210007","name":"東燕里","countyCode":"64000","countyName":"高雄市","townCode":"64000210","townName":"燕巢區","level":"village","unassigned":false,"note":"","label":[120.38344188816546,22.79406982225009],"bounds":[120.363045,22.783503,120.400947,22.802339],"focusBounds":[120.363045,22.783503,120.400947,22.802339],"color":"#dd8590"}},{"type":"Feature","id":"64000210008","geometry":{"type":"Polygon","coordinates":[[[120.371372,22.783505],[120.371484,22.783959],[120.371964,22.784322],[120.37209,22.785616],[120.372963,22.786751],[120.373034,22.787672],[120.369568,22.78876],[120.368071,22.788283],[120.366706,22.788209],[120.366503,22.788574],[120.366777,22.789142],[120.366605,22.790706],[120.36673,22.792619],[120.366375,22.793846],[120.366046,22.793996],[120.365531,22.793917],[120.364609,22.793358],[120.363202,22.793524],[120.361441,22.793304],[120.361499,22.79291],[120.355863,22.792727],[120.357357,22.787436],[120.362524,22.788597],[120.362186,22.784563],[120.361592,22.782057],[120.361015,22.778594],[120.362776,22.778296],[120.364186,22.777839],[120.364872,22.777948],[120.364878,22.778526],[120.365486,22.778928],[120.365725,22.782098],[120.366275,22.783789],[120.367083,22.785032],[120.367794,22.785322],[120.368524,22.7853],[120.368833,22.784441],[120.369924,22.784366],[120.371372,22.783505]]]},"properties":{"code":"64000210008","name":"南燕里","countyCode":"64000","countyName":"高雄市","townCode":"64000210","townName":"燕巢區","level":"village","unassigned":false,"note":"","label":[120.36491551283731,22.786437405902987],"bounds":[120.355863,22.777839,120.373034,22.793996],"focusBounds":[120.355863,22.777839,120.373034,22.793996],"color":"#a8bf62"}},{"type":"Feature","id":"64000210009","geometry":{"type":"Polygon","coordinates":[[[120.363045,22.802339],[120.362366,22.802359],[120.361992,22.802547],[120.360926,22.803394],[120.359546,22.804807],[120.35737,22.80494],[120.356771,22.805615],[120.356589,22.806201],[120.356099,22.806646],[120.35416,22.80676],[120.354369,22.808396],[120.353482,22.81],[120.352927,22.811738],[120.353017,22.812818],[120.352751,22.813765],[120.349395,22.816896],[120.349513,22.816078],[120.350375,22.81551],[120.350385,22.815083],[120.349913,22.813919],[120.348706,22.812713],[120.347931,22.813076],[120.347643,22.812952],[120.34765,22.811519],[120.346004,22.81174],[120.344818,22.812634],[120.344541,22.81251],[120.343591,22.81149],[120.343561,22.811188],[120.343993,22.810742],[120.34436,22.809253],[120.344287,22.808444],[120.343531,22.808383],[120.342532,22.808692],[120.340497,22.810222],[120.340162,22.809959],[120.339951,22.809308],[120.340574,22.808154],[120.340908,22.807165],[120.340871,22.806891],[120.338934,22.80554],[120.338435,22.805488],[120.337178,22.805752],[120.336846,22.805671],[120.336331,22.805163],[120.337444,22.80438],[120.337989,22.804281],[120.338226,22.803661],[120.339545,22.803928],[120.340746,22.803723],[120.34228,22.802948],[120.342599,22.802365],[120.343153,22.802498],[120.343701,22.80237],[120.345545,22.801361],[120.34638,22.801385],[120.347245,22.801081],[120.348192,22.801236],[120.348846,22.801029],[120.349547,22.799815],[120.349137,22.798644],[120.349228,22.79652],[120.351893,22.796639],[120.353071,22.796872],[120.353157,22.796008],[120.352778,22.795514],[120.355379,22.794865],[120.355863,22.792727],[120.361499,22.79291],[120.361441,22.793304],[120.363202,22.793524],[120.364609,22.793358],[120.365531,22.793917],[120.364607,22.795338],[120.36425,22.796727],[120.364013,22.796907],[120.363669,22.797975],[120.363045,22.802339]]]},"properties":{"code":"64000210009","name":"西燕里","countyCode":"64000","countyName":"高雄市","townCode":"64000210","townName":"燕巢區","level":"village","unassigned":false,"note":"","label":[120.35382803294948,22.801649031550177],"bounds":[120.336331,22.792727,120.365531,22.816896],"focusBounds":[120.336331,22.792727,120.365531,22.816896],"color":"#a49ad4"}},{"type":"Feature","id":"64000210010","geometry":{"type":"Polygon","coordinates":[[[120.41611,22.766923],[120.414775,22.767076],[120.413481,22.76748],[120.413115,22.767341],[120.412063,22.76822],[120.410842,22.768667],[120.410281,22.768597],[120.409965,22.768393],[120.409671,22.7688],[120.40962,22.769184],[120.410081,22.769773],[120.409394,22.770833],[120.409003,22.770877],[120.407663,22.770624],[120.406322,22.770664],[120.405614,22.770887],[120.405026,22.771404],[120.40405,22.771628],[120.40356,22.772033],[120.403312,22.77296],[120.402412,22.772548],[120.399298,22.772174],[120.395905,22.772487],[120.395117,22.773425],[120.394739,22.773512],[120.391653,22.772303],[120.389229,22.77221],[120.387198,22.771295],[120.384491,22.770698],[120.383827,22.771273],[120.383303,22.77149],[120.383118,22.771988],[120.382706,22.772059],[120.382425,22.772372],[120.379906,22.7721],[120.379419,22.771918],[120.379006,22.771465],[120.378741,22.770807],[120.378013,22.770081],[120.377453,22.769919],[120.376335,22.769102],[120.37538,22.768918],[120.374383,22.769009],[120.374005,22.769357],[120.37304,22.769329],[120.372948,22.768712],[120.371897,22.768134],[120.371659,22.767616],[120.371882,22.767071],[120.372497,22.766685],[120.372962,22.765973],[120.372889,22.765474],[120.369142,22.763669],[120.363963,22.761913],[120.363747,22.761767],[120.365021,22.760481],[120.36614,22.760041],[120.366713,22.759343],[120.36738,22.759014],[120.367667,22.757931],[120.367743,22.756846],[120.36981,22.755307],[120.369726,22.753367],[120.370302,22.753516],[120.37183,22.75342],[120.372313,22.753239],[120.372636,22.75299],[120.372561,22.752764],[120.373241,22.751396],[120.373574,22.751124],[120.373783,22.751188],[120.374076,22.751871],[120.374422,22.755119],[120.375273,22.75573],[120.378082,22.755942],[120.378414,22.75718],[120.379755,22.756628],[120.380208,22.756776],[120.380415,22.757147],[120.380075,22.758162],[120.38027,22.758662],[120.38214,22.759193],[120.382765,22.759638],[120.382851,22.75994],[120.383371,22.760475],[120.383549,22.762812],[120.383693,22.763264],[120.383864,22.763354],[120.384995,22.763452],[120.386873,22.763188],[120.387423,22.762842],[120.388039,22.762151],[120.388483,22.762083],[120.389823,22.762858],[120.390583,22.76382],[120.39084,22.764743],[120.391033,22.764775],[120.39163,22.764509],[120.391681,22.764026],[120.391976,22.763494],[120.392249,22.763385],[120.392502,22.762797],[120.393208,22.762267],[120.393362,22.761907],[120.394212,22.762246],[120.394814,22.762082],[120.395167,22.761661],[120.395802,22.761783],[120.396102,22.761565],[120.396444,22.760611],[120.396682,22.760429],[120.397817,22.761013],[120.397967,22.76166],[120.398979,22.761716],[120.39888,22.763497],[120.399667,22.76427],[120.400119,22.764463],[120.401114,22.765738],[120.401707,22.766063],[120.402311,22.765716],[120.402769,22.766064],[120.403242,22.765988],[120.403623,22.765741],[120.404913,22.766462],[120.405242,22.766363],[120.406023,22.76528],[120.406267,22.764659],[120.406728,22.764382],[120.407003,22.76372],[120.407731,22.763045],[120.407834,22.762401],[120.407727,22.761946],[120.407356,22.761422],[120.407387,22.761127],[120.40799,22.760774],[120.408419,22.761525],[120.408678,22.761352],[120.409165,22.761361],[120.409267,22.76103],[120.409694,22.760604],[120.409967,22.759912],[120.409728,22.759358],[120.409831,22.75907],[120.410929,22.758347],[120.411849,22.758061],[120.412234,22.758546],[120.412856,22.758993],[120.413635,22.760321],[120.413747,22.761136],[120.414315,22.76133],[120.414866,22.762258],[120.415791,22.763318],[120.416783,22.764134],[120.417276,22.764321],[120.417375,22.765809],[120.416282,22.766523],[120.41611,22.766923]]]},"properties":{"code":"64000210010","name":"橫山里","countyCode":"64000","countyName":"高雄市","townCode":"64000210","townName":"燕巢區","level":"village","unassigned":false,"note":"","label":[120.39570905274122,22.767242578694965],"bounds":[120.363747,22.751124,120.417375,22.773512],"focusBounds":[120.363747,22.751124,120.417375,22.773512],"color":"#a8bf62"}},{"type":"Feature","id":"64000210011","geometry":{"type":"Polygon","coordinates":[[[120.420349,22.799982],[120.419448,22.800126],[120.417991,22.801007],[120.416996,22.801142],[120.416484,22.801049],[120.4159,22.80067],[120.414981,22.799301],[120.4108,22.801164],[120.407746,22.802351],[120.406331,22.802594],[120.405478,22.802275],[120.404721,22.801764],[120.404414,22.801783],[120.403504,22.801974],[120.402241,22.803044],[120.401562,22.802651],[120.400947,22.801813],[120.400556,22.800193],[120.400125,22.799496],[120.400356,22.796783],[120.400128,22.795924],[120.399777,22.795334],[120.3993,22.793485],[120.399421,22.793093],[120.398962,22.791948],[120.398996,22.791016],[120.398431,22.790795],[120.397948,22.790312],[120.397477,22.790098],[120.396576,22.78918],[120.395683,22.78894],[120.394125,22.788166],[120.392834,22.787895],[120.39208,22.787366],[120.390846,22.787104],[120.389493,22.787923],[120.388393,22.788393],[120.387125,22.788365],[120.38601,22.787341],[120.384814,22.786763],[120.384229,22.787088],[120.384008,22.787502],[120.383836,22.78756],[120.38086,22.787799],[120.379591,22.787165],[120.379206,22.786775],[120.375579,22.785291],[120.373906,22.784241],[120.373096,22.784263],[120.372756,22.784126],[120.372139,22.783503],[120.371372,22.783505],[120.369924,22.784366],[120.368833,22.784441],[120.368524,22.7853],[120.367794,22.785322],[120.367083,22.785032],[120.366275,22.783789],[120.365725,22.782098],[120.365486,22.778928],[120.364878,22.778526],[120.364872,22.777948],[120.365267,22.777888],[120.36561,22.777628],[120.365647,22.776926],[120.366088,22.776544],[120.365977,22.775889],[120.365602,22.775675],[120.363542,22.775181],[120.362694,22.774363],[120.362807,22.774203],[120.363877,22.773857],[120.364367,22.773306],[120.364945,22.772938],[120.365424,22.772231],[120.365257,22.771671],[120.365349,22.77105],[120.365098,22.770275],[120.363869,22.770026],[120.363428,22.768532],[120.363672,22.767804],[120.363978,22.767694],[120.364915,22.76819],[120.365913,22.768508],[120.366098,22.768116],[120.366809,22.768279],[120.36707,22.76798],[120.367405,22.767889],[120.368112,22.767905],[120.368712,22.767715],[120.369588,22.767915],[120.370339,22.767489],[120.370956,22.767605],[120.371477,22.767342],[120.371659,22.767616],[120.371897,22.768134],[120.372948,22.768712],[120.37304,22.769329],[120.374005,22.769357],[120.374383,22.769009],[120.37538,22.768918],[120.376335,22.769102],[120.377453,22.769919],[120.378013,22.770081],[120.378741,22.770807],[120.379006,22.771465],[120.379419,22.771918],[120.379906,22.7721],[120.382425,22.772372],[120.382706,22.772059],[120.383118,22.771988],[120.383303,22.77149],[120.383827,22.771273],[120.384491,22.770698],[120.387198,22.771295],[120.389229,22.77221],[120.391653,22.772303],[120.394739,22.773512],[120.395117,22.773425],[120.395905,22.772487],[120.399298,22.772174],[120.402412,22.772548],[120.403312,22.77296],[120.40356,22.772033],[120.40405,22.771628],[120.405026,22.771404],[120.405614,22.770887],[120.406322,22.770664],[120.407663,22.770624],[120.409003,22.770877],[120.409394,22.770833],[120.410081,22.769773],[120.40962,22.769184],[120.409671,22.7688],[120.409965,22.768393],[120.410281,22.768597],[120.410842,22.768667],[120.412063,22.76822],[120.413115,22.767341],[120.413481,22.76748],[120.414775,22.767076],[120.41611,22.766923],[120.41613,22.768311],[120.416446,22.769533],[120.416595,22.769794],[120.417564,22.77044],[120.418467,22.772042],[120.418574,22.772487],[120.418454,22.77346],[120.418984,22.774609],[120.419193,22.774691],[120.419758,22.774345],[120.420861,22.77401],[120.421424,22.774204],[120.422321,22.774919],[120.42322,22.774789],[120.423709,22.774919],[120.424542,22.774873],[120.426098,22.775802],[120.425968,22.776573],[120.42632,22.777105],[120.427179,22.777478],[120.428524,22.777792],[120.428001,22.778698],[120.428714,22.779473],[120.429357,22.781116],[120.429956,22.781473],[120.430285,22.781941],[120.430552,22.783399],[120.430904,22.783608],[120.431058,22.783996],[120.430948,22.784734],[120.43133,22.78509],[120.431385,22.785603],[120.431785,22.785999],[120.431765,22.786367],[120.429888,22.787074],[120.429091,22.788074],[120.429212,22.788697],[120.429043,22.789193],[120.428205,22.790015],[120.427172,22.790485],[120.42655,22.791379],[120.425981,22.79109],[120.425473,22.791111],[120.42518,22.791853],[120.424614,22.791858],[120.424153,22.792147],[120.423668,22.792164],[120.423115,22.793223],[120.422897,22.793324],[120.422392,22.793238],[120.421821,22.793841],[120.421846,22.794607],[120.422225,22.795421],[120.422262,22.796042],[120.422924,22.796485],[120.422968,22.79674],[120.422745,22.79739],[120.422248,22.797896],[120.421528,22.799122],[120.420782,22.799733],[120.420349,22.799982]]]},"properties":{"code":"64000210011","name":"深水里","countyCode":"64000","countyName":"高雄市","townCode":"64000210","townName":"燕巢區","level":"village","unassigned":false,"note":"","label":[120.40948082037835,22.784620886278304],"bounds":[120.362694,22.766923,120.431785,22.803044],"focusBounds":[120.362694,22.766923,120.431785,22.803044],"color":"#68bec9"}}]}
