{"type":"FeatureCollection","features":[{"type":"Feature","id":"64000040001","geometry":{"type":"Polygon","coordinates":[[[120.331082,22.755081],[120.330713,22.755297],[120.330252,22.755344],[120.329019,22.755233],[120.32849,22.75492],[120.327357,22.754844],[120.326924,22.755956],[120.325476,22.756245],[120.325028,22.756028],[120.32493,22.75532],[120.324844,22.753592],[120.325875,22.752828],[120.326061,22.752327],[120.325818,22.75105],[120.325249,22.749555],[120.325893,22.748428],[120.326617,22.748161],[120.324755,22.746355],[120.323132,22.744369],[120.325815,22.741683],[120.324795,22.740849],[120.324418,22.740778],[120.323004,22.739556],[120.325546,22.736197],[120.327585,22.736468],[120.329814,22.736129],[120.332852,22.735293],[120.334439,22.737115],[120.334731,22.749642],[120.334358,22.752426],[120.332964,22.752031],[120.332431,22.752342],[120.331775,22.752961],[120.331595,22.75434],[120.331082,22.755081]]]},"properties":{"code":"64000040001","name":"清豐里","countyCode":"64000","countyName":"高雄市","townCode":"64000040","townName":"楠梓區","level":"village","unassigned":false,"note":"","label":[120.32961319764931,22.744382998338484],"bounds":[120.323004,22.735293,120.334731,22.756245],"focusBounds":[120.323004,22.735293,120.334731,22.756245],"color":"#dd8590"}},{"type":"Feature","id":"64000040002","geometry":{"type":"Polygon","coordinates":[[[120.334393,22.735758],[120.334439,22.737115],[120.332852,22.735293],[120.329814,22.736129],[120.327585,22.736468],[120.325546,22.736197],[120.325739,22.735932],[120.324844,22.736168],[120.324552,22.736118],[120.325219,22.734783],[120.325612,22.733014],[120.325573,22.731551],[120.325157,22.729937],[120.326506,22.729069],[120.327532,22.730518],[120.328357,22.730011],[120.328995,22.730183],[120.329311,22.729869],[120.332518,22.731772],[120.333865,22.730335],[120.334192,22.730472],[120.334393,22.735758]]]},"properties":{"code":"64000040002","name":"東寧里","countyCode":"64000","countyName":"高雄市","townCode":"64000040","townName":"楠梓區","level":"village","unassigned":false,"note":"","label":[120.32900136303613,22.73321496364264],"bounds":[120.324552,22.729069,120.334439,22.737115],"focusBounds":[120.324552,22.729069,120.334439,22.737115],"color":"#efb44f"}},{"type":"Feature","id":"64000040003","geometry":{"type":"Polygon","coordinates":[[[120.338916,22.734501],[120.334393,22.735758],[120.334192,22.730472],[120.333865,22.730335],[120.330588,22.72847],[120.329969,22.728004],[120.329615,22.72749],[120.329894,22.727385],[120.329981,22.727049],[120.329333,22.726231],[120.329991,22.724547],[120.332058,22.721517],[120.333592,22.722161],[120.334687,22.72245],[120.335868,22.722135],[120.337169,22.721309],[120.337608,22.721183],[120.334074,22.723861],[120.334318,22.724194],[120.334343,22.725606],[120.335321,22.726825],[120.335507,22.727568],[120.336336,22.727605],[120.336941,22.728233],[120.337576,22.728631],[120.33813,22.728788],[120.338477,22.729367],[120.339104,22.729432],[120.34043,22.730253],[120.340536,22.730797],[120.340311,22.731156],[120.340178,22.731859],[120.339436,22.733139],[120.338562,22.733653],[120.338916,22.734501]]]},"properties":{"code":"64000040003","name":"五常里","countyCode":"64000","countyName":"高雄市","townCode":"64000040","townName":"楠梓區","level":"village","unassigned":false,"note":"","label":[120.33699237921338,22.731650555280595],"bounds":[120.329333,22.721183,120.340536,22.735758],"focusBounds":[120.329333,22.721183,120.340536,22.735758],"color":"#78a7e3"}},{"type":"Feature","id":"64000040004","geometry":{"type":"Polygon","coordinates":[[[120.333865,22.730335],[120.332518,22.731772],[120.329311,22.729869],[120.328995,22.730183],[120.328357,22.730011],[120.327532,22.730518],[120.326506,22.729069],[120.326838,22.728253],[120.329615,22.72749],[120.329969,22.728004],[120.330588,22.72847],[120.333865,22.730335]]]},"properties":{"code":"64000040004","name":"享平里","countyCode":"64000","countyName":"高雄市","townCode":"64000040","townName":"楠梓區","level":"village","unassigned":false,"note":"","label":[120.33029857202354,22.72935330851437],"bounds":[120.326506,22.72749,120.333865,22.731772],"focusBounds":[120.326506,22.72749,120.333865,22.731772],"color":"#dd8590"}},{"type":"Feature","id":"64000040005","geometry":{"type":"Polygon","coordinates":[[[120.329333,22.726231],[120.32916,22.726831],[120.32522,22.727022],[120.324325,22.725592],[120.324178,22.725074],[120.324186,22.724153],[120.324593,22.722569],[120.324441,22.722393],[120.325268,22.718102],[120.326972,22.718509],[120.328027,22.719177],[120.328697,22.719233],[120.32931,22.718864],[120.329525,22.718335],[120.330096,22.718063],[120.332092,22.719339],[120.333021,22.71992],[120.332058,22.721517],[120.329991,22.724547],[120.329333,22.726231]]]},"properties":{"code":"64000040005","name":"中陽里","countyCode":"64000","countyName":"高雄市","townCode":"64000040","townName":"楠梓區","level":"village","unassigned":false,"note":"","label":[120.32783011992672,22.722215779149387],"bounds":[120.324178,22.718063,120.333021,22.727022],"focusBounds":[120.324178,22.718063,120.333021,22.727022],"color":"#a49ad4"}},{"type":"Feature","id":"64000040006","geometry":{"type":"Polygon","coordinates":[[[120.326506,22.729069],[120.325157,22.729937],[120.323108,22.724272],[120.323884,22.723366],[120.324441,22.722393],[120.324593,22.722569],[120.324186,22.724153],[120.324178,22.725074],[120.324325,22.725592],[120.32522,22.727022],[120.32916,22.726831],[120.329333,22.726231],[120.329981,22.727049],[120.329894,22.727385],[120.329615,22.72749],[120.326838,22.728253],[120.326506,22.729069]]]},"properties":{"code":"64000040006","name":"惠楠里","countyCode":"64000","countyName":"高雄市","townCode":"64000040","townName":"楠梓區","level":"village","unassigned":false,"note":"","label":[120.32555835796238,22.728029880885106],"bounds":[120.323108,22.722393,120.329981,22.729937],"focusBounds":[120.323108,22.722393,120.329981,22.729937],"color":"#a8bf62"}},{"type":"Feature","id":"64000040007","geometry":{"type":"Polygon","coordinates":[[[120.325157,22.729937],[120.325573,22.731551],[120.325612,22.733014],[120.325219,22.734783],[120.324552,22.736118],[120.323046,22.734393],[120.322337,22.733881],[120.322129,22.734615],[120.321605,22.734543],[120.320414,22.734899],[120.320217,22.734617],[120.319426,22.734794],[120.321949,22.725963],[120.322476,22.724999],[120.323108,22.724272],[120.325157,22.729937]]]},"properties":{"code":"64000040007","name":"惠民里","countyCode":"64000","countyName":"高雄市","townCode":"64000040","townName":"楠梓區","level":"village","unassigned":false,"note":"","label":[120.32293104778307,22.731360913997094],"bounds":[120.319426,22.724272,120.325612,22.736118],"focusBounds":[120.319426,22.724272,120.325612,22.736118],"color":"#68bec9"}},{"type":"Feature","id":"64000040008","geometry":{"type":"Polygon","coordinates":[[[120.319414,22.734797],[120.317116,22.735466],[120.316008,22.73689],[120.31571,22.737031],[120.315229,22.736912],[120.313741,22.735926],[120.312468,22.7355],[120.309897,22.73588],[120.309426,22.736255],[120.309015,22.736385],[120.308329,22.736328],[120.308129,22.736186],[120.308133,22.735737],[120.308403,22.73543],[120.308989,22.735292],[120.309799,22.734451],[120.309948,22.734082],[120.309914,22.7331],[120.31082,22.732316],[120.311381,22.731473],[120.3114,22.730802],[120.310275,22.730007],[120.313585,22.730244],[120.313877,22.730067],[120.314186,22.72957],[120.314472,22.72904],[120.314914,22.728706],[120.316334,22.728405],[120.318143,22.727647],[120.31846,22.727341],[120.318473,22.726982],[120.318788,22.726663],[120.320141,22.725998],[120.321207,22.724555],[120.321614,22.723665],[120.321499,22.722978],[120.322607,22.722464],[120.323042,22.722034],[120.322824,22.721334],[120.322119,22.720434],[120.322078,22.720174],[120.322533,22.71947],[120.32327,22.71901],[120.323295,22.718538],[120.323533,22.718207],[120.324282,22.717686],[120.324498,22.717903],[120.325268,22.718102],[120.324441,22.722393],[120.323884,22.723366],[120.323108,22.724272],[120.322476,22.724999],[120.321949,22.725963],[120.319426,22.734794],[120.319414,22.734797]]]},"properties":{"code":"64000040008","name":"惠豐里","countyCode":"64000","countyName":"高雄市","townCode":"64000040","townName":"楠梓區","level":"village","unassigned":false,"note":"","label":[120.31700355630899,22.731478012184827],"bounds":[120.308129,22.717686,120.325268,22.737031],"focusBounds":[120.308129,22.717686,120.325268,22.737031],"color":"#df9f6a"}},{"type":"Feature","id":"64000040009","geometry":{"type":"Polygon","coordinates":[[[120.313592,22.719301],[120.314281,22.720245],[120.31487,22.721722],[120.313207,22.721035],[120.310606,22.71878],[120.309981,22.716925],[120.309034,22.714119],[120.312666,22.71288],[120.312789,22.713578],[120.313195,22.714453],[120.314125,22.715137],[120.312982,22.716049],[120.312196,22.716924],[120.312586,22.717244],[120.312894,22.718117],[120.313348,22.718654],[120.313592,22.719301]]]},"properties":{"code":"64000040009","name":"錦屏里","countyCode":"64000","countyName":"高雄市","townCode":"64000040","townName":"楠梓區","level":"village","unassigned":false,"note":"","label":[120.31128194929163,22.715297763399704],"bounds":[120.309034,22.71288,120.31487,22.721722],"focusBounds":[120.309034,22.71288,120.31487,22.721722],"color":"#c38cb8"}},{"type":"Feature","id":"64000040010","geometry":{"type":"Polygon","coordinates":[[[120.319171,22.716059],[120.31836,22.716097],[120.318244,22.71594],[120.317717,22.715897],[120.316066,22.716683],[120.315775,22.716953],[120.314455,22.717195],[120.313952,22.717636],[120.312894,22.718117],[120.312586,22.717244],[120.312196,22.716924],[120.312982,22.716049],[120.314125,22.715137],[120.313195,22.714453],[120.312789,22.713578],[120.312666,22.71288],[120.313524,22.712601],[120.319171,22.716059]]]},"properties":{"code":"64000040010","name":"玉屏里","countyCode":"64000","countyName":"高雄市","townCode":"64000040","townName":"楠梓區","level":"village","unassigned":false,"note":"","label":[120.31549058972374,22.71540526720724],"bounds":[120.312196,22.712601,120.319171,22.718117],"focusBounds":[120.312196,22.712601,120.319171,22.718117],"color":"#98b69b"}},{"type":"Feature","id":"64000040011","geometry":{"type":"Polygon","coordinates":[[[120.321207,22.724555],[120.320141,22.725998],[120.318788,22.726663],[120.318473,22.726982],[120.31846,22.727341],[120.318143,22.727647],[120.316334,22.728405],[120.314914,22.728706],[120.314472,22.72904],[120.31426,22.728432],[120.314721,22.728147],[120.315154,22.727562],[120.314992,22.726613],[120.315961,22.725247],[120.315116,22.723416],[120.31487,22.721722],[120.314281,22.720245],[120.313592,22.719301],[120.315763,22.718093],[120.316987,22.717865],[120.318,22.717883],[120.31795,22.719199],[120.318293,22.719546],[120.318578,22.720184],[120.318813,22.722202],[120.319702,22.723709],[120.321207,22.724555]]]},"properties":{"code":"64000040011","name":"金田里","countyCode":"64000","countyName":"高雄市","townCode":"64000040","townName":"楠梓區","level":"village","unassigned":false,"note":"","label":[120.31711058454118,22.72314655838926],"bounds":[120.313592,22.717865,120.321207,22.72904],"focusBounds":[120.313592,22.717865,120.321207,22.72904],"color":"#58b99d"}},{"type":"Feature","id":"64000040012","geometry":{"type":"Polygon","coordinates":[[[120.324282,22.717686],[120.323533,22.718207],[120.323295,22.718538],[120.32327,22.71901],[120.322533,22.71947],[120.322078,22.720174],[120.322119,22.720434],[120.322824,22.721334],[120.323042,22.722034],[120.322607,22.722464],[120.321499,22.722978],[120.321614,22.723665],[120.321207,22.724555],[120.319702,22.723709],[120.318813,22.722202],[120.318578,22.720184],[120.318293,22.719546],[120.31795,22.719199],[120.318,22.717883],[120.316987,22.717865],[120.315763,22.718093],[120.313592,22.719301],[120.313348,22.718654],[120.312894,22.718117],[120.313952,22.717636],[120.314455,22.717195],[120.315775,22.716953],[120.316066,22.716683],[120.317717,22.715897],[120.318244,22.71594],[120.31836,22.716097],[120.319171,22.716059],[120.318883,22.717316],[120.319595,22.717757],[120.319416,22.718497],[120.321118,22.719484],[120.321713,22.719518],[120.321954,22.717767],[120.323079,22.714261],[120.323792,22.709059],[120.323825,22.70749],[120.323499,22.705576],[120.324304,22.705374],[120.327589,22.704425],[120.328613,22.703983],[120.329467,22.704512],[120.329607,22.704744],[120.328648,22.705515],[120.327225,22.706302],[120.326956,22.707185],[120.325794,22.708361],[120.325714,22.70932],[120.326471,22.709785],[120.326984,22.709709],[120.327576,22.709359],[120.328718,22.709178],[120.328946,22.709305],[120.329476,22.711185],[120.327872,22.714092],[120.326385,22.716063],[120.325655,22.716879],[120.324282,22.717686]]]},"properties":{"code":"64000040012","name":"稔田里","countyCode":"64000","countyName":"高雄市","townCode":"64000040","townName":"楠梓區","level":"village","unassigned":false,"note":"","label":[120.32564220634468,22.71283599448634],"bounds":[120.312894,22.703983,120.329607,22.724555],"focusBounds":[120.312894,22.703983,120.329607,22.724555],"color":"#efb44f"}},{"type":"Feature","id":"64000040013","geometry":{"type":"Polygon","coordinates":[[[120.314472,22.72904],[120.314186,22.72957],[120.311465,22.727217],[120.309149,22.726037],[120.307833,22.725726],[120.301425,22.725161],[120.297999,22.723311],[120.301012,22.716372],[120.304406,22.717647],[120.308921,22.719341],[120.309981,22.716925],[120.310606,22.71878],[120.313207,22.721035],[120.31487,22.721722],[120.315116,22.723416],[120.315961,22.725247],[120.314992,22.726613],[120.315154,22.727562],[120.314721,22.728147],[120.31426,22.728432],[120.314472,22.72904]]]},"properties":{"code":"64000040013","name":"瑞屏里","countyCode":"64000","countyName":"高雄市","townCode":"64000040","townName":"楠梓區","level":"village","unassigned":false,"note":"","label":[120.30704177204439,22.722146319427083],"bounds":[120.297999,22.716372,120.315961,22.72957],"focusBounds":[120.297999,22.716372,120.315961,22.72957],"color":"#78a7e3"}},{"type":"Feature","id":"64000040014","geometry":{"type":"Polygon","coordinates":[[[120.310275,22.730007],[120.310124,22.729798],[120.309932,22.729787],[120.3077,22.72987],[120.305394,22.729273],[120.30486,22.729931],[120.303796,22.730404],[120.303234,22.73019],[120.301719,22.729135],[120.300974,22.729023],[120.30035,22.729402],[120.300013,22.729889],[120.299877,22.731885],[120.299214,22.732082],[120.298653,22.731614],[120.298397,22.730874],[120.296986,22.729512],[120.296619,22.728367],[120.29716,22.726678],[120.296965,22.725889],[120.296548,22.725538],[120.29782,22.723249],[120.297999,22.723311],[120.301425,22.725161],[120.307833,22.725726],[120.309149,22.726037],[120.311465,22.727217],[120.314186,22.72957],[120.313877,22.730067],[120.313585,22.730244],[120.310275,22.730007]]]},"properties":{"code":"64000040014","name":"翠屏里","countyCode":"64000","countyName":"高雄市","townCode":"64000040","townName":"楠梓區","level":"village","unassigned":false,"note":"","label":[120.30365589748592,22.727854380976485],"bounds":[120.296548,22.723249,120.314186,22.732082],"focusBounds":[120.296548,22.723249,120.314186,22.732082],"color":"#a49ad4"}},{"type":"Feature","id":"64000040016","geometry":{"type":"Polygon","coordinates":[[[120.323499,22.705576],[120.323825,22.70749],[120.323792,22.709059],[120.323079,22.714261],[120.321954,22.717767],[120.321713,22.719518],[120.321118,22.719484],[120.319416,22.718497],[120.319595,22.717757],[120.318883,22.717316],[120.319171,22.716059],[120.313524,22.712601],[120.312666,22.71288],[120.309034,22.714119],[120.309981,22.716925],[120.308921,22.719341],[120.304406,22.717647],[120.307685,22.710122],[120.307274,22.708905],[120.305678,22.707959],[120.30235,22.707875],[120.30226,22.710918],[120.300902,22.71179],[120.300169,22.711902],[120.300143,22.711692],[120.299762,22.711395],[120.299854,22.707784],[120.29985,22.706947],[120.296948,22.706016],[120.294811,22.705316],[120.295929,22.704097],[120.296301,22.704146],[120.297725,22.700743],[120.302528,22.700774],[120.30259,22.698943],[120.304432,22.698017],[120.304073,22.697499],[120.308049,22.695207],[120.311905,22.699374],[120.312858,22.698417],[120.314892,22.695889],[120.31734,22.698269],[120.321009,22.701411],[120.322228,22.703069],[120.323499,22.705576]]]},"properties":{"code":"64000040016","name":"宏毅里","countyCode":"64000","countyName":"高雄市","townCode":"64000040","townName":"楠梓區","level":"village","unassigned":false,"note":"","label":[120.31274662415532,22.70569114184],"bounds":[120.294811,22.695207,120.323825,22.719518],"focusBounds":[120.294811,22.695207,120.323825,22.719518],"color":"#a49ad4"}},{"type":"Feature","id":"64000040017","geometry":{"type":"Polygon","coordinates":[[[120.300169,22.711902],[120.300902,22.71179],[120.30226,22.710918],[120.30235,22.707875],[120.305678,22.707959],[120.307274,22.708905],[120.307685,22.710122],[120.304406,22.717647],[120.301012,22.716372],[120.296533,22.714725],[120.297765,22.713328],[120.298293,22.713106],[120.298497,22.712667],[120.299196,22.712573],[120.300169,22.711902]]]},"properties":{"code":"64000040017","name":"宏榮里","countyCode":"64000","countyName":"高雄市","townCode":"64000040","townName":"楠梓區","level":"village","unassigned":false,"note":"","label":[120.30294493288797,22.713761084128933],"bounds":[120.296533,22.707875,120.307685,22.717647],"focusBounds":[120.296533,22.707875,120.307685,22.717647],"color":"#a8bf62"}},{"type":"Feature","id":"64000040018","geometry":{"type":"Polygon","coordinates":[[[120.289494,22.71076],[120.289018,22.71125],[120.28834,22.711238],[120.287414,22.710024],[120.286471,22.710508],[120.285976,22.711002],[120.285864,22.710264],[120.285212,22.708755],[120.285374,22.708674],[120.28422,22.706474],[120.284977,22.704994],[120.285381,22.705001],[120.286916,22.70503],[120.287355,22.707019],[120.287368,22.707396],[120.28719,22.707655],[120.288001,22.708889],[120.287878,22.709051],[120.288037,22.709282],[120.288334,22.709141],[120.288587,22.709453],[120.28846,22.709586],[120.289494,22.71076]]]},"properties":{"code":"64000040018","name":"廣昌里","countyCode":"64000","countyName":"高雄市","townCode":"64000040","townName":"楠梓區","level":"village","unassigned":false,"note":"","label":[120.28579835292496,22.70648174032803],"bounds":[120.28422,22.704994,120.289494,22.71125],"focusBounds":[120.28422,22.704994,120.289494,22.71125],"color":"#68bec9"}},{"type":"Feature","id":"64000040019","geometry":{"type":"Polygon","coordinates":[[[120.285976,22.711002],[120.285878,22.711097],[120.285755,22.711001],[120.285189,22.711516],[120.283801,22.710645],[120.283378,22.711406],[120.282315,22.710871],[120.283285,22.709137],[120.283696,22.707483],[120.28422,22.706474],[120.285374,22.708674],[120.285212,22.708755],[120.285864,22.710264],[120.285976,22.711002]]]},"properties":{"code":"64000040019","name":"久昌里","countyCode":"64000","countyName":"高雄市","townCode":"64000040","townName":"楠梓區","level":"village","unassigned":false,"note":"","label":[120.2843100980944,22.709637011099247],"bounds":[120.282315,22.706474,120.285976,22.711516],"focusBounds":[120.282315,22.706474,120.285976,22.711516],"color":"#df9f6a"}},{"type":"Feature","id":"64000040020","geometry":{"type":"Polygon","coordinates":[[[120.292812,22.707772],[120.292329,22.709195],[120.289494,22.71076],[120.28846,22.709586],[120.288587,22.709453],[120.288334,22.709141],[120.288037,22.709282],[120.287878,22.709051],[120.288001,22.708889],[120.28719,22.707655],[120.287368,22.707396],[120.287355,22.707019],[120.286916,22.70503],[120.292524,22.705136],[120.292842,22.705706],[120.292837,22.706522],[120.292812,22.707772]]]},"properties":{"code":"64000040020","name":"大昌里","countyCode":"64000","countyName":"高雄市","townCode":"64000040","townName":"楠梓區","level":"village","unassigned":false,"note":"","label":[120.29002108956902,22.70744038501672],"bounds":[120.286916,22.70503,120.292842,22.71076],"focusBounds":[120.286916,22.70503,120.292842,22.71076],"color":"#98b69b"}},{"type":"Feature","id":"64000040021","geometry":{"type":"Polygon","coordinates":[[[120.283098,22.716158],[120.281629,22.718309],[120.280813,22.71789],[120.281682,22.716379],[120.282038,22.716566],[120.282489,22.715805],[120.282268,22.715691],[120.282723,22.714959],[120.28414,22.71276],[120.285189,22.711516],[120.285755,22.711001],[120.285878,22.711097],[120.285976,22.711002],[120.286471,22.710508],[120.287414,22.710024],[120.28834,22.711238],[120.289018,22.71125],[120.288966,22.711313],[120.2883,22.711999],[120.287762,22.712026],[120.28694,22.712481],[120.284954,22.714064],[120.284443,22.714303],[120.284056,22.71466],[120.283098,22.716158]]]},"properties":{"code":"64000040021","name":"福昌里","countyCode":"64000","countyName":"高雄市","townCode":"64000040","townName":"楠梓區","level":"village","unassigned":false,"note":"","label":[120.28567727946786,22.712279659515055],"bounds":[120.280813,22.710024,120.289018,22.718309],"focusBounds":[120.280813,22.710024,120.289018,22.718309],"color":"#98b69b"}},{"type":"Feature","id":"64000040022","geometry":{"type":"Polygon","coordinates":[[[120.280813,22.71789],[120.279656,22.719954],[120.273248,22.717378],[120.25723,22.713834],[120.257297,22.713602],[120.257095,22.713607],[120.256978,22.713442],[120.256831,22.712428],[120.258052,22.710304],[120.260766,22.703651],[120.261604,22.701397],[120.26176,22.700132],[120.262247,22.698231],[120.262144,22.697506],[120.261187,22.696346],[120.260584,22.696251],[120.260059,22.696485],[120.259725,22.696221],[120.258052,22.695557],[120.258052,22.695268],[120.259472,22.696036],[120.260265,22.694956],[120.263349,22.696948],[120.263399,22.697247],[120.26323,22.697815],[120.262785,22.698009],[120.262698,22.698327],[120.262835,22.700278],[120.263557,22.701356],[120.263756,22.702224],[120.26399,22.70255],[120.265498,22.703722],[120.265377,22.704453],[120.265698,22.70459],[120.265519,22.704887],[120.265894,22.705566],[120.266189,22.705757],[120.266127,22.70592],[120.266126,22.706109],[120.266849,22.706943],[120.266264,22.70732],[120.264884,22.707187],[120.264624,22.708532],[120.268329,22.709287],[120.268562,22.70882],[120.268884,22.708822],[120.269382,22.708499],[120.26947,22.708228],[120.269792,22.708347],[120.273243,22.706981],[120.274056,22.707012],[120.274173,22.707121],[120.274702,22.706771],[120.274733,22.705877],[120.274851,22.705851],[120.274804,22.704884],[120.284977,22.704994],[120.28422,22.706474],[120.283696,22.707483],[120.283285,22.709137],[120.282315,22.710871],[120.283378,22.711406],[120.283801,22.710645],[120.285189,22.711516],[120.28414,22.71276],[120.282723,22.714959],[120.282268,22.715691],[120.282489,22.715805],[120.282038,22.716566],[120.281682,22.716379],[120.280813,22.71789]]]},"properties":{"code":"64000040022","name":"盛昌里","countyCode":"64000","countyName":"高雄市","townCode":"64000040","townName":"楠梓區","level":"village","unassigned":false,"note":"","label":[120.27352241462594,22.7122556173006],"bounds":[120.256831,22.694956,120.285189,22.719954],"focusBounds":[120.256831,22.694956,120.285189,22.719954],"color":"#58b99d"}},{"type":"Feature","id":"64000040023","geometry":{"type":"Polygon","coordinates":[[[120.289334,22.712189],[120.287589,22.713477],[120.287342,22.713876],[120.286928,22.713373],[120.285441,22.714653],[120.286067,22.715279],[120.284377,22.716938],[120.283098,22.716158],[120.284056,22.71466],[120.284443,22.714303],[120.284954,22.714064],[120.28694,22.712481],[120.287762,22.712026],[120.2883,22.711999],[120.288966,22.711313],[120.289334,22.712189]]]},"properties":{"code":"64000040023","name":"泰昌里","countyCode":"64000","countyName":"高雄市","townCode":"64000040","townName":"楠梓區","level":"village","unassigned":false,"note":"","label":[120.28458441639421,22.71548531373574],"bounds":[120.283098,22.711313,120.289334,22.716938],"focusBounds":[120.283098,22.711313,120.289334,22.716938],"color":"#efb44f"}},{"type":"Feature","id":"64000040024","geometry":{"type":"Polygon","coordinates":[[[120.284937,22.718318],[120.281226,22.720588],[120.279656,22.719954],[120.280813,22.71789],[120.281629,22.718309],[120.283098,22.716158],[120.284377,22.716938],[120.286067,22.715279],[120.285441,22.714653],[120.286928,22.713373],[120.287342,22.713876],[120.287589,22.713477],[120.289334,22.712189],[120.290119,22.713646],[120.289903,22.713842],[120.288411,22.715291],[120.287873,22.716203],[120.287228,22.71691],[120.284937,22.718318]]]},"properties":{"code":"64000040024","name":"興昌里","countyCode":"64000","countyName":"高雄市","townCode":"64000040","townName":"楠梓區","level":"village","unassigned":false,"note":"","label":[120.28366452387631,22.717799706428],"bounds":[120.279656,22.712189,120.290119,22.720588],"focusBounds":[120.279656,22.712189,120.290119,22.720588],"color":"#78a7e3"}},{"type":"Feature","id":"64000040025","geometry":{"type":"Polygon","coordinates":[[[120.293806,22.713859],[120.292056,22.718067],[120.290379,22.717176],[120.289903,22.713842],[120.290119,22.713646],[120.289334,22.712189],[120.288966,22.711313],[120.289018,22.71125],[120.289494,22.71076],[120.292329,22.709195],[120.292812,22.707772],[120.29301,22.708839],[120.292596,22.710478],[120.291413,22.713178],[120.293806,22.713859]]]},"properties":{"code":"64000040025","name":"建昌里","countyCode":"64000","countyName":"高雄市","townCode":"64000040","townName":"楠梓區","level":"village","unassigned":false,"note":"","label":[120.29160802745366,22.714871126630356],"bounds":[120.288966,22.707772,120.293806,22.718067],"focusBounds":[120.288966,22.707772,120.293806,22.718067],"color":"#dd8590"}},{"type":"Feature","id":"64000040026","geometry":{"type":"Polygon","coordinates":[[[120.296533,22.714725],[120.295707,22.715504],[120.295711,22.715653],[120.296007,22.715682],[120.296127,22.715938],[120.295301,22.717189],[120.295239,22.717528],[120.293801,22.718984],[120.294046,22.719214],[120.294078,22.719521],[120.293975,22.719803],[120.29407,22.720394],[120.293883,22.72108],[120.294002,22.72125],[120.294363,22.72129],[120.294526,22.722092],[120.292706,22.721687],[120.290996,22.72167],[120.290379,22.717176],[120.292056,22.718067],[120.293806,22.713859],[120.296533,22.714725]]]},"properties":{"code":"64000040026","name":"宏昌里","countyCode":"64000","countyName":"高雄市","townCode":"64000040","townName":"楠梓區","level":"village","unassigned":false,"note":"","label":[120.29243326191724,22.7201218609807],"bounds":[120.290379,22.713859,120.296533,22.722092],"focusBounds":[120.290379,22.713859,120.296533,22.722092],"color":"#a49ad4"}},{"type":"Feature","id":"64000040027","geometry":{"type":"Polygon","coordinates":[[[120.296855,22.709493],[120.295771,22.710759],[120.295549,22.710491],[120.295749,22.710348],[120.295596,22.71018],[120.295392,22.710301],[120.295291,22.710179],[120.295456,22.710057],[120.293896,22.708219],[120.29301,22.708839],[120.292812,22.707772],[120.292837,22.706522],[120.293059,22.706648],[120.29347,22.706337],[120.294109,22.707191],[120.294823,22.707643],[120.295951,22.708853],[120.296855,22.709493]]]},"properties":{"code":"64000040027","name":"和昌里","countyCode":"64000","countyName":"高雄市","townCode":"64000040","townName":"楠梓區","level":"village","unassigned":false,"note":"","label":[120.29480144008902,22.708457729481644],"bounds":[120.292812,22.706337,120.296855,22.710759],"focusBounds":[120.292812,22.706337,120.296855,22.710759],"color":"#a8bf62"}},{"type":"Feature","id":"64000040028","geometry":{"type":"Polygon","coordinates":[[[120.300169,22.711902],[120.299196,22.712573],[120.298497,22.712667],[120.296913,22.711732],[120.295771,22.710759],[120.296855,22.709493],[120.297788,22.708711],[120.299207,22.707962],[120.299854,22.707784],[120.299762,22.711395],[120.300143,22.711692],[120.300169,22.711902]]]},"properties":{"code":"64000040028","name":"慶昌里","countyCode":"64000","countyName":"高雄市","townCode":"64000040","townName":"楠梓區","level":"village","unassigned":false,"note":"","label":[120.29813761009552,22.71049057433076],"bounds":[120.295771,22.707784,120.300169,22.712667],"focusBounds":[120.295771,22.707784,120.300169,22.712667],"color":"#68bec9"}},{"type":"Feature","id":"64000040029","geometry":{"type":"Polygon","coordinates":[[[120.295771,22.710759],[120.294294,22.712482],[120.293806,22.713859],[120.291413,22.713178],[120.292596,22.710478],[120.29301,22.708839],[120.293896,22.708219],[120.295456,22.710057],[120.295291,22.710179],[120.295392,22.710301],[120.295596,22.71018],[120.295749,22.710348],[120.295549,22.710491],[120.295771,22.710759]]]},"properties":{"code":"64000040029","name":"隆昌里","countyCode":"64000","countyName":"高雄市","townCode":"64000040","townName":"楠梓區","level":"village","unassigned":false,"note":"","label":[120.2937538234944,22.71108147481258],"bounds":[120.291413,22.708219,120.295771,22.713859],"focusBounds":[120.291413,22.708219,120.295771,22.713859],"color":"#df9f6a"}},{"type":"Feature","id":"64000040030","geometry":{"type":"Polygon","coordinates":[[[120.298497,22.712667],[120.298293,22.713106],[120.297765,22.713328],[120.296533,22.714725],[120.293806,22.713859],[120.294294,22.712482],[120.295771,22.710759],[120.296913,22.711732],[120.298497,22.712667]]]},"properties":{"code":"64000040030","name":"秀昌里","countyCode":"64000","countyName":"高雄市","townCode":"64000040","townName":"楠梓區","level":"village","unassigned":false,"note":"","label":[120.29597771471813,22.712954810424172],"bounds":[120.293806,22.710759,120.298497,22.714725],"focusBounds":[120.293806,22.710759,120.298497,22.714725],"color":"#c38cb8"}},{"type":"Feature","id":"64000040031","geometry":{"type":"Polygon","coordinates":[[[120.290379,22.717176],[120.290996,22.72167],[120.287709,22.720055],[120.284937,22.718318],[120.287228,22.71691],[120.287873,22.716203],[120.288411,22.715291],[120.289903,22.713842],[120.290379,22.717176]]]},"properties":{"code":"64000040031","name":"裕昌里","countyCode":"64000","countyName":"高雄市","townCode":"64000040","townName":"楠梓區","level":"village","unassigned":false,"note":"","label":[120.28864730799498,22.71820192594202],"bounds":[120.284937,22.713842,120.290996,22.72167],"focusBounds":[120.284937,22.713842,120.290996,22.72167],"color":"#98b69b"}},{"type":"Feature","id":"64000040032","geometry":{"type":"Polygon","coordinates":[[[120.290996,22.72167],[120.29138,22.724661],[120.284892,22.722037],[120.282927,22.721265],[120.281226,22.720588],[120.284937,22.718318],[120.287709,22.720055],[120.290996,22.72167]]]},"properties":{"code":"64000040032","name":"國昌里","countyCode":"64000","countyName":"高雄市","townCode":"64000040","townName":"楠梓區","level":"village","unassigned":false,"note":"","label":[120.28682376161609,22.721159021340746],"bounds":[120.281226,22.718318,120.29138,22.724661],"focusBounds":[120.281226,22.718318,120.29138,22.724661],"color":"#58b99d"}},{"type":"Feature","id":"64000040033","geometry":{"type":"Polygon","coordinates":[[[120.301012,22.716372],[120.297999,22.723311],[120.29782,22.723249],[120.294526,22.722092],[120.294363,22.72129],[120.294002,22.72125],[120.293883,22.72108],[120.29407,22.720394],[120.293975,22.719803],[120.294078,22.719521],[120.294046,22.719214],[120.293801,22.718984],[120.295239,22.717528],[120.295301,22.717189],[120.296127,22.715938],[120.296007,22.715682],[120.295711,22.715653],[120.295707,22.715504],[120.296533,22.714725],[120.301012,22.716372]]]},"properties":{"code":"64000040033","name":"加昌里","countyCode":"64000","countyName":"高雄市","townCode":"64000040","townName":"楠梓區","level":"village","unassigned":false,"note":"","label":[120.29720663189113,22.719002884078073],"bounds":[120.293801,22.714725,120.301012,22.723311],"focusBounds":[120.293801,22.714725,120.301012,22.723311],"color":"#efb44f"}},{"type":"Feature","id":"64000040034","geometry":{"type":"Polygon","coordinates":[[[120.29782,22.723249],[120.296548,22.725538],[120.29138,22.724661],[120.290996,22.72167],[120.292706,22.721687],[120.294526,22.722092],[120.29782,22.723249]]]},"properties":{"code":"64000040034","name":"仁昌里","countyCode":"64000","countyName":"高雄市","townCode":"64000040","townName":"楠梓區","level":"village","unassigned":false,"note":"","label":[120.29412859352087,22.723565511269676],"bounds":[120.290996,22.72167,120.29782,22.725538],"focusBounds":[120.290996,22.72167,120.29782,22.725538],"color":"#78a7e3"}},{"type":"Feature","id":"64000040035","geometry":{"type":"Polygon","coordinates":[[[120.283018,22.73639],[120.277546,22.737911],[120.276226,22.733851],[120.275121,22.733629],[120.279176,22.728302],[120.279833,22.726879],[120.280427,22.727173],[120.282387,22.725831],[120.282906,22.724636],[120.283831,22.724963],[120.284892,22.722037],[120.29138,22.724661],[120.296548,22.725538],[120.296965,22.725889],[120.29716,22.726678],[120.296619,22.728367],[120.295232,22.72944],[120.295893,22.730609],[120.295505,22.73083],[120.295815,22.731433],[120.294899,22.732196],[120.295015,22.732756],[120.293417,22.733765],[120.293732,22.734528],[120.29283,22.734978],[120.292334,22.735238],[120.292808,22.736306],[120.291259,22.737224],[120.289594,22.736714],[120.285723,22.737666],[120.285047,22.735732],[120.283018,22.73639]]]},"properties":{"code":"64000040035","name":"藍田里","countyCode":"64000","countyName":"高雄市","townCode":"64000040","townName":"楠梓區","level":"village","unassigned":false,"note":"","label":[120.28779870141047,22.730183845888384],"bounds":[120.275121,22.722037,120.29716,22.737911],"focusBounds":[120.275121,22.722037,120.29716,22.737911],"color":"#dd8590"}},{"type":"Feature","id":"64000040036","geometry":{"type":"Polygon","coordinates":[[[120.284892,22.722037],[120.283831,22.724963],[120.282906,22.724636],[120.282387,22.725831],[120.280427,22.727173],[120.279833,22.726879],[120.279176,22.728302],[120.277199,22.726983],[120.277789,22.726007],[120.277914,22.725436],[120.277323,22.723208],[120.277786,22.7233],[120.277819,22.723495],[120.279711,22.723841],[120.279495,22.723403],[120.280796,22.723255],[120.281938,22.723471],[120.282927,22.721265],[120.284892,22.722037]]]},"properties":{"code":"64000040036","name":"中興里","countyCode":"64000","countyName":"高雄市","townCode":"64000040","townName":"楠梓區","level":"village","unassigned":false,"note":"","label":[120.28054023644597,22.725190009433664],"bounds":[120.277199,22.721265,120.284892,22.728302],"focusBounds":[120.277199,22.721265,120.284892,22.728302],"color":"#a49ad4"}},{"type":"Feature","id":"64000040037","geometry":{"type":"Polygon","coordinates":[[[120.279176,22.728302],[120.275121,22.733629],[120.274951,22.733614],[120.275182,22.731683],[120.271529,22.73084],[120.270929,22.730446],[120.26933,22.731661],[120.266969,22.729762],[120.266018,22.729915],[120.263462,22.727838],[120.26252,22.726612],[120.261852,22.725376],[120.259988,22.723354],[120.258034,22.720743],[120.257465,22.720317],[120.256864,22.719543],[120.25628,22.718535],[120.256487,22.718388],[120.256646,22.717284],[120.256321,22.717561],[120.256273,22.717294],[120.256822,22.71487],[120.256694,22.714553],[120.255785,22.714184],[120.257089,22.714325],[120.25723,22.713834],[120.273248,22.717378],[120.279656,22.719954],[120.281226,22.720588],[120.282927,22.721265],[120.281938,22.723471],[120.280796,22.723255],[120.279495,22.723403],[120.279711,22.723841],[120.277819,22.723495],[120.277786,22.7233],[120.277323,22.723208],[120.277914,22.725436],[120.277789,22.726007],[120.277199,22.726983],[120.279176,22.728302]]]},"properties":{"code":"64000040037","name":"中和里","countyCode":"64000","countyName":"高雄市","townCode":"64000040","townName":"楠梓區","level":"village","unassigned":false,"note":"","label":[120.26980006723784,22.72334257224634],"bounds":[120.255785,22.713834,120.282927,22.733629],"focusBounds":[120.255785,22.713834,120.282927,22.733629],"color":"#a8bf62"}},{"type":"Feature","id":"64000040038","geometry":{"type":"Polygon","coordinates":[[[120.336103,22.749039],[120.334798,22.749394],[120.334731,22.749642],[120.334439,22.737115],[120.334393,22.735758],[120.338916,22.734501],[120.338786,22.734965],[120.338874,22.735245],[120.339129,22.73558],[120.339563,22.735523],[120.339662,22.735754],[120.339571,22.735987],[120.339934,22.736759],[120.340196,22.738398],[120.340069,22.738567],[120.339476,22.73875],[120.338724,22.738538],[120.338291,22.738758],[120.337503,22.738815],[120.337557,22.739073],[120.337657,22.739639],[120.337237,22.740116],[120.340794,22.743939],[120.34026,22.744141],[120.338741,22.744297],[120.338445,22.744528],[120.338123,22.745163],[120.337445,22.745588],[120.337048,22.745682],[120.336144,22.745344],[120.335764,22.74542],[120.335657,22.745808],[120.336103,22.749039]]]},"properties":{"code":"64000040038","name":"清翔里","countyCode":"64000","countyName":"高雄市","townCode":"64000040","townName":"楠梓區","level":"village","unassigned":false,"note":"","label":[120.33683865082142,22.742959595937275],"bounds":[120.334393,22.734501,120.340794,22.749642],"focusBounds":[120.334393,22.734501,120.340794,22.749642],"color":"#68bec9"}},{"type":"Feature","id":"64000040S01","geometry":{"type":"MultiPolygon","coordinates":[[[[120.258052,22.693623],[120.260565,22.694878],[120.263385,22.696719],[120.263488,22.696913],[120.263399,22.697247],[120.263349,22.696948],[120.260265,22.694956],[120.259472,22.696036],[120.258052,22.695268],[120.258052,22.693623]]],[[[120.274804,22.704884],[120.274851,22.705851],[120.274733,22.705877],[120.274702,22.706771],[120.274173,22.707121],[120.274056,22.707012],[120.273243,22.706981],[120.269792,22.708347],[120.26947,22.708228],[120.269382,22.708499],[120.268884,22.708822],[120.268562,22.70882],[120.268329,22.709287],[120.264624,22.708532],[120.264884,22.707187],[120.266264,22.70732],[120.266849,22.706943],[120.266126,22.706109],[120.266127,22.70592],[120.266189,22.705757],[120.265894,22.705566],[120.265519,22.704887],[120.265698,22.70459],[120.265377,22.704453],[120.265498,22.703722],[120.26399,22.70255],[120.263756,22.702224],[120.263557,22.701356],[120.262835,22.700278],[120.262698,22.698327],[120.262785,22.698009],[120.26323,22.697815],[120.262982,22.698639],[120.263166,22.699726],[120.26304,22.700098],[120.264062,22.701405],[120.264277,22.702529],[120.265733,22.703601],[120.265877,22.704954],[120.266138,22.705568],[120.266285,22.706084],[120.266364,22.706211],[120.267022,22.706055],[120.267174,22.70572],[120.267828,22.705227],[120.267522,22.706624],[120.268412,22.706885],[120.268794,22.706411],[120.268726,22.705851],[120.269037,22.705431],[120.271308,22.704873],[120.274804,22.704884]]]]},"properties":{"code":"64000040S01","name":"未編定村里","countyCode":"64000","countyName":"高雄市","townCode":"64000040","townName":"楠梓區","level":"village","unassigned":true,"note":"未編定村里","label":[120.27022072117042,22.70665876172928],"bounds":[120.258052,22.693623,120.274851,22.709287],"focusBounds":[120.258052,22.693623,120.274851,22.709287],"color":"#df9f6a"}}]}
