{"type":"FeatureCollection","features":[{"type":"Feature","id":"64000280001","geometry":{"type":"Polygon","coordinates":[[[120.233166,22.792589],[120.231222,22.792932],[120.230078,22.792614],[120.229884,22.792702],[120.22753,22.790225],[120.226817,22.789768],[120.225743,22.790144],[120.222844,22.792297],[120.221336,22.792168],[120.220832,22.791777],[120.220464,22.791162],[120.220603,22.790536],[120.222635,22.786686],[120.222863,22.785537],[120.225652,22.780214],[120.226118,22.778911],[120.226872,22.777452],[120.228466,22.778],[120.230384,22.776408],[120.23183,22.775864],[120.23235,22.77519],[120.237456,22.775205],[120.240779,22.777271],[120.24327,22.778457],[120.243434,22.780196],[120.24321,22.782019],[120.245608,22.782498],[120.246709,22.78286],[120.245275,22.785316],[120.244346,22.78472],[120.242997,22.784197],[120.242644,22.784242],[120.241581,22.784829],[120.240915,22.784957],[120.239651,22.784923],[120.239385,22.785588],[120.238604,22.786749],[120.237646,22.789307],[120.236807,22.790856],[120.233166,22.792589]]]},"properties":{"code":"64000280001","name":"光和里","countyCode":"64000","countyName":"高雄市","townCode":"64000280","townName":"彌陀區","level":"village","unassigned":false,"note":"","label":[120.23187976728974,22.784307444641698],"bounds":[120.220464,22.77519,120.246709,22.792932],"focusBounds":[120.220464,22.77519,120.246709,22.792932],"color":"#a49ad4"}},{"type":"Feature","id":"64000280002","geometry":{"type":"Polygon","coordinates":[[[120.253518,22.786777],[120.253266,22.786884],[120.253214,22.787637],[120.252599,22.788264],[120.252311,22.789645],[120.250209,22.788635],[120.248478,22.788076],[120.246396,22.786111],[120.245275,22.785316],[120.246709,22.78286],[120.247094,22.781875],[120.249531,22.782487],[120.249993,22.783756],[120.25008,22.784955],[120.253518,22.786777]]]},"properties":{"code":"64000280002","name":"彌靖里","countyCode":"64000","countyName":"高雄市","townCode":"64000280","townName":"彌陀區","level":"village","unassigned":false,"note":"","label":[120.24813962427083,22.785134603665064],"bounds":[120.245275,22.781875,120.253518,22.789645],"focusBounds":[120.245275,22.781875,120.253518,22.789645],"color":"#a8bf62"}},{"type":"Feature","id":"64000280003","geometry":{"type":"Polygon","coordinates":[[[120.25509,22.782508],[120.254838,22.783107],[120.255022,22.783323],[120.254954,22.783646],[120.254464,22.785037],[120.254132,22.785056],[120.253871,22.786499],[120.253623,22.786452],[120.253518,22.786777],[120.25008,22.784955],[120.249993,22.783756],[120.249531,22.782487],[120.247094,22.781875],[120.246709,22.78286],[120.245608,22.782498],[120.24321,22.782019],[120.243434,22.780196],[120.24531,22.78095],[120.245424,22.780907],[120.245422,22.780501],[120.245591,22.780459],[120.248713,22.781458],[120.249087,22.781512],[120.249195,22.781045],[120.250982,22.781396],[120.25163,22.781781],[120.251894,22.782119],[120.252375,22.781771],[120.252714,22.781761],[120.253216,22.781895],[120.254335,22.782536],[120.25509,22.782508]]]},"properties":{"code":"64000280003","name":"彌仁里","countyCode":"64000","countyName":"高雄市","townCode":"64000280","townName":"彌陀區","level":"village","unassigned":false,"note":"","label":[120.25234817206984,22.78397375847107],"bounds":[120.24321,22.780196,120.25509,22.786777],"focusBounds":[120.24321,22.780196,120.25509,22.786777],"color":"#68bec9"}},{"type":"Feature","id":"64000280004","geometry":{"type":"Polygon","coordinates":[[[120.249195,22.781045],[120.249087,22.781512],[120.248713,22.781458],[120.245591,22.780459],[120.245422,22.780501],[120.245424,22.780907],[120.24531,22.78095],[120.243434,22.780196],[120.24327,22.778457],[120.244267,22.778689],[120.244873,22.778385],[120.245006,22.778106],[120.245849,22.777938],[120.246085,22.777723],[120.247196,22.777683],[120.24753,22.779016],[120.248914,22.779321],[120.249732,22.779733],[120.249317,22.780481],[120.249195,22.781045]]]},"properties":{"code":"64000280004","name":"彌壽里","countyCode":"64000","countyName":"高雄市","townCode":"64000280","townName":"彌陀區","level":"village","unassigned":false,"note":"","label":[120.246191199224,22.779184963378945],"bounds":[120.24327,22.777683,120.249732,22.781512],"focusBounds":[120.24327,22.777683,120.249732,22.781512],"color":"#df9f6a"}},{"type":"Feature","id":"64000280005","geometry":{"type":"Polygon","coordinates":[[[120.25509,22.782508],[120.254335,22.782536],[120.253216,22.781895],[120.252714,22.781761],[120.252375,22.781771],[120.251894,22.782119],[120.25163,22.781781],[120.250982,22.781396],[120.249195,22.781045],[120.249317,22.780481],[120.249732,22.779733],[120.248914,22.779321],[120.24753,22.779016],[120.247196,22.777683],[120.245853,22.772631],[120.248523,22.771648],[120.250741,22.771845],[120.251113,22.772021],[120.252587,22.772053],[120.252892,22.77186],[120.254383,22.771675],[120.254317,22.771196],[120.257802,22.770625],[120.258416,22.769986],[120.258769,22.770202],[120.258432,22.771747],[120.258482,22.772621],[120.259276,22.773487],[120.262072,22.775692],[120.25944,22.77891],[120.258185,22.778397],[120.257668,22.779035],[120.256036,22.778951],[120.255488,22.778711],[120.255118,22.778824],[120.254819,22.780143],[120.255722,22.780356],[120.254968,22.781802],[120.25509,22.782508]]]},"properties":{"code":"64000280005","name":"彌陀里","countyCode":"64000","countyName":"高雄市","townCode":"64000280","townName":"彌陀區","level":"village","unassigned":false,"note":"","label":[120.25198272218168,22.77630973934953],"bounds":[120.245853,22.769986,120.262072,22.782536],"focusBounds":[120.245853,22.769986,120.262072,22.782536],"color":"#98b69b"}},{"type":"Feature","id":"64000280006","geometry":{"type":"Polygon","coordinates":[[[120.231398,22.801983],[120.231208,22.802265],[120.229869,22.802341],[120.22836,22.802002],[120.22804,22.801746],[120.227381,22.801875],[120.227151,22.802058],[120.22307,22.802702],[120.220748,22.804053],[120.219243,22.804509],[120.217488,22.804327],[120.217109,22.803909],[120.216784,22.803774],[120.215987,22.80404],[120.215817,22.803922],[120.215758,22.803537],[120.215495,22.803455],[120.21579,22.802593],[120.21574,22.802222],[120.216412,22.800931],[120.217625,22.797856],[120.219185,22.794724],[120.219255,22.793778],[120.220118,22.792456],[120.220464,22.791162],[120.220832,22.791777],[120.221336,22.792168],[120.222844,22.792297],[120.225743,22.790144],[120.226817,22.789768],[120.22753,22.790225],[120.229884,22.792702],[120.230078,22.792614],[120.231222,22.792932],[120.233166,22.792589],[120.234142,22.79498],[120.232478,22.795872],[120.233299,22.796933],[120.235673,22.799118],[120.232773,22.801309],[120.231398,22.801983]]]},"properties":{"code":"64000280006","name":"舊港里","countyCode":"64000","countyName":"高雄市","townCode":"64000280","townName":"彌陀區","level":"village","unassigned":false,"note":"","label":[120.22544652195863,22.79692205518124],"bounds":[120.215495,22.789768,120.235673,22.804509],"focusBounds":[120.215495,22.789768,120.235673,22.804509],"color":"#58b99d"}},{"type":"Feature","id":"64000280007","geometry":{"type":"Polygon","coordinates":[[[120.243507,22.795417],[120.2401,22.796043],[120.238974,22.79649],[120.237825,22.797169],[120.237139,22.798237],[120.235673,22.799118],[120.233299,22.796933],[120.232478,22.795872],[120.234142,22.79498],[120.233166,22.792589],[120.236807,22.790856],[120.23795,22.791094],[120.238759,22.790776],[120.23957,22.791001],[120.240019,22.790775],[120.241782,22.791616],[120.240417,22.794427],[120.24358,22.79498],[120.243507,22.795417]]]},"properties":{"code":"64000280007","name":"文安里","countyCode":"64000","countyName":"高雄市","townCode":"64000280","townName":"彌陀區","level":"village","unassigned":false,"note":"","label":[120.2372330525358,22.794013510066804],"bounds":[120.232478,22.790775,120.24358,22.799118],"focusBounds":[120.232478,22.790775,120.24358,22.799118],"color":"#efb44f"}},{"type":"Feature","id":"64000280008","geometry":{"type":"Polygon","coordinates":[[[120.256486,22.795412],[120.25465,22.795325],[120.253361,22.795446],[120.252899,22.795612],[120.251453,22.796606],[120.249456,22.797359],[120.247236,22.797784],[120.244758,22.797899],[120.244022,22.797709],[120.243666,22.797213],[120.243866,22.796924],[120.244958,22.796385],[120.244792,22.795633],[120.244361,22.795334],[120.243507,22.795417],[120.24358,22.79498],[120.240417,22.794427],[120.241782,22.791616],[120.242604,22.790412],[120.243114,22.788622],[120.243038,22.787292],[120.243325,22.7867],[120.244629,22.786774],[120.244699,22.786241],[120.245275,22.785316],[120.246396,22.786111],[120.248478,22.788076],[120.250209,22.788635],[120.252311,22.789645],[120.252429,22.790787],[120.254353,22.791219],[120.254182,22.792974],[120.254497,22.793539],[120.256534,22.794089],[120.256486,22.795412]]]},"properties":{"code":"64000280008","name":"鹽埕里","countyCode":"64000","countyName":"高雄市","townCode":"64000280","townName":"彌陀區","level":"village","unassigned":false,"note":"","label":[120.24791156058434,22.792598089886603],"bounds":[120.240417,22.785316,120.256534,22.797899],"focusBounds":[120.240417,22.785316,120.256534,22.797899],"color":"#78a7e3"}},{"type":"Feature","id":"64000280009","geometry":{"type":"Polygon","coordinates":[[[120.245275,22.785316],[120.244699,22.786241],[120.244629,22.786774],[120.243325,22.7867],[120.243038,22.787292],[120.243114,22.788622],[120.242604,22.790412],[120.241782,22.791616],[120.240019,22.790775],[120.23957,22.791001],[120.238759,22.790776],[120.23795,22.791094],[120.236807,22.790856],[120.237646,22.789307],[120.238604,22.786749],[120.239385,22.785588],[120.239651,22.784923],[120.240915,22.784957],[120.241581,22.784829],[120.242644,22.784242],[120.242997,22.784197],[120.244346,22.78472],[120.245275,22.785316]]]},"properties":{"code":"64000280009","name":"過港里","countyCode":"64000","countyName":"高雄市","townCode":"64000280","townName":"彌陀區","level":"village","unassigned":false,"note":"","label":[120.2406834771934,22.788021206577813],"bounds":[120.236807,22.784197,120.245275,22.791616],"focusBounds":[120.236807,22.784197,120.245275,22.791616],"color":"#dd8590"}},{"type":"Feature","id":"64000280010","geometry":{"type":"Polygon","coordinates":[[[120.247196,22.777683],[120.246085,22.777723],[120.245849,22.777938],[120.245006,22.778106],[120.244873,22.778385],[120.244267,22.778689],[120.24327,22.778457],[120.240779,22.777271],[120.237456,22.775205],[120.23235,22.77519],[120.23183,22.775864],[120.230384,22.776408],[120.228466,22.778],[120.226872,22.777452],[120.227745,22.775398],[120.229053,22.773291],[120.230618,22.768969],[120.23236,22.766068],[120.232718,22.764584],[120.232609,22.763267],[120.233703,22.763468],[120.237031,22.764687],[120.237448,22.765418],[120.237879,22.765829],[120.238416,22.766387],[120.238975,22.767347],[120.239364,22.768213],[120.239434,22.768936],[120.239933,22.76934],[120.242497,22.769465],[120.243311,22.769977],[120.243672,22.770412],[120.245086,22.76992],[120.245853,22.772631],[120.247196,22.777683]]]},"properties":{"code":"64000280010","name":"海尾里","countyCode":"64000","countyName":"高雄市","townCode":"64000280","townName":"彌陀區","level":"village","unassigned":false,"note":"","label":[120.23536419415589,22.77056121002002],"bounds":[120.226872,22.763267,120.247196,22.778689],"focusBounds":[120.226872,22.763267,120.247196,22.778689],"color":"#dd8590"}},{"type":"Feature","id":"64000280011","geometry":{"type":"Polygon","coordinates":[[[120.258416,22.769986],[120.257802,22.770625],[120.254317,22.771196],[120.254383,22.771675],[120.252892,22.77186],[120.252587,22.772053],[120.251113,22.772021],[120.250741,22.771845],[120.248523,22.771648],[120.245853,22.772631],[120.245086,22.76992],[120.243672,22.770412],[120.243311,22.769977],[120.242497,22.769465],[120.239933,22.76934],[120.239434,22.768936],[120.239364,22.768213],[120.238975,22.767347],[120.238416,22.766387],[120.237879,22.765829],[120.239958,22.76529],[120.241457,22.764433],[120.242092,22.763785],[120.242516,22.762647],[120.242973,22.762236],[120.244451,22.758852],[120.245806,22.758922],[120.246831,22.758741],[120.247883,22.758963],[120.24948,22.759615],[120.250871,22.760491],[120.250983,22.761487],[120.250875,22.761973],[120.250556,22.763223],[120.250557,22.763807],[120.251901,22.764518],[120.252178,22.765182],[120.252871,22.76578],[120.253651,22.766882],[120.253783,22.767699],[120.254966,22.768203],[120.254633,22.769302],[120.255984,22.769817],[120.256285,22.769379],[120.258058,22.769758],[120.258416,22.769986]]]},"properties":{"code":"64000280011","name":"漯底里","countyCode":"64000","countyName":"高雄市","townCode":"64000280","townName":"彌陀區","level":"village","unassigned":false,"note":"","label":[120.2463640814329,22.765633054615712],"bounds":[120.237879,22.758741,120.258416,22.772631],"focusBounds":[120.237879,22.758741,120.258416,22.772631],"color":"#a49ad4"}},{"type":"Feature","id":"64000280012","geometry":{"type":"Polygon","coordinates":[[[120.24948,22.759615],[120.247883,22.758963],[120.246831,22.758741],[120.245806,22.758922],[120.244451,22.758852],[120.242973,22.762236],[120.242516,22.762647],[120.242092,22.763785],[120.241457,22.764433],[120.239958,22.76529],[120.237879,22.765829],[120.237448,22.765418],[120.237031,22.764687],[120.233703,22.763468],[120.232609,22.763267],[120.232405,22.762525],[120.233049,22.762742],[120.230935,22.761926],[120.23124,22.760726],[120.231957,22.760517],[120.232916,22.759979],[120.234041,22.760367],[120.234612,22.759866],[120.23501,22.758694],[120.236202,22.756895],[120.236787,22.755558],[120.237319,22.754781],[120.237382,22.754287],[120.237586,22.754065],[120.237941,22.754003],[120.237728,22.753676],[120.238011,22.753218],[120.238251,22.753107],[120.238155,22.752826],[120.238507,22.752334],[120.238821,22.752202],[120.238774,22.752003],[120.239005,22.751589],[120.239308,22.751464],[120.239355,22.751097],[120.239694,22.750662],[120.240944,22.74802],[120.241175,22.747845],[120.241188,22.747531],[120.241988,22.746113],[120.242188,22.745452],[120.242772,22.744477],[120.243055,22.74427],[120.243157,22.743923],[120.244763,22.745582],[120.244536,22.746179],[120.242993,22.747077],[120.244238,22.748552],[120.244125,22.748974],[120.243665,22.749532],[120.244084,22.751279],[120.243071,22.751545],[120.243313,22.752351],[120.243427,22.753677],[120.244814,22.753583],[120.245153,22.75131],[120.246578,22.750837],[120.246457,22.752064],[120.246751,22.754172],[120.248112,22.754388],[120.248823,22.754169],[120.249315,22.754319],[120.250431,22.756331],[120.250572,22.757029],[120.25029,22.757794],[120.24948,22.759615]]]},"properties":{"code":"64000280012","name":"南寮里","countyCode":"64000","countyName":"高雄市","townCode":"64000280","townName":"彌陀區","level":"village","unassigned":false,"note":"","label":[120.24044268575248,22.75749206437656],"bounds":[120.230935,22.743923,120.250572,22.765829],"focusBounds":[120.230935,22.743923,120.250572,22.765829],"color":"#a8bf62"}}]}
