{"type":"FeatureCollection","features":[{"type":"Feature","id":"64000370001","geometry":{"type":"Polygon","coordinates":[[[120.789952,23.193688],[120.789204,23.193973],[120.788674,23.194463],[120.78807,23.195186],[120.787707,23.196091],[120.78741,23.197396],[120.787236,23.199272],[120.785278,23.208606],[120.785365,23.209756],[120.784936,23.211234],[120.784453,23.211856],[120.779354,23.216304],[120.774876,23.219221],[120.772366,23.219822],[120.76494,23.223442],[120.762102,23.224142],[120.759591,23.225449],[120.755989,23.225947],[120.754459,23.227358],[120.752728,23.228029],[120.751639,23.22664],[120.751018,23.226216],[120.750629,23.225582],[120.750138,23.224336],[120.749786,23.222699],[120.749311,23.222221],[120.748463,23.221715],[120.74706,23.219883],[120.745452,23.219269],[120.745565,23.217836],[120.74522,23.215958],[120.745206,23.214597],[120.74461,23.213118],[120.744109,23.210751],[120.744135,23.209034],[120.743464,23.207719],[120.743315,23.206618],[120.741912,23.204856],[120.741456,23.203315],[120.740999,23.202558],[120.739967,23.201413],[120.737744,23.199977],[120.736332,23.198221],[120.735607,23.195811],[120.734911,23.194545],[120.733981,23.193772],[120.732718,23.193008],[120.732067,23.192222],[120.731222,23.191937],[120.730344,23.191084],[120.728895,23.190401],[120.727177,23.190056],[120.726828,23.189285],[120.725824,23.188399],[120.725219,23.186471],[120.724487,23.18565],[120.724146,23.184657],[120.722802,23.18384],[120.723783,23.182435],[120.725499,23.179101],[120.726313,23.178001],[120.727127,23.177052],[120.728751,23.176118],[120.730163,23.174355],[120.731685,23.171206],[120.732123,23.168655],[120.732613,23.166855],[120.734399,23.163749],[120.737824,23.158607],[120.738746,23.157658],[120.741129,23.156461],[120.741996,23.155711],[120.74422,23.153163],[120.745794,23.150163],[120.747042,23.148614],[120.749968,23.146117],[120.750736,23.145091],[120.751434,23.143519],[120.752415,23.139416],[120.752529,23.136565],[120.751887,23.132611],[120.752106,23.13101],[120.753087,23.126808],[120.753794,23.124658],[120.75477,23.12386],[120.75569,23.12346],[120.759153,23.123266],[120.761843,23.123307],[120.763589,23.122973],[120.764467,23.122649],[120.765322,23.121923],[120.766575,23.120406],[120.76725,23.120754],[120.768688,23.120775],[120.769922,23.121438],[120.771393,23.123528],[120.77178,23.124565],[120.772265,23.124943],[120.777005,23.124864],[120.780135,23.125379],[120.78159,23.126008],[120.782181,23.126124],[120.782508,23.126025],[120.783109,23.124933],[120.784258,23.123759],[120.786166,23.122872],[120.788178,23.121617],[120.788876,23.120997],[120.789389,23.120298],[120.793586,23.119078],[120.793779,23.11908],[120.794337,23.119602],[120.794554,23.120187],[120.79439,23.120806],[120.793908,23.121543],[120.793946,23.121817],[120.794473,23.122138],[120.797774,23.123239],[120.79799,23.123427],[120.798176,23.123958],[120.798772,23.124388],[120.799229,23.124454],[120.800594,23.123945],[120.801755,23.12478],[120.803616,23.124087],[120.804856,23.124095],[120.805096,23.124289],[120.80528,23.125186],[120.805852,23.126268],[120.806502,23.127201],[120.806887,23.127495],[120.806887,23.128791],[120.806496,23.130059],[120.805721,23.131012],[120.805973,23.132562],[120.80624,23.132592],[120.80699,23.132225],[120.807473,23.132199],[120.808222,23.131813],[120.808579,23.131861],[120.809166,23.132255],[120.810141,23.133301],[120.81119,23.133494],[120.8122,23.135017],[120.813466,23.135247],[120.814067,23.135514],[120.814604,23.135941],[120.815272,23.136897],[120.815791,23.138975],[120.817068,23.140699],[120.818305,23.140994],[120.819689,23.141099],[120.820413,23.140441],[120.820627,23.139877],[120.820881,23.139671],[120.821426,23.139701],[120.822339,23.139436],[120.822678,23.139534],[120.824904,23.141717],[120.825802,23.142181],[120.826684,23.143046],[120.82716,23.143176],[120.827806,23.143084],[120.828182,23.143339],[120.828265,23.1441],[120.827949,23.144804],[120.828594,23.145755],[120.828949,23.147207],[120.829235,23.147472],[120.829984,23.147737],[120.830159,23.148369],[120.830664,23.149142],[120.832205,23.149451],[120.834033,23.149084],[120.834517,23.149209],[120.835199,23.149779],[120.836783,23.149986],[120.837036,23.149941],[120.837396,23.149357],[120.837677,23.149206],[120.838603,23.149198],[120.839187,23.148681],[120.839896,23.148729],[120.841216,23.148539],[120.841686,23.148686],[120.842415,23.149856],[120.843202,23.15074],[120.843347,23.151316],[120.844959,23.152859],[120.848478,23.158405],[120.849658,23.161079],[120.850582,23.163889],[120.851154,23.16649],[120.849952,23.166351],[120.848566,23.165808],[120.846914,23.16451],[120.844984,23.162233],[120.844093,23.161582],[120.843217,23.161265],[120.841707,23.161354],[120.839312,23.162731],[120.83724,23.163133],[120.835495,23.163232],[120.833183,23.163101],[120.831771,23.16265],[120.829727,23.161702],[120.826169,23.16108],[120.824663,23.161065],[120.818265,23.162608],[120.80971,23.162984],[120.801916,23.164415],[120.793063,23.167104],[120.79071,23.167509],[120.78623,23.167097],[120.781617,23.165989],[120.775511,23.164971],[120.774475,23.165159],[120.77414,23.165348],[120.774136,23.167895],[120.773955,23.168511],[120.773594,23.169059],[120.772538,23.170033],[120.772099,23.17103],[120.772228,23.171522],[120.772744,23.172155],[120.774512,23.173592],[120.775292,23.175753],[120.776474,23.176671],[120.776986,23.177359],[120.777494,23.179163],[120.777674,23.180615],[120.777344,23.181879],[120.777524,23.183128],[120.779505,23.188293],[120.780201,23.189182],[120.781363,23.1901],[120.78222,23.190388],[120.783626,23.190322],[120.786237,23.189382],[120.787313,23.18918],[120.788864,23.189453],[120.789447,23.190179],[120.789683,23.190938],[120.789952,23.193688]]]},"properties":{"code":"64000370001","name":"桃源里","countyCode":"64000","countyName":"高雄市","townCode":"64000370","townName":"桃源區","level":"village","unassigned":false,"note":"","label":[120.75204224690138,23.1811479241142],"bounds":[120.722802,23.119078,120.851154,23.228029],"focusBounds":[120.722802,23.119078,120.851154,23.228029],"color":"#98b69b"}},{"type":"Feature","id":"64000370002","geometry":{"type":"Polygon","coordinates":[[[120.876689,23.150865],[120.875857,23.151067],[120.874684,23.152152],[120.873514,23.154449],[120.872848,23.156492],[120.870773,23.159342],[120.869505,23.161481],[120.869115,23.161871],[120.868571,23.162056],[120.867811,23.161983],[120.865269,23.161446],[120.859064,23.161914],[120.857935,23.16227],[120.853776,23.165192],[120.851154,23.16649],[120.850582,23.163889],[120.849658,23.161079],[120.848478,23.158405],[120.844959,23.152859],[120.843347,23.151316],[120.843202,23.15074],[120.842415,23.149856],[120.841686,23.148686],[120.841216,23.148539],[120.839896,23.148729],[120.839187,23.148681],[120.838603,23.149198],[120.837677,23.149206],[120.837396,23.149357],[120.837036,23.149941],[120.836783,23.149986],[120.835199,23.149779],[120.834517,23.149209],[120.834033,23.149084],[120.832205,23.149451],[120.830664,23.149142],[120.830159,23.148369],[120.829984,23.147737],[120.829235,23.147472],[120.828949,23.147207],[120.828594,23.145755],[120.827949,23.144804],[120.828265,23.1441],[120.828182,23.143339],[120.827806,23.143084],[120.82716,23.143176],[120.826684,23.143046],[120.825802,23.142181],[120.824904,23.141717],[120.822678,23.139534],[120.822339,23.139436],[120.821426,23.139701],[120.820881,23.139671],[120.820627,23.139877],[120.820413,23.140441],[120.819689,23.141099],[120.818305,23.140994],[120.817068,23.140699],[120.815791,23.138975],[120.815272,23.136897],[120.814604,23.135941],[120.814067,23.135514],[120.813466,23.135247],[120.8122,23.135017],[120.81119,23.133494],[120.810141,23.133301],[120.809166,23.132255],[120.808579,23.131861],[120.808222,23.131813],[120.807473,23.132199],[120.80699,23.132225],[120.80624,23.132592],[120.805973,23.132562],[120.805721,23.131012],[120.806496,23.130059],[120.806887,23.128791],[120.806887,23.127495],[120.806502,23.127201],[120.805852,23.126268],[120.80528,23.125186],[120.805096,23.124289],[120.804856,23.124095],[120.803616,23.124087],[120.801755,23.12478],[120.800594,23.123945],[120.799229,23.124454],[120.798772,23.124388],[120.798176,23.123958],[120.79799,23.123427],[120.797774,23.123239],[120.794473,23.122138],[120.793946,23.121817],[120.793908,23.121543],[120.79439,23.120806],[120.794554,23.120187],[120.794337,23.119602],[120.793779,23.11908],[120.793586,23.119078],[120.789389,23.120298],[120.788876,23.120997],[120.788178,23.121617],[120.786166,23.122872],[120.784258,23.123759],[120.783109,23.124933],[120.782508,23.126025],[120.782181,23.126124],[120.78159,23.126008],[120.780135,23.125379],[120.777005,23.124864],[120.772265,23.124943],[120.77178,23.124565],[120.771393,23.123528],[120.769922,23.121438],[120.768688,23.120775],[120.76725,23.120754],[120.766575,23.120406],[120.765758,23.119874],[120.764677,23.119622],[120.760977,23.119576],[120.757049,23.119809],[120.7518,23.119857],[120.749312,23.119456],[120.746043,23.118441],[120.745017,23.11781],[120.745517,23.117753],[120.744771,23.117315],[120.744552,23.11677],[120.744814,23.115404],[120.744728,23.114778],[120.744532,23.114443],[120.743919,23.114217],[120.743668,23.113962],[120.743441,23.113293],[120.742876,23.112442],[120.742815,23.111598],[120.74206,23.111306],[120.741898,23.109939],[120.741615,23.109343],[120.740869,23.108695],[120.738264,23.105434],[120.737785,23.105077],[120.737268,23.104029],[120.736303,23.103111],[120.734802,23.102171],[120.733458,23.101667],[120.732334,23.100521],[120.730959,23.099755],[120.728915,23.098053],[120.727638,23.097691],[120.726582,23.097843],[120.724691,23.098674],[120.722741,23.09983],[120.720947,23.100624],[120.718861,23.100793],[120.717955,23.101184],[120.716756,23.101343],[120.713642,23.100455],[120.711459,23.099187],[120.709381,23.098288],[120.7092,23.097868],[120.709321,23.095666],[120.709747,23.094283],[120.709562,23.093216],[120.708853,23.091225],[120.707685,23.089688],[120.706545,23.088822],[120.706346,23.088392],[120.706391,23.087473],[120.70733,23.085575],[120.708352,23.08409],[120.708866,23.082844],[120.708739,23.080943],[120.709299,23.078266],[120.709313,23.075325],[120.70888,23.073214],[120.71118,23.072883],[120.711999,23.072532],[120.712494,23.07169],[120.712992,23.069754],[120.713719,23.068364],[120.714614,23.067684],[120.71529,23.067419],[120.715834,23.066924],[120.71655,23.065438],[120.717089,23.064758],[120.717284,23.063915],[120.717679,23.063222],[120.718924,23.062145],[120.720269,23.061448],[120.720933,23.060537],[120.72216,23.059517],[120.724098,23.058504],[120.724268,23.058163],[120.724169,23.057574],[120.723783,23.056973],[120.72342,23.055875],[120.722805,23.055218],[120.722439,23.054972],[120.720671,23.054775],[120.718983,23.052126],[120.717995,23.051538],[120.716269,23.050981],[120.715173,23.048222],[120.714286,23.047047],[120.713911,23.046038],[120.713822,23.044448],[120.713361,23.043966],[120.711174,23.042799],[120.70979,23.042572],[120.70684,23.041061],[120.706121,23.0411],[120.704285,23.040328],[120.702857,23.039371],[120.701197,23.036518],[120.700498,23.034714],[120.700249,23.032938],[120.699675,23.031184],[120.699708,23.028556],[120.699595,23.027992],[120.698783,23.027091],[120.698291,23.025454],[120.696757,23.023625],[120.694729,23.021884],[120.693244,23.020277],[120.692874,23.020004],[120.691987,23.019806],[120.691832,23.019604],[120.69173,23.018992],[120.691295,23.018704],[120.690427,23.018453],[120.689715,23.017993],[120.687723,23.015501],[120.684718,23.012755],[120.684195,23.011543],[120.682833,23.009526],[120.68133,23.008533],[120.679612,23.007799],[120.678425,23.006641],[120.677307,23.005042],[120.676284,23.004707],[120.674939,23.003932],[120.674716,23.003614],[120.67494,23.003342],[120.676698,23.002412],[120.677868,23.001515],[120.680928,23.000195],[120.682222,23.000074],[120.684147,22.999643],[120.686257,22.999685],[120.687965,22.99887],[120.689844,22.998572],[120.693709,22.997593],[120.691511,22.994125],[120.689854,22.99269],[120.68842,22.991816],[120.687652,22.991609],[120.684137,22.991332],[120.682445,22.990288],[120.681721,22.990067],[120.68066,22.989975],[120.678114,22.98898],[120.67581,22.987289],[120.674368,22.986508],[120.673466,22.985936],[120.671908,22.984323],[120.670918,22.983147],[120.670768,22.982706],[120.672069,22.982506],[120.675358,22.980666],[120.677168,22.980218],[120.678827,22.979434],[120.682433,22.978153],[120.683623,22.977954],[120.686013,22.978052],[120.686738,22.978211],[120.68734,22.978705],[120.688315,22.980696],[120.688566,22.980943],[120.690922,22.981796],[120.692803,22.98164],[120.693664,22.98182],[120.695962,22.98341],[120.697567,22.985039],[120.69942,22.986063],[120.70202,22.988489],[120.702938,22.988822],[120.704298,22.98976],[120.704914,22.990012],[120.708069,22.990433],[120.710079,22.991687],[120.711553,22.992344],[120.71189,22.992663],[120.712555,22.994323],[120.713063,22.994801],[120.713843,22.995219],[120.714681,22.996359],[120.716572,22.997207],[120.718404,22.997737],[120.719138,22.998427],[120.719465,22.999702],[120.719806,23.000103],[120.7218,23.001152],[120.722512,23.00186],[120.724219,23.002364],[120.724439,23.002284],[120.725065,23.0015],[120.725359,23.00045],[120.726724,22.998031],[120.728318,22.995989],[120.730971,22.995248],[120.73185,22.994644],[120.732371,22.994017],[120.733114,22.993671],[120.734408,22.993385],[120.7352,22.992936],[120.736104,22.99228],[120.737808,22.990495],[120.738393,22.989492],[120.739502,22.986022],[120.740111,22.985233],[120.740766,22.984917],[120.743195,22.984345],[120.744508,22.982611],[120.746745,22.981935],[120.74736,22.981973],[120.748811,22.982936],[120.749966,22.984156],[120.751523,22.984299],[120.753152,22.984191],[120.756675,22.983502],[120.759456,22.983566],[120.760461,22.983121],[120.762609,22.983514],[120.763808,22.983472],[120.766783,22.982785],[120.770098,22.983114],[120.771063,22.983397],[120.77233,22.984414],[120.772733,22.985545],[120.773408,22.986482],[120.775096,22.987687],[120.775554,22.98817],[120.776647,22.990966],[120.782146,22.993501],[120.782881,22.992575],[120.785257,22.99183],[120.78857,22.989494],[120.789139,22.98935],[120.790275,22.98941],[120.791163,22.989166],[120.791958,22.988713],[120.792645,22.987807],[120.793291,22.987419],[120.796764,22.986998],[120.798183,22.986064],[120.799133,22.98564],[120.8008,22.985506],[120.801648,22.985651],[120.80227,22.985997],[120.80318,22.986834],[120.80402,22.987015],[120.805344,22.986951],[120.806107,22.987075],[120.806721,22.987421],[120.807817,22.988539],[120.808063,22.989426],[120.808244,22.989398],[120.808627,22.989009],[120.808884,22.988093],[120.81027,22.985282],[120.811142,22.984266],[120.811953,22.983787],[120.814561,22.981659],[120.816209,22.979733],[120.817729,22.979229],[120.82156,22.978718],[120.823134,22.977913],[120.826173,22.977165],[120.827191,22.976719],[120.828868,22.975653],[120.829391,22.975168],[120.829993,22.975314],[120.830686,22.975825],[120.831568,22.977882],[120.832225,22.980061],[120.832917,22.980754],[120.833271,22.980856],[120.834507,22.980757],[120.834831,22.980876],[120.835831,22.981805],[120.837099,22.982294],[120.838701,22.982686],[120.840026,22.983614],[120.841182,22.984],[120.841789,22.985255],[120.841978,22.987666],[120.841469,22.988961],[120.841368,22.98991],[120.842177,22.991206],[120.845311,22.992381],[120.846654,22.992647],[120.847031,22.992855],[120.847691,22.993966],[120.848645,22.994311],[120.849093,22.994854],[120.85014,22.996417],[120.850557,22.997915],[120.851779,22.999314],[120.852065,22.999905],[120.852215,23.001882],[120.852007,23.003348],[120.851008,23.005027],[120.851072,23.005125],[120.851928,23.004948],[120.853839,23.00491],[120.854465,23.005405],[120.854989,23.005084],[120.856319,23.004818],[120.858234,23.005055],[120.860657,23.00805],[120.860777,23.008752],[120.860515,23.010465],[120.86127,23.013203],[120.861143,23.014367],[120.861566,23.016657],[120.861418,23.017884],[120.861895,23.018943],[120.86173,23.020177],[120.861976,23.022067],[120.86109,23.024436],[120.860682,23.025986],[120.860701,23.027902],[120.860977,23.029406],[120.861614,23.030768],[120.862392,23.031554],[120.863974,23.032491],[120.866647,23.032358],[120.867769,23.032826],[120.869467,23.033251],[120.872001,23.034477],[120.877312,23.034244],[120.878905,23.034441],[120.879463,23.034665],[120.879726,23.034965],[120.88011,23.03608],[120.880821,23.039986],[120.88137,23.041929],[120.88138,23.042682],[120.881259,23.044196],[120.880151,23.045674],[120.879644,23.047922],[120.878671,23.049],[120.877189,23.049621],[120.875676,23.050558],[120.874498,23.050943],[120.874625,23.05214],[120.874529,23.052431],[120.873055,23.054019],[120.872381,23.054486],[120.871577,23.054743],[120.871324,23.055051],[120.869975,23.057799],[120.869622,23.059048],[120.869215,23.059686],[120.870514,23.061416],[120.872671,23.065237],[120.873143,23.065901],[120.874248,23.066964],[120.875345,23.068543],[120.875969,23.070528],[120.875904,23.070846],[120.876487,23.072901],[120.87692,23.075723],[120.878075,23.078231],[120.879033,23.079064],[120.879416,23.079937],[120.880524,23.080814],[120.881307,23.082116],[120.882585,23.083331],[120.882979,23.08414],[120.883095,23.085288],[120.883597,23.086561],[120.885137,23.088321],[120.885629,23.089107],[120.885733,23.090754],[120.88555,23.09263],[120.886631,23.094919],[120.887518,23.095999],[120.888067,23.097815],[120.888786,23.099092],[120.889151,23.100492],[120.888751,23.10238],[120.888141,23.104205],[120.888612,23.105548],[120.888708,23.106669],[120.889099,23.107136],[120.889223,23.107556],[120.889401,23.110439],[120.889074,23.11114],[120.887474,23.112509],[120.886775,23.113613],[120.886291,23.116465],[120.885452,23.117627],[120.884965,23.119347],[120.885048,23.120016],[120.886025,23.120544],[120.887727,23.121772],[120.888058,23.122438],[120.887832,23.123238],[120.886461,23.126187],[120.885961,23.128044],[120.88586,23.129514],[120.886266,23.130723],[120.886226,23.131875],[120.887061,23.133988],[120.887874,23.136681],[120.886201,23.141934],[120.885762,23.144284],[120.885619,23.144622],[120.883641,23.145115],[120.881435,23.146227],[120.88106,23.146518],[120.880319,23.147717],[120.879537,23.148586],[120.878074,23.149581],[120.876689,23.150865]]]},"properties":{"code":"64000370002","name":"寶山里","countyCode":"64000","countyName":"高雄市","townCode":"64000370","townName":"桃源區","level":"village","unassigned":false,"note":"","label":[120.79805925724112,23.05478344158318],"bounds":[120.670768,22.975168,120.889401,23.16649],"focusBounds":[120.670768,22.975168,120.889401,23.16649],"color":"#58b99d"}},{"type":"Feature","id":"64000370003","geometry":{"type":"Polygon","coordinates":[[[120.686576,23.092249],[120.686872,23.092467],[120.686781,23.09315],[120.686923,23.093853],[120.687467,23.094476],[120.68769,23.095022],[120.688332,23.095571],[120.689374,23.097178],[120.690575,23.09822],[120.691972,23.099738],[120.693511,23.102015],[120.695367,23.106353],[120.694973,23.107668],[120.695037,23.108363],[120.694692,23.108732],[120.693571,23.108966],[120.690909,23.111279],[120.690323,23.111336],[120.689516,23.111775],[120.688053,23.112032],[120.687629,23.112408],[120.685915,23.114861],[120.684883,23.1172],[120.682408,23.120751],[120.68136,23.123176],[120.680318,23.126216],[120.678798,23.12724],[120.676999,23.128904],[120.67613,23.129213],[120.675504,23.129238],[120.673628,23.126424],[120.671097,23.125153],[120.669865,23.123546],[120.668416,23.122231],[120.665817,23.119367],[120.666454,23.118377],[120.666738,23.117329],[120.667186,23.116766],[120.667844,23.116319],[120.668752,23.115967],[120.669204,23.115629],[120.669644,23.115022],[120.670929,23.114208],[120.672066,23.112996],[120.673139,23.112608],[120.673494,23.112263],[120.673623,23.110774],[120.674795,23.108739],[120.674992,23.107922],[120.674611,23.107104],[120.673525,23.105758],[120.673371,23.104688],[120.673725,23.103792],[120.674928,23.10214],[120.67526,23.100912],[120.676288,23.100063],[120.676744,23.099406],[120.676632,23.098327],[120.677105,23.097542],[120.677659,23.096991],[120.67777,23.096655],[120.678289,23.096252],[120.678886,23.095321],[120.679739,23.094533],[120.680669,23.094309],[120.681722,23.093769],[120.682689,23.094427],[120.683,23.094454],[120.683303,23.094268],[120.683313,23.094025],[120.683083,23.093781],[120.683146,23.093568],[120.683981,23.093596],[120.684161,23.09348],[120.684068,23.09252],[120.68484,23.092449],[120.68533,23.092937],[120.685695,23.092993],[120.685947,23.0927],[120.685918,23.092208],[120.686576,23.092249]]]},"properties":{"code":"64000370003","name":"建山里","countyCode":"64000","countyName":"高雄市","townCode":"64000370","townName":"桃源區","level":"village","unassigned":false,"note":"","label":[120.68303988741225,23.105106899676],"bounds":[120.665817,23.092208,120.695367,23.129238],"focusBounds":[120.665817,23.092208,120.695367,23.129238],"color":"#78a7e3"}},{"type":"Feature","id":"64000370004","geometry":{"type":"Polygon","coordinates":[[[120.766575,23.120406],[120.765322,23.121923],[120.764467,23.122649],[120.763589,23.122973],[120.761843,23.123307],[120.759153,23.123266],[120.75569,23.12346],[120.75477,23.12386],[120.753794,23.124658],[120.753087,23.126808],[120.752106,23.13101],[120.751887,23.132611],[120.752529,23.136565],[120.752415,23.139416],[120.751434,23.143519],[120.750736,23.145091],[120.749968,23.146117],[120.747042,23.148614],[120.745794,23.150163],[120.74422,23.153163],[120.741996,23.155711],[120.741129,23.156461],[120.738746,23.157658],[120.737824,23.158607],[120.734399,23.163749],[120.732613,23.166855],[120.732123,23.168655],[120.731685,23.171206],[120.730163,23.174355],[120.728751,23.176118],[120.727127,23.177052],[120.726313,23.178001],[120.725499,23.179101],[120.723783,23.182435],[120.722802,23.18384],[120.722138,23.183508],[120.719966,23.182846],[120.7189,23.181695],[120.718292,23.1815],[120.717433,23.181615],[120.716325,23.183413],[120.715807,23.18367],[120.715318,23.183437],[120.713861,23.181905],[120.712563,23.18127],[120.710952,23.180048],[120.710793,23.179383],[120.709768,23.178161],[120.708833,23.177688],[120.708088,23.177032],[120.70746,23.176984],[120.706725,23.176671],[120.704625,23.174956],[120.703349,23.174485],[120.701526,23.173428],[120.699622,23.170743],[120.699249,23.169605],[120.698941,23.169304],[120.698071,23.169561],[120.695752,23.171084],[120.693967,23.171096],[120.692742,23.170883],[120.69176,23.171292],[120.691318,23.171879],[120.691031,23.171147],[120.689124,23.167926],[120.688037,23.167091],[120.687476,23.166385],[120.687174,23.165365],[120.686517,23.164377],[120.686125,23.163069],[120.685991,23.161095],[120.685152,23.159141],[120.685417,23.156861],[120.685299,23.155836],[120.684739,23.154531],[120.684047,23.153873],[120.682978,23.152174],[120.682138,23.148436],[120.68117,23.146602],[120.679831,23.143231],[120.679758,23.14073],[120.681332,23.138989],[120.683333,23.137189],[120.684297,23.136637],[120.685583,23.136224],[120.687706,23.134717],[120.688346,23.134532],[120.68918,23.13497],[120.690407,23.135036],[120.691623,23.134776],[120.69216,23.134457],[120.692524,23.134005],[120.693781,23.131299],[120.695758,23.129062],[120.696673,23.127553],[120.700884,23.12474],[120.701456,23.124038],[120.702002,23.122704],[120.704183,23.119467],[120.705387,23.117995],[120.706708,23.116804],[120.70746,23.116366],[120.710267,23.11549],[120.71184,23.11566],[120.713664,23.116085],[120.716295,23.118256],[120.717694,23.118934],[120.718983,23.119329],[120.720359,23.119608],[120.721318,23.119595],[120.724442,23.11923],[120.726078,23.119204],[120.727133,23.118849],[120.727723,23.118843],[120.729885,23.119457],[120.730521,23.119858],[120.731495,23.120783],[120.732006,23.120973],[120.733768,23.120823],[120.735036,23.120215],[120.735635,23.119249],[120.736754,23.118437],[120.740145,23.117512],[120.741797,23.117478],[120.742403,23.117719],[120.743693,23.117481],[120.744597,23.117802],[120.745017,23.11781],[120.746043,23.118441],[120.749312,23.119456],[120.7518,23.119857],[120.757049,23.119809],[120.760977,23.119576],[120.764677,23.119622],[120.765758,23.119874],[120.766575,23.120406]]]},"properties":{"code":"64000370004","name":"高中里","countyCode":"64000","countyName":"高雄市","townCode":"64000370","townName":"桃源區","level":"village","unassigned":false,"note":"","label":[120.71491046086413,23.14611446901404],"bounds":[120.679758,23.11549,120.766575,23.18384],"focusBounds":[120.679758,23.11549,120.766575,23.18384],"color":"#78a7e3"}},{"type":"Feature","id":"64000370005","geometry":{"type":"Polygon","coordinates":[[[120.851154,23.16649],[120.851412,23.168086],[120.850643,23.173129],[120.849876,23.176657],[120.849199,23.178088],[120.848455,23.178672],[120.847561,23.178809],[120.846466,23.178243],[120.845897,23.177769],[120.845294,23.177662],[120.84083,23.178238],[120.839474,23.178534],[120.838723,23.178974],[120.837753,23.180287],[120.836442,23.181656],[120.832114,23.185148],[120.831256,23.186177],[120.830511,23.188573],[120.830555,23.189343],[120.830188,23.191057],[120.829024,23.194857],[120.828488,23.195604],[120.827485,23.19633],[120.820421,23.19953],[120.818444,23.200114],[120.816796,23.200216],[120.815662,23.200023],[120.810582,23.197789],[120.80767,23.196729],[120.805791,23.19662],[120.804288,23.196713],[120.803315,23.197073],[120.802535,23.197971],[120.801219,23.20094],[120.800194,23.202463],[120.798355,23.204429],[120.797266,23.205119],[120.796235,23.205454],[120.794683,23.205467],[120.793706,23.205272],[120.79274,23.204776],[120.792134,23.20406],[120.791703,23.202908],[120.791751,23.199005],[120.791608,23.19837],[120.790622,23.196454],[120.789952,23.193688],[120.789683,23.190938],[120.789447,23.190179],[120.788864,23.189453],[120.787313,23.18918],[120.786237,23.189382],[120.783626,23.190322],[120.78222,23.190388],[120.781363,23.1901],[120.780201,23.189182],[120.779505,23.188293],[120.777524,23.183128],[120.777344,23.181879],[120.777674,23.180615],[120.777494,23.179163],[120.776986,23.177359],[120.776474,23.176671],[120.775292,23.175753],[120.774512,23.173592],[120.772744,23.172155],[120.772228,23.171522],[120.772099,23.17103],[120.772538,23.170033],[120.773594,23.169059],[120.773955,23.168511],[120.774136,23.167895],[120.77414,23.165348],[120.774475,23.165159],[120.775511,23.164971],[120.781617,23.165989],[120.78623,23.167097],[120.79071,23.167509],[120.793063,23.167104],[120.801916,23.164415],[120.80971,23.162984],[120.818265,23.162608],[120.824663,23.161065],[120.826169,23.16108],[120.829727,23.161702],[120.831771,23.16265],[120.833183,23.163101],[120.835495,23.163232],[120.83724,23.163133],[120.839312,23.162731],[120.841707,23.161354],[120.843217,23.161265],[120.844093,23.161582],[120.844984,23.162233],[120.846914,23.16451],[120.848566,23.165808],[120.849952,23.166351],[120.851154,23.16649]]]},"properties":{"code":"64000370005","name":"勤和里","countyCode":"64000","countyName":"高雄市","townCode":"64000370","townName":"桃源區","level":"village","unassigned":false,"note":"","label":[120.81073824557487,23.18039834289388],"bounds":[120.772099,23.161065,120.851412,23.205467],"focusBounds":[120.772099,23.161065,120.851412,23.205467],"color":"#dd8590"}},{"type":"Feature","id":"64000370006","geometry":{"type":"Polygon","coordinates":[[[120.895754,23.170572],[120.891511,23.170968],[120.8903,23.171281],[120.888273,23.172208],[120.887157,23.173065],[120.886321,23.17401],[120.885679,23.175094],[120.884957,23.178312],[120.884236,23.180515],[120.8837,23.187793],[120.883464,23.188434],[120.882487,23.188939],[120.881768,23.188948],[120.881125,23.188771],[120.879607,23.187796],[120.879295,23.187714],[120.879005,23.187982],[120.87888,23.188765],[120.879252,23.18953],[120.876995,23.192396],[120.877263,23.194154],[120.874408,23.194706],[120.874201,23.194955],[120.874201,23.195318],[120.874656,23.195777],[120.876433,23.196839],[120.87724,23.197616],[120.877135,23.198226],[120.8767,23.198818],[120.874734,23.200938],[120.874237,23.201167],[120.872769,23.201185],[120.872231,23.201471],[120.8719,23.201739],[120.871712,23.203076],[120.871443,23.203478],[120.870823,23.203401],[120.869728,23.202807],[120.868797,23.202501],[120.868011,23.202519],[120.866088,23.203129],[120.865447,23.202651],[120.864559,23.201656],[120.862843,23.201578],[120.862637,23.200756],[120.862932,23.200172],[120.862624,23.199408],[120.862407,23.19917],[120.860113,23.198419],[120.859895,23.198066],[120.85908,23.200515],[120.858362,23.203533],[120.857922,23.203968],[120.857614,23.204648],[120.857414,23.205499],[120.857368,23.207354],[120.856863,23.208485],[120.856623,23.208616],[120.8557,23.208497],[120.854544,23.20762],[120.853702,23.207662],[120.853099,23.20747],[120.852748,23.207513],[120.852177,23.208103],[120.851684,23.20822],[120.850128,23.207817],[120.849491,23.207907],[120.848924,23.208778],[120.848553,23.209021],[120.847874,23.208993],[120.846916,23.208609],[120.846182,23.208793],[120.845254,23.21035],[120.844612,23.21237],[120.843636,23.212777],[120.842463,23.213761],[120.841074,23.213888],[120.840594,23.214215],[120.839181,23.214645],[120.838584,23.215283],[120.837115,23.218049],[120.836146,23.218642],[120.83477,23.218868],[120.834489,23.219117],[120.833676,23.220707],[120.833845,23.221136],[120.834229,23.221462],[120.834179,23.22194],[120.833498,23.223188],[120.832598,23.2237],[120.832322,23.224038],[120.832382,23.224341],[120.832971,23.225052],[120.833025,23.225621],[120.832689,23.225964],[120.831748,23.226338],[120.830833,23.226906],[120.830117,23.22821],[120.826741,23.228559],[120.826104,23.228427],[120.825601,23.228131],[120.825059,23.22762],[120.824879,23.227159],[120.82526,23.226055],[120.824834,23.225545],[120.824466,23.2247],[120.823556,23.223805],[120.823284,23.222606],[120.822964,23.22233],[120.821818,23.221963],[120.821285,23.221384],[120.820093,23.220961],[120.819256,23.220976],[120.817855,23.222857],[120.817034,23.225251],[120.814065,23.229422],[120.811435,23.230719],[120.809201,23.232469],[120.80545,23.236772],[120.802696,23.239098],[120.798719,23.241071],[120.795966,23.24269],[120.793134,23.245371],[120.786482,23.247692],[120.783033,23.254042],[120.778747,23.257567],[120.776141,23.262153],[120.774909,23.26759],[120.773682,23.269706],[120.77177,23.270692],[120.770147,23.270915],[120.769145,23.270777],[120.768138,23.269491],[120.768308,23.268713],[120.768546,23.268375],[120.768654,23.267331],[120.766186,23.262502],[120.764888,23.261816],[120.765139,23.259889],[120.765322,23.258762],[120.764843,23.256962],[120.764708,23.255805],[120.762664,23.253523],[120.761938,23.252972],[120.761483,23.251391],[120.760027,23.249138],[120.759811,23.248217],[120.760376,23.247128],[120.760464,23.245695],[120.760303,23.24434],[120.75913,23.241428],[120.758578,23.240411],[120.758269,23.238552],[120.758087,23.238336],[120.755844,23.237266],[120.755171,23.236449],[120.754289,23.235938],[120.754838,23.234367],[120.755735,23.233279],[120.756091,23.232593],[120.756162,23.231766],[120.755596,23.230043],[120.75526,23.229533],[120.754697,23.22906],[120.753344,23.228645],[120.752728,23.228029],[120.754459,23.227358],[120.755989,23.225947],[120.759591,23.225449],[120.762102,23.224142],[120.76494,23.223442],[120.772366,23.219822],[120.774876,23.219221],[120.779354,23.216304],[120.784453,23.211856],[120.784936,23.211234],[120.785365,23.209756],[120.785278,23.208606],[120.787236,23.199272],[120.78741,23.197396],[120.787707,23.196091],[120.78807,23.195186],[120.788674,23.194463],[120.789204,23.193973],[120.789952,23.193688],[120.790622,23.196454],[120.791608,23.19837],[120.791751,23.199005],[120.791703,23.202908],[120.792134,23.20406],[120.79274,23.204776],[120.793706,23.205272],[120.794683,23.205467],[120.796235,23.205454],[120.797266,23.205119],[120.798355,23.204429],[120.800194,23.202463],[120.801219,23.20094],[120.802535,23.197971],[120.803315,23.197073],[120.804288,23.196713],[120.805791,23.19662],[120.80767,23.196729],[120.810582,23.197789],[120.815662,23.200023],[120.816796,23.200216],[120.818444,23.200114],[120.820421,23.19953],[120.827485,23.19633],[120.828488,23.195604],[120.829024,23.194857],[120.830188,23.191057],[120.830555,23.189343],[120.830511,23.188573],[120.831256,23.186177],[120.832114,23.185148],[120.836442,23.181656],[120.837753,23.180287],[120.838723,23.178974],[120.839474,23.178534],[120.84083,23.178238],[120.845294,23.177662],[120.845897,23.177769],[120.846466,23.178243],[120.847561,23.178809],[120.848455,23.178672],[120.849199,23.178088],[120.849876,23.176657],[120.850643,23.173129],[120.851412,23.168086],[120.851154,23.16649],[120.853776,23.165192],[120.857935,23.16227],[120.859064,23.161914],[120.865269,23.161446],[120.867811,23.161983],[120.868571,23.162056],[120.869115,23.161871],[120.869505,23.161481],[120.870773,23.159342],[120.872848,23.156492],[120.873514,23.154449],[120.874684,23.152152],[120.875857,23.151067],[120.876689,23.150865],[120.876411,23.151335],[120.876683,23.151552],[120.879387,23.152645],[120.882611,23.153267],[120.883694,23.153633],[120.885156,23.154836],[120.88626,23.155433],[120.886523,23.155811],[120.886971,23.157931],[120.887351,23.158241],[120.891239,23.158724],[120.895004,23.160718],[120.895122,23.160937],[120.894829,23.162574],[120.89498,23.163715],[120.895561,23.165576],[120.895488,23.16847],[120.895754,23.170572]]]},"properties":{"code":"64000370006","name":"復興里","countyCode":"64000","countyName":"高雄市","townCode":"64000370","townName":"桃源區","level":"village","unassigned":false,"note":"","label":[120.7940949460613,23.22485979692661],"bounds":[120.752728,23.150865,120.895754,23.270915],"focusBounds":[120.752728,23.150865,120.895754,23.270915],"color":"#a49ad4"}},{"type":"Feature","id":"64000370007","geometry":{"type":"Polygon","coordinates":[[[120.781613,23.294912],[120.780207,23.295255],[120.778856,23.295221],[120.777291,23.293245],[120.77676,23.29221],[120.776102,23.290537],[120.776432,23.287917],[120.776027,23.287697],[120.775041,23.287611],[120.774096,23.286121],[120.77507,23.284302],[120.776006,23.282032],[120.775991,23.281722],[120.775251,23.281079],[120.774069,23.279306],[120.773781,23.277457],[120.772785,23.2745],[120.77235,23.273787],[120.771167,23.272854],[120.77074,23.271453],[120.770147,23.270915],[120.77177,23.270692],[120.773682,23.269706],[120.774909,23.26759],[120.776141,23.262153],[120.778747,23.257567],[120.783033,23.254042],[120.786482,23.247692],[120.793134,23.245371],[120.795966,23.24269],[120.798719,23.241071],[120.802696,23.239098],[120.80545,23.236772],[120.809201,23.232469],[120.811435,23.230719],[120.814065,23.229422],[120.817034,23.225251],[120.817855,23.222857],[120.819256,23.220976],[120.820093,23.220961],[120.821285,23.221384],[120.821818,23.221963],[120.822964,23.22233],[120.823284,23.222606],[120.823556,23.223805],[120.824466,23.2247],[120.824834,23.225545],[120.82526,23.226055],[120.824879,23.227159],[120.825059,23.22762],[120.825601,23.228131],[120.826104,23.228427],[120.826741,23.228559],[120.830117,23.22821],[120.830833,23.226906],[120.831748,23.226338],[120.832689,23.225964],[120.833025,23.225621],[120.832971,23.225052],[120.832382,23.224341],[120.832322,23.224038],[120.832598,23.2237],[120.833498,23.223188],[120.834179,23.22194],[120.834229,23.221462],[120.833845,23.221136],[120.833676,23.220707],[120.834489,23.219117],[120.83477,23.218868],[120.836146,23.218642],[120.837115,23.218049],[120.838584,23.215283],[120.839181,23.214645],[120.840594,23.214215],[120.841074,23.213888],[120.842463,23.213761],[120.843636,23.212777],[120.844612,23.21237],[120.845254,23.21035],[120.846182,23.208793],[120.846916,23.208609],[120.847874,23.208993],[120.848553,23.209021],[120.848924,23.208778],[120.849491,23.207907],[120.850128,23.207817],[120.851684,23.20822],[120.852177,23.208103],[120.852748,23.207513],[120.853099,23.20747],[120.853702,23.207662],[120.854544,23.20762],[120.8557,23.208497],[120.856623,23.208616],[120.856863,23.208485],[120.857368,23.207354],[120.857414,23.205499],[120.857614,23.204648],[120.857922,23.203968],[120.858362,23.203533],[120.85908,23.200515],[120.859895,23.198066],[120.860113,23.198419],[120.862407,23.19917],[120.862624,23.199408],[120.862932,23.200172],[120.862637,23.200756],[120.862843,23.201578],[120.864559,23.201656],[120.865447,23.202651],[120.866088,23.203129],[120.868011,23.202519],[120.868797,23.202501],[120.869728,23.202807],[120.870823,23.203401],[120.871443,23.203478],[120.871712,23.203076],[120.8719,23.201739],[120.872231,23.201471],[120.872769,23.201185],[120.874237,23.201167],[120.874734,23.200938],[120.8767,23.198818],[120.877135,23.198226],[120.87724,23.197616],[120.876433,23.196839],[120.874656,23.195777],[120.874201,23.195318],[120.874201,23.194955],[120.874408,23.194706],[120.877263,23.194154],[120.876995,23.192396],[120.879252,23.18953],[120.87888,23.188765],[120.879005,23.187982],[120.879295,23.187714],[120.879607,23.187796],[120.881125,23.188771],[120.881768,23.188948],[120.882487,23.188939],[120.883464,23.188434],[120.8837,23.187793],[120.884236,23.180515],[120.884957,23.178312],[120.885679,23.175094],[120.886321,23.17401],[120.887157,23.173065],[120.888273,23.172208],[120.8903,23.171281],[120.891511,23.170968],[120.895754,23.170572],[120.895856,23.171433],[120.896394,23.1723],[120.897814,23.172765],[120.89831,23.173123],[120.898604,23.173998],[120.898404,23.17506],[120.898441,23.176255],[120.898724,23.176663],[120.900189,23.177119],[120.90167,23.178582],[120.902178,23.178907],[120.903895,23.17952],[120.905906,23.180576],[120.906844,23.180487],[120.907996,23.180032],[120.909051,23.179799],[120.909884,23.180214],[120.91126,23.182808],[120.911533,23.185363],[120.912264,23.18608],[120.912448,23.186523],[120.910893,23.192167],[120.909697,23.193527],[120.908149,23.19465],[120.90644,23.196712],[120.905748,23.199553],[120.905895,23.19981],[120.906608,23.200191],[120.906987,23.200634],[120.907153,23.201132],[120.907068,23.201676],[120.906622,23.202561],[120.906503,23.203333],[120.906574,23.205357],[120.906732,23.205651],[120.907118,23.205999],[120.907634,23.20706],[120.90882,23.207722],[120.909789,23.207872],[120.910458,23.208134],[120.91139,23.208889],[120.911632,23.209552],[120.912035,23.217019],[120.911746,23.221925],[120.912126,23.224736],[120.911946,23.226055],[120.91155,23.227196],[120.911705,23.228273],[120.902835,23.227758],[120.90136,23.227964],[120.900193,23.227889],[120.899179,23.227505],[120.898283,23.227529],[120.897189,23.227318],[120.895352,23.227694],[120.893045,23.226153],[120.891776,23.225125],[120.891699,23.22437],[120.891295,23.223944],[120.89073,23.224196],[120.889947,23.224317],[120.889443,23.224674],[120.888432,23.224662],[120.887554,23.224401],[120.88683,23.224401],[120.886196,23.22471],[120.885518,23.224743],[120.884792,23.224589],[120.884116,23.224257],[120.883719,23.224315],[120.882351,23.224966],[120.881581,23.224941],[120.880521,23.224534],[120.87972,23.224664],[120.879617,23.226102],[120.880177,23.22687],[120.880297,23.227584],[120.87988,23.228495],[120.879801,23.230069],[120.879668,23.230279],[120.878504,23.230863],[120.878033,23.231971],[120.877227,23.232196],[120.877159,23.232672],[120.87742,23.233869],[120.876654,23.234444],[120.875238,23.235104],[120.874857,23.235565],[120.874658,23.236316],[120.875003,23.23668],[120.876504,23.236426],[120.877275,23.236788],[120.877881,23.237235],[120.878091,23.238204],[120.878707,23.238988],[120.87862,23.239223],[120.877897,23.239489],[120.876857,23.239323],[120.876439,23.240178],[120.876527,23.240542],[120.877263,23.241116],[120.877064,23.241831],[120.877142,23.24203],[120.878475,23.242677],[120.878948,23.24426],[120.878922,23.244616],[120.878551,23.245158],[120.878222,23.247451],[120.877986,23.248061],[120.877639,23.248349],[120.877667,23.249912],[120.87706,23.250656],[120.876411,23.251044],[120.875629,23.251066],[120.874951,23.250914],[120.874299,23.250336],[120.87411,23.249968],[120.874135,23.248787],[120.87402,23.248579],[120.873088,23.248587],[120.872572,23.248813],[120.872243,23.249316],[120.87164,23.249056],[120.871311,23.247595],[120.871593,23.246593],[120.871323,23.246321],[120.870707,23.246217],[120.869512,23.246702],[120.868887,23.246566],[120.867738,23.246691],[120.86715,23.246607],[120.866443,23.246789],[120.866127,23.246782],[120.865548,23.24638],[120.865258,23.246479],[120.864869,23.246889],[120.864607,23.246921],[120.864244,23.246672],[120.864073,23.246128],[120.86363,23.245717],[120.86281,23.24579],[120.86188,23.246325],[120.861191,23.247069],[120.861172,23.247545],[120.861589,23.248284],[120.862213,23.24882],[120.862595,23.249524],[120.862521,23.249827],[120.862236,23.249899],[120.861683,23.250544],[120.8617,23.251354],[120.861319,23.25204],[120.860815,23.252309],[120.859653,23.252276],[120.859229,23.252172],[120.85846,23.251593],[120.858143,23.251586],[120.854141,23.252512],[120.853107,23.253286],[120.851753,23.253781],[120.851043,23.255085],[120.850347,23.255963],[120.849735,23.25643],[120.849647,23.257116],[120.84999,23.257985],[120.850424,23.258546],[120.850423,23.258939],[120.849009,23.260737],[120.847805,23.261277],[120.846583,23.262305],[120.844207,23.263834],[120.843837,23.263824],[120.843421,23.263537],[120.842479,23.263478],[120.841819,23.263737],[120.841319,23.264251],[120.841335,23.265057],[120.840622,23.266113],[120.841023,23.267903],[120.840057,23.268756],[120.839249,23.270802],[120.838941,23.271195],[120.838343,23.271355],[120.837429,23.271153],[120.834886,23.270999],[120.832042,23.272301],[120.830775,23.272649],[120.829593,23.272115],[120.828813,23.271505],[120.828147,23.270689],[120.827468,23.270605],[120.82643,23.270748],[120.825928,23.270967],[120.825179,23.271927],[120.824792,23.271782],[120.824284,23.27215],[120.823469,23.272341],[120.822766,23.272207],[120.819401,23.272684],[120.808348,23.275515],[120.805746,23.277126],[120.80392,23.278951],[120.802228,23.281996],[120.799411,23.285038],[120.793508,23.288435],[120.789007,23.289147],[120.7866,23.289753],[120.782597,23.294191],[120.781613,23.294912]]]},"properties":{"code":"64000370007","name":"拉芙蘭里","countyCode":"64000","countyName":"高雄市","townCode":"64000370","townName":"桃源區","level":"village","unassigned":false,"note":"","label":[120.85074568990854,23.231660570710275],"bounds":[120.770147,23.170572,120.912448,23.295255],"focusBounds":[120.770147,23.170572,120.912448,23.295255],"color":"#a8bf62"}},{"type":"Feature","id":"64000370008","geometry":{"type":"Polygon","coordinates":[[[121.015268,23.43541],[121.014141,23.437925],[121.013513,23.438533],[121.012198,23.439411],[121.010581,23.441244],[121.010569,23.442537],[121.010372,23.443369],[121.010421,23.44507],[121.010474,23.446067],[121.010746,23.446652],[121.011819,23.447549],[121.012867,23.448757],[121.014354,23.449213],[121.015024,23.449777],[121.015754,23.450898],[121.015855,23.451609],[121.01536,23.452608],[121.015256,23.453597],[121.014949,23.454278],[121.014167,23.455074],[121.013195,23.455667],[121.012592,23.456451],[121.011718,23.457171],[121.010428,23.459599],[121.009028,23.461147],[121.008461,23.462086],[121.007447,23.462785],[121.005896,23.462971],[121.003815,23.462956],[121.00281,23.46265],[121.001469,23.462598],[120.999693,23.462167],[120.998789,23.46238],[120.996622,23.463363],[120.993963,23.463772],[120.992013,23.464599],[120.989812,23.464989],[120.988586,23.465381],[120.986391,23.466309],[120.984602,23.46657],[120.98355,23.467024],[120.982197,23.468487],[120.980537,23.469214],[120.978324,23.469368],[120.976501,23.469004],[120.971831,23.469169],[120.970631,23.469042],[120.969263,23.470581],[120.968467,23.471227],[120.967109,23.471713],[120.966706,23.4717],[120.965217,23.470701],[120.963377,23.470824],[120.961387,23.470767],[120.96026,23.47038],[120.958875,23.469653],[120.957849,23.469414],[120.957515,23.469503],[120.957106,23.468398],[120.955999,23.467336],[120.952308,23.465936],[120.950714,23.464937],[120.949159,23.46457],[120.948435,23.464167],[120.947714,23.464143],[120.946987,23.463846],[120.944426,23.463439],[120.942186,23.46339],[120.941675,23.463063],[120.941157,23.463009],[120.940281,23.463122],[120.938908,23.463915],[120.93824,23.463778],[120.936639,23.463781],[120.936294,23.463604],[120.935548,23.462539],[120.934498,23.461451],[120.934494,23.459892],[120.935106,23.458905],[120.93475,23.45844],[120.934005,23.458072],[120.932571,23.457869],[120.932102,23.457385],[120.931548,23.457143],[120.931179,23.457058],[120.930209,23.457229],[120.928385,23.456909],[120.928304,23.456783],[120.928659,23.455877],[120.928483,23.455493],[120.927972,23.455609],[120.9276,23.455914],[120.927085,23.455874],[120.92684,23.455998],[120.926404,23.457343],[120.926189,23.457484],[120.924425,23.457971],[120.923873,23.458346],[120.922923,23.458104],[120.922483,23.458143],[120.921438,23.4591],[120.920993,23.459126],[120.920137,23.458827],[120.919711,23.458954],[120.918275,23.458836],[120.916165,23.458888],[120.915898,23.45882],[120.915385,23.458093],[120.915173,23.458006],[120.912936,23.458517],[120.9127,23.45848],[120.91208,23.457823],[120.911658,23.457626],[120.911096,23.457574],[120.910236,23.457799],[120.909402,23.457544],[120.908331,23.456706],[120.907465,23.455041],[120.906442,23.454591],[120.90567,23.453176],[120.905155,23.453177],[120.904484,23.452948],[120.90346,23.453363],[120.902369,23.454142],[120.901031,23.454212],[120.900523,23.454089],[120.900351,23.453743],[120.900588,23.452424],[120.900411,23.452094],[120.898829,23.45114],[120.898445,23.450998],[120.896783,23.4509],[120.896245,23.450417],[120.896418,23.449594],[120.895839,23.448272],[120.895635,23.446695],[120.895146,23.445922],[120.8938,23.445193],[120.892871,23.445214],[120.892479,23.445602],[120.892225,23.446547],[120.892012,23.446667],[120.891767,23.446609],[120.891706,23.445354],[120.891394,23.444231],[120.890699,23.443704],[120.890597,23.443439],[120.890697,23.442413],[120.889762,23.441019],[120.889397,23.439987],[120.888792,23.43913],[120.88841,23.437399],[120.887327,23.436483],[120.887094,23.435203],[120.886765,23.434854],[120.885561,23.434813],[120.883824,23.436256],[120.882822,23.435414],[120.882547,23.434121],[120.881617,23.433014],[120.879826,23.432611],[120.878918,23.43215],[120.877189,23.432419],[120.875941,23.432794],[120.875362,23.432768],[120.875556,23.431564],[120.875415,23.431345],[120.873404,23.429651],[120.872303,23.429752],[120.871738,23.429598],[120.871327,23.428878],[120.870528,23.428357],[120.869888,23.426702],[120.869316,23.426258],[120.868126,23.426645],[120.867668,23.426347],[120.86625,23.426078],[120.866245,23.425695],[120.865991,23.425368],[120.86501,23.42499],[120.864768,23.424123],[120.864326,23.423889],[120.862304,23.424578],[120.86187,23.424199],[120.86084,23.424104],[120.860042,23.423785],[120.859769,23.423934],[120.859333,23.424967],[120.859102,23.425119],[120.85879,23.425037],[120.858103,23.424338],[120.857864,23.422985],[120.857077,23.421968],[120.856391,23.422],[120.854605,23.423058],[120.853968,23.423187],[120.853659,23.423024],[120.853093,23.42194],[120.850198,23.420616],[120.84952,23.42016],[120.849172,23.419485],[120.84923,23.418979],[120.849525,23.417747],[120.849276,23.416487],[120.849405,23.415173],[120.849302,23.414175],[120.849508,23.412863],[120.849308,23.41201],[120.849115,23.411769],[120.848202,23.411475],[120.847924,23.411213],[120.847721,23.410158],[120.847504,23.409958],[120.846199,23.409359],[120.844755,23.408229],[120.84461,23.407436],[120.84469,23.406885],[120.844195,23.405737],[120.84414,23.404524],[120.843939,23.403924],[120.843366,23.403606],[120.843096,23.403283],[120.842357,23.401743],[120.841301,23.401297],[120.841043,23.401011],[120.840534,23.39977],[120.838413,23.398247],[120.838445,23.396991],[120.838759,23.396505],[120.839706,23.396093],[120.840503,23.396039],[120.840955,23.396178],[120.841173,23.396077],[120.841007,23.394923],[120.840534,23.394543],[120.83888,23.39448],[120.837736,23.393973],[120.836873,23.393387],[120.836521,23.39292],[120.835582,23.389861],[120.834538,23.390019],[120.834118,23.389653],[120.834104,23.388723],[120.8343,23.388274],[120.834906,23.387718],[120.834963,23.387354],[120.834628,23.386681],[120.83436,23.386595],[120.832915,23.387206],[120.83124,23.386775],[120.830732,23.386175],[120.830166,23.38445],[120.829698,23.384084],[120.829378,23.383431],[120.829767,23.381577],[120.829389,23.379965],[120.829398,23.377431],[120.829112,23.375797],[120.828528,23.374954],[120.825741,23.373492],[120.825302,23.372857],[120.825422,23.371707],[120.825247,23.371622],[120.823956,23.371909],[120.823094,23.371941],[120.821195,23.370523],[120.819577,23.371143],[120.818378,23.371057],[120.816276,23.371479],[120.815857,23.371365],[120.814836,23.370192],[120.814069,23.369959],[120.813396,23.369423],[120.812999,23.369306],[120.8119,23.369694],[120.811438,23.369689],[120.810714,23.369441],[120.809835,23.369548],[120.809369,23.369288],[120.808519,23.368391],[120.808115,23.368464],[120.807242,23.369107],[120.806411,23.370467],[120.805788,23.370909],[120.804941,23.370957],[120.804584,23.370815],[120.805905,23.369235],[120.80738,23.366752],[120.810226,23.362938],[120.810881,23.36226],[120.812517,23.361438],[120.813751,23.360276],[120.813851,23.359668],[120.813637,23.3583],[120.813014,23.357087],[120.812764,23.356053],[120.812859,23.355331],[120.81321,23.354723],[120.813987,23.353986],[120.815255,23.353277],[120.816693,23.352142],[120.818978,23.350744],[120.819756,23.349862],[120.82141,23.347317],[120.822133,23.346581],[120.823135,23.346013],[120.823234,23.345638],[120.82306,23.34432],[120.823513,23.341218],[120.823149,23.340888],[120.821909,23.340744],[120.821258,23.340524],[120.818863,23.339216],[120.817989,23.338109],[120.816561,23.337261],[120.81479,23.335792],[120.811864,23.334089],[120.811844,23.333617],[120.812139,23.33288],[120.812034,23.332583],[120.809186,23.330298],[120.808781,23.329748],[120.808749,23.327131],[120.808449,23.3266],[120.807283,23.325359],[120.80711,23.324821],[120.807146,23.323757],[120.80651,23.321602],[120.806226,23.321397],[120.804892,23.321222],[120.801677,23.31993],[120.799947,23.319934],[120.799434,23.319645],[120.798574,23.318785],[120.797929,23.317649],[120.797652,23.316796],[120.797733,23.31413],[120.797554,23.313213],[120.795182,23.310409],[120.793497,23.308042],[120.792653,23.305964],[120.79196,23.304778],[120.791211,23.303995],[120.789581,23.302871],[120.78881,23.302671],[120.787768,23.302695],[120.787171,23.302406],[120.786047,23.30152],[120.785534,23.300917],[120.785403,23.300513],[120.785398,23.298923],[120.785244,23.298219],[120.784284,23.297184],[120.782983,23.296214],[120.782656,23.294961],[120.782333,23.294803],[120.781613,23.294912],[120.782597,23.294191],[120.7866,23.289753],[120.789007,23.289147],[120.793508,23.288435],[120.799411,23.285038],[120.802228,23.281996],[120.80392,23.278951],[120.805746,23.277126],[120.808348,23.275515],[120.819401,23.272684],[120.822766,23.272207],[120.823469,23.272341],[120.824284,23.27215],[120.824792,23.271782],[120.825179,23.271927],[120.825928,23.270967],[120.82643,23.270748],[120.827468,23.270605],[120.828147,23.270689],[120.828813,23.271505],[120.829593,23.272115],[120.830775,23.272649],[120.832042,23.272301],[120.834886,23.270999],[120.837429,23.271153],[120.838343,23.271355],[120.838941,23.271195],[120.839249,23.270802],[120.840057,23.268756],[120.841023,23.267903],[120.840622,23.266113],[120.841335,23.265057],[120.841319,23.264251],[120.841819,23.263737],[120.842479,23.263478],[120.843421,23.263537],[120.843837,23.263824],[120.844207,23.263834],[120.846583,23.262305],[120.847805,23.261277],[120.849009,23.260737],[120.850423,23.258939],[120.850424,23.258546],[120.84999,23.257985],[120.849647,23.257116],[120.849735,23.25643],[120.850347,23.255963],[120.851043,23.255085],[120.851753,23.253781],[120.853107,23.253286],[120.854141,23.252512],[120.858143,23.251586],[120.85846,23.251593],[120.859229,23.252172],[120.859653,23.252276],[120.860815,23.252309],[120.861319,23.25204],[120.8617,23.251354],[120.861683,23.250544],[120.862236,23.249899],[120.862521,23.249827],[120.862595,23.249524],[120.862213,23.24882],[120.861589,23.248284],[120.861172,23.247545],[120.861191,23.247069],[120.86188,23.246325],[120.86281,23.24579],[120.86363,23.245717],[120.864073,23.246128],[120.864244,23.246672],[120.864607,23.246921],[120.864869,23.246889],[120.865258,23.246479],[120.865548,23.24638],[120.866127,23.246782],[120.866443,23.246789],[120.86715,23.246607],[120.867738,23.246691],[120.868887,23.246566],[120.869512,23.246702],[120.870707,23.246217],[120.871323,23.246321],[120.871593,23.246593],[120.871311,23.247595],[120.87164,23.249056],[120.872243,23.249316],[120.872572,23.248813],[120.873088,23.248587],[120.87402,23.248579],[120.874135,23.248787],[120.87411,23.249968],[120.874299,23.250336],[120.874951,23.250914],[120.875629,23.251066],[120.876411,23.251044],[120.87706,23.250656],[120.877667,23.249912],[120.877639,23.248349],[120.877986,23.248061],[120.878222,23.247451],[120.878551,23.245158],[120.878922,23.244616],[120.878948,23.24426],[120.878475,23.242677],[120.877142,23.24203],[120.877064,23.241831],[120.877263,23.241116],[120.876527,23.240542],[120.876439,23.240178],[120.876857,23.239323],[120.877897,23.239489],[120.87862,23.239223],[120.878707,23.238988],[120.878091,23.238204],[120.877881,23.237235],[120.877275,23.236788],[120.876504,23.236426],[120.875003,23.23668],[120.874658,23.236316],[120.874857,23.235565],[120.875238,23.235104],[120.876654,23.234444],[120.87742,23.233869],[120.877159,23.232672],[120.877227,23.232196],[120.878033,23.231971],[120.878504,23.230863],[120.879668,23.230279],[120.879801,23.230069],[120.87988,23.228495],[120.880297,23.227584],[120.880177,23.22687],[120.879617,23.226102],[120.87972,23.224664],[120.880521,23.224534],[120.881581,23.224941],[120.882351,23.224966],[120.883719,23.224315],[120.884116,23.224257],[120.884792,23.224589],[120.885518,23.224743],[120.886196,23.22471],[120.88683,23.224401],[120.887554,23.224401],[120.888432,23.224662],[120.889443,23.224674],[120.889947,23.224317],[120.89073,23.224196],[120.891295,23.223944],[120.891699,23.22437],[120.891776,23.225125],[120.893045,23.226153],[120.895352,23.227694],[120.897189,23.227318],[120.898283,23.227529],[120.899179,23.227505],[120.900193,23.227889],[120.90136,23.227964],[120.902835,23.227758],[120.911705,23.228273],[120.914302,23.232542],[120.915461,23.23751],[120.915965,23.238102],[120.916849,23.238148],[120.917182,23.238321],[120.917788,23.239594],[120.919412,23.24098],[120.92099,23.240984],[120.921322,23.24107],[120.921439,23.241551],[120.921709,23.241669],[120.923696,23.241807],[120.924041,23.241982],[120.924665,23.243055],[120.926084,23.244372],[120.926528,23.244555],[120.927207,23.244638],[120.92758,23.24445],[120.929565,23.24281],[120.930605,23.242462],[120.931746,23.242578],[120.93402,23.243783],[120.935278,23.243914],[120.936338,23.244509],[120.937527,23.244726],[120.937897,23.244949],[120.9385,23.247889],[120.939647,23.249188],[120.941251,23.251947],[120.941628,23.252144],[120.942739,23.252149],[120.945902,23.252759],[120.946693,23.253114],[120.947705,23.25488],[120.948172,23.25542],[120.94901,23.25588],[120.949738,23.257722],[120.951104,23.259509],[120.952505,23.260544],[120.953552,23.260814],[120.954835,23.262153],[120.955539,23.262571],[120.95738,23.264159],[120.958165,23.265372],[120.959122,23.269806],[120.959679,23.27084],[120.960753,23.271238],[120.961869,23.271399],[120.962829,23.271732],[120.963364,23.2721],[120.963842,23.272802],[120.964716,23.274725],[120.966114,23.276583],[120.967688,23.277607],[120.968671,23.277857],[120.97028,23.280606],[120.9708,23.281153],[120.971738,23.281709],[120.97263,23.282187],[120.973662,23.281801],[120.974071,23.281784],[120.977202,23.28193],[120.978993,23.282267],[120.98087,23.281555],[120.984146,23.281056],[120.986085,23.280323],[120.986591,23.280321],[120.987764,23.280828],[120.99064,23.284128],[120.994024,23.284441],[120.995513,23.285254],[120.999255,23.286915],[121.000796,23.287133],[121.001385,23.287376],[121.005643,23.290604],[121.006914,23.291211],[121.008534,23.29132],[121.009845,23.292498],[121.01078,23.292769],[121.017407,23.29287],[121.018996,23.293448],[121.019765,23.294461],[121.020005,23.29457],[121.020679,23.294326],[121.021615,23.294303],[121.02311,23.293786],[121.023746,23.293706],[121.024242,23.293966],[121.024653,23.294434],[121.02559,23.29602],[121.026729,23.296708],[121.028324,23.297122],[121.0299,23.298366],[121.031365,23.300433],[121.031914,23.301752],[121.032028,23.302577],[121.031878,23.303467],[121.032075,23.303789],[121.034275,23.304209],[121.035448,23.303878],[121.036429,23.303802],[121.04047,23.306055],[121.041971,23.307185],[121.044204,23.307476],[121.045756,23.308176],[121.046159,23.308516],[121.046444,23.309113],[121.046434,23.310334],[121.046682,23.31146],[121.04694,23.312055],[121.047862,23.313239],[121.04812,23.314413],[121.047839,23.316872],[121.04716,23.320008],[121.048779,23.322906],[121.049016,23.324683],[121.048781,23.325307],[121.048437,23.325673],[121.046721,23.326613],[121.045341,23.327623],[121.043644,23.328083],[121.041675,23.328035],[121.03942,23.329135],[121.038956,23.329701],[121.037902,23.332097],[121.037041,23.333024],[121.03645,23.333506],[121.035713,23.333751],[121.032785,23.333937],[121.032521,23.334069],[121.032095,23.334654],[121.031487,23.336403],[121.030914,23.337028],[121.029989,23.337264],[121.028224,23.337188],[121.026778,23.337814],[121.024746,23.339863],[121.02432,23.340729],[121.022393,23.346086],[121.022364,23.348127],[121.020669,23.349507],[121.020046,23.350383],[121.018422,23.350267],[121.018105,23.350126],[121.017727,23.348304],[121.017225,23.347779],[121.015194,23.346341],[121.012282,23.345904],[121.010404,23.345814],[121.009965,23.346001],[121.008835,23.347103],[121.007647,23.348952],[121.007474,23.349703],[121.008074,23.350644],[121.007574,23.352025],[121.003861,23.354179],[121.002484,23.355253],[121.000057,23.356521],[120.99883,23.356753],[120.994663,23.356371],[120.992232,23.35717],[120.991197,23.357183],[120.988986,23.358261],[120.987095,23.358731],[120.986926,23.359709],[120.986919,23.361336],[120.986565,23.363425],[120.986775,23.365765],[120.987958,23.370573],[120.990084,23.370914],[120.990728,23.371161],[120.991549,23.371744],[120.992323,23.372956],[120.992423,23.373659],[120.993376,23.374917],[120.993887,23.375939],[120.995396,23.377544],[120.996767,23.378746],[120.997608,23.379966],[120.999333,23.381138],[120.999867,23.382208],[121.000095,23.382372],[121.002933,23.383076],[121.00531,23.383391],[121.006948,23.384007],[121.007728,23.384692],[121.007911,23.385487],[121.007803,23.386333],[121.007386,23.387032],[121.006485,23.387708],[121.004792,23.388248],[121.004073,23.38864],[121.001133,23.391745],[121.001155,23.392007],[121.002099,23.392985],[121.002159,23.393341],[121.003211,23.394788],[121.005001,23.396017],[121.006434,23.396556],[121.008034,23.396601],[121.008789,23.395546],[121.009349,23.395282],[121.010463,23.395098],[121.011738,23.39591],[121.012999,23.396102],[121.014643,23.396583],[121.015648,23.397272],[121.016708,23.398832],[121.017699,23.399921],[121.018241,23.40024],[121.019242,23.401517],[121.020043,23.40134],[121.021153,23.400797],[121.021513,23.40004],[121.021746,23.399968],[121.022641,23.400273],[121.023548,23.400861],[121.025833,23.402859],[121.027056,23.402999],[121.028393,23.403871],[121.027967,23.404736],[121.027109,23.405341],[121.026652,23.406042],[121.027208,23.40775],[121.027411,23.409412],[121.027362,23.410153],[121.027033,23.410879],[121.026865,23.411843],[121.02708,23.41278],[121.026871,23.413098],[121.025191,23.41416],[121.024911,23.414603],[121.026612,23.415242],[121.027145,23.41558],[121.027741,23.416253],[121.028393,23.418534],[121.029383,23.420236],[121.029446,23.422383],[121.029031,23.422947],[121.027409,23.423183],[121.026014,23.424144],[121.02253,23.424902],[121.022317,23.425532],[121.022346,23.427355],[121.021873,23.427877],[121.021786,23.428259],[121.021072,23.429361],[121.020695,23.429647],[121.019842,23.429656],[121.018829,23.430371],[121.017312,23.430467],[121.01659,23.430966],[121.014086,23.430977],[121.012889,23.433083],[121.013072,23.433365],[121.014045,23.433927],[121.014195,23.434123],[121.014173,23.434528],[121.014464,23.434993],[121.015268,23.43541]]]},"properties":{"code":"64000370008","name":"梅山里","countyCode":"64000","countyName":"高雄市","townCode":"64000370","townName":"桃源區","level":"village","unassigned":false,"note":"","label":[120.9064403464301,23.341278891261553],"bounds":[120.781613,23.223944,121.049016,23.471713],"focusBounds":[120.781613,23.223944,121.049016,23.471713],"color":"#68bec9"}}]}
