{"type":"FeatureCollection","features":[{"type":"Feature","id":"64000320001","geometry":{"type":"Polygon","coordinates":[[[120.642495,22.89975],[120.638362,22.899194],[120.635281,22.899397],[120.630508,22.900255],[120.627474,22.900214],[120.629269,22.902227],[120.62959,22.902815],[120.630523,22.903623],[120.630409,22.903813],[120.631223,22.904219],[120.631964,22.905108],[120.636258,22.912442],[120.635419,22.914158],[120.63446,22.915316],[120.628568,22.919097],[120.625264,22.919877],[120.62356,22.920424],[120.620667,22.921851],[120.618187,22.923349],[120.61614,22.924208],[120.616152,22.923436],[120.615867,22.922967],[120.61459,22.921967],[120.613277,22.920301],[120.612433,22.919913],[120.610998,22.920004],[120.609285,22.920781],[120.608899,22.92115],[120.608066,22.922582],[120.606721,22.922132],[120.606203,22.921813],[120.604068,22.921851],[120.603072,22.921686],[120.601907,22.920834],[120.602435,22.919975],[120.603352,22.919424],[120.603612,22.919058],[120.603862,22.91768],[120.603566,22.916888],[120.603617,22.916434],[120.603369,22.916157],[120.604259,22.91395],[120.605967,22.903153],[120.607416,22.901436],[120.608423,22.90089],[120.609714,22.900462],[120.61049,22.899676],[120.61075,22.898936],[120.611709,22.897288],[120.612486,22.896121],[120.61334,22.89519],[120.615382,22.893523],[120.617849,22.89212],[120.621218,22.890622],[120.622896,22.890077],[120.63079,22.889188],[120.631771,22.888879],[120.632933,22.888189],[120.63422,22.886916],[120.635257,22.8887],[120.635649,22.889965],[120.636506,22.89173],[120.638065,22.892915],[120.640429,22.895284],[120.641652,22.897145],[120.642344,22.898699],[120.642495,22.89975]]]},"properties":{"code":"64000320001","name":"新威里","countyCode":"64000","countyName":"高雄市","townCode":"64000320","townName":"六龜區","level":"village","unassigned":false,"note":"","label":[120.61907789107059,22.909036842742598],"bounds":[120.601907,22.886916,120.642495,22.924208],"focusBounds":[120.601907,22.886916,120.642495,22.924208],"color":"#efb44f"}},{"type":"Feature","id":"64000320002","geometry":{"type":"Polygon","coordinates":[[[120.647914,22.94051],[120.644209,22.940161],[120.640501,22.940338],[120.634379,22.941529],[120.629261,22.942917],[120.625783,22.94344],[120.625525,22.942941],[120.624396,22.942564],[120.623661,22.941787],[120.622662,22.941469],[120.621762,22.940583],[120.621608,22.940147],[120.621221,22.939714],[120.621673,22.938039],[120.621968,22.937667],[120.621557,22.936553],[120.620559,22.935673],[120.620017,22.934912],[120.618814,22.934454],[120.618266,22.933448],[120.618127,22.932633],[120.617373,22.931969],[120.616784,22.931204],[120.616747,22.930901],[120.617143,22.930035],[120.617294,22.929169],[120.61675,22.927323],[120.616783,22.92653],[120.61614,22.924208],[120.618187,22.923349],[120.620667,22.921851],[120.62356,22.920424],[120.625264,22.919877],[120.628568,22.919097],[120.63446,22.915316],[120.635419,22.914158],[120.636258,22.912442],[120.631964,22.905108],[120.631223,22.904219],[120.630409,22.903813],[120.630523,22.903623],[120.62959,22.902815],[120.629269,22.902227],[120.627474,22.900214],[120.630508,22.900255],[120.635281,22.899397],[120.638362,22.899194],[120.642495,22.89975],[120.642439,22.901662],[120.641997,22.903311],[120.642046,22.904074],[120.642637,22.905128],[120.64328,22.90556],[120.644077,22.906732],[120.644744,22.908167],[120.646065,22.910285],[120.646261,22.911168],[120.646187,22.911934],[120.646665,22.913309],[120.646865,22.915651],[120.647146,22.916632],[120.648617,22.920735],[120.649557,22.92182],[120.650456,22.923568],[120.65133,22.924669],[120.651612,22.925433],[120.651692,22.926867],[120.651446,22.930541],[120.650586,22.933197],[120.649939,22.937966],[120.64944,22.939069],[120.648349,22.94024],[120.647914,22.94051]]]},"properties":{"code":"64000320002","name":"新興里","countyCode":"64000","countyName":"高雄市","townCode":"64000320","townName":"六龜區","level":"village","unassigned":false,"note":"","label":[120.63738230725873,22.928227736519162],"bounds":[120.61614,22.899194,120.651692,22.94344],"focusBounds":[120.61614,22.899194,120.651692,22.94344],"color":"#dd8590"}},{"type":"Feature","id":"64000320003","geometry":{"type":"Polygon","coordinates":[[[120.63422,22.886916],[120.632933,22.888189],[120.631771,22.888879],[120.63079,22.889188],[120.622896,22.890077],[120.621218,22.890622],[120.617849,22.89212],[120.615382,22.893523],[120.61334,22.89519],[120.612486,22.896121],[120.611709,22.897288],[120.61075,22.898936],[120.61049,22.899676],[120.609714,22.900462],[120.608423,22.90089],[120.607416,22.901436],[120.605967,22.903153],[120.604259,22.91395],[120.603369,22.916157],[120.602097,22.914244],[120.602066,22.914035],[120.602313,22.913777],[120.60191,22.913014],[120.602066,22.912204],[120.601147,22.909964],[120.600271,22.909279],[120.598884,22.909048],[120.597908,22.908671],[120.597101,22.907707],[120.596925,22.90735],[120.596982,22.907085],[120.598048,22.906517],[120.598467,22.906063],[120.599146,22.905829],[120.599555,22.905326],[120.600352,22.905175],[120.600368,22.904974],[120.599725,22.903472],[120.59925,22.903027],[120.599099,22.902609],[120.597373,22.901343],[120.59676,22.900256],[120.596805,22.899311],[120.595921,22.896781],[120.597058,22.895747],[120.596909,22.894898],[120.596983,22.893678],[120.596804,22.893178],[120.596041,22.892598],[120.595888,22.892238],[120.595919,22.891858],[120.596618,22.890935],[120.596776,22.889875],[120.597445,22.889089],[120.59718,22.888342],[120.596115,22.887471],[120.596293,22.886629],[120.59697,22.886053],[120.597106,22.885691],[120.596823,22.884695],[120.595572,22.883762],[120.595021,22.881953],[120.59301,22.880745],[120.593003,22.880508],[120.593728,22.879495],[120.59391,22.878892],[120.593655,22.878388],[120.593521,22.877513],[120.592736,22.876807],[120.592618,22.876509],[120.592683,22.876119],[120.593443,22.875255],[120.592299,22.874184],[120.592465,22.873837],[120.592635,22.873444],[120.592385,22.872605],[120.59307,22.872065],[120.593255,22.871368],[120.593651,22.870754],[120.593501,22.870437],[120.593813,22.869927],[120.594216,22.869611],[120.594309,22.867937],[120.595089,22.867619],[120.594967,22.867159],[120.595215,22.866722],[120.595589,22.865244],[120.595184,22.863604],[120.598094,22.866875],[120.601706,22.870125],[120.60582,22.87321],[120.614109,22.876462],[120.615625,22.876829],[120.616749,22.876814],[120.617931,22.876519],[120.620331,22.875614],[120.621687,22.875868],[120.625778,22.87818],[120.627291,22.878873],[120.631321,22.880148],[120.632504,22.884117],[120.63422,22.886916]]]},"properties":{"code":"64000320003","name":"新寮里","countyCode":"64000","countyName":"高雄市","townCode":"64000320","townName":"六龜區","level":"village","unassigned":false,"note":"","label":[120.60844886522743,22.88565618555879],"bounds":[120.592299,22.863604,120.63422,22.916157],"focusBounds":[120.592299,22.863604,120.63422,22.916157],"color":"#dd8590"}},{"type":"Feature","id":"64000320004","geometry":{"type":"Polygon","coordinates":[[[120.709299,23.078266],[120.700984,23.079246],[120.697621,23.079978],[120.694218,23.081141],[120.693367,23.08174],[120.692051,23.083502],[120.689227,23.081669],[120.687765,23.080366],[120.687327,23.079766],[120.686861,23.078761],[120.686193,23.076299],[120.686274,23.074746],[120.686613,23.072931],[120.686151,23.07195],[120.684064,23.069],[120.678424,23.063453],[120.67747,23.062805],[120.675847,23.061343],[120.671,23.05806],[120.670459,23.057485],[120.670125,23.056769],[120.669795,23.054594],[120.670263,23.053256],[120.671195,23.05192],[120.672376,23.050827],[120.67296,23.050083],[120.672902,23.049275],[120.672339,23.048937],[120.669949,23.048206],[120.667981,23.047873],[120.66666,23.047094],[120.665886,23.046793],[120.665112,23.046702],[120.662953,23.045383],[120.661018,23.044752],[120.65701,23.044593],[120.650168,23.046023],[120.643782,23.049137],[120.642258,23.04954],[120.639697,23.051374],[120.63802,23.052138],[120.6276,23.056388],[120.624277,23.057491],[120.623602,23.055566],[120.623051,23.053012],[120.623276,23.05145],[120.624132,23.050665],[120.624074,23.050247],[120.624324,23.049433],[120.624994,23.047984],[120.624601,23.047716],[120.62403,23.047609],[120.623198,23.047747],[120.622577,23.047611],[120.622086,23.04781],[120.62185,23.047758],[120.621428,23.046405],[120.620054,23.044943],[120.619205,23.044243],[120.618037,23.043741],[120.61596,23.042202],[120.614381,23.040082],[120.612108,23.039672],[120.610002,23.037021],[120.608881,23.036315],[120.608075,23.036298],[120.608294,23.036161],[120.611181,23.035357],[120.621652,23.031716],[120.623177,23.031098],[120.624289,23.030383],[120.624877,23.029653],[120.625362,23.027758],[120.626896,23.025373],[120.628071,23.024091],[120.63103,23.020224],[120.632746,23.019325],[120.634612,23.018907],[120.637533,23.019304],[120.642486,23.021632],[120.644189,23.021972],[120.645015,23.021901],[120.645971,23.021545],[120.647031,23.020854],[120.650267,23.017373],[120.651325,23.016554],[120.652671,23.016231],[120.653677,23.016258],[120.656077,23.01667],[120.657729,23.016744],[120.663466,23.014056],[120.664654,23.014018],[120.664695,23.014246],[120.664382,23.01485],[120.664069,23.018369],[120.663424,23.019415],[120.663095,23.020401],[120.669055,23.021075],[120.67123,23.021066],[120.673432,23.020816],[120.677818,23.019734],[120.678719,23.019153],[120.685652,23.019646],[120.690182,23.019811],[120.691832,23.019604],[120.691987,23.019806],[120.692874,23.020004],[120.693244,23.020277],[120.694729,23.021884],[120.696757,23.023625],[120.698291,23.025454],[120.698783,23.027091],[120.699595,23.027992],[120.699708,23.028556],[120.699675,23.031184],[120.700249,23.032938],[120.700498,23.034714],[120.701197,23.036518],[120.702857,23.039371],[120.704285,23.040328],[120.706121,23.0411],[120.70684,23.041061],[120.70979,23.042572],[120.711174,23.042799],[120.713361,23.043966],[120.713822,23.044448],[120.713911,23.046038],[120.714286,23.047047],[120.715173,23.048222],[120.716269,23.050981],[120.717995,23.051538],[120.718983,23.052126],[120.720671,23.054775],[120.722439,23.054972],[120.722805,23.055218],[120.72342,23.055875],[120.723783,23.056973],[120.724169,23.057574],[120.724268,23.058163],[120.724098,23.058504],[120.72216,23.059517],[120.720933,23.060537],[120.720269,23.061448],[120.718924,23.062145],[120.717679,23.063222],[120.717284,23.063915],[120.717089,23.064758],[120.71655,23.065438],[120.715834,23.066924],[120.71529,23.067419],[120.714614,23.067684],[120.713719,23.068364],[120.712992,23.069754],[120.712494,23.07169],[120.711999,23.072532],[120.71118,23.072883],[120.70888,23.073214],[120.709313,23.075325],[120.709299,23.078266]]]},"properties":{"code":"64000320004","name":"新發里","countyCode":"64000","countyName":"高雄市","townCode":"64000320","townName":"六龜區","level":"village","unassigned":false,"note":"","label":[120.69072532875903,23.051225349209297],"bounds":[120.608075,23.014018,120.724268,23.083502],"focusBounds":[120.608075,23.014018,120.724268,23.083502],"color":"#a49ad4"}},{"type":"Feature","id":"64000320005","geometry":{"type":"Polygon","coordinates":[[[120.686576,23.092249],[120.685918,23.092208],[120.685947,23.0927],[120.685695,23.092993],[120.68533,23.092937],[120.68484,23.092449],[120.684068,23.09252],[120.684161,23.09348],[120.683981,23.093596],[120.683146,23.093568],[120.683083,23.093781],[120.683313,23.094025],[120.683303,23.094268],[120.683,23.094454],[120.682689,23.094427],[120.681722,23.093769],[120.680669,23.094309],[120.679739,23.094533],[120.678886,23.095321],[120.678289,23.096252],[120.67777,23.096655],[120.677659,23.096991],[120.677105,23.097542],[120.676632,23.098327],[120.676744,23.099406],[120.676288,23.100063],[120.67526,23.100912],[120.674928,23.10214],[120.673725,23.103792],[120.673371,23.104688],[120.673525,23.105758],[120.674611,23.107104],[120.674992,23.107922],[120.674795,23.108739],[120.673623,23.110774],[120.673494,23.112263],[120.673139,23.112608],[120.672066,23.112996],[120.670929,23.114208],[120.669644,23.115022],[120.669204,23.115629],[120.668752,23.115967],[120.667844,23.116319],[120.667186,23.116766],[120.666738,23.117329],[120.666454,23.118377],[120.665817,23.119367],[120.664542,23.118475],[120.662525,23.118218],[120.661759,23.117624],[120.660931,23.117412],[120.659872,23.116741],[120.658374,23.115321],[120.656943,23.11428],[120.656176,23.113261],[120.656224,23.11111],[120.655566,23.10896],[120.654069,23.107179],[120.652588,23.104567],[120.652142,23.104255],[120.651538,23.103324],[120.651294,23.102676],[120.650095,23.101294],[120.649772,23.100577],[120.649856,23.100117],[120.650388,23.099326],[120.650539,23.098119],[120.651277,23.097107],[120.651325,23.096818],[120.65068,23.094909],[120.649873,23.094135],[120.649316,23.092861],[120.649632,23.091945],[120.648542,23.091411],[120.647502,23.091553],[120.646962,23.091871],[120.645791,23.092224],[120.645263,23.09221],[120.644683,23.091956],[120.644212,23.091509],[120.643373,23.091466],[120.642864,23.091226],[120.639852,23.089351],[120.638022,23.088895],[120.637048,23.087876],[120.636954,23.08727],[120.638072,23.085997],[120.638434,23.084316],[120.639498,23.082603],[120.639391,23.081638],[120.639877,23.079071],[120.639704,23.078488],[120.637875,23.075308],[120.636428,23.073998],[120.635795,23.073111],[120.635152,23.072904],[120.634298,23.072199],[120.633313,23.072236],[120.632534,23.071731],[120.631485,23.071304],[120.630836,23.070097],[120.629022,23.068084],[120.625588,23.066042],[120.624424,23.06553],[120.624247,23.065212],[120.624697,23.063994],[120.626014,23.063236],[120.626392,23.062692],[120.625412,23.060116],[120.624761,23.059135],[120.624277,23.057491],[120.6276,23.056388],[120.63802,23.052138],[120.639697,23.051374],[120.642258,23.04954],[120.643782,23.049137],[120.650168,23.046023],[120.65701,23.044593],[120.661018,23.044752],[120.662953,23.045383],[120.665112,23.046702],[120.665886,23.046793],[120.66666,23.047094],[120.667981,23.047873],[120.669949,23.048206],[120.672339,23.048937],[120.672902,23.049275],[120.67296,23.050083],[120.672376,23.050827],[120.671195,23.05192],[120.670263,23.053256],[120.669795,23.054594],[120.670125,23.056769],[120.670459,23.057485],[120.671,23.05806],[120.675847,23.061343],[120.67747,23.062805],[120.678424,23.063453],[120.684064,23.069],[120.686151,23.07195],[120.686613,23.072931],[120.686274,23.074746],[120.686193,23.076299],[120.686861,23.078761],[120.687327,23.079766],[120.687765,23.080366],[120.689227,23.081669],[120.692051,23.083502],[120.693095,23.084209],[120.694319,23.08543],[120.694665,23.08653],[120.694651,23.087175],[120.69434,23.087724],[120.69302,23.088713],[120.690875,23.089593],[120.689171,23.090189],[120.687257,23.090398],[120.686766,23.091069],[120.686576,23.092249]]]},"properties":{"code":"64000320005","name":"荖濃里","countyCode":"64000","countyName":"高雄市","townCode":"64000320","townName":"六龜區","level":"village","unassigned":false,"note":"","label":[120.65963224222021,23.074203654308057],"bounds":[120.624247,23.044593,120.694665,23.119367],"focusBounds":[120.624247,23.044593,120.694665,23.119367],"color":"#a8bf62"}},{"type":"Feature","id":"64000320006","geometry":{"type":"Polygon","coordinates":[[[120.651325,23.016554],[120.650267,23.017373],[120.647031,23.020854],[120.645971,23.021545],[120.645015,23.021901],[120.644189,23.021972],[120.642486,23.021632],[120.637533,23.019304],[120.634612,23.018907],[120.632746,23.019325],[120.63103,23.020224],[120.628071,23.024091],[120.626896,23.025373],[120.625362,23.027758],[120.624877,23.029653],[120.624289,23.030383],[120.623177,23.031098],[120.621652,23.031716],[120.611181,23.035357],[120.608294,23.036161],[120.608699,23.033823],[120.60851,23.031257],[120.610456,23.030271],[120.610925,23.030183],[120.611412,23.030351],[120.612509,23.02976],[120.614062,23.028228],[120.614622,23.027423],[120.616482,23.025964],[120.617753,23.024219],[120.619088,23.024016],[120.619666,23.02367],[120.620987,23.020485],[120.621131,23.019688],[120.621621,23.018928],[120.621233,23.016392],[120.620758,23.015274],[120.620127,23.014549],[120.62007,23.012734],[120.620213,23.012021],[120.620582,23.011558],[120.620679,23.010166],[120.621148,23.009635],[120.621311,23.007987],[120.621002,23.007378],[120.621461,23.005363],[120.621729,23.004801],[120.620235,23.003155],[120.620001,23.002608],[120.61941,23.001889],[120.624463,22.999603],[120.627928,22.997787],[120.631809,22.997166],[120.632046,22.996514],[120.632689,22.996879],[120.632903,22.997593],[120.634111,22.99753],[120.634051,22.99774],[120.63561,22.997705],[120.635663,22.998622],[120.636554,22.998567],[120.637431,22.998249],[120.637746,22.998661],[120.63821,22.998903],[120.63998,23.001664],[120.640556,23.002297],[120.641397,23.004092],[120.64248,23.005794],[120.643013,23.006114],[120.643451,23.006076],[120.643346,23.007446],[120.644213,23.009853],[120.644883,23.010207],[120.645494,23.010921],[120.646289,23.010821],[120.646802,23.010954],[120.647652,23.010606],[120.648271,23.010582],[120.648552,23.011635],[120.649323,23.013118],[120.649261,23.013526],[120.648869,23.013859],[120.648907,23.014216],[120.649113,23.014361],[120.650043,23.014363],[120.65097,23.014939],[120.651202,23.015248],[120.651325,23.016554]]]},"properties":{"code":"64000320006","name":"六龜里","countyCode":"64000","countyName":"高雄市","townCode":"64000320","townName":"六龜區","level":"village","unassigned":false,"note":"","label":[120.63192144019213,23.00830677040115],"bounds":[120.608294,22.996514,120.651325,23.036161],"focusBounds":[120.608294,22.996514,120.651325,23.036161],"color":"#68bec9"}},{"type":"Feature","id":"64000320007","geometry":{"type":"Polygon","coordinates":[[[120.637431,22.998249],[120.636554,22.998567],[120.635663,22.998622],[120.63561,22.997705],[120.634051,22.99774],[120.634111,22.99753],[120.632903,22.997593],[120.632689,22.996879],[120.632046,22.996514],[120.631809,22.997166],[120.627928,22.997787],[120.624463,22.999603],[120.61941,23.001889],[120.618915,23.00105],[120.619195,22.999985],[120.618745,22.999049],[120.618406,22.997793],[120.618778,22.99625],[120.619553,22.994793],[120.620323,22.994933],[120.621606,22.994913],[120.624767,22.994063],[120.628595,22.992446],[120.629357,22.991897],[120.630024,22.991019],[120.630405,22.9908],[120.631058,22.990608],[120.632341,22.99052],[120.632758,22.9903],[120.63346,22.990868],[120.634058,22.991082],[120.633952,22.991642],[120.634142,22.992234],[120.63512,22.992283],[120.635554,22.992594],[120.636019,22.993672],[120.637371,22.993907],[120.637707,22.993249],[120.637893,22.993475],[120.638651,22.993253],[120.639281,22.993261],[120.641461,22.99361],[120.639588,22.994818],[120.637726,22.996342],[120.637068,22.997573],[120.637119,22.998011],[120.637431,22.998249]]]},"properties":{"code":"64000320007","name":"義寶里","countyCode":"64000","countyName":"高雄市","townCode":"64000320","townName":"六龜區","level":"village","unassigned":false,"note":"","label":[120.6285616736167,22.99507291497529],"bounds":[120.618406,22.9903,120.641461,23.001889],"focusBounds":[120.618406,22.9903,120.641461,23.001889],"color":"#df9f6a"}},{"type":"Feature","id":"64000320008","geometry":{"type":"Polygon","coordinates":[[[120.691832,23.019604],[120.690182,23.019811],[120.685652,23.019646],[120.678719,23.019153],[120.677818,23.019734],[120.673432,23.020816],[120.67123,23.021066],[120.669055,23.021075],[120.663095,23.020401],[120.663424,23.019415],[120.664069,23.018369],[120.664382,23.01485],[120.664695,23.014246],[120.664654,23.014018],[120.663466,23.014056],[120.657729,23.016744],[120.656077,23.01667],[120.653677,23.016258],[120.652671,23.016231],[120.651325,23.016554],[120.651202,23.015248],[120.65097,23.014939],[120.650043,23.014363],[120.649113,23.014361],[120.648907,23.014216],[120.648869,23.013859],[120.649261,23.013526],[120.649323,23.013118],[120.648552,23.011635],[120.648271,23.010582],[120.647652,23.010606],[120.646802,23.010954],[120.646289,23.010821],[120.645494,23.010921],[120.644883,23.010207],[120.644213,23.009853],[120.643346,23.007446],[120.643451,23.006076],[120.651166,22.998919],[120.65426,22.996462],[120.657818,22.993896],[120.660612,22.992451],[120.663704,22.9905],[120.668793,22.988181],[120.673546,22.986981],[120.674368,22.986508],[120.67581,22.987289],[120.678114,22.98898],[120.68066,22.989975],[120.681721,22.990067],[120.682445,22.990288],[120.684137,22.991332],[120.687652,22.991609],[120.68842,22.991816],[120.689854,22.99269],[120.691511,22.994125],[120.693709,22.997593],[120.689844,22.998572],[120.687965,22.99887],[120.686257,22.999685],[120.684147,22.999643],[120.682222,23.000074],[120.680928,23.000195],[120.677868,23.001515],[120.676698,23.002412],[120.67494,23.003342],[120.674716,23.003614],[120.674939,23.003932],[120.676284,23.004707],[120.677307,23.005042],[120.678425,23.006641],[120.679612,23.007799],[120.68133,23.008533],[120.682833,23.009526],[120.684195,23.011543],[120.684718,23.012755],[120.687723,23.015501],[120.689715,23.017993],[120.690427,23.018453],[120.691295,23.018704],[120.69173,23.018992],[120.691832,23.019604]]]},"properties":{"code":"64000320008","name":"興龍里","countyCode":"64000","countyName":"高雄市","townCode":"64000320","townName":"六龜區","level":"village","unassigned":false,"note":"","label":[120.66388834121443,23.00337379222127],"bounds":[120.643346,22.986508,120.693709,23.021075],"focusBounds":[120.643346,22.986508,120.693709,23.021075],"color":"#c38cb8"}},{"type":"Feature","id":"64000320009","geometry":{"type":"Polygon","coordinates":[[[120.643451,23.006076],[120.643013,23.006114],[120.64248,23.005794],[120.641397,23.004092],[120.640556,23.002297],[120.63998,23.001664],[120.63821,22.998903],[120.637746,22.998661],[120.637431,22.998249],[120.637119,22.998011],[120.637068,22.997573],[120.637726,22.996342],[120.639588,22.994818],[120.641461,22.99361],[120.641445,22.992825],[120.641991,22.991106],[120.642139,22.990082],[120.642193,22.98802],[120.641826,22.985037],[120.641365,22.983745],[120.641315,22.98322],[120.641497,22.982718],[120.644861,22.979046],[120.645663,22.978379],[120.646837,22.977917],[120.648446,22.976957],[120.649581,22.975912],[120.650428,22.974627],[120.650389,22.974207],[120.6493,22.972669],[120.649039,22.97168],[120.649879,22.968873],[120.650815,22.967564],[120.650769,22.966369],[120.650955,22.965541],[120.650451,22.960991],[120.650284,22.960507],[120.648997,22.959046],[120.647493,22.958067],[120.645858,22.956052],[120.644081,22.954519],[120.643515,22.953825],[120.643569,22.953277],[120.644218,22.951628],[120.644684,22.950866],[120.645727,22.946924],[120.645679,22.945348],[120.645374,22.943747],[120.645453,22.942767],[120.645739,22.942099],[120.646386,22.94143],[120.647914,22.94051],[120.648349,22.94024],[120.64944,22.939069],[120.649939,22.937966],[120.650586,22.933197],[120.651446,22.930541],[120.651692,22.926867],[120.6536,22.926254],[120.654323,22.92629],[120.655106,22.92666],[120.656146,22.927784],[120.657763,22.930478],[120.658383,22.931013],[120.658578,22.931386],[120.659515,22.931925],[120.660237,22.932071],[120.662223,22.932123],[120.66599,22.931772],[120.668389,22.931707],[120.670938,22.931974],[120.671694,22.934226],[120.671252,22.935462],[120.671426,22.938185],[120.671088,22.94216],[120.67143,22.94319],[120.671592,22.944337],[120.672577,22.945069],[120.67268,22.945449],[120.672657,22.945835],[120.671954,22.946617],[120.670689,22.948171],[120.669178,22.952481],[120.668675,22.953512],[120.667726,22.954804],[120.665891,22.956716],[120.665718,22.957391],[120.66607,22.959611],[120.666008,22.961237],[120.66509,22.962544],[120.664296,22.964418],[120.663463,22.965792],[120.663044,22.967418],[120.663101,22.967908],[120.663913,22.969213],[120.66458,22.971226],[120.665107,22.972245],[120.666533,22.974386],[120.668141,22.977289],[120.669513,22.979127],[120.669855,22.979801],[120.670768,22.982706],[120.670918,22.983147],[120.671908,22.984323],[120.673466,22.985936],[120.674368,22.986508],[120.673546,22.986981],[120.668793,22.988181],[120.663704,22.9905],[120.660612,22.992451],[120.657818,22.993896],[120.65426,22.996462],[120.651166,22.998919],[120.643451,23.006076]]]},"properties":{"code":"64000320009","name":"中興里","countyCode":"64000","countyName":"高雄市","townCode":"64000320","townName":"六龜區","level":"village","unassigned":false,"note":"","label":[120.65762346563663,22.94773027630106],"bounds":[120.637068,22.926254,120.674368,23.006114],"focusBounds":[120.637068,22.926254,120.674368,23.006114],"color":"#98b69b"}},{"type":"Feature","id":"64000320010","geometry":{"type":"Polygon","coordinates":[[[120.745017,23.11781],[120.744597,23.117802],[120.743693,23.117481],[120.742403,23.117719],[120.741797,23.117478],[120.740145,23.117512],[120.736754,23.118437],[120.735635,23.119249],[120.735036,23.120215],[120.733768,23.120823],[120.732006,23.120973],[120.731495,23.120783],[120.730521,23.119858],[120.729885,23.119457],[120.727723,23.118843],[120.727133,23.118849],[120.726078,23.119204],[120.724442,23.11923],[120.721318,23.119595],[120.720359,23.119608],[120.718983,23.119329],[120.717694,23.118934],[120.716295,23.118256],[120.713664,23.116085],[120.71184,23.11566],[120.710267,23.11549],[120.70746,23.116366],[120.706708,23.116804],[120.705387,23.117995],[120.704183,23.119467],[120.702002,23.122704],[120.701456,23.124038],[120.700884,23.12474],[120.696673,23.127553],[120.695758,23.129062],[120.693781,23.131299],[120.692524,23.134005],[120.69216,23.134457],[120.691623,23.134776],[120.690407,23.135036],[120.68918,23.13497],[120.688346,23.134532],[120.687706,23.134717],[120.685583,23.136224],[120.684297,23.136637],[120.683333,23.137189],[120.681332,23.138989],[120.679758,23.14073],[120.678994,23.139688],[120.678397,23.137092],[120.677969,23.13621],[120.677837,23.135517],[120.67684,23.133743],[120.676407,23.13117],[120.675504,23.129238],[120.67613,23.129213],[120.676999,23.128904],[120.678798,23.12724],[120.680318,23.126216],[120.68136,23.123176],[120.682408,23.120751],[120.684883,23.1172],[120.685915,23.114861],[120.687629,23.112408],[120.688053,23.112032],[120.689516,23.111775],[120.690323,23.111336],[120.690909,23.111279],[120.693571,23.108966],[120.694692,23.108732],[120.695037,23.108363],[120.694973,23.107668],[120.695367,23.106353],[120.693511,23.102015],[120.691972,23.099738],[120.690575,23.09822],[120.689374,23.097178],[120.688332,23.095571],[120.68769,23.095022],[120.687467,23.094476],[120.686923,23.093853],[120.686781,23.09315],[120.686872,23.092467],[120.686576,23.092249],[120.686766,23.091069],[120.687257,23.090398],[120.689171,23.090189],[120.690875,23.089593],[120.69302,23.088713],[120.69434,23.087724],[120.694651,23.087175],[120.694665,23.08653],[120.694319,23.08543],[120.693095,23.084209],[120.692051,23.083502],[120.693367,23.08174],[120.694218,23.081141],[120.697621,23.079978],[120.700984,23.079246],[120.709299,23.078266],[120.708739,23.080943],[120.708866,23.082844],[120.708352,23.08409],[120.70733,23.085575],[120.706391,23.087473],[120.706346,23.088392],[120.706545,23.088822],[120.707685,23.089688],[120.708853,23.091225],[120.709562,23.093216],[120.709747,23.094283],[120.709321,23.095666],[120.7092,23.097868],[120.709381,23.098288],[120.711459,23.099187],[120.713642,23.100455],[120.716756,23.101343],[120.717955,23.101184],[120.718861,23.100793],[120.720947,23.100624],[120.722741,23.09983],[120.724691,23.098674],[120.726582,23.097843],[120.727638,23.097691],[120.728915,23.098053],[120.730959,23.099755],[120.732334,23.100521],[120.733458,23.101667],[120.734802,23.102171],[120.736303,23.103111],[120.737268,23.104029],[120.737785,23.105077],[120.738264,23.105434],[120.740869,23.108695],[120.741615,23.109343],[120.741898,23.109939],[120.74206,23.111306],[120.742815,23.111598],[120.742876,23.112442],[120.743441,23.113293],[120.743668,23.113962],[120.743919,23.114217],[120.744532,23.114443],[120.744728,23.114778],[120.744814,23.115404],[120.744552,23.11677],[120.744771,23.117315],[120.745517,23.117753],[120.745017,23.11781]]]},"properties":{"code":"64000320010","name":"寶來里","countyCode":"64000","countyName":"高雄市","townCode":"64000320","townName":"六龜區","level":"village","unassigned":false,"note":"","label":[120.70427273041533,23.10693596643857],"bounds":[120.675504,23.078266,120.745517,23.14073],"focusBounds":[120.675504,23.078266,120.745517,23.14073],"color":"#efb44f"}},{"type":"Feature","id":"64000320011","geometry":{"type":"Polygon","coordinates":[[[120.641461,22.99361],[120.639281,22.993261],[120.638651,22.993253],[120.637893,22.993475],[120.637707,22.993249],[120.637371,22.993907],[120.636019,22.993672],[120.635554,22.992594],[120.63512,22.992283],[120.634142,22.992234],[120.633952,22.991642],[120.634058,22.991082],[120.63346,22.990868],[120.632758,22.9903],[120.632341,22.99052],[120.631058,22.990608],[120.630405,22.9908],[120.630024,22.991019],[120.629357,22.991897],[120.628595,22.992446],[120.624767,22.994063],[120.621606,22.994913],[120.620323,22.994933],[120.619553,22.994793],[120.619678,22.994366],[120.619607,22.993146],[120.620208,22.990836],[120.620118,22.990089],[120.619466,22.988915],[120.61971,22.98763],[120.620042,22.986778],[120.620721,22.986264],[120.621049,22.985803],[120.621634,22.982722],[120.623035,22.979799],[120.623665,22.977977],[120.623859,22.977484],[120.625819,22.976236],[120.627431,22.97383],[120.627889,22.972824],[120.6279,22.972171],[120.628262,22.9709],[120.628201,22.970358],[120.627768,22.969713],[120.627763,22.969026],[120.627974,22.968358],[120.627384,22.967655],[120.627358,22.966269],[120.626502,22.96388],[120.626562,22.963298],[120.627093,22.96213],[120.627104,22.961713],[120.626942,22.960782],[120.626266,22.959641],[120.62649,22.958756],[120.626035,22.955632],[120.625472,22.954658],[120.625176,22.953047],[120.624244,22.951933],[120.623979,22.951381],[120.624117,22.950846],[120.625328,22.949975],[120.625793,22.94921],[120.62592,22.947248],[120.626162,22.946589],[120.626121,22.945931],[120.626346,22.944583],[120.625783,22.94344],[120.629261,22.942917],[120.634379,22.941529],[120.640501,22.940338],[120.644209,22.940161],[120.647914,22.94051],[120.646386,22.94143],[120.645739,22.942099],[120.645453,22.942767],[120.645374,22.943747],[120.645679,22.945348],[120.645727,22.946924],[120.644684,22.950866],[120.644218,22.951628],[120.643569,22.953277],[120.643515,22.953825],[120.644081,22.954519],[120.645858,22.956052],[120.647493,22.958067],[120.648997,22.959046],[120.650284,22.960507],[120.650451,22.960991],[120.650955,22.965541],[120.650769,22.966369],[120.650815,22.967564],[120.649879,22.968873],[120.649039,22.97168],[120.6493,22.972669],[120.650389,22.974207],[120.650428,22.974627],[120.649581,22.975912],[120.648446,22.976957],[120.646837,22.977917],[120.645663,22.978379],[120.644861,22.979046],[120.641497,22.982718],[120.641315,22.98322],[120.641365,22.983745],[120.641826,22.985037],[120.642193,22.98802],[120.642139,22.990082],[120.641991,22.991106],[120.641445,22.992825],[120.641461,22.99361]]]},"properties":{"code":"64000320011","name":"文武里","countyCode":"64000","countyName":"高雄市","townCode":"64000320","townName":"六龜區","level":"village","unassigned":false,"note":"","label":[120.63881196248542,22.965161531875157],"bounds":[120.619466,22.940161,120.650955,22.994933],"focusBounds":[120.619466,22.940161,120.650955,22.994933],"color":"#efb44f"}},{"type":"Feature","id":"64000320012","geometry":{"type":"Polygon","coordinates":[[[120.670938,22.931974],[120.668389,22.931707],[120.66599,22.931772],[120.662223,22.932123],[120.660237,22.932071],[120.659515,22.931925],[120.658578,22.931386],[120.658383,22.931013],[120.657763,22.930478],[120.656146,22.927784],[120.655106,22.92666],[120.654323,22.92629],[120.6536,22.926254],[120.651692,22.926867],[120.651612,22.925433],[120.65133,22.924669],[120.650456,22.923568],[120.649557,22.92182],[120.648617,22.920735],[120.647146,22.916632],[120.646865,22.915651],[120.646665,22.913309],[120.646187,22.911934],[120.646261,22.911168],[120.646065,22.910285],[120.644744,22.908167],[120.644077,22.906732],[120.64328,22.90556],[120.642637,22.905128],[120.642046,22.904074],[120.641997,22.903311],[120.642439,22.901662],[120.642495,22.89975],[120.642344,22.898699],[120.641652,22.897145],[120.640429,22.895284],[120.638065,22.892915],[120.636506,22.89173],[120.635649,22.889965],[120.635257,22.8887],[120.63422,22.886916],[120.632504,22.884117],[120.631321,22.880148],[120.63437,22.880747],[120.635762,22.881393],[120.637478,22.882529],[120.640437,22.883095],[120.643064,22.88419],[120.644263,22.884945],[120.645028,22.885176],[120.645865,22.884529],[120.646637,22.883531],[120.647566,22.880667],[120.647686,22.879568],[120.647866,22.878158],[120.648094,22.877542],[120.648436,22.87713],[120.6491,22.876965],[120.649516,22.878115],[120.649458,22.879645],[120.649593,22.880958],[120.649456,22.882065],[120.64988,22.884149],[120.64987,22.885067],[120.65011,22.885689],[120.651236,22.88729],[120.65177,22.888548],[120.653412,22.890757],[120.654553,22.89198],[120.655261,22.893064],[120.65833,22.896354],[120.658832,22.897318],[120.659333,22.899546],[120.659627,22.900226],[120.660739,22.902236],[120.661269,22.90274],[120.662634,22.904903],[120.663531,22.907303],[120.664311,22.908801],[120.665999,22.910655],[120.666566,22.911711],[120.667577,22.912881],[120.668233,22.913616],[120.669308,22.915337],[120.66994,22.916606],[120.670086,22.917484],[120.670544,22.918479],[120.67013,22.91972],[120.669613,22.920378],[120.669424,22.921554],[120.669524,22.92299],[120.669884,22.923903],[120.670447,22.926673],[120.670139,22.929314],[120.670781,22.930908],[120.670938,22.931974]]]},"properties":{"code":"64000320012","name":"大津里","countyCode":"64000","countyName":"高雄市","townCode":"64000320","townName":"六龜區","level":"village","unassigned":false,"note":"","label":[120.65480061752157,22.909437026342896],"bounds":[120.631321,22.876965,120.670938,22.932123],"focusBounds":[120.631321,22.876965,120.670938,22.932123],"color":"#78a7e3"}}]}
