{"type":"FeatureCollection","features":[{"type":"Feature","id":"64000380001","geometry":{"type":"Polygon","coordinates":[[[120.694574,23.284464],[120.693511,23.28454],[120.691773,23.285129],[120.689897,23.285308],[120.68717,23.2866],[120.685527,23.286998],[120.683899,23.287108],[120.683414,23.287374],[120.681923,23.287643],[120.680159,23.288576],[120.678822,23.288846],[120.678392,23.288865],[120.677838,23.28853],[120.677467,23.288251],[120.677354,23.287844],[120.676166,23.288595],[120.676205,23.289523],[120.675956,23.290285],[120.673738,23.291111],[120.67141,23.289969],[120.67089,23.290199],[120.670247,23.290747],[120.669717,23.292195],[120.669344,23.292353],[120.668394,23.291974],[120.667943,23.29254],[120.66757,23.293672],[120.667314,23.294026],[120.666659,23.294214],[120.666166,23.294321],[120.665619,23.294084],[120.66539,23.293169],[120.663604,23.293884],[120.662674,23.293541],[120.661984,23.293961],[120.661831,23.295007],[120.65967,23.294761],[120.659334,23.294868],[120.65913,23.295122],[120.658753,23.295907],[120.658066,23.29595],[120.65721,23.294962],[120.656254,23.293333],[120.65696,23.292989],[120.656835,23.291783],[120.657859,23.290738],[120.657345,23.289531],[120.657657,23.289281],[120.657872,23.288785],[120.657575,23.288195],[120.658115,23.287725],[120.65864,23.287699],[120.659387,23.287032],[120.660324,23.286614],[120.660865,23.285974],[120.660733,23.284586],[120.660921,23.28313],[120.660649,23.281465],[120.659951,23.279893],[120.660437,23.27832],[120.660779,23.277691],[120.660837,23.277115],[120.660569,23.276512],[120.661223,23.276082],[120.661196,23.275531],[120.661522,23.275081],[120.661663,23.274237],[120.66147,23.273724],[120.661555,23.273033],[120.662751,23.270886],[120.664342,23.268781],[120.667081,23.268089],[120.668996,23.267782],[120.672629,23.267529],[120.672733,23.267173],[120.673112,23.266884],[120.673511,23.265933],[120.674286,23.265456],[120.674549,23.264978],[120.675526,23.264384],[120.675684,23.263426],[120.676035,23.262811],[120.676005,23.262092],[120.676224,23.261678],[120.676577,23.261336],[120.676783,23.261436],[120.677785,23.261099],[120.677905,23.260726],[120.678637,23.261179],[120.679862,23.261321],[120.680051,23.261455],[120.681403,23.261366],[120.682879,23.261047],[120.683404,23.261243],[120.684939,23.261389],[120.686023,23.262317],[120.686289,23.262711],[120.686468,23.264337],[120.686768,23.264799],[120.686812,23.265242],[120.687243,23.265662],[120.687508,23.266186],[120.687646,23.266739],[120.690314,23.266794],[120.69209,23.266587],[120.692979,23.266097],[120.693962,23.263006],[120.694169,23.261961],[120.693887,23.260706],[120.694056,23.260348],[120.694121,23.25928],[120.693916,23.259093],[120.693931,23.258436],[120.694557,23.257898],[120.694711,23.257336],[120.695395,23.257712],[120.69812,23.25828],[120.700958,23.259129],[120.702725,23.259178],[120.704483,23.260012],[120.70871,23.261405],[120.709536,23.262028],[120.710207,23.26277],[120.71067,23.264181],[120.711185,23.265137],[120.711301,23.267373],[120.711958,23.268311],[120.712414,23.268569],[120.712998,23.268266],[120.713759,23.268197],[120.714039,23.26794],[120.714166,23.267518],[120.715156,23.267403],[120.717009,23.266399],[120.718227,23.266519],[120.721235,23.264908],[120.721845,23.264744],[120.723366,23.265029],[120.723924,23.264795],[120.724735,23.264936],[120.725243,23.26468],[120.725472,23.264258],[120.726031,23.263907],[120.726792,23.263816],[120.727706,23.263348],[120.728875,23.26239],[120.729003,23.261756],[120.729436,23.260773],[120.729614,23.260703],[120.729842,23.260773],[120.730043,23.261735],[120.730772,23.261919],[120.735127,23.261581],[120.740278,23.261635],[120.742259,23.261776],[120.744438,23.262283],[120.747806,23.262334],[120.754496,23.261155],[120.760937,23.260295],[120.765139,23.259889],[120.764888,23.261816],[120.766186,23.262502],[120.768654,23.267331],[120.768546,23.268375],[120.768308,23.268713],[120.768138,23.269491],[120.769145,23.270777],[120.770147,23.270915],[120.77074,23.271453],[120.719898,23.273937],[120.719326,23.273686],[120.694574,23.284464]]]},"properties":{"code":"64000380001","name":"達卡努瓦里","countyCode":"64000","countyName":"高雄市","townCode":"64000380","townName":"那瑪夏區","level":"village","unassigned":false,"note":"","label":[120.70194813936436,23.270204763833583],"bounds":[120.656254,23.257336,120.77074,23.29595],"focusBounds":[120.656254,23.257336,120.77074,23.29595],"color":"#df9f6a"}},{"type":"Feature","id":"64000380002","geometry":{"type":"Polygon","coordinates":[[[120.651983,23.291176],[120.650645,23.291742],[120.649453,23.292903],[120.649054,23.293417],[120.647569,23.296812],[120.647024,23.297439],[120.646453,23.297411],[120.645741,23.296889],[120.644059,23.296265],[120.643585,23.295933],[120.643254,23.294724],[120.64241,23.29378],[120.642072,23.293109],[120.642033,23.292686],[120.642102,23.292455],[120.642923,23.291699],[120.643269,23.290687],[120.643668,23.290072],[120.643723,23.289437],[120.643411,23.288895],[120.642015,23.287941],[120.641857,23.287476],[120.642116,23.287053],[120.64284,23.286742],[120.643222,23.286262],[120.643414,23.284307],[120.644051,23.282228],[120.643999,23.281673],[120.643744,23.281276],[120.642492,23.280023],[120.641913,23.278542],[120.642008,23.277602],[120.642266,23.277263],[120.643004,23.276838],[120.643153,23.27598],[120.642401,23.275437],[120.641871,23.274644],[120.64097,23.274455],[120.640632,23.274165],[120.640611,23.273488],[120.641243,23.271513],[120.64109,23.271024],[120.640537,23.270736],[120.639362,23.270639],[120.638692,23.270075],[120.638291,23.269497],[120.638285,23.269176],[120.639711,23.267453],[120.640428,23.266994],[120.640691,23.266516],[120.641038,23.264044],[120.641848,23.26208],[120.642089,23.261029],[120.641897,23.257738],[120.642083,23.256809],[120.642976,23.255568],[120.643567,23.255203],[120.644098,23.25462],[120.644373,23.253685],[120.645958,23.252286],[120.646505,23.251191],[120.647563,23.250063],[120.647729,23.249593],[120.64845,23.249252],[120.648504,23.248949],[120.648058,23.248463],[120.649234,23.246909],[120.650908,23.246234],[120.651656,23.244899],[120.653034,23.244088],[120.653473,23.243982],[120.655501,23.243872],[120.656348,23.244275],[120.657751,23.245349],[120.658082,23.245445],[120.659863,23.244837],[120.662511,23.244556],[120.663567,23.244138],[120.667373,23.244031],[120.669003,23.243506],[120.669832,23.242984],[120.67017,23.242434],[120.670309,23.238253],[120.670958,23.237419],[120.673878,23.235303],[120.675436,23.23499],[120.678739,23.234753],[120.680638,23.234021],[120.684782,23.231503],[120.685685,23.230688],[120.686686,23.229103],[120.687478,23.228583],[120.689233,23.22785],[120.690138,23.227638],[120.697299,23.227913],[120.698359,23.227748],[120.700144,23.227275],[120.702189,23.22637],[120.704079,23.225131],[120.705139,23.224847],[120.70576,23.224848],[120.706716,23.224994],[120.707232,23.225232],[120.709347,23.227794],[120.710096,23.227985],[120.711854,23.228038],[120.714855,23.227303],[120.71545,23.22704],[120.717393,23.224964],[120.718275,23.223509],[120.719104,23.222626],[120.720425,23.221506],[120.723117,23.219791],[120.723919,23.219528],[120.726376,23.219223],[120.73015,23.219049],[120.73421,23.218616],[120.739174,23.218312],[120.741243,23.217647],[120.743029,23.216813],[120.743987,23.216146],[120.745206,23.214597],[120.74522,23.215958],[120.745565,23.217836],[120.745452,23.219269],[120.74706,23.219883],[120.748463,23.221715],[120.749311,23.222221],[120.749786,23.222699],[120.750138,23.224336],[120.750629,23.225582],[120.751018,23.226216],[120.751639,23.22664],[120.752728,23.228029],[120.753344,23.228645],[120.754697,23.22906],[120.75526,23.229533],[120.755596,23.230043],[120.756162,23.231766],[120.756091,23.232593],[120.755735,23.233279],[120.754838,23.234367],[120.754289,23.235938],[120.755171,23.236449],[120.755844,23.237266],[120.758087,23.238336],[120.758269,23.238552],[120.758578,23.240411],[120.75913,23.241428],[120.760303,23.24434],[120.760464,23.245695],[120.760376,23.247128],[120.759811,23.248217],[120.760027,23.249138],[120.761483,23.251391],[120.761938,23.252972],[120.762664,23.253523],[120.764708,23.255805],[120.764843,23.256962],[120.765322,23.258762],[120.765139,23.259889],[120.760937,23.260295],[120.754496,23.261155],[120.747806,23.262334],[120.744438,23.262283],[120.742259,23.261776],[120.740278,23.261635],[120.735127,23.261581],[120.730772,23.261919],[120.730043,23.261735],[120.729842,23.260773],[120.729614,23.260703],[120.729436,23.260773],[120.729003,23.261756],[120.728875,23.26239],[120.727706,23.263348],[120.726792,23.263816],[120.726031,23.263907],[120.725472,23.264258],[120.725243,23.26468],[120.724735,23.264936],[120.723924,23.264795],[120.723366,23.265029],[120.721845,23.264744],[120.721235,23.264908],[120.718227,23.266519],[120.717009,23.266399],[120.715156,23.267403],[120.714166,23.267518],[120.714039,23.26794],[120.713759,23.268197],[120.712998,23.268266],[120.712414,23.268569],[120.711958,23.268311],[120.711301,23.267373],[120.711185,23.265137],[120.71067,23.264181],[120.710207,23.26277],[120.709536,23.262028],[120.70871,23.261405],[120.704483,23.260012],[120.702725,23.259178],[120.700958,23.259129],[120.69812,23.25828],[120.695395,23.257712],[120.694711,23.257336],[120.694557,23.257898],[120.693931,23.258436],[120.693916,23.259093],[120.694121,23.25928],[120.694056,23.260348],[120.693887,23.260706],[120.694169,23.261961],[120.693962,23.263006],[120.692979,23.266097],[120.69209,23.266587],[120.690314,23.266794],[120.687646,23.266739],[120.687508,23.266186],[120.687243,23.265662],[120.686812,23.265242],[120.686768,23.264799],[120.686468,23.264337],[120.686289,23.262711],[120.686023,23.262317],[120.684939,23.261389],[120.683404,23.261243],[120.682879,23.261047],[120.681403,23.261366],[120.680051,23.261455],[120.679862,23.261321],[120.678637,23.261179],[120.677905,23.260726],[120.677785,23.261099],[120.676783,23.261436],[120.676577,23.261336],[120.676224,23.261678],[120.676005,23.262092],[120.676035,23.262811],[120.675684,23.263426],[120.675526,23.264384],[120.674549,23.264978],[120.674286,23.265456],[120.673511,23.265933],[120.673112,23.266884],[120.672733,23.267173],[120.672629,23.267529],[120.668996,23.267782],[120.667081,23.268089],[120.664342,23.268781],[120.662751,23.270886],[120.661555,23.273033],[120.66147,23.273724],[120.661663,23.274237],[120.661522,23.275081],[120.661196,23.275531],[120.661223,23.276082],[120.660569,23.276512],[120.660837,23.277115],[120.660779,23.277691],[120.660437,23.27832],[120.659951,23.279893],[120.660649,23.281465],[120.660921,23.28313],[120.660733,23.284586],[120.660865,23.285974],[120.660324,23.286614],[120.659387,23.287032],[120.65864,23.287699],[120.658115,23.287725],[120.657575,23.288195],[120.657872,23.288785],[120.657657,23.289281],[120.657345,23.289531],[120.657859,23.290738],[120.656835,23.291783],[120.65696,23.292989],[120.656254,23.293333],[120.655319,23.291934],[120.654897,23.291628],[120.653908,23.291304],[120.651983,23.291176]]]},"properties":{"code":"64000380002","name":"瑪雅里","countyCode":"64000","countyName":"高雄市","townCode":"64000380","townName":"那瑪夏區","level":"village","unassigned":false,"note":"","label":[120.7178046027527,23.24538133042075],"bounds":[120.638285,23.214597,120.765322,23.297439],"focusBounds":[120.638285,23.214597,120.765322,23.297439],"color":"#c38cb8"}},{"type":"Feature","id":"64000380003","geometry":{"type":"Polygon","coordinates":[[[120.745206,23.214597],[120.743987,23.216146],[120.743029,23.216813],[120.741243,23.217647],[120.739174,23.218312],[120.73421,23.218616],[120.73015,23.219049],[120.726376,23.219223],[120.723919,23.219528],[120.723117,23.219791],[120.720425,23.221506],[120.719104,23.222626],[120.718275,23.223509],[120.717393,23.224964],[120.71545,23.22704],[120.714855,23.227303],[120.711854,23.228038],[120.710096,23.227985],[120.709347,23.227794],[120.707232,23.225232],[120.706716,23.224994],[120.70576,23.224848],[120.705139,23.224847],[120.704079,23.225131],[120.702189,23.22637],[120.700144,23.227275],[120.698359,23.227748],[120.697299,23.227913],[120.690138,23.227638],[120.689233,23.22785],[120.687478,23.228583],[120.686686,23.229103],[120.685685,23.230688],[120.684782,23.231503],[120.680638,23.234021],[120.678739,23.234753],[120.675436,23.23499],[120.673878,23.235303],[120.670958,23.237419],[120.670309,23.238253],[120.67017,23.242434],[120.669832,23.242984],[120.669003,23.243506],[120.667373,23.244031],[120.663567,23.244138],[120.662511,23.244556],[120.659863,23.244837],[120.658082,23.245445],[120.657751,23.245349],[120.656348,23.244275],[120.655501,23.243872],[120.653473,23.243982],[120.653034,23.244088],[120.651656,23.244899],[120.650908,23.246234],[120.649234,23.246909],[120.648534,23.245969],[120.648457,23.245109],[120.648023,23.244901],[120.647893,23.244628],[120.648131,23.244323],[120.648641,23.244444],[120.648554,23.243989],[120.648831,23.243594],[120.648644,23.243049],[120.648778,23.242837],[120.649168,23.24271],[120.649071,23.242095],[120.649403,23.241575],[120.649227,23.241251],[120.649207,23.240405],[120.649435,23.240233],[120.649531,23.239907],[120.65,23.239559],[120.650851,23.237992],[120.65052,23.23709],[120.651161,23.236652],[120.650676,23.236239],[120.650664,23.235853],[120.651311,23.235819],[120.650353,23.23465],[120.650088,23.233381],[120.650408,23.233204],[120.650467,23.232963],[120.649946,23.232138],[120.649992,23.231222],[120.64955,23.230651],[120.649679,23.229287],[120.649484,23.228639],[120.649626,23.228215],[120.650294,23.227405],[120.651848,23.226244],[120.653445,23.224538],[120.654351,23.22431],[120.655169,23.22348],[120.655515,23.222792],[120.655919,23.221231],[120.65625,23.217638],[120.655539,23.216981],[120.655069,23.216189],[120.654164,23.21573],[120.653838,23.215306],[120.653086,23.211846],[120.652645,23.211142],[120.651758,23.21019],[120.651476,23.209423],[120.651444,23.208497],[120.652815,23.208101],[120.653818,23.20728],[120.654472,23.206438],[120.655233,23.205984],[120.655948,23.204994],[120.657198,23.203745],[120.657956,23.200914],[120.658479,23.200503],[120.660211,23.200154],[120.661651,23.200199],[120.663232,23.199765],[120.6652,23.199755],[120.666342,23.199509],[120.667744,23.198712],[120.668437,23.198511],[120.670241,23.19862],[120.673507,23.19848],[120.677596,23.196693],[120.680136,23.196463],[120.681034,23.195683],[120.682486,23.194824],[120.682542,23.194543],[120.681804,23.19353],[120.681682,23.192621],[120.680884,23.190631],[120.680892,23.18989],[120.68132,23.188057],[120.680992,23.187137],[120.681073,23.184741],[120.68086,23.182838],[120.681465,23.182247],[120.682446,23.180571],[120.683768,23.179608],[120.684199,23.178661],[120.686855,23.176551],[120.687708,23.1763],[120.689233,23.17632],[120.689918,23.175931],[120.690544,23.174696],[120.691318,23.171879],[120.69176,23.171292],[120.692742,23.170883],[120.693967,23.171096],[120.695752,23.171084],[120.698071,23.169561],[120.698941,23.169304],[120.699249,23.169605],[120.699622,23.170743],[120.701526,23.173428],[120.703349,23.174485],[120.704625,23.174956],[120.706725,23.176671],[120.70746,23.176984],[120.708088,23.177032],[120.708833,23.177688],[120.709768,23.178161],[120.710793,23.179383],[120.710952,23.180048],[120.712563,23.18127],[120.713861,23.181905],[120.715318,23.183437],[120.715807,23.18367],[120.716325,23.183413],[120.717433,23.181615],[120.718292,23.1815],[120.7189,23.181695],[120.719966,23.182846],[120.722138,23.183508],[120.722802,23.18384],[120.724146,23.184657],[120.724487,23.18565],[120.725219,23.186471],[120.725824,23.188399],[120.726828,23.189285],[120.727177,23.190056],[120.728895,23.190401],[120.730344,23.191084],[120.731222,23.191937],[120.732067,23.192222],[120.732718,23.193008],[120.733981,23.193772],[120.734911,23.194545],[120.735607,23.195811],[120.736332,23.198221],[120.737744,23.199977],[120.739967,23.201413],[120.740999,23.202558],[120.741456,23.203315],[120.741912,23.204856],[120.743315,23.206618],[120.743464,23.207719],[120.744135,23.209034],[120.744109,23.210751],[120.74461,23.213118],[120.745206,23.214597]]]},"properties":{"code":"64000380003","name":"南沙魯里","countyCode":"64000","countyName":"高雄市","townCode":"64000380","townName":"那瑪夏區","level":"village","unassigned":false,"note":"","label":[120.70287024691976,23.202262227873057],"bounds":[120.647893,23.169304,120.745206,23.246909],"focusBounds":[120.647893,23.169304,120.745206,23.246909],"color":"#58b99d"}},{"type":"Feature","id":"64000380004","geometry":{"type":"Polygon","coordinates":[[[120.781613,23.294912],[120.782333,23.294803],[120.782656,23.294961],[120.782983,23.296214],[120.784284,23.297184],[120.785244,23.298219],[120.785398,23.298923],[120.785403,23.300513],[120.785534,23.300917],[120.786047,23.30152],[120.787171,23.302406],[120.787768,23.302695],[120.78881,23.302671],[120.789581,23.302871],[120.791211,23.303995],[120.79196,23.304778],[120.792653,23.305964],[120.793497,23.308042],[120.795182,23.310409],[120.797554,23.313213],[120.797733,23.31413],[120.797652,23.316796],[120.797929,23.317649],[120.798574,23.318785],[120.799434,23.319645],[120.799947,23.319934],[120.801677,23.31993],[120.804892,23.321222],[120.806226,23.321397],[120.80651,23.321602],[120.807146,23.323757],[120.80711,23.324821],[120.807283,23.325359],[120.808449,23.3266],[120.808749,23.327131],[120.808781,23.329748],[120.809186,23.330298],[120.812034,23.332583],[120.812139,23.33288],[120.811844,23.333617],[120.811864,23.334089],[120.81479,23.335792],[120.816561,23.337261],[120.817989,23.338109],[120.818863,23.339216],[120.821258,23.340524],[120.821909,23.340744],[120.823149,23.340888],[120.823513,23.341218],[120.82306,23.34432],[120.823234,23.345638],[120.823135,23.346013],[120.822133,23.346581],[120.82141,23.347317],[120.819756,23.349862],[120.818978,23.350744],[120.816693,23.352142],[120.815255,23.353277],[120.813987,23.353986],[120.81321,23.354723],[120.812859,23.355331],[120.812764,23.356053],[120.813014,23.357087],[120.813637,23.3583],[120.813851,23.359668],[120.813751,23.360276],[120.812517,23.361438],[120.810881,23.36226],[120.810226,23.362938],[120.80738,23.366752],[120.805905,23.369235],[120.804584,23.370815],[120.803471,23.37003],[120.803288,23.369567],[120.803364,23.369154],[120.804552,23.36793],[120.804695,23.367211],[120.802509,23.365594],[120.801082,23.36373],[120.800733,23.36275],[120.800905,23.361967],[120.800645,23.360643],[120.800458,23.360593],[120.799829,23.361144],[120.799511,23.3612],[120.79855,23.360825],[120.797903,23.360314],[120.797439,23.359694],[120.797016,23.358007],[120.796242,23.356858],[120.795264,23.356753],[120.793871,23.357398],[120.793056,23.357593],[120.792214,23.357436],[120.791986,23.357243],[120.791611,23.356225],[120.792034,23.354209],[120.791806,23.353467],[120.790861,23.353167],[120.789221,23.353127],[120.788452,23.352821],[120.788263,23.351998],[120.78867,23.349442],[120.788593,23.348595],[120.787581,23.346141],[120.787124,23.345691],[120.785541,23.345598],[120.785215,23.345342],[120.784761,23.344818],[120.783746,23.34258],[120.783447,23.342317],[120.782713,23.342173],[120.782009,23.342293],[120.780906,23.342239],[120.779274,23.342508],[120.778244,23.34288],[120.777953,23.343401],[120.777135,23.343538],[120.774931,23.343199],[120.774457,23.343],[120.773896,23.342624],[120.773334,23.341823],[120.77117,23.342454],[120.769407,23.343573],[120.768456,23.343878],[120.766942,23.343351],[120.7663,23.342482],[120.765521,23.341934],[120.764427,23.34167],[120.76395,23.341827],[120.763037,23.342762],[120.762668,23.342839],[120.761676,23.343515],[120.759424,23.344275],[120.758069,23.344265],[120.757562,23.343492],[120.757513,23.342977],[120.758322,23.341965],[120.758476,23.34162],[120.758484,23.340868],[120.757483,23.339571],[120.757078,23.338559],[120.757531,23.337848],[120.758601,23.337224],[120.758856,23.336636],[120.758697,23.336067],[120.758209,23.335082],[120.756776,23.333098],[120.755101,23.331915],[120.752836,23.33136],[120.752381,23.331031],[120.752198,23.330542],[120.752216,23.329928],[120.753102,23.328552],[120.753235,23.327714],[120.752387,23.326506],[120.751119,23.326158],[120.750613,23.325699],[120.750325,23.325188],[120.750073,23.324039],[120.749268,23.323445],[120.748357,23.322299],[120.747856,23.321909],[120.747214,23.321732],[120.746369,23.321589],[120.742249,23.321466],[120.740798,23.320936],[120.740386,23.320432],[120.74026,23.320031],[120.740072,23.317777],[120.739431,23.316842],[120.738725,23.316413],[120.736318,23.315996],[120.735572,23.315734],[120.732712,23.314173],[120.732307,23.313859],[120.73161,23.312758],[120.730779,23.311963],[120.730155,23.310684],[120.730221,23.309389],[120.730806,23.307812],[120.730609,23.306652],[120.730629,23.305612],[120.726052,23.306636],[120.72299,23.307793],[120.72131,23.308267],[120.720204,23.308319],[120.719304,23.308065],[120.717973,23.308065],[120.716284,23.307609],[120.712915,23.308615],[120.712166,23.308697],[120.71122,23.307437],[120.710301,23.306749],[120.709394,23.306098],[120.70677,23.304728],[120.705956,23.303797],[120.705222,23.302557],[120.704377,23.301975],[120.702834,23.297564],[120.702552,23.295673],[120.702705,23.295158],[120.702326,23.294093],[120.702873,23.291793],[120.70257,23.291048],[120.703343,23.290309],[120.703535,23.28946],[120.703063,23.288494],[120.702621,23.287929],[120.701396,23.286895],[120.701384,23.286049],[120.70116,23.285557],[120.699544,23.284424],[120.698896,23.284502],[120.696613,23.284347],[120.694574,23.284464],[120.719326,23.273686],[120.719898,23.273937],[120.77074,23.271453],[120.771167,23.272854],[120.77235,23.273787],[120.772785,23.2745],[120.773781,23.277457],[120.774069,23.279306],[120.775251,23.281079],[120.775991,23.281722],[120.776006,23.282032],[120.77507,23.284302],[120.774096,23.286121],[120.775041,23.287611],[120.776027,23.287697],[120.776432,23.287917],[120.776102,23.290537],[120.77676,23.29221],[120.777291,23.293245],[120.778856,23.295221],[120.780207,23.295255],[120.781613,23.294912]]]},"properties":{"code":"64000380004","name":"瑪星哈蘭里","countyCode":"64000","countyName":"高雄市","townCode":"64000380","townName":"那瑪夏區","level":"village","unassigned":false,"note":"","label":[120.76374703168428,23.309821452483696],"bounds":[120.694574,23.271453,120.823513,23.370815],"focusBounds":[120.694574,23.271453,120.823513,23.370815],"color":"#58b99d"}}]}
