{"type":"FeatureCollection","features":[{"type":"Feature","id":"64000150001","geometry":{"type":"Polygon","coordinates":[[[120.439681,22.672036],[120.434528,22.67245],[120.430814,22.673847],[120.427386,22.67537],[120.427072,22.676008],[120.426926,22.677062],[120.425701,22.678469],[120.425233,22.678772],[120.42464,22.678889],[120.42374,22.678647],[120.422992,22.678789],[120.422503,22.679051],[120.422737,22.678334],[120.422356,22.677425],[120.421224,22.676823],[120.420327,22.67572],[120.419006,22.675401],[120.418641,22.674838],[120.418558,22.673898],[120.418314,22.673215],[120.417924,22.671769],[120.417924,22.671306],[120.418186,22.670718],[120.417117,22.668529],[120.417159,22.665799],[120.417692,22.665605],[120.418467,22.664962],[120.419194,22.663506],[120.419556,22.663245],[120.420074,22.663128],[120.420607,22.662267],[120.421042,22.662079],[120.422368,22.661894],[120.422905,22.661424],[120.423096,22.661003],[120.422603,22.660516],[120.422132,22.6596],[120.424006,22.659168],[120.424041,22.659345],[120.424976,22.65933],[120.42492,22.658955],[120.425303,22.658861],[120.427736,22.659791],[120.431289,22.659528],[120.435956,22.659549],[120.436209,22.662273],[120.436628,22.665016],[120.437848,22.667004],[120.439063,22.670634],[120.439681,22.672036]]]},"properties":{"code":"64000150001","name":"竹寮里","countyCode":"64000","countyName":"高雄市","townCode":"64000150","townName":"大樹區","level":"village","unassigned":false,"note":"","label":[120.42724166511354,22.667632866813445],"bounds":[120.417117,22.658861,120.439681,22.679051],"focusBounds":[120.417117,22.658861,120.439681,22.679051],"color":"#a49ad4"}},{"type":"Feature","id":"64000150002","geometry":{"type":"Polygon","coordinates":[[[120.435956,22.659549],[120.431289,22.659528],[120.427736,22.659791],[120.425303,22.658861],[120.42492,22.658955],[120.424976,22.65933],[120.424041,22.659345],[120.424006,22.659168],[120.422132,22.6596],[120.419619,22.648941],[120.41418,22.648847],[120.413407,22.649196],[120.412635,22.64987],[120.412147,22.64983],[120.410224,22.648134],[120.409849,22.646548],[120.40631,22.6464],[120.404317,22.646647],[120.401431,22.646562],[120.400096,22.645317],[120.400601,22.645209],[120.401905,22.644106],[120.401829,22.643613],[120.401408,22.64302],[120.402917,22.642992],[120.403514,22.643208],[120.404754,22.643233],[120.406396,22.643966],[120.408546,22.643792],[120.410363,22.64319],[120.411657,22.643218],[120.412069,22.643012],[120.413875,22.642935],[120.415977,22.643037],[120.415945,22.64372],[120.416559,22.643805],[120.416943,22.644066],[120.418035,22.644589],[120.418623,22.645157],[120.420423,22.645285],[120.421107,22.645931],[120.421777,22.645974],[120.422365,22.646455],[120.422573,22.646923],[120.423043,22.647421],[120.424329,22.647736],[120.425963,22.649194],[120.426927,22.649364],[120.430065,22.649436],[120.436061,22.651678],[120.435885,22.655975],[120.435956,22.659549]]]},"properties":{"code":"64000150002","name":"九曲里","countyCode":"64000","countyName":"高雄市","townCode":"64000150","townName":"大樹區","level":"village","unassigned":false,"note":"","label":[120.42849546184632,22.654567428836327],"bounds":[120.400096,22.642935,120.436061,22.659791],"focusBounds":[120.400096,22.642935,120.436061,22.659791],"color":"#a8bf62"}},{"type":"Feature","id":"64000150003","geometry":{"type":"Polygon","coordinates":[[[120.417117,22.668529],[120.416097,22.668911],[120.415889,22.668806],[120.414506,22.665871],[120.414419,22.665428],[120.415579,22.663524],[120.413764,22.662579],[120.412261,22.660591],[120.411025,22.659462],[120.409969,22.658774],[120.409512,22.658],[120.409569,22.656637],[120.409949,22.654915],[120.409486,22.652807],[120.409538,22.651929],[120.40922,22.651276],[120.409307,22.650852],[120.409634,22.65062],[120.410676,22.650455],[120.412046,22.6505],[120.412147,22.64983],[120.412635,22.64987],[120.413407,22.649196],[120.41418,22.648847],[120.419619,22.648941],[120.422132,22.6596],[120.422603,22.660516],[120.423096,22.661003],[120.422905,22.661424],[120.422368,22.661894],[120.421042,22.662079],[120.420607,22.662267],[120.420074,22.663128],[120.419556,22.663245],[120.419194,22.663506],[120.418467,22.664962],[120.417692,22.665605],[120.417159,22.665799],[120.417117,22.668529]]]},"properties":{"code":"64000150003","name":"久堂里","countyCode":"64000","countyName":"高雄市","townCode":"64000150","townName":"大樹區","level":"village","unassigned":false,"note":"","label":[120.41585857333337,22.656601105394486],"bounds":[120.40922,22.648847,120.423096,22.668911],"focusBounds":[120.40922,22.648847,120.423096,22.668911],"color":"#68bec9"}},{"type":"Feature","id":"64000150004","geometry":{"type":"Polygon","coordinates":[[[120.412261,22.660591],[120.411087,22.662113],[120.410263,22.664582],[120.409729,22.665065],[120.40932,22.66582],[120.40844,22.665643],[120.408187,22.665089],[120.407936,22.664989],[120.407434,22.664912],[120.40596,22.665106],[120.40362,22.662507],[120.402402,22.661487],[120.402423,22.661426],[120.402525,22.66115],[120.402334,22.660761],[120.402358,22.660175],[120.40283,22.659724],[120.402051,22.658979],[120.402188,22.658315],[120.401566,22.657881],[120.401869,22.657002],[120.401572,22.656584],[120.401688,22.656209],[120.401573,22.655367],[120.401074,22.654396],[120.400656,22.654031],[120.400417,22.652971],[120.40021,22.652896],[120.39996,22.653077],[120.399977,22.652753],[120.399597,22.652078],[120.399603,22.651647],[120.400068,22.651361],[120.399624,22.65083],[120.399614,22.6506],[120.399808,22.650351],[120.400369,22.650129],[120.401166,22.649552],[120.401743,22.647193],[120.401431,22.646562],[120.404317,22.646647],[120.40631,22.6464],[120.409849,22.646548],[120.410224,22.648134],[120.412147,22.64983],[120.412046,22.6505],[120.410676,22.650455],[120.409634,22.65062],[120.409307,22.650852],[120.40922,22.651276],[120.409538,22.651929],[120.409486,22.652807],[120.409949,22.654915],[120.409569,22.656637],[120.409512,22.658],[120.409969,22.658774],[120.411025,22.659462],[120.412261,22.660591]]]},"properties":{"code":"64000150004","name":"水安里","countyCode":"64000","countyName":"高雄市","townCode":"64000150","townName":"大樹區","level":"village","unassigned":false,"note":"","label":[120.40592168448465,22.655031531297016],"bounds":[120.399597,22.6464,120.412261,22.66582],"focusBounds":[120.399597,22.6464,120.412261,22.66582],"color":"#df9f6a"}},{"type":"Feature","id":"64000150005","geometry":{"type":"Polygon","coordinates":[[[120.415889,22.668806],[120.413874,22.667663],[120.413203,22.667665],[120.412716,22.667937],[120.41186,22.667631],[120.411074,22.667068],[120.410856,22.667869],[120.410327,22.668262],[120.409346,22.668419],[120.404708,22.670298],[120.40443,22.67067],[120.403755,22.670909],[120.402415,22.671818],[120.401625,22.671573],[120.400969,22.671679],[120.399115,22.671135],[120.399119,22.67049],[120.39938,22.670036],[120.399884,22.669596],[120.39998,22.668851],[120.400598,22.668152],[120.402059,22.667108],[120.402588,22.666441],[120.40248,22.665256],[120.402674,22.664129],[120.402525,22.662736],[120.402635,22.662282],[120.402402,22.661487],[120.40362,22.662507],[120.40596,22.665106],[120.407434,22.664912],[120.407936,22.664989],[120.408187,22.665089],[120.40844,22.665643],[120.40932,22.66582],[120.409729,22.665065],[120.410263,22.664582],[120.411087,22.662113],[120.412261,22.660591],[120.413764,22.662579],[120.415579,22.663524],[120.414419,22.665428],[120.414506,22.665871],[120.415889,22.668806]]]},"properties":{"code":"64000150005","name":"水寮里","countyCode":"64000","countyName":"高雄市","townCode":"64000150","townName":"大樹區","level":"village","unassigned":false,"note":"","label":[120.40675911656281,22.667233805389536],"bounds":[120.399115,22.660591,120.415889,22.671818],"focusBounds":[120.399115,22.660591,120.415889,22.671818],"color":"#c38cb8"}},{"type":"Feature","id":"64000150006","geometry":{"type":"Polygon","coordinates":[[[120.449882,22.694299],[120.444962,22.696452],[120.440578,22.698037],[120.438703,22.699087],[120.434314,22.69946],[120.433481,22.699714],[120.432517,22.698871],[120.431896,22.698772],[120.431277,22.699009],[120.429359,22.700542],[120.428627,22.698331],[120.428217,22.697899],[120.427913,22.696703],[120.428538,22.695105],[120.428534,22.694312],[120.427748,22.693117],[120.426748,22.692039],[120.424325,22.690012],[120.42596,22.689648],[120.426502,22.689171],[120.428334,22.688412],[120.42921,22.688248],[120.430085,22.688443],[120.430444,22.688731],[120.43076,22.688771],[120.430941,22.688692],[120.431166,22.688133],[120.432041,22.687789],[120.432857,22.688478],[120.433147,22.689023],[120.434071,22.689214],[120.434477,22.689416],[120.434624,22.68973],[120.436291,22.68837],[120.442845,22.684928],[120.442832,22.684801],[120.443071,22.685037],[120.444752,22.686431],[120.446975,22.687692],[120.447522,22.688304],[120.448061,22.689434],[120.448829,22.691184],[120.449882,22.694299]]]},"properties":{"code":"64000150006","name":"檨腳里","countyCode":"64000","countyName":"高雄市","townCode":"64000150","townName":"大樹區","level":"village","unassigned":false,"note":"","label":[120.4387692142539,22.693033969783777],"bounds":[120.424325,22.684801,120.449882,22.700542],"focusBounds":[120.424325,22.684801,120.449882,22.700542],"color":"#98b69b"}},{"type":"Feature","id":"64000150007","geometry":{"type":"Polygon","coordinates":[[[120.429359,22.700542],[120.428677,22.700736],[120.427284,22.701462],[120.424491,22.703132],[120.422202,22.704727],[120.422298,22.704108],[120.422124,22.702798],[120.421216,22.701041],[120.42131,22.700197],[120.420927,22.699495],[120.420922,22.698753],[120.420351,22.697644],[120.420206,22.696944],[120.419451,22.696934],[120.418288,22.69605],[120.417821,22.695976],[120.415915,22.696055],[120.414344,22.695832],[120.413396,22.69623],[120.411984,22.696097],[120.409681,22.696386],[120.408792,22.696882],[120.40704,22.698293],[120.405749,22.698905],[120.405444,22.699247],[120.4044,22.701293],[120.40388,22.70179],[120.40291,22.702143],[120.400983,22.701853],[120.399862,22.701867],[120.39822,22.702353],[120.397488,22.702181],[120.396281,22.701571],[120.396224,22.701306],[120.396898,22.701106],[120.39688,22.700473],[120.396563,22.699963],[120.397076,22.699432],[120.397879,22.69902],[120.399654,22.698798],[120.400299,22.698514],[120.401048,22.698038],[120.401566,22.697442],[120.402315,22.696896],[120.404139,22.696101],[120.405878,22.694783],[120.406342,22.694617],[120.407372,22.694574],[120.407943,22.693716],[120.409849,22.693556],[120.413049,22.691822],[120.414107,22.691514],[120.415139,22.690922],[120.416428,22.690663],[120.417253,22.690284],[120.419052,22.688808],[120.420865,22.688649],[120.421758,22.688772],[120.424325,22.690012],[120.426748,22.692039],[120.427748,22.693117],[120.428534,22.694312],[120.428538,22.695105],[120.427913,22.696703],[120.428217,22.697899],[120.428627,22.698331],[120.429359,22.700542]]]},"properties":{"code":"64000150007","name":"興山里","countyCode":"64000","countyName":"高雄市","townCode":"64000150","townName":"大樹區","level":"village","unassigned":false,"note":"","label":[120.4204949989546,22.69254977106963],"bounds":[120.396224,22.688649,120.429359,22.704727],"focusBounds":[120.396224,22.688649,120.429359,22.704727],"color":"#58b99d"}},{"type":"Feature","id":"64000150008","geometry":{"type":"Polygon","coordinates":[[[120.413503,22.71872],[120.412081,22.719584],[120.411035,22.720677],[120.410527,22.721607],[120.410165,22.721893],[120.409134,22.722106],[120.40807,22.722657],[120.405669,22.72217],[120.405244,22.722281],[120.404285,22.723226],[120.403486,22.723308],[120.402795,22.723184],[120.402401,22.722375],[120.40208,22.720805],[120.401648,22.720151],[120.401413,22.719075],[120.40023,22.717001],[120.399394,22.715015],[120.399158,22.713789],[120.399211,22.713387],[120.400037,22.712704],[120.399862,22.711929],[120.398902,22.711058],[120.398207,22.710666],[120.39837,22.710062],[120.398262,22.709601],[120.398441,22.7092],[120.397981,22.708157],[120.397232,22.707657],[120.39684,22.706935],[120.396043,22.706511],[120.394642,22.704952],[120.394515,22.704619],[120.393464,22.703178],[120.394938,22.70308],[120.395215,22.702941],[120.395532,22.702458],[120.395794,22.702573],[120.396065,22.702425],[120.396281,22.701571],[120.397488,22.702181],[120.39822,22.702353],[120.399862,22.701867],[120.400983,22.701853],[120.40291,22.702143],[120.40388,22.70179],[120.4044,22.701293],[120.405444,22.699247],[120.405749,22.698905],[120.40704,22.698293],[120.408792,22.696882],[120.409681,22.696386],[120.411984,22.696097],[120.413396,22.69623],[120.414344,22.695832],[120.415915,22.696055],[120.417821,22.695976],[120.418288,22.69605],[120.419451,22.696934],[120.420206,22.696944],[120.420351,22.697644],[120.420922,22.698753],[120.420927,22.699495],[120.42131,22.700197],[120.421216,22.701041],[120.422124,22.702798],[120.422298,22.704108],[120.422202,22.704727],[120.419955,22.706148],[120.418726,22.707326],[120.417878,22.707808],[120.415698,22.709002],[120.412812,22.709874],[120.412778,22.710508],[120.413185,22.711772],[120.412943,22.713003],[120.413339,22.713603],[120.413612,22.716559],[120.413503,22.71872]]]},"properties":{"code":"64000150008","name":"和山里","countyCode":"64000","countyName":"高雄市","townCode":"64000150","townName":"大樹區","level":"village","unassigned":false,"note":"","label":[120.40587112938526,22.70856268699997],"bounds":[120.393464,22.695832,120.422298,22.723308],"focusBounds":[120.393464,22.695832,120.422298,22.723308],"color":"#efb44f"}},{"type":"Feature","id":"64000150009","geometry":{"type":"Polygon","coordinates":[[[120.433319,22.70907],[120.432497,22.709311],[120.431994,22.71],[120.431308,22.710311],[120.429557,22.71016],[120.427882,22.710441],[120.426994,22.711503],[120.424275,22.71269],[120.422171,22.715033],[120.420855,22.715482],[120.419926,22.715548],[120.41936,22.715835],[120.418636,22.716526],[120.416958,22.716879],[120.415389,22.717841],[120.414574,22.717854],[120.414129,22.71802],[120.413503,22.71872],[120.413612,22.716559],[120.413339,22.713603],[120.412943,22.713003],[120.413185,22.711772],[120.412778,22.710508],[120.412812,22.709874],[120.415698,22.709002],[120.417878,22.707808],[120.418726,22.707326],[120.419955,22.706148],[120.422202,22.704727],[120.424491,22.703132],[120.427284,22.701462],[120.428677,22.700736],[120.429359,22.700542],[120.431277,22.699009],[120.431896,22.698772],[120.432517,22.698871],[120.433481,22.699714],[120.434314,22.69946],[120.438703,22.699087],[120.440578,22.698037],[120.444962,22.696452],[120.449882,22.694299],[120.45096,22.697361],[120.45127,22.700072],[120.452038,22.702206],[120.44837,22.702812],[120.444668,22.703657],[120.444211,22.703947],[120.44253,22.7057],[120.44218,22.706848],[120.441467,22.707216],[120.440782,22.707802],[120.439355,22.708016],[120.438248,22.708482],[120.438825,22.709281],[120.438122,22.709773],[120.437562,22.709963],[120.436934,22.709972],[120.43467,22.709564],[120.433319,22.70907]]]},"properties":{"code":"64000150009","name":"姑山里","countyCode":"64000","countyName":"高雄市","townCode":"64000150","townName":"大樹區","level":"village","unassigned":false,"note":"","label":[120.43201903268614,22.704378679668867],"bounds":[120.412778,22.694299,120.452038,22.71872],"focusBounds":[120.412778,22.694299,120.452038,22.71872],"color":"#dd8590"}},{"type":"Feature","id":"64000150010","geometry":{"type":"Polygon","coordinates":[[[120.452038,22.702206],[120.45279,22.704169],[120.453001,22.706575],[120.454853,22.714027],[120.455741,22.718493],[120.455844,22.719673],[120.449147,22.718808],[120.447343,22.71898],[120.445962,22.718411],[120.444765,22.718109],[120.441987,22.718526],[120.440179,22.719513],[120.439186,22.717173],[120.438622,22.716548],[120.437864,22.716103],[120.436479,22.715603],[120.435808,22.715077],[120.435226,22.714222],[120.433963,22.711235],[120.433552,22.710865],[120.43375,22.710229],[120.433629,22.709459],[120.433319,22.70907],[120.43467,22.709564],[120.436934,22.709972],[120.437562,22.709963],[120.438122,22.709773],[120.438825,22.709281],[120.438248,22.708482],[120.439355,22.708016],[120.440782,22.707802],[120.441467,22.707216],[120.44218,22.706848],[120.44253,22.7057],[120.444211,22.703947],[120.444668,22.703657],[120.44837,22.702812],[120.452038,22.702206]]]},"properties":{"code":"64000150010","name":"大坑里","countyCode":"64000","countyName":"高雄市","townCode":"64000150","townName":"大樹區","level":"village","unassigned":false,"note":"","label":[120.44697784600598,22.71162358386757],"bounds":[120.433319,22.702206,120.455844,22.719673],"focusBounds":[120.433319,22.702206,120.455844,22.719673],"color":"#a49ad4"}},{"type":"Feature","id":"64000150011","geometry":{"type":"Polygon","coordinates":[[[120.418314,22.673215],[120.418045,22.673657],[120.417033,22.674213],[120.414666,22.674936],[120.410724,22.675662],[120.409563,22.676134],[120.409128,22.67651],[120.408325,22.67668],[120.40706,22.677416],[120.405694,22.67784],[120.404618,22.67957],[120.403973,22.680137],[120.403879,22.680701],[120.403076,22.681822],[120.402701,22.683326],[120.401133,22.684537],[120.398839,22.685091],[120.397673,22.685096],[120.396211,22.685332],[120.396107,22.685523],[120.394509,22.685946],[120.393064,22.686681],[120.390223,22.687535],[120.389921,22.687347],[120.390063,22.686487],[120.389777,22.685425],[120.39015,22.68509],[120.390451,22.684843],[120.391634,22.684987],[120.391796,22.683994],[120.39201,22.683774],[120.39303,22.683992],[120.393878,22.683801],[120.394125,22.683565],[120.394041,22.683211],[120.394426,22.682487],[120.395596,22.68216],[120.396353,22.681506],[120.397671,22.680766],[120.397383,22.680568],[120.396558,22.680558],[120.396668,22.68008],[120.39656,22.679983],[120.395881,22.679998],[120.395964,22.679635],[120.395532,22.678766],[120.395878,22.678284],[120.395828,22.677864],[120.396028,22.677443],[120.396294,22.677236],[120.397007,22.677196],[120.397134,22.677077],[120.397049,22.67544],[120.397615,22.674794],[120.398402,22.67337],[120.398622,22.67214],[120.398481,22.6719],[120.398227,22.671641],[120.399115,22.671135],[120.400969,22.671679],[120.401625,22.671573],[120.402415,22.671818],[120.403755,22.670909],[120.40443,22.67067],[120.404708,22.670298],[120.409346,22.668419],[120.410327,22.668262],[120.410856,22.667869],[120.411074,22.667068],[120.41186,22.667631],[120.412716,22.667937],[120.413203,22.667665],[120.413874,22.667663],[120.415889,22.668806],[120.416097,22.668911],[120.417117,22.668529],[120.418186,22.670718],[120.417924,22.671306],[120.417924,22.671769],[120.418314,22.673215]]]},"properties":{"code":"64000150011","name":"井腳里","countyCode":"64000","countyName":"高雄市","townCode":"64000150","townName":"大樹區","level":"village","unassigned":false,"note":"","label":[120.40200845345197,22.675831141981032],"bounds":[120.389777,22.667068,120.418314,22.687535],"focusBounds":[120.389777,22.667068,120.418314,22.687535],"color":"#a8bf62"}},{"type":"Feature","id":"64000150012","geometry":{"type":"Polygon","coordinates":[[[120.418883,22.681122],[120.418296,22.681208],[120.416617,22.682518],[120.414888,22.683275],[120.414139,22.683798],[120.413467,22.684536],[120.41197,22.685415],[120.410397,22.685791],[120.409596,22.686434],[120.407507,22.687286],[120.406395,22.688262],[120.404407,22.689449],[120.402628,22.689991],[120.401801,22.690658],[120.400797,22.690677],[120.400332,22.690987],[120.399483,22.690864],[120.398476,22.691576],[120.396518,22.691736],[120.395435,22.691996],[120.394045,22.692013],[120.393165,22.69224],[120.393363,22.691977],[120.392103,22.689746],[120.390837,22.688777],[120.390564,22.687821],[120.390223,22.687535],[120.393064,22.686681],[120.394509,22.685946],[120.396107,22.685523],[120.396211,22.685332],[120.397673,22.685096],[120.398839,22.685091],[120.401133,22.684537],[120.402701,22.683326],[120.403076,22.681822],[120.403879,22.680701],[120.403973,22.680137],[120.404618,22.67957],[120.405694,22.67784],[120.40706,22.677416],[120.408325,22.67668],[120.409128,22.67651],[120.409563,22.676134],[120.410724,22.675662],[120.414666,22.674936],[120.417033,22.674213],[120.418045,22.673657],[120.418314,22.673215],[120.418558,22.673898],[120.418641,22.674838],[120.419006,22.675401],[120.420327,22.67572],[120.421224,22.676823],[120.422356,22.677425],[120.422737,22.678334],[120.422503,22.679051],[120.421805,22.679525],[120.419638,22.680544],[120.418883,22.681122]]]},"properties":{"code":"64000150012","name":"小坪里","countyCode":"64000","countyName":"高雄市","townCode":"64000150","townName":"大樹區","level":"village","unassigned":false,"note":"","label":[120.40863401433694,22.681720585622095],"bounds":[120.390223,22.673215,120.422737,22.69224],"focusBounds":[120.390223,22.673215,120.422737,22.69224],"color":"#68bec9"}},{"type":"Feature","id":"64000150013","geometry":{"type":"Polygon","coordinates":[[[120.421758,22.688772],[120.420865,22.688649],[120.419052,22.688808],[120.417253,22.690284],[120.416428,22.690663],[120.415139,22.690922],[120.414107,22.691514],[120.413049,22.691822],[120.409849,22.693556],[120.407943,22.693716],[120.407372,22.694574],[120.406342,22.694617],[120.405878,22.694783],[120.404139,22.696101],[120.402315,22.696896],[120.401566,22.697442],[120.401048,22.698038],[120.400299,22.698514],[120.399654,22.698798],[120.397879,22.69902],[120.397076,22.699432],[120.396563,22.699963],[120.396234,22.69889],[120.395778,22.698401],[120.395339,22.697577],[120.394331,22.697243],[120.394187,22.696173],[120.394002,22.696007],[120.393369,22.695914],[120.393335,22.695332],[120.39245,22.694739],[120.392331,22.694066],[120.392954,22.693274],[120.393165,22.69224],[120.394045,22.692013],[120.395435,22.691996],[120.396518,22.691736],[120.398476,22.691576],[120.399483,22.690864],[120.400332,22.690987],[120.400797,22.690677],[120.401801,22.690658],[120.402628,22.689991],[120.404407,22.689449],[120.406395,22.688262],[120.407507,22.687286],[120.409596,22.686434],[120.410397,22.685791],[120.41197,22.685415],[120.413467,22.684536],[120.414139,22.683798],[120.414888,22.683275],[120.416617,22.682518],[120.418296,22.681208],[120.418883,22.681122],[120.418981,22.683721],[120.419415,22.685418],[120.420079,22.68645],[120.420166,22.687186],[120.421039,22.687679],[120.421758,22.688772]]]},"properties":{"code":"64000150013","name":"龍目里","countyCode":"64000","countyName":"高雄市","townCode":"64000150","townName":"大樹區","level":"village","unassigned":false,"note":"","label":[120.40938523754836,22.690057196456234],"bounds":[120.392331,22.681122,120.421758,22.699963],"focusBounds":[120.392331,22.681122,120.421758,22.699963],"color":"#c38cb8"}},{"type":"Feature","id":"64000150014","geometry":{"type":"Polygon","coordinates":[[[120.442832,22.684801],[120.442845,22.684928],[120.436291,22.68837],[120.434624,22.68973],[120.434477,22.689416],[120.434071,22.689214],[120.433147,22.689023],[120.432857,22.688478],[120.432041,22.687789],[120.431166,22.688133],[120.430941,22.688692],[120.43076,22.688771],[120.430444,22.688731],[120.430085,22.688443],[120.42921,22.688248],[120.428334,22.688412],[120.426502,22.689171],[120.42596,22.689648],[120.424325,22.690012],[120.421758,22.688772],[120.421039,22.687679],[120.420166,22.687186],[120.420079,22.68645],[120.419415,22.685418],[120.418981,22.683721],[120.418883,22.681122],[120.419638,22.680544],[120.421805,22.679525],[120.422503,22.679051],[120.422992,22.678789],[120.42374,22.678647],[120.42464,22.678889],[120.425233,22.678772],[120.425701,22.678469],[120.426926,22.677062],[120.427072,22.676008],[120.427386,22.67537],[120.430814,22.673847],[120.434528,22.67245],[120.439681,22.672036],[120.44,22.673039],[120.440167,22.674594],[120.440016,22.676358],[120.439588,22.678325],[120.440982,22.68137],[120.442832,22.684801]]]},"properties":{"code":"64000150014","name":"大樹里","countyCode":"64000","countyName":"高雄市","townCode":"64000150","townName":"大樹區","level":"village","unassigned":false,"note":"","label":[120.43261247876565,22.680720910724666],"bounds":[120.418883,22.672036,120.442845,22.690012],"focusBounds":[120.418883,22.672036,120.442845,22.690012],"color":"#df9f6a"}},{"type":"Feature","id":"64000150015","geometry":{"type":"Polygon","coordinates":[[[120.438343,22.722035],[120.437235,22.721943],[120.4361,22.722273],[120.433486,22.723998],[120.432062,22.724402],[120.431377,22.724968],[120.430976,22.725723],[120.430393,22.725911],[120.429879,22.725645],[120.428813,22.726201],[120.428117,22.727295],[120.427848,22.727166],[120.427838,22.726737],[120.427687,22.726644],[120.427017,22.727088],[120.42557,22.727374],[120.425288,22.727301],[120.424893,22.727573],[120.424049,22.72775],[120.42343,22.728082],[120.422702,22.729563],[120.420182,22.731556],[120.419381,22.731684],[120.41906,22.732209],[120.41844,22.732485],[120.418034,22.733045],[120.416495,22.732888],[120.416038,22.732413],[120.415221,22.732604],[120.414485,22.732016],[120.413748,22.73219],[120.413408,22.732028],[120.412647,22.732204],[120.412344,22.73202],[120.412079,22.732127],[120.411316,22.733912],[120.411164,22.73523],[120.411336,22.736527],[120.411885,22.737719],[120.41257,22.7385],[120.413061,22.739484],[120.413059,22.739911],[120.412502,22.741735],[120.412625,22.74293],[120.413541,22.744583],[120.413877,22.74488],[120.415169,22.74454],[120.416756,22.744437],[120.417362,22.744067],[120.417512,22.744668],[120.417355,22.745313],[120.416993,22.745716],[120.415003,22.746363],[120.413934,22.747276],[120.411731,22.74732],[120.411712,22.74716],[120.410392,22.745879],[120.410581,22.744101],[120.410237,22.743735],[120.409799,22.743566],[120.409497,22.742816],[120.408989,22.742304],[120.408052,22.742171],[120.406746,22.741089],[120.406056,22.7402],[120.40546,22.738967],[120.405063,22.738615],[120.404532,22.738503],[120.403703,22.738687],[120.402628,22.738279],[120.40197,22.738392],[120.401829,22.738109],[120.401395,22.737976],[120.400762,22.738136],[120.399982,22.738964],[120.399658,22.738541],[120.399608,22.738062],[120.398566,22.736941],[120.398367,22.73633],[120.397436,22.735701],[120.397246,22.735308],[120.398139,22.734848],[120.398543,22.734807],[120.398978,22.734935],[120.399728,22.735624],[120.399945,22.735659],[120.400835,22.734741],[120.400819,22.733822],[120.40153,22.733416],[120.400291,22.728896],[120.400372,22.728102],[120.40079,22.727455],[120.400611,22.726852],[120.400162,22.726642],[120.400014,22.726039],[120.400374,22.725289],[120.401407,22.725864],[120.402547,22.72543],[120.403176,22.724886],[120.403201,22.724432],[120.402795,22.723184],[120.403486,22.723308],[120.404285,22.723226],[120.405244,22.722281],[120.405669,22.72217],[120.40807,22.722657],[120.409134,22.722106],[120.410165,22.721893],[120.410527,22.721607],[120.411035,22.720677],[120.412081,22.719584],[120.413503,22.71872],[120.414129,22.71802],[120.414574,22.717854],[120.415389,22.717841],[120.416958,22.716879],[120.418636,22.716526],[120.41936,22.715835],[120.419926,22.715548],[120.420855,22.715482],[120.422171,22.715033],[120.424275,22.71269],[120.426994,22.711503],[120.427882,22.710441],[120.429557,22.71016],[120.431308,22.710311],[120.431994,22.71],[120.432497,22.709311],[120.433319,22.70907],[120.433629,22.709459],[120.43375,22.710229],[120.433552,22.710865],[120.433963,22.711235],[120.435226,22.714222],[120.435808,22.715077],[120.436479,22.715603],[120.437864,22.716103],[120.438622,22.716548],[120.439186,22.717173],[120.440179,22.719513],[120.438959,22.719647],[120.438786,22.719788],[120.438634,22.720108],[120.438599,22.721442],[120.438343,22.722035]]]},"properties":{"code":"64000150015","name":"三和里","countyCode":"64000","countyName":"高雄市","townCode":"64000150","townName":"大樹區","level":"village","unassigned":false,"note":"","label":[120.41760462120372,22.72487210459569],"bounds":[120.397246,22.70907,120.440179,22.74732],"focusBounds":[120.397246,22.70907,120.440179,22.74732],"color":"#c38cb8"}},{"type":"Feature","id":"64000150016","geometry":{"type":"Polygon","coordinates":[[[120.455708,22.733731],[120.445531,22.734087],[120.444101,22.734353],[120.44329,22.734104],[120.443048,22.733351],[120.443143,22.732263],[120.442941,22.731236],[120.442115,22.729422],[120.441955,22.728645],[120.44164,22.728077],[120.4406,22.727344],[120.4406,22.727161],[120.440895,22.726896],[120.440797,22.726329],[120.440619,22.72578],[120.439901,22.725107],[120.439707,22.724519],[120.439492,22.724374],[120.438833,22.724353],[120.437962,22.723181],[120.438031,22.722953],[120.438494,22.722641],[120.438513,22.722239],[120.438343,22.722035],[120.438599,22.721442],[120.438634,22.720108],[120.438786,22.719788],[120.438959,22.719647],[120.440179,22.719513],[120.441987,22.718526],[120.444765,22.718109],[120.445962,22.718411],[120.447343,22.71898],[120.449147,22.718808],[120.455844,22.719673],[120.456063,22.722516],[120.456006,22.730292],[120.455708,22.733731]]]},"properties":{"code":"64000150016","name":"溪埔里","countyCode":"64000","countyName":"高雄市","townCode":"64000150","townName":"大樹區","level":"village","unassigned":false,"note":"","label":[120.44883629655916,22.726404766149187],"bounds":[120.437962,22.718109,120.456063,22.734353],"focusBounds":[120.437962,22.718109,120.456063,22.734353],"color":"#98b69b"}},{"type":"Feature","id":"64000150017","geometry":{"type":"Polygon","coordinates":[[[120.454191,22.751577],[120.45417,22.751718],[120.44461,22.75287],[120.443691,22.753361],[120.442754,22.753541],[120.441371,22.754048],[120.440608,22.753782],[120.439962,22.753804],[120.439527,22.754006],[120.439263,22.755188],[120.438985,22.755715],[120.435653,22.755988],[120.435085,22.756223],[120.433922,22.757056],[120.43209,22.757957],[120.430647,22.75788],[120.42975,22.758021],[120.425386,22.757195],[120.42392,22.757996],[120.422523,22.758126],[120.421074,22.759121],[120.420573,22.759257],[120.420238,22.759109],[120.419558,22.759188],[120.418559,22.758938],[120.417936,22.758392],[120.417288,22.758346],[120.414976,22.759449],[120.414639,22.759996],[120.414315,22.76133],[120.413747,22.761136],[120.413635,22.760321],[120.412856,22.758993],[120.412234,22.758546],[120.411849,22.758061],[120.411415,22.756996],[120.411897,22.756294],[120.411875,22.755553],[120.411303,22.753995],[120.411721,22.753277],[120.411817,22.75276],[120.411285,22.751941],[120.411557,22.75115],[120.411237,22.750521],[120.411243,22.749834],[120.41047,22.748818],[120.411554,22.747948],[120.411731,22.74732],[120.413934,22.747276],[120.415003,22.746363],[120.416993,22.745716],[120.417355,22.745313],[120.417512,22.744668],[120.417362,22.744067],[120.416756,22.744437],[120.415169,22.74454],[120.413877,22.74488],[120.413541,22.744583],[120.412625,22.74293],[120.412502,22.741735],[120.413059,22.739911],[120.413061,22.739484],[120.41257,22.7385],[120.411885,22.737719],[120.411336,22.736527],[120.411164,22.73523],[120.411316,22.733912],[120.412079,22.732127],[120.412344,22.73202],[120.412647,22.732204],[120.413408,22.732028],[120.413748,22.73219],[120.414485,22.732016],[120.415221,22.732604],[120.416038,22.732413],[120.416495,22.732888],[120.418034,22.733045],[120.41844,22.732485],[120.41906,22.732209],[120.419381,22.731684],[120.420182,22.731556],[120.422702,22.729563],[120.42343,22.728082],[120.424049,22.72775],[120.424893,22.727573],[120.425288,22.727301],[120.42557,22.727374],[120.427017,22.727088],[120.427687,22.726644],[120.427838,22.726737],[120.427848,22.727166],[120.428117,22.727295],[120.428813,22.726201],[120.429879,22.725645],[120.430393,22.725911],[120.430976,22.725723],[120.431377,22.724968],[120.432062,22.724402],[120.433486,22.723998],[120.4361,22.722273],[120.437235,22.721943],[120.438343,22.722035],[120.438513,22.722239],[120.438494,22.722641],[120.438031,22.722953],[120.437962,22.723181],[120.438833,22.724353],[120.439492,22.724374],[120.439707,22.724519],[120.439901,22.725107],[120.440619,22.72578],[120.440797,22.726329],[120.440895,22.726896],[120.4406,22.727161],[120.4406,22.727344],[120.44164,22.728077],[120.441955,22.728645],[120.442115,22.729422],[120.442941,22.731236],[120.443143,22.732263],[120.443048,22.733351],[120.44329,22.734104],[120.444101,22.734353],[120.445531,22.734087],[120.455708,22.733731],[120.455015,22.73884],[120.454754,22.741799],[120.454617,22.747482],[120.45427,22.748739],[120.454201,22.750598],[120.454191,22.751577]]]},"properties":{"code":"64000150017","name":"興田里","countyCode":"64000","countyName":"高雄市","townCode":"64000150","townName":"大樹區","level":"village","unassigned":false,"note":"","label":[120.43156588836887,22.742663068180327],"bounds":[120.41047,22.721943,120.455708,22.76133],"focusBounds":[120.41047,22.721943,120.455708,22.76133],"color":"#58b99d"}},{"type":"Feature","id":"64000150018","geometry":{"type":"Polygon","coordinates":[[[120.454315,22.771776],[120.452919,22.771872],[120.450641,22.772764],[120.447457,22.77293],[120.446389,22.772449],[120.445099,22.772627],[120.444185,22.772546],[120.441843,22.773362],[120.44095,22.773071],[120.440277,22.773041],[120.440064,22.772849],[120.439434,22.772972],[120.438886,22.772878],[120.436676,22.773584],[120.435484,22.773602],[120.432329,22.774273],[120.431261,22.774104],[120.431032,22.774234],[120.430509,22.775138],[120.42932,22.776355],[120.428524,22.777792],[120.427179,22.777478],[120.42632,22.777105],[120.425968,22.776573],[120.426098,22.775802],[120.424542,22.774873],[120.423709,22.774919],[120.42322,22.774789],[120.422321,22.774919],[120.421424,22.774204],[120.420861,22.77401],[120.419758,22.774345],[120.419193,22.774691],[120.418984,22.774609],[120.418454,22.77346],[120.418574,22.772487],[120.418467,22.772042],[120.417564,22.77044],[120.416595,22.769794],[120.416446,22.769533],[120.41613,22.768311],[120.41611,22.766923],[120.416282,22.766523],[120.417375,22.765809],[120.417276,22.764321],[120.416783,22.764134],[120.415791,22.763318],[120.414866,22.762258],[120.414315,22.76133],[120.414639,22.759996],[120.414976,22.759449],[120.417288,22.758346],[120.417936,22.758392],[120.418559,22.758938],[120.419558,22.759188],[120.420238,22.759109],[120.420573,22.759257],[120.421074,22.759121],[120.422523,22.758126],[120.42392,22.757996],[120.425386,22.757195],[120.42975,22.758021],[120.430647,22.75788],[120.43209,22.757957],[120.433922,22.757056],[120.435085,22.756223],[120.435653,22.755988],[120.438985,22.755715],[120.439263,22.755188],[120.439527,22.754006],[120.439962,22.753804],[120.440608,22.753782],[120.441371,22.754048],[120.442754,22.753541],[120.443691,22.753361],[120.44461,22.75287],[120.45417,22.751718],[120.454191,22.751577],[120.454184,22.753559],[120.45394,22.754263],[120.453711,22.755955],[120.453721,22.756714],[120.454022,22.757897],[120.453714,22.760858],[120.454417,22.764175],[120.453861,22.767042],[120.453764,22.768978],[120.45401,22.770793],[120.454315,22.771776]]]},"properties":{"code":"64000150018","name":"統嶺里","countyCode":"64000","countyName":"高雄市","townCode":"64000150","townName":"大樹區","level":"village","unassigned":false,"note":"","label":[120.43771875809395,22.76453498050078],"bounds":[120.414315,22.751577,120.454417,22.777792],"focusBounds":[120.414315,22.751577,120.454417,22.777792],"color":"#efb44f"}}]}
