{"type":"FeatureCollection","features":[{"type":"Feature","id":"64000200001","geometry":{"type":"Polygon","coordinates":[[[120.316454,22.760507],[120.31596,22.761387],[120.315383,22.761906],[120.314229,22.761976],[120.313437,22.762196],[120.310183,22.763844],[120.309664,22.764593],[120.309022,22.766374],[120.308414,22.767073],[120.307459,22.767512],[120.305527,22.767515],[120.307659,22.763641],[120.305886,22.762631],[120.305381,22.762093],[120.305468,22.761195],[120.30637,22.758653],[120.306377,22.758474],[120.306203,22.758417],[120.304978,22.758355],[120.30537,22.756406],[120.30581,22.755611],[120.309677,22.756292],[120.310255,22.755312],[120.311005,22.755948],[120.310905,22.756159],[120.311238,22.756411],[120.31121,22.756707],[120.311936,22.757015],[120.31242,22.756882],[120.312038,22.757611],[120.312263,22.75787],[120.311863,22.758593],[120.311937,22.758823],[120.313419,22.759051],[120.316454,22.760507]]]},"properties":{"code":"64000200001","name":"橋頭里","countyCode":"64000","countyName":"高雄市","townCode":"64000200","townName":"橋頭區","level":"village","unassigned":false,"note":"","label":[120.30945382735484,22.76071373846067],"bounds":[120.304978,22.755312,120.316454,22.767515],"focusBounds":[120.304978,22.755312,120.316454,22.767515],"color":"#98b69b"}},{"type":"Feature","id":"64000200002","geometry":{"type":"Polygon","coordinates":[[[120.32493,22.75532],[120.324207,22.755464],[120.324574,22.757956],[120.324238,22.75863],[120.323826,22.758838],[120.323281,22.75886],[120.320403,22.757471],[120.319785,22.757362],[120.319411,22.757444],[120.318611,22.75787],[120.317511,22.758904],[120.316454,22.760507],[120.313419,22.759051],[120.311937,22.758823],[120.311863,22.758593],[120.312263,22.75787],[120.312038,22.757611],[120.31242,22.756882],[120.311936,22.757015],[120.31121,22.756707],[120.311238,22.756411],[120.310905,22.756159],[120.311005,22.755948],[120.314197,22.749992],[120.315916,22.746701],[120.319414,22.734797],[120.319426,22.734794],[120.320217,22.734617],[120.320414,22.734899],[120.321605,22.734543],[120.322129,22.734615],[120.322337,22.733881],[120.323046,22.734393],[120.324552,22.736118],[120.324844,22.736168],[120.325739,22.735932],[120.325546,22.736197],[120.323004,22.739556],[120.324418,22.740778],[120.324795,22.740849],[120.325815,22.741683],[120.323132,22.744369],[120.324755,22.746355],[120.326617,22.748161],[120.325893,22.748428],[120.325249,22.749555],[120.325818,22.75105],[120.326061,22.752327],[120.325875,22.752828],[120.324844,22.753592],[120.32493,22.75532]]]},"properties":{"code":"64000200002","name":"橋南里","countyCode":"64000","countyName":"高雄市","townCode":"64000200","townName":"橋頭區","level":"village","unassigned":false,"note":"","label":[120.31977259449782,22.7510401840594],"bounds":[120.310905,22.733881,120.326617,22.760507],"focusBounds":[120.310905,22.733881,120.326617,22.760507],"color":"#58b99d"}},{"type":"Feature","id":"64000200003","geometry":{"type":"Polygon","coordinates":[[[120.311005,22.755948],[120.310255,22.755312],[120.309677,22.756292],[120.30581,22.755611],[120.309045,22.751566],[120.309635,22.750826],[120.309886,22.750847],[120.311877,22.749388],[120.312578,22.749093],[120.314197,22.749992],[120.311005,22.755948]]]},"properties":{"code":"64000200003","name":"仕隆里","countyCode":"64000","countyName":"高雄市","townCode":"64000200","townName":"橋頭區","level":"village","unassigned":false,"note":"","label":[120.31037074117816,22.75295112045754],"bounds":[120.30581,22.749093,120.314197,22.756292],"focusBounds":[120.30581,22.749093,120.314197,22.756292],"color":"#efb44f"}},{"type":"Feature","id":"64000200004","geometry":{"type":"Polygon","coordinates":[[[120.312578,22.749093],[120.311877,22.749388],[120.309886,22.750847],[120.309635,22.750826],[120.309045,22.751566],[120.308415,22.75101],[120.306613,22.749896],[120.302933,22.746333],[120.304131,22.74539],[120.30394,22.744976],[120.304098,22.744787],[120.304957,22.744299],[120.305435,22.744292],[120.306894,22.746052],[120.312578,22.749093]]]},"properties":{"code":"64000200004","name":"仕豐里","countyCode":"64000","countyName":"高雄市","townCode":"64000200","townName":"橋頭區","level":"village","unassigned":false,"note":"","label":[120.30773643776584,22.74854670678752],"bounds":[120.302933,22.744292,120.312578,22.751566],"focusBounds":[120.302933,22.744292,120.312578,22.751566],"color":"#78a7e3"}},{"type":"Feature","id":"64000200005","geometry":{"type":"Polygon","coordinates":[[[120.281309,22.766225],[120.280432,22.765761],[120.279978,22.765793],[120.279703,22.766043],[120.279396,22.766932],[120.278324,22.767132],[120.276842,22.768063],[120.276409,22.767979],[120.275638,22.767426],[120.274799,22.767112],[120.274506,22.766196],[120.275314,22.76523],[120.274346,22.763693],[120.274292,22.763299],[120.274799,22.762574],[120.275458,22.762076],[120.275811,22.761409],[120.276214,22.758489],[120.276104,22.756779],[120.278551,22.756436],[120.27855,22.755131],[120.278356,22.754478],[120.279035,22.754077],[120.279714,22.753143],[120.280129,22.752826],[120.283689,22.75142],[120.284778,22.751434],[120.28518,22.752061],[120.285304,22.752287],[120.286395,22.752459],[120.287517,22.752907],[120.287421,22.753645],[120.287069,22.7543],[120.287183,22.754983],[120.288805,22.755243],[120.289741,22.756035],[120.291953,22.757388],[120.291303,22.757505],[120.290929,22.757905],[120.291044,22.75824],[120.290692,22.758884],[120.291554,22.759258],[120.290987,22.760414],[120.289293,22.759706],[120.287496,22.761795],[120.287098,22.763537],[120.284143,22.763932],[120.283307,22.764741],[120.28154,22.765681],[120.281309,22.766225]]]},"properties":{"code":"64000200005","name":"芋寮里","countyCode":"64000","countyName":"高雄市","townCode":"64000200","townName":"橋頭區","level":"village","unassigned":false,"note":"","label":[120.28236741601792,22.75939420956595],"bounds":[120.274292,22.75142,120.291953,22.768063],"focusBounds":[120.274292,22.75142,120.291953,22.768063],"color":"#dd8590"}},{"type":"Feature","id":"64000200006","geometry":{"type":"Polygon","coordinates":[[[120.300206,22.766848],[120.296728,22.767268],[120.291525,22.769794],[120.289853,22.770275],[120.289352,22.770094],[120.290388,22.767949],[120.290507,22.767401],[120.292273,22.764698],[120.292227,22.764375],[120.291695,22.764094],[120.292767,22.761187],[120.290987,22.760414],[120.291554,22.759258],[120.290692,22.758884],[120.291044,22.75824],[120.290929,22.757905],[120.291303,22.757505],[120.291953,22.757388],[120.293116,22.75768],[120.294176,22.757728],[120.295795,22.75678],[120.301627,22.764673],[120.301779,22.764787],[120.300206,22.766848]]]},"properties":{"code":"64000200006","name":"東林里","countyCode":"64000","countyName":"高雄市","townCode":"64000200","townName":"橋頭區","level":"village","unassigned":false,"note":"","label":[120.29586716095578,22.763411747843872],"bounds":[120.289352,22.75678,120.301779,22.770275],"focusBounds":[120.289352,22.75678,120.301779,22.770275],"color":"#a49ad4"}},{"type":"Feature","id":"64000200007","geometry":{"type":"Polygon","coordinates":[[[120.289352,22.770094],[120.288679,22.770025],[120.288284,22.770159],[120.287736,22.770811],[120.286968,22.771227],[120.28532,22.771157],[120.28498,22.770907],[120.284865,22.7706],[120.285105,22.770085],[120.28574,22.769697],[120.285451,22.769005],[120.285167,22.768765],[120.284624,22.768652],[120.283354,22.769395],[120.282782,22.769304],[120.282594,22.76898],[120.282609,22.767354],[120.282379,22.76698],[120.281309,22.766225],[120.28154,22.765681],[120.283307,22.764741],[120.284143,22.763932],[120.287098,22.763537],[120.287496,22.761795],[120.289293,22.759706],[120.290987,22.760414],[120.292767,22.761187],[120.291695,22.764094],[120.292227,22.764375],[120.292273,22.764698],[120.290507,22.767401],[120.290388,22.767949],[120.289352,22.770094]]]},"properties":{"code":"64000200007","name":"西林里","countyCode":"64000","countyName":"高雄市","townCode":"64000200","townName":"橋頭區","level":"village","unassigned":false,"note":"","label":[120.28749601696468,22.766628311356875],"bounds":[120.281309,22.759706,120.292767,22.771227],"focusBounds":[120.281309,22.759706,120.292767,22.771227],"color":"#a8bf62"}},{"type":"Feature","id":"64000200008","geometry":{"type":"Polygon","coordinates":[[[120.305381,22.762093],[120.304546,22.762731],[120.303993,22.76255],[120.301627,22.764673],[120.295795,22.75678],[120.297803,22.755592],[120.298266,22.75561],[120.298915,22.755888],[120.299326,22.752874],[120.301221,22.7542],[120.301412,22.754095],[120.302262,22.754512],[120.304235,22.754683],[120.30581,22.755611],[120.30537,22.756406],[120.304978,22.758355],[120.306203,22.758417],[120.306377,22.758474],[120.30637,22.758653],[120.305468,22.761195],[120.305381,22.762093]]]},"properties":{"code":"64000200008","name":"白樹里","countyCode":"64000","countyName":"高雄市","townCode":"64000200","townName":"橋頭區","level":"village","unassigned":false,"note":"","label":[120.30149904652762,22.75859742270327],"bounds":[120.295795,22.752874,120.306377,22.764673],"focusBounds":[120.295795,22.752874,120.306377,22.764673],"color":"#68bec9"}},{"type":"Feature","id":"64000200009","geometry":{"type":"Polygon","coordinates":[[[120.314523,22.770951],[120.313618,22.770754],[120.311213,22.773175],[120.309245,22.774387],[120.307869,22.7734],[120.307176,22.773229],[120.306396,22.772786],[120.306092,22.772812],[120.305012,22.77381],[120.30386,22.776783],[120.302915,22.776764],[120.301231,22.777431],[120.299924,22.777719],[120.299743,22.777669],[120.300157,22.776925],[120.299405,22.776152],[120.298508,22.775956],[120.295963,22.775964],[120.295875,22.775188],[120.295433,22.773927],[120.295397,22.773131],[120.294587,22.770692],[120.293543,22.772481],[120.292218,22.77298],[120.291743,22.772731],[120.289853,22.770275],[120.291525,22.769794],[120.296728,22.767268],[120.300206,22.766848],[120.301666,22.766769],[120.305527,22.767515],[120.307459,22.767512],[120.308414,22.767073],[120.309022,22.766374],[120.309664,22.764593],[120.310183,22.763844],[120.313437,22.762196],[120.314229,22.761976],[120.315383,22.761906],[120.31596,22.761387],[120.316454,22.760507],[120.31714,22.760941],[120.319021,22.76329],[120.318449,22.764475],[120.317841,22.765154],[120.315189,22.767288],[120.314757,22.768801],[120.314523,22.770951]]]},"properties":{"code":"64000200009","name":"筆秀里","countyCode":"64000","countyName":"高雄市","townCode":"64000200","townName":"橋頭區","level":"village","unassigned":false,"note":"","label":[120.30123611185215,22.771447458098113],"bounds":[120.289853,22.760507,120.319021,22.777719],"focusBounds":[120.289853,22.760507,120.319021,22.777719],"color":"#df9f6a"}},{"type":"Feature","id":"64000200010","geometry":{"type":"Polygon","coordinates":[[[120.299326,22.752874],[120.298915,22.755888],[120.298266,22.75561],[120.297803,22.755592],[120.295795,22.75678],[120.292101,22.751632],[120.291778,22.750497],[120.29195,22.749041],[120.293099,22.747091],[120.296462,22.749447],[120.299227,22.746026],[120.298851,22.745252],[120.297685,22.744027],[120.298359,22.743231],[120.299146,22.742912],[120.300478,22.741879],[120.301552,22.740784],[120.301156,22.740268],[120.30139,22.739767],[120.300671,22.739263],[120.300467,22.738892],[120.30052,22.738664],[120.300992,22.738199],[120.300948,22.738081],[120.300341,22.738282],[120.299054,22.738156],[120.298317,22.738666],[120.298047,22.738678],[120.297753,22.738318],[120.297897,22.737745],[120.298403,22.737126],[120.298417,22.736815],[120.297599,22.733011],[120.293417,22.733765],[120.295015,22.732756],[120.294899,22.732196],[120.295815,22.731433],[120.295505,22.73083],[120.295893,22.730609],[120.295232,22.72944],[120.296619,22.728367],[120.296986,22.729512],[120.298397,22.730874],[120.298653,22.731614],[120.299214,22.732082],[120.299877,22.731885],[120.300013,22.729889],[120.30035,22.729402],[120.300974,22.729023],[120.301719,22.729135],[120.303234,22.73019],[120.303796,22.730404],[120.30486,22.729931],[120.305394,22.729273],[120.3077,22.72987],[120.309932,22.729787],[120.310124,22.729798],[120.310275,22.730007],[120.3114,22.730802],[120.311381,22.731473],[120.31082,22.732316],[120.309914,22.7331],[120.309948,22.734082],[120.309799,22.734451],[120.308989,22.735292],[120.308403,22.73543],[120.308133,22.735737],[120.308129,22.736186],[120.308329,22.736328],[120.309015,22.736385],[120.309426,22.736255],[120.309897,22.73588],[120.312468,22.7355],[120.313741,22.735926],[120.315229,22.736912],[120.31571,22.737031],[120.316008,22.73689],[120.317116,22.735466],[120.319414,22.734797],[120.315916,22.746701],[120.314197,22.749992],[120.312578,22.749093],[120.306894,22.746052],[120.305435,22.744292],[120.304957,22.744299],[120.304098,22.744787],[120.30394,22.744976],[120.304131,22.74539],[120.302933,22.746333],[120.298872,22.751273],[120.299642,22.751767],[120.299326,22.752874]]]},"properties":{"code":"64000200010","name":"新莊里","countyCode":"64000","countyName":"高雄市","townCode":"64000200","townName":"橋頭區","level":"village","unassigned":false,"note":"","label":[120.31138069066859,22.742056574007613],"bounds":[120.291778,22.728367,120.319414,22.75678],"focusBounds":[120.291778,22.728367,120.319414,22.75678],"color":"#c38cb8"}},{"type":"Feature","id":"64000200011","geometry":{"type":"Polygon","coordinates":[[[120.293417,22.733765],[120.297599,22.733011],[120.298417,22.736815],[120.298403,22.737126],[120.297897,22.737745],[120.297753,22.738318],[120.298047,22.738678],[120.298317,22.738666],[120.299054,22.738156],[120.300341,22.738282],[120.300948,22.738081],[120.300992,22.738199],[120.30052,22.738664],[120.300467,22.738892],[120.300671,22.739263],[120.30139,22.739767],[120.301156,22.740268],[120.301552,22.740784],[120.300478,22.741879],[120.299146,22.742912],[120.298359,22.743231],[120.297685,22.744027],[120.298851,22.745252],[120.299227,22.746026],[120.296462,22.749447],[120.293099,22.747091],[120.293889,22.745851],[120.293946,22.744765],[120.294714,22.743251],[120.29469,22.742856],[120.293873,22.742398],[120.294832,22.740337],[120.294328,22.738183],[120.29283,22.734978],[120.293732,22.734528],[120.293417,22.733765]]]},"properties":{"code":"64000200011","name":"甲北里","countyCode":"64000","countyName":"高雄市","townCode":"64000200","townName":"橋頭區","level":"village","unassigned":false,"note":"","label":[120.29729795397616,22.74093736950841],"bounds":[120.29283,22.733011,120.301552,22.749447],"focusBounds":[120.29283,22.733011,120.301552,22.749447],"color":"#98b69b"}},{"type":"Feature","id":"64000200012","geometry":{"type":"Polygon","coordinates":[[[120.29195,22.749041],[120.290703,22.749374],[120.289257,22.744911],[120.287094,22.745527],[120.285373,22.740324],[120.284336,22.740597],[120.283018,22.73639],[120.285047,22.735732],[120.285723,22.737666],[120.289594,22.736714],[120.291259,22.737224],[120.292808,22.736306],[120.292334,22.735238],[120.29283,22.734978],[120.294328,22.738183],[120.294832,22.740337],[120.293873,22.742398],[120.29469,22.742856],[120.294714,22.743251],[120.293946,22.744765],[120.293889,22.745851],[120.293099,22.747091],[120.29195,22.749041]]]},"properties":{"code":"64000200012","name":"甲南里","countyCode":"64000","countyName":"高雄市","townCode":"64000200","townName":"橋頭區","level":"village","unassigned":false,"note":"","label":[120.28980163978267,22.740879299075182],"bounds":[120.283018,22.734978,120.294832,22.749374],"focusBounds":[120.283018,22.734978,120.294832,22.749374],"color":"#58b99d"}},{"type":"Feature","id":"64000200013","geometry":{"type":"Polygon","coordinates":[[[120.28518,22.752061],[120.284778,22.751434],[120.283689,22.75142],[120.280129,22.752826],[120.279714,22.753143],[120.279035,22.754077],[120.278356,22.754478],[120.27855,22.755131],[120.278551,22.756436],[120.276104,22.756779],[120.275997,22.755739],[120.275677,22.754947],[120.273977,22.753853],[120.273949,22.752672],[120.274256,22.751238],[120.274214,22.750726],[120.273844,22.750323],[120.272087,22.749326],[120.271597,22.748817],[120.27153,22.748544],[120.272033,22.747635],[120.272019,22.747054],[120.271093,22.744607],[120.269445,22.742299],[120.269272,22.740652],[120.268324,22.741208],[120.26766,22.741884],[120.267327,22.741883],[120.266761,22.741571],[120.266273,22.741569],[120.266277,22.74183],[120.265997,22.741915],[120.26557,22.7415],[120.264949,22.741438],[120.264634,22.741249],[120.264642,22.740782],[120.266231,22.738658],[120.266232,22.738459],[120.265469,22.737435],[120.263755,22.736488],[120.26316,22.735837],[120.262987,22.735412],[120.263375,22.735048],[120.264832,22.734867],[120.265461,22.734525],[120.265643,22.734216],[120.265521,22.732737],[120.265785,22.732079],[120.266422,22.731275],[120.266507,22.730535],[120.266018,22.729915],[120.266969,22.729762],[120.26933,22.731661],[120.270929,22.730446],[120.271529,22.73084],[120.275182,22.731683],[120.274951,22.733614],[120.275121,22.733629],[120.276226,22.733851],[120.277546,22.737911],[120.283018,22.73639],[120.284336,22.740597],[120.285373,22.740324],[120.287094,22.745527],[120.284962,22.746181],[120.286686,22.751433],[120.285872,22.751967],[120.28518,22.752061]]]},"properties":{"code":"64000200013","name":"頂鹽里","countyCode":"64000","countyName":"高雄市","townCode":"64000200","townName":"橋頭區","level":"village","unassigned":false,"note":"","label":[120.27806879080875,22.744395394137292],"bounds":[120.262987,22.729762,120.287094,22.756779],"focusBounds":[120.262987,22.729762,120.287094,22.756779],"color":"#efb44f"}},{"type":"Feature","id":"64000200014","geometry":{"type":"Polygon","coordinates":[[[120.334575,22.762789],[120.333982,22.762922],[120.333708,22.763289],[120.333851,22.763774],[120.333746,22.764409],[120.333168,22.765277],[120.332585,22.766561],[120.332682,22.766799],[120.332548,22.76754],[120.33272,22.768286],[120.331638,22.770802],[120.331541,22.771468],[120.33101,22.772758],[120.329774,22.774621],[120.323934,22.769407],[120.32326,22.768628],[120.321821,22.768772],[120.319222,22.769329],[120.318895,22.769284],[120.317854,22.768666],[120.316996,22.768754],[120.316461,22.76904],[120.315738,22.769872],[120.315095,22.770012],[120.314846,22.770851],[120.314523,22.770951],[120.314757,22.768801],[120.315189,22.767288],[120.317841,22.765154],[120.318449,22.764475],[120.319021,22.76329],[120.31714,22.760941],[120.316454,22.760507],[120.317511,22.758904],[120.318611,22.75787],[120.319411,22.757444],[120.319785,22.757362],[120.320403,22.757471],[120.323281,22.75886],[120.323826,22.758838],[120.324238,22.75863],[120.324574,22.757956],[120.324207,22.755464],[120.32493,22.75532],[120.325028,22.756028],[120.325476,22.756245],[120.326924,22.755956],[120.327357,22.754844],[120.32849,22.75492],[120.329019,22.755233],[120.330252,22.755344],[120.330713,22.755297],[120.331082,22.755081],[120.331277,22.756449],[120.331812,22.757085],[120.332117,22.757071],[120.332378,22.75663],[120.333053,22.756545],[120.333663,22.756607],[120.334721,22.757191],[120.335058,22.756986],[120.335676,22.757228],[120.336408,22.756791],[120.337263,22.756938],[120.337588,22.75723],[120.337569,22.757685],[120.335049,22.760284],[120.335274,22.760689],[120.334562,22.761558],[120.334731,22.762704],[120.334575,22.762789]]]},"properties":{"code":"64000200014","name":"中崎里","countyCode":"64000","countyName":"高雄市","townCode":"64000200","townName":"橋頭區","level":"village","unassigned":false,"note":"","label":[120.32710759584997,22.763862307939917],"bounds":[120.314523,22.754844,120.337588,22.774621],"focusBounds":[120.314523,22.754844,120.337588,22.774621],"color":"#78a7e3"}},{"type":"Feature","id":"64000200015","geometry":{"type":"Polygon","coordinates":[[[120.309045,22.751566],[120.30581,22.755611],[120.304235,22.754683],[120.302262,22.754512],[120.301412,22.754095],[120.301221,22.7542],[120.299326,22.752874],[120.299642,22.751767],[120.298872,22.751273],[120.302933,22.746333],[120.306613,22.749896],[120.308415,22.75101],[120.309045,22.751566]]]},"properties":{"code":"64000200015","name":"仕和里","countyCode":"64000","countyName":"高雄市","townCode":"64000200","townName":"橋頭區","level":"village","unassigned":false,"note":"","label":[120.3036703674991,22.75153415291269],"bounds":[120.298872,22.746333,120.309045,22.755611],"focusBounds":[120.298872,22.746333,120.309045,22.755611],"color":"#dd8590"}},{"type":"Feature","id":"64000200016","geometry":{"type":"Polygon","coordinates":[[[120.305381,22.762093],[120.305886,22.762631],[120.307659,22.763641],[120.305527,22.767515],[120.301666,22.766769],[120.300206,22.766848],[120.301779,22.764787],[120.301627,22.764673],[120.303993,22.76255],[120.304546,22.762731],[120.305381,22.762093]]]},"properties":{"code":"64000200016","name":"德松里","countyCode":"64000","countyName":"高雄市","townCode":"64000200","townName":"橋頭區","level":"village","unassigned":false,"note":"","label":[120.30433621885976,22.7651429116879],"bounds":[120.300206,22.762093,120.307659,22.767515],"focusBounds":[120.300206,22.762093,120.307659,22.767515],"color":"#a8bf62"}},{"type":"Feature","id":"64000200017","geometry":{"type":"Polygon","coordinates":[[[120.295795,22.75678],[120.294176,22.757728],[120.293116,22.75768],[120.291953,22.757388],[120.289741,22.756035],[120.288805,22.755243],[120.287183,22.754983],[120.287069,22.7543],[120.287421,22.753645],[120.287517,22.752907],[120.286395,22.752459],[120.285304,22.752287],[120.28518,22.752061],[120.285872,22.751967],[120.286686,22.751433],[120.284962,22.746181],[120.287094,22.745527],[120.289257,22.744911],[120.290703,22.749374],[120.29195,22.749041],[120.291778,22.750497],[120.292101,22.751632],[120.295795,22.75678]]]},"properties":{"code":"64000200017","name":"三德里","countyCode":"64000","countyName":"高雄市","townCode":"64000200","townName":"橋頭區","level":"village","unassigned":false,"note":"","label":[120.2896960235207,22.751870029449666],"bounds":[120.284962,22.744911,120.295795,22.757728],"focusBounds":[120.284962,22.744911,120.295795,22.757728],"color":"#a8bf62"}}]}
