{"type":"FeatureCollection","features":[{"type":"Feature","id":"64000010001","geometry":{"type":"Polygon","coordinates":[[[120.285201,22.634295],[120.285167,22.634722],[120.28401,22.63399],[120.282816,22.632418],[120.283779,22.63197],[120.285329,22.63125],[120.286033,22.63147],[120.285962,22.63174],[120.285201,22.634295]]]},"properties":{"code":"64000010001","name":"藍橋里","countyCode":"64000","countyName":"高雄市","townCode":"64000010","townName":"鹽埕區","level":"village","unassigned":false,"note":"","label":[120.2844987186545,22.632821242563516],"bounds":[120.282816,22.63125,120.286033,22.634722],"focusBounds":[120.282816,22.63125,120.286033,22.634722],"color":"#df9f6a"}},{"type":"Feature","id":"64000010004","geometry":{"type":"Polygon","coordinates":[[[120.286033,22.63147],[120.285329,22.63125],[120.283779,22.63197],[120.282212,22.629069],[120.283411,22.62851],[120.284473,22.630479],[120.285827,22.629852],[120.286643,22.630139],[120.286033,22.63147]]]},"properties":{"code":"64000010004","name":"壽星里","countyCode":"64000","countyName":"高雄市","townCode":"64000010","townName":"鹽埕區","level":"village","unassigned":false,"note":"","label":[120.2837396230249,22.63050816776168],"bounds":[120.282212,22.62851,120.286643,22.63197],"focusBounds":[120.282212,22.62851,120.286643,22.63197],"color":"#c38cb8"}},{"type":"Feature","id":"64000010005","geometry":{"type":"Polygon","coordinates":[[[120.283411,22.62851],[120.282212,22.629069],[120.281173,22.627145],[120.280667,22.626208],[120.281856,22.625626],[120.283411,22.62851]]]},"properties":{"code":"64000010005","name":"中山里","countyCode":"64000","countyName":"高雄市","townCode":"64000010","townName":"鹽埕區","level":"village","unassigned":false,"note":"","label":[120.2820371243042,22.627353165631042],"bounds":[120.280667,22.625626,120.283411,22.629069],"focusBounds":[120.280667,22.625626,120.283411,22.629069],"color":"#98b69b"}},{"type":"Feature","id":"64000010006","geometry":{"type":"Polygon","coordinates":[[[120.281173,22.627145],[120.279736,22.627831],[120.27919,22.627021],[120.278568,22.626068],[120.280795,22.624962],[120.282199,22.624266],[120.282708,22.625212],[120.281856,22.625626],[120.280667,22.626208],[120.281173,22.627145]]]},"properties":{"code":"64000010006","name":"教仁里","countyCode":"64000","countyName":"高雄市","townCode":"64000010","townName":"鹽埕區","level":"village","unassigned":false,"note":"","label":[120.27983110541837,22.62642515880092],"bounds":[120.278568,22.624266,120.282708,22.627831],"focusBounds":[120.278568,22.624266,120.282708,22.627831],"color":"#58b99d"}},{"type":"Feature","id":"64000010007","geometry":{"type":"Polygon","coordinates":[[[120.284781,22.625402],[120.283219,22.626156],[120.282708,22.625212],[120.282199,22.624266],[120.283751,22.623497],[120.284781,22.625402]]]},"properties":{"code":"64000010007","name":"新樂里","countyCode":"64000","countyName":"高雄市","townCode":"64000010","townName":"鹽埕區","level":"village","unassigned":false,"note":"","label":[120.28348823420484,22.624826773856917],"bounds":[120.282199,22.623497,120.284781,22.626156],"focusBounds":[120.282199,22.623497,120.284781,22.626156],"color":"#efb44f"}},{"type":"Feature","id":"64000010008","geometry":{"type":"Polygon","coordinates":[[[120.284273,22.628107],[120.283411,22.62851],[120.281856,22.625626],[120.282708,22.625212],[120.283219,22.626156],[120.284273,22.628107]]]},"properties":{"code":"64000010008","name":"中原里","countyCode":"64000","countyName":"高雄市","townCode":"64000010","townName":"鹽埕區","level":"village","unassigned":false,"note":"","label":[120.2830628571795,22.62686603056468],"bounds":[120.281856,22.625212,120.284273,22.62851],"focusBounds":[120.281856,22.625212,120.284273,22.62851],"color":"#dd8590"}},{"type":"Feature","id":"64000010009","geometry":{"type":"Polygon","coordinates":[[[120.289291,22.625051],[120.288391,22.62687],[120.286229,22.625975],[120.285313,22.626387],[120.284781,22.625402],[120.283751,22.623497],[120.285944,22.622407],[120.286954,22.624276],[120.287671,22.623943],[120.289537,22.624408],[120.289291,22.625051]]]},"properties":{"code":"64000010009","name":"光明里","countyCode":"64000","countyName":"高雄市","townCode":"64000010","townName":"鹽埕區","level":"village","unassigned":false,"note":"","label":[120.28580076895054,22.624717501071302],"bounds":[120.283751,22.622407,120.289537,22.62687],"focusBounds":[120.283751,22.622407,120.289537,22.62687],"color":"#dd8590"}},{"type":"Feature","id":"64000010010","geometry":{"type":"Polygon","coordinates":[[[120.289842,22.62343],[120.289537,22.624408],[120.287671,22.623943],[120.286954,22.624276],[120.285944,22.622407],[120.288049,22.621362],[120.28947,22.620657],[120.290263,22.620689],[120.290117,22.62178],[120.289842,22.62343]]]},"properties":{"code":"64000010010","name":"育仁里","countyCode":"64000","countyName":"高雄市","townCode":"64000010","townName":"鹽埕區","level":"village","unassigned":false,"note":"","label":[120.28842419349408,22.62265334913692],"bounds":[120.285944,22.620657,120.290263,22.624408],"focusBounds":[120.285944,22.620657,120.290263,22.624408],"color":"#a49ad4"}},{"type":"Feature","id":"64000010011","geometry":{"type":"Polygon","coordinates":[[[120.285944,22.622407],[120.283751,22.623497],[120.282202,22.620623],[120.284366,22.6196],[120.285944,22.622407]]]},"properties":{"code":"64000010011","name":"河濱里","countyCode":"64000","countyName":"高雄市","townCode":"64000010","townName":"鹽埕區","level":"village","unassigned":false,"note":"","label":[120.28406623799755,22.62154113454484],"bounds":[120.282202,22.6196,120.285944,22.623497],"focusBounds":[120.282202,22.6196,120.285944,22.623497],"color":"#a8bf62"}},{"type":"Feature","id":"64000010012","geometry":{"type":"Polygon","coordinates":[[[120.290263,22.620689],[120.28947,22.620657],[120.288049,22.621362],[120.285907,22.617416],[120.28849,22.616216],[120.28871,22.616287],[120.29028,22.618968],[120.290401,22.618848],[120.290371,22.619514],[120.29028,22.620532],[120.290263,22.620689]]]},"properties":{"code":"64000010012","name":"沙地里","countyCode":"64000","countyName":"高雄市","townCode":"64000010","townName":"鹽埕區","level":"village","unassigned":false,"note":"","label":[120.28837936421115,22.618732859900604],"bounds":[120.285907,22.616216,120.290401,22.621362],"focusBounds":[120.285907,22.616216,120.290401,22.621362],"color":"#68bec9"}},{"type":"Feature","id":"64000010013","geometry":{"type":"Polygon","coordinates":[[[120.288049,22.621362],[120.285944,22.622407],[120.284366,22.6196],[120.285038,22.619285],[120.284405,22.618113],[120.285907,22.617416],[120.288049,22.621362]]]},"properties":{"code":"64000010013","name":"南端里","countyCode":"64000","countyName":"高雄市","townCode":"64000010","townName":"鹽埕區","level":"village","unassigned":false,"note":"","label":[120.28602293065092,22.620082679075917],"bounds":[120.284366,22.617416,120.288049,22.622407],"focusBounds":[120.284366,22.617416,120.288049,22.622407],"color":"#df9f6a"}},{"type":"Feature","id":"64000010014","geometry":{"type":"Polygon","coordinates":[[[120.282199,22.624266],[120.280795,22.624962],[120.279214,22.622038],[120.280636,22.621367],[120.282199,22.624266]]]},"properties":{"code":"64000010014","name":"港都里","countyCode":"64000","countyName":"高雄市","townCode":"64000010","townName":"鹽埕區","level":"village","unassigned":false,"note":"","label":[120.28070944543492,22.623154017659175],"bounds":[120.279214,22.621367,120.282199,22.624962],"focusBounds":[120.279214,22.621367,120.282199,22.624962],"color":"#c38cb8"}},{"type":"Feature","id":"64000010015","geometry":{"type":"Polygon","coordinates":[[[120.280795,22.624962],[120.278568,22.626068],[120.277541,22.624418],[120.277144,22.623544],[120.277097,22.622712],[120.277562,22.621969],[120.277761,22.622346],[120.277955,22.622258],[120.278116,22.622557],[120.279214,22.622038],[120.280795,22.624962]]]},"properties":{"code":"64000010015","name":"江西里","countyCode":"64000","countyName":"高雄市","townCode":"64000010","townName":"鹽埕區","level":"village","unassigned":false,"note":"","label":[120.2787534029889,22.623904826140723],"bounds":[120.277097,22.621969,120.280795,22.626068],"focusBounds":[120.277097,22.621969,120.280795,22.626068],"color":"#98b69b"}},{"type":"Feature","id":"64000010016","geometry":{"type":"Polygon","coordinates":[[[120.279214,22.622038],[120.278116,22.622557],[120.277955,22.622258],[120.277761,22.622346],[120.277562,22.621969],[120.279159,22.620881],[120.27882,22.620316],[120.279791,22.619829],[120.280636,22.621367],[120.279214,22.622038]]]},"properties":{"code":"64000010016","name":"新豐里","countyCode":"64000","countyName":"高雄市","townCode":"64000010","townName":"鹽埕區","level":"village","unassigned":false,"note":"","label":[120.27975331897656,22.62109523782614],"bounds":[120.277562,22.619829,120.280636,22.622557],"focusBounds":[120.277562,22.619829,120.280636,22.622557],"color":"#58b99d"}},{"type":"Feature","id":"64000010017","geometry":{"type":"Polygon","coordinates":[[[120.286643,22.630139],[120.285827,22.629852],[120.284473,22.630479],[120.283411,22.62851],[120.284273,22.628107],[120.285845,22.627374],[120.285313,22.626387],[120.286229,22.625975],[120.288391,22.62687],[120.286956,22.629463],[120.286643,22.630139]]]},"properties":{"code":"64000010017","name":"府北里","countyCode":"64000","countyName":"高雄市","townCode":"64000010","townName":"鹽埕區","level":"village","unassigned":false,"note":"","label":[120.28599732597199,22.62867500655288],"bounds":[120.283411,22.625975,120.288391,22.630479],"focusBounds":[120.283411,22.625975,120.288391,22.630479],"color":"#78a7e3"}},{"type":"Feature","id":"64000010018","geometry":{"type":"Polygon","coordinates":[[[120.279736,22.627831],[120.281173,22.627145],[120.282212,22.629069],[120.28115,22.629443],[120.280885,22.628975],[120.280614,22.629147],[120.279736,22.627831]]]},"properties":{"code":"64000010018","name":"陸橋里","countyCode":"64000","countyName":"高雄市","townCode":"64000010","townName":"鹽埕區","level":"village","unassigned":false,"note":"","label":[120.28087996200625,22.62818774335959],"bounds":[120.279736,22.627145,120.282212,22.629443],"focusBounds":[120.279736,22.627145,120.282212,22.629443],"color":"#dd8590"}},{"type":"Feature","id":"64000010019","geometry":{"type":"Polygon","coordinates":[[[120.285313,22.626387],[120.285845,22.627374],[120.284273,22.628107],[120.283219,22.626156],[120.284781,22.625402],[120.285313,22.626387]]]},"properties":{"code":"64000010019","name":"瀨南里","countyCode":"64000","countyName":"高雄市","townCode":"64000010","townName":"鹽埕區","level":"village","unassigned":false,"note":"","label":[120.28453086016481,22.62675479369289],"bounds":[120.283219,22.625402,120.285845,22.628107],"focusBounds":[120.283219,22.625402,120.285845,22.628107],"color":"#a49ad4"}},{"type":"Feature","id":"64000010020","geometry":{"type":"Polygon","coordinates":[[[120.279791,22.619829],[120.280066,22.619691],[120.280288,22.620022],[120.280468,22.619924],[120.280376,22.61977],[120.283701,22.618198],[120.28391,22.618343],[120.284405,22.618113],[120.285038,22.619285],[120.284366,22.6196],[120.282202,22.620623],[120.280636,22.621367],[120.279791,22.619829]]]},"properties":{"code":"64000010020","name":"新化里","countyCode":"64000","countyName":"高雄市","townCode":"64000010","townName":"鹽埕區","level":"village","unassigned":false,"note":"","label":[120.28242471947729,22.619659256699315],"bounds":[120.279791,22.618113,120.285038,22.621367],"focusBounds":[120.279791,22.618113,120.285038,22.621367],"color":"#a49ad4"}},{"type":"Feature","id":"64000010021","geometry":{"type":"Polygon","coordinates":[[[120.283751,22.623497],[120.282199,22.624266],[120.280636,22.621367],[120.282202,22.620623],[120.283751,22.623497]]]},"properties":{"code":"64000010021","name":"江南里","countyCode":"64000","countyName":"高雄市","townCode":"64000010","townName":"鹽埕區","level":"village","unassigned":false,"note":"","label":[120.2821958972195,22.622443134640044],"bounds":[120.280636,22.620623,120.283751,22.624266],"focusBounds":[120.280636,22.620623,120.283751,22.624266],"color":"#68bec9"}},{"type":"Feature","id":"64000010022","geometry":{"type":"Polygon","coordinates":[[[120.283779,22.63197],[120.282816,22.632418],[120.281164,22.629972],[120.280614,22.629147],[120.280885,22.628975],[120.28115,22.629443],[120.282212,22.629069],[120.283779,22.63197]]]},"properties":{"code":"64000010022","name":"北端里","countyCode":"64000","countyName":"高雄市","townCode":"64000010","townName":"鹽埕區","level":"village","unassigned":false,"note":"","label":[120.28234751390349,22.63059386169101],"bounds":[120.280614,22.628975,120.283779,22.632418],"focusBounds":[120.280614,22.628975,120.283779,22.632418],"color":"#68bec9"}},{"type":"Feature","id":"64000010S01","geometry":{"type":"Polygon","coordinates":[[[120.284405,22.618113],[120.28391,22.618343],[120.283701,22.618198],[120.280376,22.61977],[120.280468,22.619924],[120.280288,22.620022],[120.280066,22.619691],[120.283042,22.618149],[120.290183,22.614938],[120.290401,22.618848],[120.29028,22.618968],[120.28871,22.616287],[120.28849,22.616216],[120.285907,22.617416],[120.284405,22.618113]]]},"properties":{"code":"64000010S01","name":"未編定村里","countyCode":"64000","countyName":"高雄市","townCode":"64000010","townName":"鹽埕區","level":"village","unassigned":true,"note":"未編定村里","label":[120.28953086520285,22.616225186105886],"bounds":[120.280066,22.614938,120.290401,22.620022],"focusBounds":[120.280066,22.614938,120.290401,22.620022],"color":"#c38cb8"}}]}
