{"type":"FeatureCollection","features":[{"type":"Feature","id":"64000080001","geometry":{"type":"Polygon","coordinates":[[[120.295288,22.620289],[120.294976,22.621032],[120.293686,22.6206],[120.29028,22.620532],[120.290371,22.619514],[120.291493,22.619614],[120.292906,22.619108],[120.293166,22.619579],[120.295288,22.620289]]]},"properties":{"code":"64000080001","name":"博仁里","countyCode":"64000","countyName":"高雄市","townCode":"64000080","townName":"苓雅區","level":"village","unassigned":false,"note":"","label":[120.2926051169523,22.61989691274455],"bounds":[120.29028,22.619108,120.295288,22.621032],"focusBounds":[120.29028,22.619108,120.295288,22.621032],"color":"#c38cb8"}},{"type":"Feature","id":"64000080002","geometry":{"type":"Polygon","coordinates":[[[120.296203,22.618003],[120.295288,22.620289],[120.293166,22.619579],[120.292906,22.619108],[120.291493,22.619614],[120.290371,22.619514],[120.290401,22.618848],[120.291304,22.618042],[120.291878,22.617945],[120.292658,22.618048],[120.292766,22.617317],[120.292478,22.616809],[120.296203,22.618003]]]},"properties":{"code":"64000080002","name":"苓洲里","countyCode":"64000","countyName":"高雄市","townCode":"64000080","townName":"苓雅區","level":"village","unassigned":false,"note":"","label":[120.29399659515651,22.618576093150153],"bounds":[120.290371,22.616809,120.296203,22.620289],"focusBounds":[120.290371,22.616809,120.296203,22.620289],"color":"#df9f6a"}},{"type":"Feature","id":"64000080003","geometry":{"type":"Polygon","coordinates":[[[120.296214,22.617988],[120.296203,22.618003],[120.292478,22.616809],[120.292054,22.616061],[120.293556,22.615334],[120.294154,22.616454],[120.295046,22.615886],[120.296799,22.616472],[120.296214,22.617988]]]},"properties":{"code":"64000080003","name":"苓昇里","countyCode":"64000","countyName":"高雄市","townCode":"64000080","townName":"苓雅區","level":"village","unassigned":false,"note":"","label":[120.29517747092831,22.61680249226881],"bounds":[120.292054,22.615334,120.296799,22.618003],"focusBounds":[120.292054,22.615334,120.296799,22.618003],"color":"#c38cb8"}},{"type":"Feature","id":"64000080004","geometry":{"type":"Polygon","coordinates":[[[120.295046,22.615886],[120.294154,22.616454],[120.293556,22.615334],[120.292054,22.616061],[120.291478,22.615045],[120.294009,22.613861],[120.295621,22.614399],[120.295046,22.615886]]]},"properties":{"code":"64000080004","name":"苓中里","countyCode":"64000","countyName":"高雄市","townCode":"64000080","townName":"苓雅區","level":"village","unassigned":false,"note":"","label":[120.29439394267202,22.614957093260056],"bounds":[120.291478,22.613861,120.295621,22.616454],"focusBounds":[120.291478,22.613861,120.295621,22.616454],"color":"#98b69b"}},{"type":"Feature","id":"64000080005","geometry":{"type":"Polygon","coordinates":[[[120.297374,22.614985],[120.296799,22.616472],[120.295046,22.615886],[120.295621,22.614399],[120.295917,22.613635],[120.297669,22.61422],[120.297374,22.614985]]]},"properties":{"code":"64000080005","name":"苓雅里","countyCode":"64000","countyName":"高雄市","townCode":"64000080","townName":"苓雅區","level":"village","unassigned":false,"note":"","label":[120.29635759897629,22.61505333487915],"bounds":[120.295046,22.613635,120.297669,22.616472],"focusBounds":[120.295046,22.613635,120.297669,22.616472],"color":"#58b99d"}},{"type":"Feature","id":"64000080006","geometry":{"type":"Polygon","coordinates":[[[120.291478,22.615045],[120.290012,22.612198],[120.296364,22.609072],[120.296412,22.609314],[120.296622,22.609458],[120.299124,22.610456],[120.298549,22.611944],[120.297669,22.61422],[120.295917,22.613635],[120.295621,22.614399],[120.294009,22.613861],[120.291478,22.615045]]]},"properties":{"code":"64000080006","name":"苓東里","countyCode":"64000","countyName":"高雄市","townCode":"64000080","townName":"苓雅區","level":"village","unassigned":false,"note":"","label":[120.2948392162339,22.611980227077893],"bounds":[120.290012,22.609072,120.299124,22.615045],"focusBounds":[120.290012,22.609072,120.299124,22.615045],"color":"#efb44f"}},{"type":"Feature","id":"64000080007","geometry":{"type":"Polygon","coordinates":[[[120.299658,22.614064],[120.299083,22.615552],[120.297374,22.614985],[120.297669,22.61422],[120.298549,22.611944],[120.300258,22.612514],[120.299658,22.614064]]]},"properties":{"code":"64000080007","name":"城北里","countyCode":"64000","countyName":"高雄市","townCode":"64000080","townName":"苓雅區","level":"village","unassigned":false,"note":"","label":[120.29881581475458,22.61374823459498],"bounds":[120.297374,22.611944,120.300258,22.615552],"focusBounds":[120.297374,22.611944,120.300258,22.615552],"color":"#78a7e3"}},{"type":"Feature","id":"64000080008","geometry":{"type":"Polygon","coordinates":[[[120.301972,22.61356],[120.300958,22.616179],[120.299083,22.615552],[120.299658,22.614064],[120.299888,22.614144],[120.300329,22.613015],[120.301972,22.61356]]]},"properties":{"code":"64000080008","name":"城西里","countyCode":"64000","countyName":"高雄市","townCode":"64000080","townName":"苓雅區","level":"village","unassigned":false,"note":"","label":[120.30057901284489,22.61470645172131],"bounds":[120.299083,22.613015,120.301972,22.616179],"focusBounds":[120.299083,22.613015,120.301972,22.616179],"color":"#dd8590"}},{"type":"Feature","id":"64000080009","geometry":{"type":"Polygon","coordinates":[[[120.304515,22.61393],[120.30334,22.61697],[120.300958,22.616179],[120.301972,22.61356],[120.302134,22.613138],[120.304515,22.61393]]]},"properties":{"code":"64000080009","name":"城東里","countyCode":"64000","countyName":"高雄市","townCode":"64000080","townName":"苓雅區","level":"village","unassigned":false,"note":"","label":[120.30273676181649,22.615054263873724],"bounds":[120.300958,22.613138,120.304515,22.61697],"focusBounds":[120.300958,22.613138,120.304515,22.61697],"color":"#a49ad4"}},{"type":"Feature","id":"64000080010","geometry":{"type":"Polygon","coordinates":[[[120.299658,22.614064],[120.300258,22.612514],[120.298549,22.611944],[120.299124,22.610456],[120.305079,22.612471],[120.304786,22.613338],[120.304515,22.61393],[120.302134,22.613138],[120.301972,22.61356],[120.300329,22.613015],[120.299888,22.614144],[120.299658,22.614064]]]},"properties":{"code":"64000080010","name":"意誠里","countyCode":"64000","countyName":"高雄市","townCode":"64000080","townName":"苓雅區","level":"village","unassigned":false,"note":"","label":[120.30148819038233,22.612327632301593],"bounds":[120.298549,22.610456,120.305079,22.614144],"focusBounds":[120.298549,22.610456,120.305079,22.614144],"color":"#a8bf62"}},{"type":"Feature","id":"64000080011","geometry":{"type":"Polygon","coordinates":[[[120.300958,22.616179],[120.300383,22.617664],[120.296799,22.616472],[120.297374,22.614985],[120.299083,22.615552],[120.300958,22.616179]]]},"properties":{"code":"64000080011","name":"鼓中里","countyCode":"64000","countyName":"高雄市","townCode":"64000080","townName":"苓雅區","level":"village","unassigned":false,"note":"","label":[120.29887842562259,22.616323863961146],"bounds":[120.296799,22.614985,120.300958,22.617664],"focusBounds":[120.296799,22.614985,120.300958,22.617664],"color":"#68bec9"}},{"type":"Feature","id":"64000080012","geometry":{"type":"Polygon","coordinates":[[[120.300383,22.617664],[120.299814,22.619138],[120.297929,22.618536],[120.296214,22.617988],[120.296799,22.616472],[120.300383,22.617664]]]},"properties":{"code":"64000080012","name":"田西里","countyCode":"64000","countyName":"高雄市","townCode":"64000080","townName":"苓雅區","level":"village","unassigned":false,"note":"","label":[120.29829407545091,22.617810747895952],"bounds":[120.296214,22.616472,120.300383,22.619138],"focusBounds":[120.296214,22.616472,120.300383,22.619138],"color":"#df9f6a"}},{"type":"Feature","id":"64000080013","geometry":{"type":"Polygon","coordinates":[[[120.30334,22.61697],[120.302198,22.619924],[120.302168,22.619914],[120.299814,22.619138],[120.300383,22.617664],[120.300958,22.616179],[120.30334,22.61697]]]},"properties":{"code":"64000080013","name":"人和里","countyCode":"64000","countyName":"高雄市","townCode":"64000080","townName":"苓雅區","level":"village","unassigned":false,"note":"","label":[120.30157064582299,22.618049635418437],"bounds":[120.299814,22.616179,120.30334,22.619924],"focusBounds":[120.299814,22.616179,120.30334,22.619924],"color":"#c38cb8"}},{"type":"Feature","id":"64000080014","geometry":{"type":"Polygon","coordinates":[[[120.305124,22.619245],[120.30456,22.620701],[120.302198,22.619924],[120.30334,22.61697],[120.305699,22.617757],[120.305124,22.619245]]]},"properties":{"code":"64000080014","name":"仁政里","countyCode":"64000","countyName":"高雄市","townCode":"64000080","townName":"苓雅區","level":"village","unassigned":false,"note":"","label":[120.30394874499177,22.618836713523987],"bounds":[120.302198,22.61697,120.305699,22.620701],"focusBounds":[120.302198,22.61697,120.305699,22.620701],"color":"#98b69b"}},{"type":"Feature","id":"64000080015","geometry":{"type":"Polygon","coordinates":[[[120.306885,22.614685],[120.305699,22.617757],[120.30334,22.61697],[120.304515,22.61393],[120.304786,22.613338],[120.305118,22.613666],[120.305178,22.614095],[120.306885,22.614685]]]},"properties":{"code":"64000080015","name":"廣澤里","countyCode":"64000","countyName":"高雄市","townCode":"64000080","townName":"苓雅區","level":"village","unassigned":false,"note":"","label":[120.30513313993258,22.615751991231765],"bounds":[120.30334,22.613338,120.306885,22.617757],"focusBounds":[120.30334,22.613338,120.306885,22.617757],"color":"#58b99d"}},{"type":"Feature","id":"64000080016","geometry":{"type":"Polygon","coordinates":[[[120.308007,22.620203],[120.307442,22.621667],[120.306184,22.621246],[120.30456,22.620701],[120.305124,22.619245],[120.308007,22.620203]]]},"properties":{"code":"64000080016","name":"美田里","countyCode":"64000","countyName":"高雄市","townCode":"64000080","townName":"苓雅區","level":"village","unassigned":false,"note":"","label":[120.3062843300985,22.620455204955253],"bounds":[120.30456,22.619245,120.308007,22.621667],"focusBounds":[120.30456,22.619245,120.308007,22.621667],"color":"#efb44f"}},{"type":"Feature","id":"64000080017","geometry":{"type":"Polygon","coordinates":[[[120.308581,22.618716],[120.308007,22.620203],[120.305124,22.619245],[120.305699,22.617757],[120.306885,22.614685],[120.308512,22.615218],[120.307325,22.618299],[120.308581,22.618716]]]},"properties":{"code":"64000080017","name":"華堂里","countyCode":"64000","countyName":"高雄市","townCode":"64000080","townName":"苓雅區","level":"village","unassigned":false,"note":"","label":[120.30672670695971,22.617515004378923],"bounds":[120.305124,22.614685,120.308581,22.620203],"focusBounds":[120.305124,22.614685,120.308581,22.620203],"color":"#78a7e3"}},{"type":"Feature","id":"64000080018","geometry":{"type":"Polygon","coordinates":[[[120.31103,22.616056],[120.30984,22.619137],[120.308581,22.618716],[120.307325,22.618299],[120.308512,22.615218],[120.310069,22.61574],[120.31103,22.616056]]]},"properties":{"code":"64000080018","name":"日中里","countyCode":"64000","countyName":"高雄市","townCode":"64000080","townName":"苓雅區","level":"village","unassigned":false,"note":"","label":[120.30917649455927,22.617177773198204],"bounds":[120.307325,22.615218,120.31103,22.619137],"focusBounds":[120.307325,22.615218,120.31103,22.619137],"color":"#dd8590"}},{"type":"Feature","id":"64000080019","geometry":{"type":"Polygon","coordinates":[[[120.314457,22.61722],[120.313275,22.620278],[120.310618,22.619395],[120.30984,22.619137],[120.31103,22.616056],[120.311795,22.616307],[120.314457,22.61722]]]},"properties":{"code":"64000080019","name":"普照里","countyCode":"64000","countyName":"高雄市","townCode":"64000080","townName":"苓雅區","level":"village","unassigned":false,"note":"","label":[120.31214881564301,22.61816613435476],"bounds":[120.30984,22.616056,120.314457,22.620278],"focusBounds":[120.30984,22.616056,120.314457,22.620278],"color":"#a49ad4"}},{"type":"Feature","id":"64000080020","geometry":{"type":"Polygon","coordinates":[[[120.307442,22.621667],[120.308007,22.620203],[120.308581,22.618716],[120.30984,22.619137],[120.310618,22.619395],[120.309477,22.622346],[120.307442,22.621667]]]},"properties":{"code":"64000080020","name":"和煦里","countyCode":"64000","countyName":"高雄市","townCode":"64000080","townName":"苓雅區","level":"village","unassigned":false,"note":"","label":[120.30902953344204,22.620531141737445],"bounds":[120.307442,22.618716,120.310618,22.622346],"focusBounds":[120.307442,22.618716,120.310618,22.622346],"color":"#a8bf62"}},{"type":"Feature","id":"64000080021","geometry":{"type":"Polygon","coordinates":[[[120.313275,22.620278],[120.312128,22.623244],[120.309477,22.622346],[120.310618,22.619395],[120.313275,22.620278]]]},"properties":{"code":"64000080021","name":"晴朗里","countyCode":"64000","countyName":"高雄市","townCode":"64000080","townName":"苓雅區","level":"village","unassigned":false,"note":"","label":[120.3113757700897,22.62131819719697],"bounds":[120.309477,22.619395,120.313275,22.623244],"focusBounds":[120.309477,22.619395,120.313275,22.623244],"color":"#68bec9"}},{"type":"Feature","id":"64000080022","geometry":{"type":"Polygon","coordinates":[[[120.317254,22.619613],[120.316572,22.621378],[120.313275,22.620278],[120.314457,22.61722],[120.316086,22.617757],[120.317711,22.618297],[120.317748,22.618335],[120.317254,22.619613]]]},"properties":{"code":"64000080022","name":"普天里","countyCode":"64000","countyName":"高雄市","townCode":"64000080","townName":"苓雅區","level":"village","unassigned":false,"note":"","label":[120.31551617995473,22.6192972464237],"bounds":[120.313275,22.61722,120.317748,22.621378],"focusBounds":[120.313275,22.61722,120.317748,22.621378],"color":"#df9f6a"}},{"type":"Feature","id":"64000080023","geometry":{"type":"Polygon","coordinates":[[[120.315757,22.623486],[120.315405,22.624398],[120.312111,22.623297],[120.312128,22.623244],[120.313275,22.620278],[120.316572,22.621378],[120.316531,22.621482],[120.316186,22.622377],[120.315757,22.623486]]]},"properties":{"code":"64000080023","name":"林富里","countyCode":"64000","countyName":"高雄市","townCode":"64000080","townName":"苓雅區","level":"village","unassigned":false,"note":"","label":[120.31434005182568,22.622337795723823],"bounds":[120.312111,22.620278,120.316572,22.624398],"focusBounds":[120.312111,22.620278,120.316572,22.624398],"color":"#c38cb8"}},{"type":"Feature","id":"64000080024","geometry":{"type":"Polygon","coordinates":[[[120.315405,22.624398],[120.314798,22.625969],[120.311506,22.624874],[120.312111,22.623297],[120.315405,22.624398]]]},"properties":{"code":"64000080024","name":"林圍里","countyCode":"64000","countyName":"高雄市","townCode":"64000080","townName":"苓雅區","level":"village","unassigned":false,"note":"","label":[120.31345425699865,22.624634150604336],"bounds":[120.311506,22.623297,120.315405,22.625969],"focusBounds":[120.311506,22.623297,120.315405,22.625969],"color":"#58b99d"}},{"type":"Feature","id":"64000080025","geometry":{"type":"Polygon","coordinates":[[[120.314798,22.625969],[120.314201,22.627502],[120.310936,22.626399],[120.311506,22.624874],[120.314798,22.625969]]]},"properties":{"code":"64000080025","name":"林安里","countyCode":"64000","countyName":"高雄市","townCode":"64000080","townName":"苓雅區","level":"village","unassigned":false,"note":"","label":[120.3128628705283,22.626187584401457],"bounds":[120.310936,22.624874,120.314798,22.627502],"focusBounds":[120.310936,22.624874,120.314798,22.627502],"color":"#efb44f"}},{"type":"Feature","id":"64000080026","geometry":{"type":"Polygon","coordinates":[[[120.319619,22.615474],[120.319701,22.617438],[120.318195,22.616992],[120.318223,22.615399],[120.319619,22.615474]]]},"properties":{"code":"64000080026","name":"光華里","countyCode":"64000","countyName":"高雄市","townCode":"64000080","townName":"苓雅區","level":"village","unassigned":false,"note":"","label":[120.31894825705955,22.616357040546994],"bounds":[120.318195,22.615399,120.319701,22.617438],"focusBounds":[120.318195,22.615399,120.319701,22.617438],"color":"#efb44f"}},{"type":"Feature","id":"64000080027","geometry":{"type":"Polygon","coordinates":[[[120.319701,22.617438],[120.321124,22.617855],[120.320621,22.619163],[120.317748,22.618335],[120.317711,22.618297],[120.318195,22.616992],[120.319701,22.617438]]]},"properties":{"code":"64000080027","name":"林興里","countyCode":"64000","countyName":"高雄市","townCode":"64000080","townName":"苓雅區","level":"village","unassigned":false,"note":"","label":[120.319407237344,22.618082184013893],"bounds":[120.317711,22.616992,120.321124,22.619163],"focusBounds":[120.317711,22.616992,120.321124,22.619163],"color":"#dd8590"}},{"type":"Feature","id":"64000080028","geometry":{"type":"Polygon","coordinates":[[[120.322579,22.615611],[120.322595,22.618286],[120.322071,22.619645],[120.320621,22.619163],[120.321124,22.617855],[120.319701,22.617438],[120.319619,22.615474],[120.322579,22.615611]]]},"properties":{"code":"64000080028","name":"林華里","countyCode":"64000","countyName":"高雄市","townCode":"64000080","townName":"苓雅區","level":"village","unassigned":false,"note":"","label":[120.3214195519722,22.616727380238064],"bounds":[120.319619,22.615474,120.322595,22.619645],"focusBounds":[120.319619,22.615474,120.322595,22.619645],"color":"#a49ad4"}},{"type":"Feature","id":"64000080029","geometry":{"type":"Polygon","coordinates":[[[120.322071,22.619645],[120.321534,22.621034],[120.317254,22.619613],[120.317748,22.618335],[120.320621,22.619163],[120.322071,22.619645]]]},"properties":{"code":"64000080029","name":"林西里","countyCode":"64000","countyName":"高雄市","townCode":"64000080","townName":"苓雅區","level":"village","unassigned":false,"note":"","label":[120.31968841682898,22.619657494585596],"bounds":[120.317254,22.618335,120.322071,22.621034],"focusBounds":[120.317254,22.618335,120.322071,22.621034],"color":"#a8bf62"}},{"type":"Feature","id":"64000080030","geometry":{"type":"Polygon","coordinates":[[[120.321534,22.621034],[120.320811,22.622909],[120.316531,22.621482],[120.316572,22.621378],[120.317254,22.619613],[120.321534,22.621034]]]},"properties":{"code":"64000080030","name":"林中里","countyCode":"64000","countyName":"高雄市","townCode":"64000080","townName":"苓雅區","level":"village","unassigned":false,"note":"","label":[120.31903396247829,22.621260055458436],"bounds":[120.316531,22.619613,120.321534,22.622909],"focusBounds":[120.316531,22.619613,120.321534,22.622909],"color":"#68bec9"}},{"type":"Feature","id":"64000080031","geometry":{"type":"Polygon","coordinates":[[[120.320811,22.622909],[120.320466,22.623802],[120.316186,22.622377],[120.316531,22.621482],[120.320811,22.622909]]]},"properties":{"code":"64000080031","name":"林泉里","countyCode":"64000","countyName":"高雄市","townCode":"64000080","townName":"苓雅區","level":"village","unassigned":false,"note":"","label":[120.31849772537319,22.622641863680204],"bounds":[120.316186,22.621482,120.320811,22.623802],"focusBounds":[120.316186,22.621482,120.320811,22.623802],"color":"#df9f6a"}},{"type":"Feature","id":"64000080032","geometry":{"type":"Polygon","coordinates":[[[120.320466,22.623802],[120.320028,22.624933],[120.315757,22.623486],[120.316186,22.622377],[120.320466,22.623802]]]},"properties":{"code":"64000080032","name":"林南里","countyCode":"64000","countyName":"高雄市","townCode":"64000080","townName":"苓雅區","level":"village","unassigned":false,"note":"","label":[120.3181165395095,22.623652233025574],"bounds":[120.315757,22.622377,120.320466,22.624933],"focusBounds":[120.315757,22.622377,120.320466,22.624933],"color":"#efb44f"}},{"type":"Feature","id":"64000080033","geometry":{"type":"Polygon","coordinates":[[[120.319066,22.627426],[120.318486,22.628925],[120.314224,22.627511],[120.314201,22.627502],[120.314798,22.625969],[120.315405,22.624398],[120.315757,22.623486],[120.320028,22.624933],[120.319066,22.627426]]]},"properties":{"code":"64000080033","name":"中正里","countyCode":"64000","countyName":"高雄市","townCode":"64000080","townName":"苓雅區","level":"village","unassigned":false,"note":"","label":[120.31711664490601,22.62620807312043],"bounds":[120.314201,22.623486,120.320028,22.628925],"focusBounds":[120.314201,22.623486,120.320028,22.628925],"color":"#98b69b"}},{"type":"Feature","id":"64000080034","geometry":{"type":"Polygon","coordinates":[[[120.317906,22.630261],[120.313286,22.630587],[120.313215,22.62989],[120.313738,22.628659],[120.314224,22.627511],[120.318486,22.628925],[120.317974,22.630259],[120.317906,22.630261]]]},"properties":{"code":"64000080034","name":"尚義里","countyCode":"64000","countyName":"高雄市","townCode":"64000080","townName":"苓雅區","level":"village","unassigned":false,"note":"","label":[120.31556556889618,22.62919092396907],"bounds":[120.313215,22.627511,120.318486,22.630587],"focusBounds":[120.313215,22.627511,120.318486,22.630587],"color":"#58b99d"}},{"type":"Feature","id":"64000080035","geometry":{"type":"Polygon","coordinates":[[[120.323942,22.623952],[120.3222,22.628462],[120.319066,22.627426],[120.320028,22.624933],[120.320466,22.623802],[120.320811,22.622909],[120.323942,22.623952]]]},"properties":{"code":"64000080035","name":"同慶里","countyCode":"64000","countyName":"高雄市","townCode":"64000080","townName":"苓雅區","level":"village","unassigned":false,"note":"","label":[120.32150393094872,22.62568582895527],"bounds":[120.319066,22.622909,120.323942,22.628462],"focusBounds":[120.319066,22.622909,120.323942,22.628462],"color":"#58b99d"}},{"type":"Feature","id":"64000080036","geometry":{"type":"Polygon","coordinates":[[[120.321621,22.629961],[120.317974,22.630259],[120.318486,22.628925],[120.319066,22.627426],[120.3222,22.628462],[120.321621,22.629961]]]},"properties":{"code":"64000080036","name":"凱旋里","countyCode":"64000","countyName":"高雄市","townCode":"64000080","townName":"苓雅區","level":"village","unassigned":false,"note":"","label":[120.32000027751184,22.628914127836047],"bounds":[120.317974,22.627426,120.3222,22.630259],"focusBounds":[120.317974,22.627426,120.3222,22.630259],"color":"#efb44f"}},{"type":"Feature","id":"64000080037","geometry":{"type":"Polygon","coordinates":[[[120.320736,22.63225],[120.319769,22.631935],[120.31675,22.634294],[120.316698,22.633457],[120.316989,22.632729],[120.317906,22.630261],[120.317974,22.630259],[120.321621,22.629961],[120.320736,22.63225]]]},"properties":{"code":"64000080037","name":"安祥里","countyCode":"64000","countyName":"高雄市","townCode":"64000080","townName":"苓雅區","level":"village","unassigned":false,"note":"","label":[120.31858721828748,22.63153356221333],"bounds":[120.316698,22.629961,120.321621,22.634294],"focusBounds":[120.316698,22.629961,120.321621,22.634294],"color":"#78a7e3"}},{"type":"Feature","id":"64000080038","geometry":{"type":"Polygon","coordinates":[[[120.323067,22.629863],[120.321621,22.629961],[120.3222,22.628462],[120.323942,22.623952],[120.326498,22.624805],[120.326427,22.625515],[120.32688,22.626965],[120.325471,22.627379],[120.324623,22.627822],[120.323067,22.629863]]]},"properties":{"code":"64000080038","name":"奏捷里","countyCode":"64000","countyName":"高雄市","townCode":"64000080","townName":"苓雅區","level":"village","unassigned":false,"note":"","label":[120.32452621814845,22.626287086472487],"bounds":[120.321621,22.623952,120.32688,22.629961],"focusBounds":[120.321621,22.623952,120.32688,22.629961],"color":"#dd8590"}},{"type":"Feature","id":"64000080039","geometry":{"type":"Polygon","coordinates":[[[120.329154,22.625715],[120.328809,22.625982],[120.329302,22.626151],[120.329557,22.626811],[120.327096,22.627632],[120.32688,22.626965],[120.326427,22.625515],[120.326498,22.624805],[120.329154,22.625715]]]},"properties":{"code":"64000080039","name":"福壽里","countyCode":"64000","countyName":"高雄市","townCode":"64000080","townName":"苓雅區","level":"village","unassigned":false,"note":"","label":[120.32776404636728,22.626323560277797],"bounds":[120.326427,22.624805,120.329557,22.627632],"focusBounds":[120.326427,22.624805,120.329557,22.627632],"color":"#a49ad4"}},{"type":"Feature","id":"64000080040","geometry":{"type":"Polygon","coordinates":[[[120.323156,22.629859],[120.323067,22.629863],[120.324623,22.627822],[120.325471,22.627379],[120.32688,22.626965],[120.327096,22.627632],[120.327719,22.62956],[120.323156,22.629859]]]},"properties":{"code":"64000080040","name":"福南里","countyCode":"64000","countyName":"高雄市","townCode":"64000080","townName":"苓雅區","level":"village","unassigned":false,"note":"","label":[120.32590423950408,22.62846511082221],"bounds":[120.323067,22.626965,120.327719,22.629863],"focusBounds":[120.323067,22.626965,120.327719,22.629863],"color":"#a8bf62"}},{"type":"Feature","id":"64000080041","geometry":{"type":"Polygon","coordinates":[[[120.325706,22.632818],[120.324561,22.63278],[120.320196,22.633765],[120.320736,22.63225],[120.321621,22.629961],[120.323067,22.629863],[120.323156,22.629859],[120.324592,22.631524],[120.325706,22.632818]]]},"properties":{"code":"64000080041","name":"五權里","countyCode":"64000","countyName":"高雄市","townCode":"64000080","townName":"苓雅區","level":"village","unassigned":false,"note":"","label":[120.32260812760136,22.63168245453914],"bounds":[120.320196,22.629859,120.325706,22.633765],"focusBounds":[120.320196,22.629859,120.325706,22.633765],"color":"#df9f6a"}},{"type":"Feature","id":"64000080042","geometry":{"type":"Polygon","coordinates":[[[120.319468,22.638203],[120.317322,22.638482],[120.31718,22.638451],[120.318125,22.637918],[120.318669,22.63737],[120.319123,22.636568],[120.320196,22.633765],[120.324561,22.63278],[120.325706,22.632818],[120.327118,22.636829],[120.32458,22.637286],[120.319468,22.638203]]]},"properties":{"code":"64000080042","name":"民主里","countyCode":"64000","countyName":"高雄市","townCode":"64000080","townName":"苓雅區","level":"village","unassigned":false,"note":"","label":[120.32277041175355,22.63539728453492],"bounds":[120.31718,22.63278,120.327118,22.638482],"focusBounds":[120.31718,22.63278,120.327118,22.638482],"color":"#c38cb8"}},{"type":"Feature","id":"64000080043","geometry":{"type":"Polygon","coordinates":[[[120.325202,22.620686],[120.323942,22.623952],[120.320811,22.622909],[120.321534,22.621034],[120.322071,22.619645],[120.323424,22.620093],[120.325202,22.620686]]]},"properties":{"code":"64000080043","name":"林德里","countyCode":"64000","countyName":"高雄市","townCode":"64000080","townName":"苓雅區","level":"village","unassigned":false,"note":"","label":[120.32300648117962,22.621797618394947],"bounds":[120.320811,22.619645,120.325202,22.623952],"focusBounds":[120.320811,22.619645,120.325202,22.623952],"color":"#c38cb8"}},{"type":"Feature","id":"64000080044","geometry":{"type":"Polygon","coordinates":[[[120.325207,22.615258],[120.324881,22.616562],[120.323943,22.61849],[120.323424,22.620093],[120.322071,22.619645],[120.322595,22.618286],[120.322579,22.615611],[120.322581,22.615611],[120.322606,22.615393],[120.323579,22.615397],[120.323676,22.614449],[120.325236,22.614926],[120.325207,22.615258]]]},"properties":{"code":"64000080044","name":"林貴里","countyCode":"64000","countyName":"高雄市","townCode":"64000080","townName":"苓雅區","level":"village","unassigned":false,"note":"","label":[120.3236209877218,22.616804268713945],"bounds":[120.322071,22.614449,120.325236,22.620093],"focusBounds":[120.322071,22.614449,120.325236,22.620093],"color":"#98b69b"}},{"type":"Feature","id":"64000080045","geometry":{"type":"Polygon","coordinates":[[[120.32678,22.616571],[120.325202,22.620686],[120.323424,22.620093],[120.323943,22.61849],[120.324881,22.616562],[120.325207,22.615258],[120.325663,22.615294],[120.3257,22.614987],[120.326165,22.61505],[120.326249,22.614228],[120.327401,22.614154],[120.327277,22.615176],[120.32678,22.616571]]]},"properties":{"code":"64000080045","name":"林榮里","countyCode":"64000","countyName":"高雄市","townCode":"64000080","townName":"苓雅區","level":"village","unassigned":false,"note":"","label":[120.32545784737233,22.617467079912945],"bounds":[120.323424,22.614154,120.327401,22.620686],"focusBounds":[120.323424,22.614154,120.327401,22.620686],"color":"#58b99d"}},{"type":"Feature","id":"64000080046","geometry":{"type":"Polygon","coordinates":[[[120.327401,22.614154],[120.326249,22.614228],[120.326165,22.61505],[120.3257,22.614987],[120.325663,22.615294],[120.325207,22.615258],[120.325236,22.614926],[120.325112,22.611972],[120.326672,22.611706],[120.326705,22.611765],[120.326966,22.612372],[120.327328,22.613418],[120.327401,22.614154]]]},"properties":{"code":"64000080046","name":"英明里","countyCode":"64000","countyName":"高雄市","townCode":"64000080","townName":"苓雅區","level":"village","unassigned":false,"note":"","label":[120.32618565079238,22.613189099670667],"bounds":[120.325112,22.611706,120.327401,22.615294],"focusBounds":[120.325112,22.611706,120.327401,22.615294],"color":"#efb44f"}},{"type":"Feature","id":"64000080047","geometry":{"type":"Polygon","coordinates":[[[120.32776,22.621536],[120.326498,22.624805],[120.323942,22.623952],[120.325202,22.620686],[120.32665,22.621166],[120.32776,22.621536]]]},"properties":{"code":"64000080047","name":"林靖里","countyCode":"64000","countyName":"高雄市","townCode":"64000080","townName":"苓雅區","level":"village","unassigned":false,"note":"","label":[120.32585084230939,22.622744658595614],"bounds":[120.323942,22.620686,120.32776,22.624805],"focusBounds":[120.323942,22.620686,120.32776,22.624805],"color":"#78a7e3"}},{"type":"Feature","id":"64000080048","geometry":{"type":"Polygon","coordinates":[[[120.327495,22.61659],[120.327056,22.620269],[120.32665,22.621166],[120.325202,22.620686],[120.32678,22.616571],[120.327495,22.61659]]]},"properties":{"code":"64000080048","name":"朝陽里","countyCode":"64000","countyName":"高雄市","townCode":"64000080","townName":"苓雅區","level":"village","unassigned":false,"note":"","label":[120.32653926744536,22.61905937948365],"bounds":[120.325202,22.616571,120.327495,22.621166],"focusBounds":[120.325202,22.616571,120.327495,22.621166],"color":"#dd8590"}},{"type":"Feature","id":"64000080049","geometry":{"type":"Polygon","coordinates":[[[120.329275,22.620831],[120.328898,22.621914],[120.32776,22.621536],[120.32665,22.621166],[120.327056,22.620269],[120.327495,22.61659],[120.328039,22.616591],[120.327889,22.617678],[120.329668,22.617884],[120.329275,22.620831]]]},"properties":{"code":"64000080049","name":"福隆里","countyCode":"64000","countyName":"高雄市","townCode":"64000080","townName":"苓雅區","level":"village","unassigned":false,"note":"","label":[120.32825800374532,22.6195386974752],"bounds":[120.32665,22.61659,120.329668,22.621914],"focusBounds":[120.32665,22.61659,120.329668,22.621914],"color":"#a49ad4"}},{"type":"Feature","id":"64000080050","geometry":{"type":"Polygon","coordinates":[[[120.330313,22.624378],[120.329154,22.625715],[120.326498,22.624805],[120.32776,22.621536],[120.328898,22.621914],[120.331223,22.622687],[120.330313,22.624378]]]},"properties":{"code":"64000080050","name":"福祥里","countyCode":"64000","countyName":"高雄市","townCode":"64000080","townName":"苓雅區","level":"village","unassigned":false,"note":"","label":[120.32870077737465,22.623703705844946],"bounds":[120.326498,22.621536,120.331223,22.625715],"focusBounds":[120.326498,22.621536,120.331223,22.625715],"color":"#a8bf62"}},{"type":"Feature","id":"64000080051","geometry":{"type":"Polygon","coordinates":[[[120.328898,22.621914],[120.329275,22.620831],[120.330447,22.62098],[120.330432,22.621167],[120.331605,22.621688],[120.331366,22.622735],[120.331223,22.622687],[120.328898,22.621914]]]},"properties":{"code":"64000080051","name":"福海里","countyCode":"64000","countyName":"高雄市","townCode":"64000080","townName":"苓雅區","level":"village","unassigned":false,"note":"","label":[120.33024755374531,22.621720098371696],"bounds":[120.328898,22.620831,120.331605,22.622735],"focusBounds":[120.328898,22.620831,120.331605,22.622735],"color":"#68bec9"}},{"type":"Feature","id":"64000080052","geometry":{"type":"Polygon","coordinates":[[[120.331812,22.619969],[120.331605,22.621688],[120.330432,22.621167],[120.330447,22.62098],[120.329275,22.620831],[120.329668,22.617884],[120.332055,22.618154],[120.331812,22.619969]]]},"properties":{"code":"64000080052","name":"福康里","countyCode":"64000","countyName":"高雄市","townCode":"64000080","townName":"苓雅區","level":"village","unassigned":false,"note":"","label":[120.33066861429516,22.619555478394574],"bounds":[120.329275,22.617884,120.332055,22.621688],"focusBounds":[120.329275,22.617884,120.332055,22.621688],"color":"#df9f6a"}},{"type":"Feature","id":"64000080053","geometry":{"type":"Polygon","coordinates":[[[120.334594,22.620935],[120.333215,22.62239],[120.33275,22.622399],[120.332056,22.623029],[120.331366,22.622735],[120.331605,22.621688],[120.331812,22.619969],[120.332968,22.620134],[120.332921,22.620894],[120.333583,22.620457],[120.334205,22.620459],[120.334594,22.620935]]]},"properties":{"code":"64000080053","name":"福人里","countyCode":"64000","countyName":"高雄市","townCode":"64000080","townName":"苓雅區","level":"village","unassigned":false,"note":"","label":[120.33255864619903,22.62161737996044],"bounds":[120.331366,22.619969,120.334594,22.623029],"focusBounds":[120.331366,22.619969,120.334594,22.623029],"color":"#c38cb8"}},{"type":"Feature","id":"64000080054","geometry":{"type":"Polygon","coordinates":[[[120.334205,22.620459],[120.333583,22.620457],[120.332921,22.620894],[120.332968,22.620134],[120.331812,22.619969],[120.332055,22.618154],[120.334444,22.618468],[120.334205,22.620459]]]},"properties":{"code":"64000080054","name":"福地里","countyCode":"64000","countyName":"高雄市","townCode":"64000080","townName":"苓雅區","level":"village","unassigned":false,"note":"","label":[120.33313406844232,22.619223720200633],"bounds":[120.331812,22.618154,120.334444,22.620894],"focusBounds":[120.331812,22.618154,120.334444,22.620894],"color":"#98b69b"}},{"type":"Feature","id":"64000080055","geometry":{"type":"Polygon","coordinates":[[[120.336738,22.616288],[120.336141,22.620691],[120.335151,22.620572],[120.33503,22.621339],[120.334594,22.620935],[120.334205,22.620459],[120.334444,22.618468],[120.334876,22.616106],[120.336702,22.616284],[120.336738,22.616288]]]},"properties":{"code":"64000080055","name":"福居里","countyCode":"64000","countyName":"高雄市","townCode":"64000080","townName":"苓雅區","level":"village","unassigned":false,"note":"","label":[120.33544228895568,22.61852887233904],"bounds":[120.334205,22.616106,120.336738,22.621339],"focusBounds":[120.334205,22.616106,120.336738,22.621339],"color":"#58b99d"}},{"type":"Feature","id":"64000080056","geometry":{"type":"Polygon","coordinates":[[[120.336738,22.616288],[120.337163,22.61633],[120.339022,22.617976],[120.33949,22.617681],[120.340654,22.619055],[120.338184,22.620615],[120.33963,22.62256],[120.339967,22.623447],[120.340021,22.624247],[120.336262,22.623902],[120.333307,22.62356],[120.332056,22.623029],[120.33275,22.622399],[120.333215,22.62239],[120.334594,22.620935],[120.33503,22.621339],[120.335151,22.620572],[120.336141,22.620691],[120.336738,22.616288]]]},"properties":{"code":"64000080056","name":"福東里","countyCode":"64000","countyName":"高雄市","townCode":"64000080","townName":"苓雅區","level":"village","unassigned":false,"note":"","label":[120.33711332470462,22.622106546150498],"bounds":[120.332056,22.616288,120.340654,22.624247],"focusBounds":[120.332056,22.616288,120.340654,22.624247],"color":"#dd8590"}},{"type":"Feature","id":"64000080057","geometry":{"type":"Polygon","coordinates":[[[120.336184,22.626744],[120.332321,22.628028],[120.331955,22.627076],[120.332533,22.625573],[120.331726,22.625308],[120.331883,22.624902],[120.330313,22.624378],[120.331223,22.622687],[120.331366,22.622735],[120.332056,22.623029],[120.333307,22.62356],[120.336262,22.623902],[120.336184,22.626744]]]},"properties":{"code":"64000080057","name":"福西里","countyCode":"64000","countyName":"高雄市","townCode":"64000080","townName":"苓雅區","level":"village","unassigned":false,"note":"","label":[120.33431059682344,22.625521450921866],"bounds":[120.330313,22.622687,120.336262,22.628028],"focusBounds":[120.330313,22.622687,120.336262,22.628028],"color":"#78a7e3"}},{"type":"Feature","id":"64000080058","geometry":{"type":"Polygon","coordinates":[[[120.329314,22.62903],[120.327719,22.62956],[120.327096,22.627632],[120.329557,22.626811],[120.329302,22.626151],[120.328809,22.625982],[120.329154,22.625715],[120.330313,22.624378],[120.331883,22.624902],[120.331726,22.625308],[120.332533,22.625573],[120.331955,22.627076],[120.332321,22.628028],[120.329314,22.62903]]]},"properties":{"code":"64000080058","name":"永康里","countyCode":"64000","countyName":"高雄市","townCode":"64000080","townName":"苓雅區","level":"village","unassigned":false,"note":"","label":[120.33068311712174,22.627279155185818],"bounds":[120.327096,22.624378,120.332533,22.62956],"focusBounds":[120.327096,22.624378,120.332533,22.62956],"color":"#dd8590"}},{"type":"Feature","id":"64000080059","geometry":{"type":"Polygon","coordinates":[[[120.330142,22.632462],[120.328303,22.632976],[120.325706,22.632818],[120.324592,22.631524],[120.329989,22.630647],[120.330821,22.632249],[120.330142,22.632462]]]},"properties":{"code":"64000080059","name":"正文里","countyCode":"64000","countyName":"高雄市","townCode":"64000080","townName":"苓雅區","level":"village","unassigned":false,"note":"","label":[120.32796062624865,22.631965963717825],"bounds":[120.324592,22.630647,120.330821,22.632976],"focusBounds":[120.324592,22.630647,120.330821,22.632976],"color":"#a49ad4"}},{"type":"Feature","id":"64000080060","geometry":{"type":"Polygon","coordinates":[[[120.329989,22.630647],[120.324592,22.631524],[120.323156,22.629859],[120.327719,22.62956],[120.329314,22.62903],[120.329989,22.630647]]]},"properties":{"code":"64000080060","name":"正言里","countyCode":"64000","countyName":"高雄市","townCode":"64000080","townName":"苓雅區","level":"village","unassigned":false,"note":"","label":[120.32670726534062,22.630403434627816],"bounds":[120.323156,22.62903,120.329989,22.631524],"focusBounds":[120.323156,22.62903,120.329989,22.631524],"color":"#c38cb8"}},{"type":"Feature","id":"64000080061","geometry":{"type":"Polygon","coordinates":[[[120.333617,22.631366],[120.330821,22.632249],[120.329989,22.630647],[120.329314,22.62903],[120.332321,22.628028],[120.336184,22.626744],[120.336428,22.630479],[120.333617,22.631366]]]},"properties":{"code":"64000080061","name":"正大里","countyCode":"64000","countyName":"高雄市","townCode":"64000080","townName":"苓雅區","level":"village","unassigned":false,"note":"","label":[120.33316860172371,22.629627098169358],"bounds":[120.329314,22.626744,120.336428,22.632249],"focusBounds":[120.329314,22.626744,120.336428,22.632249],"color":"#68bec9"}},{"type":"Feature","id":"64000080062","geometry":{"type":"Polygon","coordinates":[[[120.331594,22.636065],[120.327118,22.636829],[120.325706,22.632818],[120.328303,22.632976],[120.330142,22.632462],[120.331097,22.635389],[120.330771,22.635468],[120.330903,22.635847],[120.333979,22.635595],[120.331594,22.636065]]]},"properties":{"code":"64000080062","name":"五福里","countyCode":"64000","countyName":"高雄市","townCode":"64000080","townName":"苓雅區","level":"village","unassigned":false,"note":"","label":[120.32863080556825,22.634727547074],"bounds":[120.325706,22.632462,120.333979,22.636829],"focusBounds":[120.325706,22.632462,120.333979,22.636829],"color":"#df9f6a"}},{"type":"Feature","id":"64000080063","geometry":{"type":"Polygon","coordinates":[[[120.333617,22.631366],[120.334675,22.634258],[120.331097,22.635389],[120.330142,22.632462],[120.330821,22.632249],[120.333617,22.631366]]]},"properties":{"code":"64000080063","name":"正心里","countyCode":"64000","countyName":"高雄市","townCode":"64000080","townName":"苓雅區","level":"village","unassigned":false,"note":"","label":[120.33238508298544,22.633368326358774],"bounds":[120.330142,22.631366,120.334675,22.635389],"focusBounds":[120.330142,22.631366,120.334675,22.635389],"color":"#c38cb8"}},{"type":"Feature","id":"64000080064","geometry":{"type":"Polygon","coordinates":[[[120.333979,22.635595],[120.330903,22.635847],[120.330771,22.635468],[120.331097,22.635389],[120.334675,22.634258],[120.333617,22.631366],[120.336428,22.630479],[120.336592,22.631877],[120.336973,22.635125],[120.33695,22.635128],[120.333979,22.635595]]]},"properties":{"code":"64000080064","name":"正道里","countyCode":"64000","countyName":"高雄市","townCode":"64000080","townName":"苓雅區","level":"village","unassigned":false,"note":"","label":[120.33551280329674,22.633061076627484],"bounds":[120.330771,22.630479,120.336973,22.635847],"focusBounds":[120.330771,22.630479,120.336973,22.635847],"color":"#98b69b"}},{"type":"Feature","id":"64000080065","geometry":{"type":"Polygon","coordinates":[[[120.339382,22.629541],[120.336428,22.630479],[120.336184,22.626744],[120.336262,22.623902],[120.340021,22.624247],[120.342293,22.624558],[120.342228,22.628302],[120.339886,22.629092],[120.339354,22.629447],[120.339382,22.629541]]]},"properties":{"code":"64000080065","name":"正義里","countyCode":"64000","countyName":"高雄市","townCode":"64000080","townName":"苓雅區","level":"village","unassigned":false,"note":"","label":[120.33892066680941,22.626741962832],"bounds":[120.336184,22.623902,120.342293,22.630479],"focusBounds":[120.336184,22.623902,120.342293,22.630479],"color":"#58b99d"}},{"type":"Feature","id":"64000080066","geometry":{"type":"Polygon","coordinates":[[[120.34234,22.630874],[120.342506,22.631573],[120.340109,22.632005],[120.339643,22.631425],[120.33817,22.631905],[120.337979,22.63138],[120.336592,22.631877],[120.336428,22.630479],[120.339382,22.629541],[120.341731,22.629902],[120.341952,22.630847],[120.34234,22.630874]]]},"properties":{"code":"64000080066","name":"正仁里","countyCode":"64000","countyName":"高雄市","townCode":"64000080","townName":"苓雅區","level":"village","unassigned":false,"note":"","label":[120.33942166740289,22.630521962880334],"bounds":[120.336428,22.629541,120.342506,22.632005],"focusBounds":[120.336428,22.629541,120.342506,22.632005],"color":"#efb44f"}},{"type":"Feature","id":"64000080067","geometry":{"type":"Polygon","coordinates":[[[120.341915,22.634255],[120.336973,22.635125],[120.336592,22.631877],[120.337979,22.63138],[120.33817,22.631905],[120.339643,22.631425],[120.340109,22.632005],[120.341915,22.634255]]]},"properties":{"code":"64000080067","name":"文昌里","countyCode":"64000","countyName":"高雄市","townCode":"64000080","townName":"苓雅區","level":"village","unassigned":false,"note":"","label":[120.33880537036504,22.633249965847035],"bounds":[120.336592,22.63138,120.341915,22.635125],"focusBounds":[120.336592,22.63138,120.341915,22.635125],"color":"#78a7e3"}},{"type":"Feature","id":"64000080068","geometry":{"type":"Polygon","coordinates":[[[120.344682,22.633786],[120.341915,22.634255],[120.340109,22.632005],[120.342506,22.631573],[120.34234,22.630874],[120.343107,22.630941],[120.343209,22.632113],[120.343522,22.633049],[120.345201,22.633114],[120.344699,22.633699],[120.344682,22.633786]]]},"properties":{"code":"64000080068","name":"建軍里","countyCode":"64000","countyName":"高雄市","townCode":"64000080","townName":"苓雅區","level":"village","unassigned":false,"note":"","label":[120.34222193106892,22.632797570994903],"bounds":[120.340109,22.630874,120.345201,22.634255],"focusBounds":[120.340109,22.630874,120.345201,22.634255],"color":"#dd8590"}},{"type":"Feature","id":"64000080069","geometry":{"type":"Polygon","coordinates":[[[120.344206,22.628009],[120.343098,22.628055],[120.342228,22.628302],[120.342293,22.624558],[120.344258,22.624868],[120.344756,22.624949],[120.345557,22.626573],[120.344031,22.627308],[120.344297,22.627934],[120.344206,22.628009]]]},"properties":{"code":"64000080069","name":"衛武里","countyCode":"64000","countyName":"高雄市","townCode":"64000080","townName":"苓雅區","level":"village","unassigned":false,"note":"","label":[120.34358296748702,22.62611274466663],"bounds":[120.342228,22.624558,120.345557,22.628302],"focusBounds":[120.342228,22.624558,120.345557,22.628302],"color":"#a49ad4"}},{"type":"Feature","id":"64000080S01","geometry":{"type":"Polygon","coordinates":[[[120.292478,22.616809],[120.292766,22.617317],[120.292658,22.618048],[120.291878,22.617945],[120.291304,22.618042],[120.290401,22.618848],[120.290183,22.614938],[120.288863,22.611023],[120.295882,22.607732],[120.296606,22.60942],[120.296622,22.609458],[120.296412,22.609314],[120.296364,22.609072],[120.290012,22.612198],[120.291478,22.615045],[120.292054,22.616061],[120.292478,22.616809]]]},"properties":{"code":"64000080S01","name":"未編定村里","countyCode":"64000","countyName":"高雄市","townCode":"64000080","townName":"苓雅區","level":"village","unassigned":true,"note":"未編定村里","label":[120.29130248139543,22.61690262318711],"bounds":[120.288863,22.607732,120.296622,22.618848],"focusBounds":[120.288863,22.607732,120.296622,22.618848],"color":"#a8bf62"}}]}
