{"type":"FeatureCollection","features":[{"type":"Feature","id":"65000290001","geometry":{"type":"Polygon","coordinates":[[[121.570561,24.876875],[121.570219,24.876555],[121.570031,24.876567],[121.568954,24.877412],[121.568269,24.877583],[121.567773,24.877542],[121.566919,24.877026],[121.566492,24.87694],[121.565431,24.877144],[121.565858,24.875582],[121.56582,24.874507],[121.561603,24.871747],[121.559481,24.870928],[121.557501,24.870719],[121.557092,24.870405],[121.55615,24.870233],[121.555084,24.869653],[121.550956,24.868634],[121.550499,24.868235],[121.549166,24.868627],[121.547717,24.869529],[121.547536,24.869805],[121.547452,24.870484],[121.547826,24.872054],[121.547552,24.872454],[121.547265,24.874352],[121.546952,24.874902],[121.546108,24.875379],[121.545282,24.875475],[121.544507,24.875274],[121.543681,24.875316],[121.541987,24.874564],[121.541568,24.874193],[121.541245,24.873336],[121.541283,24.871271],[121.540912,24.8705],[121.539541,24.868634],[121.536238,24.865294],[121.535058,24.863799],[121.53363,24.861192],[121.533126,24.859126],[121.532146,24.857232],[121.531698,24.855909],[121.529995,24.854434],[121.5298,24.854017],[121.530851,24.85293],[121.535029,24.849913],[121.535886,24.849447],[121.539436,24.848552],[121.541245,24.847505],[121.543824,24.845563],[121.545985,24.843679],[121.547346,24.841642],[121.547707,24.840928],[121.548088,24.839424],[121.548316,24.839158],[121.548945,24.838863],[121.549992,24.838748],[121.551,24.83812],[121.552438,24.836997],[121.553561,24.835817],[121.554436,24.834513],[121.554979,24.833447],[121.555027,24.832124],[121.556302,24.831153],[121.556616,24.830706],[121.556616,24.830449],[121.555502,24.828812],[121.555388,24.827746],[121.555855,24.827099],[121.556955,24.826114],[121.556994,24.826781],[121.557813,24.827524],[121.561096,24.829732],[121.561411,24.830208],[121.561439,24.831274],[121.561725,24.831769],[121.562981,24.832901],[121.564114,24.834748],[121.564561,24.836356],[121.564456,24.836651],[121.563676,24.83746],[121.563581,24.83846],[121.563933,24.840049],[121.565189,24.842362],[121.566008,24.843371],[121.568977,24.846264],[121.570529,24.847435],[121.571062,24.848358],[121.570976,24.849539],[121.570024,24.851937],[121.569605,24.852127],[121.568083,24.852185],[121.567654,24.852442],[121.567978,24.854792],[121.567416,24.855916],[121.567283,24.856563],[121.56794,24.858438],[121.567902,24.85937],[121.569577,24.861607],[121.570519,24.863749],[121.570662,24.865614],[121.570538,24.866509],[121.569862,24.867537],[121.569843,24.869735],[121.569444,24.870135],[121.569539,24.870782],[121.569386,24.871411],[121.569853,24.872343],[121.570367,24.874513],[121.570561,24.876875]]]},"properties":{"code":"65000290001","name":"烏來里","countyCode":"65000","countyName":"新北市","townCode":"65000290","townName":"烏來區","level":"village","unassigned":false,"note":"","label":[121.55380428620545,24.855209074134088],"bounds":[121.5298,24.826114,121.571062,24.877583],"focusBounds":[121.5298,24.826114,121.571062,24.877583],"color":"#78a7e3"}},{"type":"Feature","id":"65000290002","geometry":{"type":"Polygon","coordinates":[[[121.540718,24.893391],[121.539864,24.89379],[121.539219,24.893651],[121.537729,24.893007],[121.537103,24.892516],[121.536916,24.892184],[121.535929,24.892127],[121.535323,24.891798],[121.534846,24.891153],[121.534077,24.889547],[121.532926,24.888049],[121.53251,24.887603],[121.530429,24.886156],[121.529389,24.885073],[121.527363,24.884291],[121.526293,24.8836],[121.525451,24.883754],[121.52372,24.883774],[121.520713,24.883281],[121.517794,24.880859],[121.516994,24.880648],[121.514367,24.879442],[121.512431,24.879051],[121.508851,24.877526],[121.508209,24.876894],[121.507583,24.876661],[121.50709,24.876246],[121.50629,24.875149],[121.504795,24.874264],[121.504108,24.87364],[121.50188,24.872915],[121.499199,24.87032],[121.497973,24.870106],[121.494874,24.868466],[121.494115,24.867567],[121.493544,24.867267],[121.492856,24.866601],[121.491588,24.864913],[121.488357,24.862194],[121.491338,24.858641],[121.491832,24.857674],[121.492835,24.856577],[121.492966,24.854921],[121.492753,24.853693],[121.49311,24.852886],[121.494232,24.851744],[121.494615,24.851544],[121.495527,24.851413],[121.496115,24.851084],[121.496697,24.850335],[121.496918,24.8496],[121.498636,24.849174],[121.499512,24.849145],[121.501168,24.849497],[121.503433,24.849659],[121.506098,24.849041],[121.507697,24.849107],[121.508753,24.849459],[121.51218,24.851096],[121.515406,24.853266],[121.518081,24.853961],[121.520146,24.855598],[121.52087,24.855865],[121.522907,24.855798],[121.524382,24.855465],[121.525505,24.854999],[121.526771,24.85477],[121.528731,24.854037],[121.5298,24.854017],[121.529995,24.854434],[121.531698,24.855909],[121.532146,24.857232],[121.533126,24.859126],[121.53363,24.861192],[121.535058,24.863799],[121.536238,24.865294],[121.539541,24.868634],[121.540912,24.8705],[121.541283,24.871271],[121.541245,24.873336],[121.541568,24.874193],[121.541987,24.874564],[121.543681,24.875316],[121.544507,24.875274],[121.545282,24.875475],[121.546108,24.875379],[121.546952,24.874902],[121.547265,24.874352],[121.547552,24.872454],[121.547826,24.872054],[121.547452,24.870484],[121.547536,24.869805],[121.547717,24.869529],[121.549166,24.868627],[121.550499,24.868235],[121.550956,24.868634],[121.555084,24.869653],[121.55615,24.870233],[121.557092,24.870405],[121.557501,24.870719],[121.559481,24.870928],[121.561603,24.871747],[121.56582,24.874507],[121.565858,24.875582],[121.565431,24.877144],[121.564562,24.877134],[121.56441,24.877704],[121.564368,24.878605],[121.56482,24.880373],[121.564252,24.882081],[121.564582,24.883892],[121.564149,24.886794],[121.563861,24.887184],[121.562788,24.887808],[121.561344,24.888933],[121.560769,24.889626],[121.559713,24.890105],[121.559021,24.890629],[121.558163,24.890838],[121.557028,24.890708],[121.556092,24.891316],[121.555199,24.891595],[121.554348,24.891667],[121.552563,24.891483],[121.55058,24.891079],[121.549422,24.890253],[121.548919,24.889525],[121.548035,24.888721],[121.547272,24.888375],[121.546727,24.888321],[121.543733,24.890307],[121.542666,24.891322],[121.541921,24.892376],[121.540718,24.893391]]]},"properties":{"code":"65000290002","name":"忠治里","countyCode":"65000","countyName":"新北市","townCode":"65000290","townName":"烏來區","level":"village","unassigned":false,"note":"","label":[121.52367563086457,24.869695517116398],"bounds":[121.488357,24.849041,121.565858,24.89379],"focusBounds":[121.488357,24.849041,121.565858,24.89379],"color":"#a8bf62"}},{"type":"Feature","id":"65000290003","geometry":{"type":"Polygon","coordinates":[[[121.565721,24.80033],[121.564236,24.801107],[121.562266,24.80184],[121.561266,24.801888],[121.557202,24.801402],[121.55487,24.80145],[121.553138,24.802668],[121.552538,24.802935],[121.549911,24.803296],[121.54836,24.804581],[121.547675,24.80499],[121.547237,24.805086],[121.545133,24.804876],[121.541954,24.804315],[121.540413,24.804248],[121.53711,24.80619],[121.533988,24.806808],[121.532399,24.807418],[121.530352,24.809692],[121.529676,24.810159],[121.527459,24.809968],[121.526079,24.811006],[121.524384,24.811501],[121.523851,24.812862],[121.522195,24.813633],[121.521177,24.81526],[121.520454,24.815593],[121.519321,24.816669],[121.518636,24.817069],[121.517798,24.817326],[121.518007,24.817897],[121.517922,24.81843],[121.516209,24.819677],[121.515837,24.819857],[121.514686,24.819953],[121.512611,24.819829],[121.512192,24.819743],[121.511678,24.819334],[121.511174,24.819182],[121.510193,24.819153],[121.508452,24.821019],[121.507528,24.821161],[121.506833,24.820885],[121.506082,24.820343],[121.503683,24.817687],[121.503131,24.817288],[121.50138,24.816878],[121.498515,24.816507],[121.497525,24.816098],[121.49625,24.815022],[121.494146,24.814889],[121.492795,24.813956],[121.491196,24.812329],[121.489749,24.810121],[121.489387,24.809188],[121.488493,24.803068],[121.487988,24.800851],[121.487293,24.799775],[121.487379,24.799137],[121.486837,24.797615],[121.48697,24.796939],[121.486779,24.796615],[121.484933,24.795787],[121.483296,24.796463],[121.481925,24.79651],[121.480298,24.796063],[121.479194,24.79553],[121.47769,24.795464],[121.4771,24.795207],[121.475643,24.795302],[121.474673,24.796054],[121.472741,24.796434],[121.471798,24.796292],[121.468448,24.795035],[121.467382,24.795102],[121.464536,24.795854],[121.462575,24.795797],[121.461728,24.795568],[121.461186,24.795226],[121.459282,24.79355],[121.456037,24.791304],[121.454666,24.790771],[121.453039,24.790381],[121.451649,24.790181],[121.450487,24.790181],[121.450082,24.789394],[121.449083,24.788698],[121.448843,24.788244],[121.44902,24.78749],[121.449512,24.786744],[121.449619,24.786356],[121.449525,24.785936],[121.448678,24.785032],[121.447536,24.784205],[121.446921,24.782743],[121.446109,24.781854],[121.444064,24.780636],[121.442403,24.780486],[121.440575,24.77914],[121.440101,24.778519],[121.439686,24.77738],[121.438507,24.775469],[121.436921,24.77372],[121.435756,24.772961],[121.434786,24.772646],[121.432336,24.772264],[121.431432,24.771938],[121.429399,24.770151],[121.426734,24.768261],[121.425235,24.76668],[121.424156,24.764316],[121.423425,24.763094],[121.423268,24.762434],[121.423448,24.761736],[121.425116,24.761211],[121.425839,24.760588],[121.425828,24.759842],[121.425523,24.759057],[121.425567,24.758399],[121.427007,24.755337],[121.427893,24.754733],[121.428487,24.753454],[121.42848,24.75152],[121.429126,24.750439],[121.429218,24.749946],[121.428653,24.748809],[121.428685,24.748065],[121.429402,24.746563],[121.430157,24.745549],[121.430367,24.743458],[121.431989,24.742241],[121.432749,24.740752],[121.433087,24.739191],[121.432796,24.73742],[121.432977,24.736826],[121.433531,24.73609],[121.435052,24.734136],[121.435375,24.733107],[121.435262,24.732636],[121.434378,24.731037],[121.434152,24.730387],[121.434206,24.73013],[121.435314,24.729251],[121.436789,24.728366],[121.437795,24.72735],[121.43832,24.726591],[121.439942,24.726378],[121.440962,24.726083],[121.441535,24.72314],[121.444132,24.717308],[121.444897,24.715152],[121.445149,24.714784],[121.446603,24.714114],[121.447266,24.71335],[121.448383,24.712645],[121.448792,24.712189],[121.448852,24.710359],[121.449118,24.708548],[121.449549,24.707022],[121.450225,24.705675],[121.450813,24.705395],[121.452976,24.704856],[121.456511,24.703249],[121.459862,24.702758],[121.46255,24.701637],[121.463837,24.700868],[121.46454,24.69995],[121.465833,24.698961],[121.466979,24.697732],[121.469496,24.696151],[121.469823,24.696195],[121.470599,24.696751],[121.470963,24.696786],[121.472291,24.696602],[121.474236,24.696102],[121.474271,24.695223],[121.474793,24.693478],[121.474244,24.691676],[121.473317,24.69045],[121.47304,24.689802],[121.473454,24.688513],[121.473945,24.685333],[121.474198,24.684804],[121.475416,24.683653],[121.475468,24.68088],[121.47596,24.67927],[121.477067,24.678318],[121.477876,24.677313],[121.478554,24.67616],[121.479411,24.675152],[121.479996,24.673849],[121.481077,24.674282],[121.481815,24.674339],[121.48328,24.673802],[121.484735,24.673827],[121.485011,24.67388],[121.485562,24.674387],[121.486859,24.675166],[121.487916,24.675192],[121.488483,24.675134],[121.489289,24.674227],[121.491271,24.673737],[121.492447,24.673223],[121.493009,24.673243],[121.493907,24.673547],[121.494753,24.674279],[121.496357,24.675133],[121.496845,24.67552],[121.497131,24.676335],[121.497379,24.67662],[121.499029,24.677947],[121.500518,24.678642],[121.502418,24.679295],[121.505,24.679485],[121.505534,24.679902],[121.506492,24.681149],[121.506828,24.681916],[121.507304,24.682338],[121.509193,24.683176],[121.510303,24.683291],[121.511742,24.684354],[121.512686,24.684481],[121.513688,24.684304],[121.514813,24.683238],[121.517877,24.683232],[121.520497,24.68344],[121.521566,24.683284],[121.523796,24.683295],[121.524409,24.683702],[121.524944,24.684492],[121.526191,24.684786],[121.526954,24.685255],[121.527182,24.687164],[121.527135,24.688523],[121.527881,24.688969],[121.528221,24.688877],[121.528954,24.687749],[121.529498,24.687573],[121.532044,24.687715],[121.533315,24.688416],[121.534105,24.688235],[121.535709,24.688231],[121.536563,24.688328],[121.536873,24.688495],[121.537601,24.690111],[121.537777,24.691329],[121.537559,24.694015],[121.538734,24.694506],[121.538893,24.694776],[121.538485,24.696409],[121.538647,24.698022],[121.538039,24.698934],[121.537865,24.699844],[121.538486,24.700582],[121.540835,24.702306],[121.541739,24.703632],[121.542933,24.704668],[121.543119,24.705555],[121.543404,24.705737],[121.545559,24.705861],[121.546884,24.706264],[121.548265,24.706154],[121.549848,24.705695],[121.550622,24.705742],[121.551432,24.706088],[121.554435,24.708371],[121.555682,24.710508],[121.556377,24.711222],[121.556923,24.711318],[121.558241,24.710928],[121.55967,24.711413],[121.561831,24.712607],[121.562543,24.712839],[121.563484,24.712722],[121.565684,24.71166],[121.56778,24.711563],[121.568357,24.711822],[121.569488,24.712659],[121.570376,24.713971],[121.571345,24.712433],[121.572161,24.710583],[121.572394,24.710408],[121.57461,24.71004],[121.575066,24.710326],[121.57563,24.711047],[121.57609,24.712364],[121.577283,24.714874],[121.577538,24.716559],[121.577258,24.717458],[121.577685,24.718876],[121.577566,24.720766],[121.578059,24.722164],[121.578554,24.722445],[121.579319,24.722427],[121.581029,24.721512],[121.58347,24.720556],[121.585759,24.720056],[121.587048,24.720108],[121.587688,24.720329],[121.588446,24.720961],[121.590573,24.723564],[121.59234,24.724383],[121.59393,24.72584],[121.595964,24.726882],[121.596786,24.72704],[121.597549,24.727674],[121.597926,24.728797],[121.597906,24.729219],[121.596723,24.729192],[121.595684,24.729324],[121.594239,24.729241],[121.593771,24.729537],[121.593621,24.730031],[121.593727,24.730469],[121.595012,24.732484],[121.594956,24.733387],[121.594221,24.734668],[121.594168,24.735],[121.594386,24.735822],[121.594897,24.736695],[121.595311,24.738597],[121.595307,24.739632],[121.594932,24.740841],[121.594125,24.741221],[121.593394,24.742353],[121.592887,24.742859],[121.591924,24.743323],[121.591669,24.744916],[121.592027,24.745513],[121.592515,24.745855],[121.594092,24.746145],[121.594669,24.746431],[121.596133,24.748302],[121.595431,24.748567],[121.595183,24.748807],[121.594591,24.750192],[121.593279,24.750138],[121.592257,24.750306],[121.590819,24.750896],[121.590328,24.751245],[121.589962,24.751889],[121.589729,24.753597],[121.588974,24.755152],[121.589396,24.757208],[121.590817,24.758782],[121.590745,24.759629],[121.590455,24.760342],[121.590779,24.761345],[121.592066,24.762859],[121.593435,24.764821],[121.594041,24.765415],[121.595819,24.766482],[121.596279,24.766939],[121.596255,24.767314],[121.595569,24.768975],[121.595588,24.769301],[121.597426,24.77175],[121.597586,24.772169],[121.59757,24.77255],[121.595711,24.775992],[121.595067,24.777887],[121.594396,24.778988],[121.594333,24.78105],[121.59395,24.781528],[121.593518,24.781665],[121.593259,24.782107],[121.593381,24.785025],[121.592944,24.78624],[121.591955,24.787503],[121.592107,24.787735],[121.590919,24.788827],[121.58774,24.790064],[121.586426,24.790264],[121.585217,24.790141],[121.584266,24.790274],[121.582695,24.79153],[121.57766,24.794557],[121.573196,24.79785],[121.572121,24.798174],[121.567942,24.798126],[121.567381,24.798488],[121.567114,24.799116],[121.565696,24.800115],[121.565721,24.80033]]]},"properties":{"code":"65000290003","name":"福山里","countyCode":"65000","countyName":"新北市","townCode":"65000290","townName":"烏來區","level":"village","unassigned":false,"note":"","label":[121.51401093161418,24.75180140533285],"bounds":[121.423268,24.673223,121.597926,24.821161],"focusBounds":[121.423268,24.673223,121.597926,24.821161],"color":"#a8bf62"}},{"type":"Feature","id":"65000290004","geometry":{"type":"Polygon","coordinates":[[[121.5298,24.854017],[121.528731,24.854037],[121.526771,24.85477],[121.525505,24.854999],[121.524382,24.855465],[121.522907,24.855798],[121.52087,24.855865],[121.520146,24.855598],[121.518081,24.853961],[121.515406,24.853266],[121.51218,24.851096],[121.508753,24.849459],[121.507697,24.849107],[121.506098,24.849041],[121.503433,24.849659],[121.501168,24.849497],[121.499512,24.849145],[121.498636,24.849174],[121.496918,24.8496],[121.497201,24.848337],[121.496457,24.846535],[121.496759,24.845006],[121.496725,24.844315],[121.496032,24.841473],[121.495161,24.840627],[121.494732,24.839662],[121.494804,24.83776],[121.494603,24.836728],[121.494257,24.836327],[121.493474,24.835826],[121.492396,24.835553],[121.4903,24.834478],[121.487778,24.83443],[121.486736,24.834233],[121.485112,24.832359],[121.483916,24.831545],[121.483891,24.830605],[121.48342,24.829806],[121.483678,24.828386],[121.482105,24.826199],[121.481235,24.825317],[121.480452,24.823844],[121.480397,24.823504],[121.480646,24.823232],[121.482193,24.822548],[121.482434,24.822204],[121.482836,24.820843],[121.484001,24.819674],[121.483903,24.818376],[121.483642,24.817836],[121.482497,24.817133],[121.482111,24.816699],[121.481712,24.815844],[121.481423,24.815682],[121.478997,24.816072],[121.478407,24.816017],[121.477731,24.815795],[121.4757,24.814222],[121.474844,24.814106],[121.474245,24.813661],[121.47328,24.813355],[121.472338,24.810321],[121.471956,24.809818],[121.469063,24.807247],[121.467568,24.806792],[121.466615,24.806323],[121.464118,24.80624],[121.461919,24.805418],[121.461357,24.804805],[121.460768,24.80357],[121.459385,24.801555],[121.459005,24.801315],[121.458093,24.801161],[121.45736,24.800137],[121.456606,24.799842],[121.455326,24.798921],[121.455902,24.796858],[121.455627,24.7953],[121.456242,24.793371],[121.456207,24.79285],[121.455578,24.792284],[121.453915,24.791777],[121.451463,24.791974],[121.450834,24.791599],[121.450385,24.790917],[121.450491,24.790616],[121.450487,24.790181],[121.451649,24.790181],[121.453039,24.790381],[121.454666,24.790771],[121.456037,24.791304],[121.459282,24.79355],[121.461186,24.795226],[121.461728,24.795568],[121.462575,24.795797],[121.464536,24.795854],[121.467382,24.795102],[121.468448,24.795035],[121.471798,24.796292],[121.472741,24.796434],[121.474673,24.796054],[121.475643,24.795302],[121.4771,24.795207],[121.47769,24.795464],[121.479194,24.79553],[121.480298,24.796063],[121.481925,24.79651],[121.483296,24.796463],[121.484933,24.795787],[121.486779,24.796615],[121.48697,24.796939],[121.486837,24.797615],[121.487379,24.799137],[121.487293,24.799775],[121.487988,24.800851],[121.488493,24.803068],[121.489387,24.809188],[121.489749,24.810121],[121.491196,24.812329],[121.492795,24.813956],[121.494146,24.814889],[121.49625,24.815022],[121.497525,24.816098],[121.498515,24.816507],[121.50138,24.816878],[121.503131,24.817288],[121.503683,24.817687],[121.506082,24.820343],[121.506833,24.820885],[121.507528,24.821161],[121.508452,24.821019],[121.510193,24.819153],[121.511174,24.819182],[121.511678,24.819334],[121.512192,24.819743],[121.512611,24.819829],[121.514686,24.819953],[121.515837,24.819857],[121.516209,24.819677],[121.517922,24.81843],[121.518007,24.817897],[121.517798,24.817326],[121.518636,24.817069],[121.519321,24.816669],[121.520454,24.815593],[121.521177,24.81526],[121.522195,24.813633],[121.523851,24.812862],[121.524384,24.811501],[121.526079,24.811006],[121.527459,24.809968],[121.529676,24.810159],[121.530352,24.809692],[121.532399,24.807418],[121.533988,24.806808],[121.53711,24.80619],[121.540413,24.804248],[121.541954,24.804315],[121.545133,24.804876],[121.547237,24.805086],[121.547675,24.80499],[121.54836,24.804581],[121.549911,24.803296],[121.552538,24.802935],[121.553138,24.802668],[121.55487,24.80145],[121.557202,24.801402],[121.561266,24.801888],[121.562266,24.80184],[121.564236,24.801107],[121.565721,24.80033],[121.566743,24.801619],[121.566724,24.802143],[121.566125,24.803028],[121.56602,24.803494],[121.566163,24.804246],[121.566477,24.804789],[121.567666,24.805883],[121.570255,24.807625],[121.570969,24.808948],[121.570864,24.810223],[121.56956,24.812022],[121.568542,24.813012],[121.56622,24.814811],[121.565258,24.815829],[121.564925,24.816591],[121.565439,24.818038],[121.565144,24.819123],[121.564706,24.819513],[121.563602,24.820017],[121.563117,24.820465],[121.562679,24.822054],[121.562032,24.823054],[121.556955,24.826114],[121.555855,24.827099],[121.555388,24.827746],[121.555502,24.828812],[121.556616,24.830449],[121.556616,24.830706],[121.556302,24.831153],[121.555027,24.832124],[121.554979,24.833447],[121.554436,24.834513],[121.553561,24.835817],[121.552438,24.836997],[121.551,24.83812],[121.549992,24.838748],[121.548945,24.838863],[121.548316,24.839158],[121.548088,24.839424],[121.547707,24.840928],[121.547346,24.841642],[121.545985,24.843679],[121.543824,24.845563],[121.541245,24.847505],[121.539436,24.848552],[121.535886,24.849447],[121.535029,24.849913],[121.530851,24.85293],[121.5298,24.854017]]]},"properties":{"code":"65000290004","name":"信賢里","countyCode":"65000","countyName":"新北市","townCode":"65000290","townName":"烏來區","level":"village","unassigned":false,"note":"","label":[121.52971152826221,24.831885880532283],"bounds":[121.450385,24.790181,121.570969,24.855865],"focusBounds":[121.450385,24.790181,121.570969,24.855865],"color":"#df9f6a"}},{"type":"Feature","id":"65000290005","geometry":{"type":"Polygon","coordinates":[[[121.575776,24.875082],[121.573384,24.874787],[121.572972,24.875315],[121.57217,24.875895],[121.571356,24.876888],[121.570918,24.876998],[121.570561,24.876875],[121.570367,24.874513],[121.569853,24.872343],[121.569386,24.871411],[121.569539,24.870782],[121.569444,24.870135],[121.569843,24.869735],[121.569862,24.867537],[121.570538,24.866509],[121.570662,24.865614],[121.570519,24.863749],[121.569577,24.861607],[121.567902,24.85937],[121.56794,24.858438],[121.567283,24.856563],[121.567416,24.855916],[121.567978,24.854792],[121.567654,24.852442],[121.568083,24.852185],[121.569605,24.852127],[121.570024,24.851937],[121.570976,24.849539],[121.571062,24.848358],[121.570529,24.847435],[121.568977,24.846264],[121.566008,24.843371],[121.565189,24.842362],[121.563933,24.840049],[121.563581,24.83846],[121.563676,24.83746],[121.564456,24.836651],[121.564561,24.836356],[121.564114,24.834748],[121.562981,24.832901],[121.561725,24.831769],[121.561439,24.831274],[121.561411,24.830208],[121.561096,24.829732],[121.557813,24.827524],[121.556994,24.826781],[121.556955,24.826114],[121.562032,24.823054],[121.562679,24.822054],[121.563117,24.820465],[121.563602,24.820017],[121.564706,24.819513],[121.565144,24.819123],[121.565439,24.818038],[121.564925,24.816591],[121.565258,24.815829],[121.56622,24.814811],[121.568542,24.813012],[121.56956,24.812022],[121.570864,24.810223],[121.570969,24.808948],[121.570255,24.807625],[121.567666,24.805883],[121.566477,24.804789],[121.566163,24.804246],[121.56602,24.803494],[121.566125,24.803028],[121.566724,24.802143],[121.566743,24.801619],[121.565721,24.80033],[121.565696,24.800115],[121.567114,24.799116],[121.567381,24.798488],[121.567942,24.798126],[121.572121,24.798174],[121.573196,24.79785],[121.57766,24.794557],[121.582695,24.79153],[121.584266,24.790274],[121.585217,24.790141],[121.586426,24.790264],[121.58774,24.790064],[121.590919,24.788827],[121.592107,24.787735],[121.59277,24.787646],[121.59344,24.787296],[121.598891,24.787699],[121.601365,24.788706],[121.602932,24.789439],[121.605644,24.789126],[121.607159,24.790396],[121.609637,24.793766],[121.610587,24.793717],[121.613335,24.793198],[121.615556,24.793861],[121.616811,24.793888],[121.620438,24.792554],[121.620961,24.792503],[121.621701,24.792748],[121.622589,24.793687],[121.623558,24.794379],[121.62558,24.795129],[121.625821,24.795466],[121.626003,24.796389],[121.625154,24.799454],[121.624815,24.80161],[121.625108,24.802296],[121.625698,24.802551],[121.625944,24.802843],[121.626414,24.805275],[121.626356,24.806118],[121.625732,24.808235],[121.62569,24.808579],[121.625827,24.80878],[121.628254,24.807938],[121.628664,24.80796],[121.628939,24.808064],[121.629581,24.808738],[121.630411,24.809019],[121.63222,24.809223],[121.634374,24.809136],[121.637226,24.809438],[121.638032,24.809958],[121.638803,24.810725],[121.640044,24.810323],[121.642031,24.810439],[121.644149,24.809252],[121.645037,24.809289],[121.645737,24.809697],[121.646212,24.810313],[121.647374,24.813952],[121.648673,24.812654],[121.649396,24.812522],[121.650519,24.812968],[121.65159,24.811815],[121.653115,24.811266],[121.658283,24.811102],[121.658738,24.810959],[121.660212,24.811106],[121.66069,24.810829],[121.660926,24.811194],[121.661056,24.811934],[121.661977,24.812158],[121.66242,24.812483],[121.663016,24.812628],[121.663501,24.813206],[121.664117,24.813436],[121.664798,24.814415],[121.66577,24.814779],[121.667419,24.816306],[121.66873,24.816887],[121.66905,24.818009],[121.671005,24.816858],[121.672657,24.815141],[121.673566,24.814436],[121.674355,24.814123],[121.674757,24.814219],[121.675315,24.814699],[121.675849,24.814473],[121.676131,24.814604],[121.676755,24.814117],[121.677156,24.814092],[121.677746,24.814778],[121.678901,24.815327],[121.680564,24.817407],[121.681241,24.817616],[121.681742,24.817539],[121.682407,24.816976],[121.683067,24.816911],[121.68465,24.817417],[121.686198,24.817525],[121.686973,24.81684],[121.68729,24.8162],[121.687747,24.816067],[121.688446,24.816194],[121.68928,24.81717],[121.689216,24.81793],[121.688927,24.818709],[121.68895,24.819328],[121.690118,24.821492],[121.689843,24.821831],[121.689679,24.822713],[121.687758,24.824192],[121.687681,24.824985],[121.688157,24.825632],[121.688906,24.826202],[121.691051,24.827206],[121.691848,24.827154],[121.692293,24.82728],[121.69317,24.827914],[121.693623,24.828516],[121.694338,24.829074],[121.695426,24.829412],[121.69606,24.829783],[121.69636,24.830294],[121.696413,24.831077],[121.696101,24.831973],[121.696586,24.83285],[121.696711,24.833729],[121.696369,24.834541],[121.696713,24.834627],[121.697722,24.834237],[121.698252,24.834268],[121.699164,24.835577],[121.70026,24.834658],[121.701203,24.834346],[121.701866,24.8344],[121.703398,24.835298],[121.70393,24.836069],[121.704492,24.836224],[121.705898,24.837374],[121.706761,24.837793],[121.707329,24.838771],[121.707526,24.838846],[121.70585,24.840247],[121.704897,24.841697],[121.704065,24.842273],[121.703033,24.84221],[121.702076,24.842763],[121.70065,24.8427],[121.699646,24.842992],[121.697679,24.842986],[121.696643,24.84357],[121.695374,24.843797],[121.694345,24.843576],[121.693123,24.84408],[121.692036,24.845011],[121.691768,24.84646],[121.691194,24.847089],[121.690681,24.848107],[121.690328,24.848313],[121.688509,24.848371],[121.68837,24.849319],[121.688027,24.849721],[121.687628,24.849903],[121.686636,24.849935],[121.685332,24.849402],[121.684558,24.849893],[121.68363,24.85009],[121.682775,24.849993],[121.682222,24.850211],[121.681734,24.849648],[121.679583,24.849657],[121.677905,24.848975],[121.677748,24.849455],[121.677243,24.84971],[121.675871,24.849338],[121.675147,24.849301],[121.673998,24.848909],[121.673673,24.848928],[121.673142,24.849255],[121.672537,24.848884],[121.671627,24.848882],[121.671234,24.848553],[121.670635,24.848548],[121.669768,24.848048],[121.66891,24.848402],[121.668294,24.849038],[121.667404,24.849271],[121.666493,24.849952],[121.66551,24.850369],[121.664998,24.850014],[121.664757,24.849637],[121.664042,24.849627],[121.662784,24.850146],[121.662058,24.850013],[121.661664,24.850262],[121.6613,24.850243],[121.660724,24.85058],[121.659733,24.850822],[121.659521,24.851176],[121.659098,24.850698],[121.657942,24.850399],[121.657339,24.849712],[121.656926,24.849744],[121.655642,24.850647],[121.65504,24.851368],[121.654559,24.852817],[121.653797,24.853407],[121.652976,24.855219],[121.65226,24.855494],[121.651874,24.855951],[121.651267,24.856053],[121.65092,24.85636],[121.650616,24.856936],[121.649789,24.85728],[121.649429,24.857601],[121.647313,24.858667],[121.646542,24.859201],[121.645731,24.859414],[121.644662,24.860734],[121.643324,24.860615],[121.642898,24.861127],[121.641755,24.861884],[121.641075,24.862059],[121.640409,24.86191],[121.639198,24.861455],[121.638448,24.860889],[121.637712,24.859499],[121.636875,24.859184],[121.636,24.857823],[121.63556,24.857488],[121.635211,24.857421],[121.634865,24.85819],[121.634052,24.858944],[121.632862,24.859325],[121.631936,24.859349],[121.631332,24.860118],[121.62977,24.861416],[121.625458,24.8615],[121.624491,24.861985],[121.623078,24.862288],[121.62126,24.863233],[121.620616,24.863149],[121.620238,24.86294],[121.619591,24.861523],[121.617948,24.861924],[121.615468,24.860697],[121.61467,24.86138],[121.613517,24.861529],[121.612138,24.861954],[121.609279,24.863055],[121.605437,24.863302],[121.600724,24.863304],[121.599675,24.863908],[121.597733,24.864143],[121.597132,24.864614],[121.596546,24.865972],[121.595877,24.866305],[121.594631,24.866389],[121.592999,24.866125],[121.592116,24.866442],[121.591404,24.867044],[121.590036,24.869347],[121.589382,24.869803],[121.588191,24.870071],[121.586962,24.870843],[121.585836,24.871687],[121.585327,24.872444],[121.58494,24.872753],[121.58439,24.872833],[121.583603,24.873349],[121.582106,24.873484],[121.58095,24.874124],[121.57981,24.874303],[121.578155,24.874181],[121.576168,24.875038],[121.575776,24.875082]]]},"properties":{"code":"65000290005","name":"孝義里","countyCode":"65000","countyName":"新北市","townCode":"65000290","townName":"烏來區","level":"village","unassigned":false,"note":"","label":[121.60547861579349,24.833066279958196],"bounds":[121.556955,24.787296,121.707526,24.876998],"focusBounds":[121.556955,24.787296,121.707526,24.876998],"color":"#68bec9"}}]}
