{"type":"FeatureCollection","features":[{"type":"Feature","id":"65000250001","geometry":{"type":"Polygon","coordinates":[[[121.866283,25.035011],[121.865653,25.036712],[121.865336,25.037096],[121.864861,25.037336],[121.86439,25.037325],[121.863294,25.037306],[121.86306,25.036882],[121.863254,25.036062],[121.863707,25.035549],[121.863874,25.034973],[121.864308,25.033985],[121.866283,25.035011]]]},"properties":{"code":"65000250001","name":"雙溪里","countyCode":"65000","countyName":"新北市","townCode":"65000250","townName":"雙溪區","level":"village","unassigned":false,"note":"","label":[121.8647710833338,25.03587182146358],"bounds":[121.86306,25.033985,121.866283,25.037336],"focusBounds":[121.86306,25.033985,121.866283,25.037336],"color":"#df9f6a"}},{"type":"Feature","id":"65000250002","geometry":{"type":"Polygon","coordinates":[[[121.870711,25.035105],[121.868405,25.035124],[121.867878,25.035408],[121.867075,25.036235],[121.86693,25.035648],[121.866283,25.035011],[121.864308,25.033985],[121.863874,25.034973],[121.863367,25.034809],[121.863372,25.034683],[121.861755,25.034595],[121.860896,25.034313],[121.860478,25.034362],[121.858976,25.03374],[121.85918,25.033584],[121.858767,25.033227],[121.858236,25.032107],[121.858311,25.031524],[121.858165,25.03128],[121.856204,25.029817],[121.853247,25.028305],[121.851808,25.026522],[121.851012,25.025847],[121.850505,25.024443],[121.850538,25.02296],[121.850573,25.021836],[121.850397,25.021053],[121.84854,25.018082],[121.848108,25.017718],[121.846893,25.018136],[121.846312,25.018055],[121.846191,25.017839],[121.846197,25.016624],[121.8469,25.015152],[121.847089,25.014018],[121.846994,25.013761],[121.845799,25.012586],[121.845367,25.011641],[121.845448,25.011411],[121.847176,25.009966],[121.848007,25.009021],[121.848345,25.007833],[121.848318,25.007401],[121.848087,25.007037],[121.851511,25.008076],[121.855549,25.0079],[121.856103,25.008103],[121.856683,25.008657],[121.858331,25.011236],[121.859345,25.012251],[121.858793,25.013542],[121.857847,25.014745],[121.858306,25.015477],[121.859884,25.016141],[121.861096,25.01617],[121.861171,25.016374],[121.861762,25.016675],[121.8612,25.018042],[121.861443,25.018704],[121.863368,25.019271],[121.864583,25.020094],[121.865117,25.023038],[121.865387,25.023578],[121.867993,25.024983],[121.870449,25.028004],[121.870018,25.028554],[121.870466,25.030119],[121.870758,25.030433],[121.870987,25.031195],[121.870942,25.031815],[121.870506,25.032003],[121.868677,25.031909],[121.869047,25.033054],[121.87083,25.03333],[121.870711,25.035105]]]},"properties":{"code":"65000250002","name":"共和里","countyCode":"65000","countyName":"新北市","townCode":"65000250","townName":"雙溪區","level":"village","unassigned":false,"note":"","label":[121.85677726997926,25.023007047215838],"bounds":[121.845367,25.007037,121.870987,25.036235],"focusBounds":[121.845367,25.007037,121.870987,25.036235],"color":"#c38cb8"}},{"type":"Feature","id":"65000250003","geometry":{"type":"Polygon","coordinates":[[[121.869483,25.046986],[121.868796,25.04428],[121.867346,25.040915],[121.866826,25.040718],[121.866392,25.039654],[121.865898,25.039163],[121.864861,25.037336],[121.865336,25.037096],[121.865653,25.036712],[121.866283,25.035011],[121.86693,25.035648],[121.867075,25.036235],[121.867878,25.035408],[121.868405,25.035124],[121.870711,25.035105],[121.872118,25.035151],[121.872685,25.035367],[121.874441,25.036407],[121.875346,25.037136],[121.876737,25.037407],[121.879755,25.03742],[121.882861,25.036826],[121.88517,25.036637],[121.887074,25.037879],[121.890308,25.04035],[121.893268,25.041211],[121.892482,25.041843],[121.892159,25.041822],[121.891272,25.04212],[121.890518,25.041944],[121.889886,25.043263],[121.889958,25.043877],[121.889019,25.044163],[121.888581,25.044146],[121.887832,25.04462],[121.887639,25.045545],[121.887951,25.045821],[121.888152,25.046448],[121.888755,25.047252],[121.889122,25.047432],[121.889358,25.047811],[121.888986,25.048249],[121.888755,25.049343],[121.884718,25.048804],[121.883718,25.04798],[121.881463,25.047426],[121.881112,25.047453],[121.879167,25.048304],[121.878539,25.048372],[121.875069,25.046589],[121.872557,25.045563],[121.871301,25.045266],[121.870977,25.045401],[121.870829,25.045995],[121.870545,25.046346],[121.869533,25.047238],[121.869483,25.046986]]]},"properties":{"code":"65000250003","name":"新基里","countyCode":"65000","countyName":"新北市","townCode":"65000250","townName":"雙溪區","level":"village","unassigned":false,"note":"","label":[121.87869472537011,25.042885154344557],"bounds":[121.864861,25.035011,121.893268,25.049343],"focusBounds":[121.864861,25.035011,121.893268,25.049343],"color":"#98b69b"}},{"type":"Feature","id":"65000250004","geometry":{"type":"Polygon","coordinates":[[[121.870711,25.035105],[121.87083,25.03333],[121.869047,25.033054],[121.868677,25.031909],[121.870506,25.032003],[121.870942,25.031815],[121.870987,25.031195],[121.870758,25.030433],[121.870466,25.030119],[121.870018,25.028554],[121.870449,25.028004],[121.867993,25.024983],[121.865387,25.023578],[121.865117,25.023038],[121.864583,25.020094],[121.863368,25.019271],[121.861443,25.018704],[121.8612,25.018042],[121.861762,25.016675],[121.861171,25.016374],[121.861096,25.01617],[121.859884,25.016141],[121.858306,25.015477],[121.857847,25.014745],[121.858793,25.013542],[121.859345,25.012251],[121.858331,25.011236],[121.856683,25.008657],[121.856103,25.008103],[121.855549,25.0079],[121.851511,25.008076],[121.848087,25.007037],[121.847305,25.006469],[121.846437,25.005349],[121.84538,25.004295],[121.844624,25.003944],[121.843936,25.003174],[121.843566,25.001325],[121.843605,25.000986],[121.843996,25.000419],[121.845009,24.999811],[121.846778,24.999109],[121.84983,24.998853],[121.851741,24.997772],[121.853321,24.996503],[121.854631,24.995855],[121.855508,24.995706],[121.858061,24.996165],[121.858925,24.995922],[121.861187,24.993789],[121.862335,24.993194],[121.863226,24.993397],[121.863618,24.993694],[121.864036,24.994261],[121.864914,24.996111],[121.86538,24.996476],[121.865846,24.996597],[121.867223,24.996368],[121.871618,24.995161],[121.872528,24.996551],[121.875308,24.999345],[121.875682,25.00075],[121.876034,25.004157],[121.876456,25.004881],[121.878178,25.006479],[121.878801,25.00738],[121.878896,25.007899],[121.878583,25.009312],[121.878618,25.010413],[121.87898,25.010877],[121.880073,25.011314],[121.880616,25.011762],[121.880763,25.012299],[121.880565,25.013552],[121.881766,25.01396],[121.883745,25.014211],[121.885228,25.01495],[121.885769,25.0148],[121.88646,25.014126],[121.887069,25.014102],[121.887491,25.014392],[121.888533,25.014728],[121.889183,25.015371],[121.889797,25.015673],[121.890065,25.01612],[121.890959,25.016228],[121.891139,25.016411],[121.891147,25.017192],[121.890822,25.018293],[121.889662,25.019018],[121.888245,25.019216],[121.888197,25.020701],[121.888503,25.020947],[121.889718,25.021],[121.890092,25.021533],[121.89052,25.022614],[121.892037,25.024423],[121.892519,25.024678],[121.893025,25.024736],[121.893323,25.024198],[121.893877,25.024797],[121.893857,25.025261],[121.89343,25.026494],[121.892863,25.027499],[121.89219,25.028252],[121.892154,25.02859],[121.894211,25.031424],[121.894061,25.033002],[121.894666,25.03366],[121.895201,25.034908],[121.895313,25.03572],[121.895887,25.037501],[121.896777,25.039263],[121.896775,25.04001],[121.896071,25.040571],[121.895253,25.040647],[121.895085,25.040442],[121.894813,25.040419],[121.893268,25.041211],[121.890308,25.04035],[121.887074,25.037879],[121.88517,25.036637],[121.882861,25.036826],[121.879755,25.03742],[121.876737,25.037407],[121.875346,25.037136],[121.874441,25.036407],[121.872685,25.035367],[121.872118,25.035151],[121.870711,25.035105]]]},"properties":{"code":"65000250004","name":"魚行里","countyCode":"65000","countyName":"新北市","townCode":"65000250","townName":"雙溪區","level":"village","unassigned":false,"note":"","label":[121.87295298366594,25.01746049669099],"bounds":[121.843566,24.993194,121.896777,25.041211],"focusBounds":[121.843566,24.993194,121.896777,25.041211],"color":"#58b99d"}},{"type":"Feature","id":"65000250005","geometry":{"type":"Polygon","coordinates":[[[121.878588,25.073729],[121.877344,25.071612],[121.876629,25.070829],[121.872578,25.070451],[121.872037,25.070464],[121.870187,25.07095],[121.86935,25.07091],[121.869802,25.069627],[121.869816,25.068182],[121.868749,25.066481],[121.867297,25.065684],[121.866811,25.065198],[121.866906,25.06166],[121.867426,25.060498],[121.869219,25.058388],[121.87037,25.058604],[121.871754,25.058434],[121.871865,25.058286],[121.871674,25.057511],[121.871783,25.056736],[121.870808,25.056299],[121.870849,25.055745],[121.869607,25.054367],[121.869242,25.052274],[121.867432,25.051032],[121.866973,25.05037],[121.867,25.04983],[121.867365,25.049128],[121.868875,25.047832],[121.868428,25.047506],[121.868653,25.047402],[121.868498,25.047067],[121.868743,25.046983],[121.868964,25.047183],[121.869483,25.046986],[121.869533,25.047238],[121.870545,25.046346],[121.870829,25.045995],[121.870977,25.045401],[121.871301,25.045266],[121.872557,25.045563],[121.875069,25.046589],[121.878539,25.048372],[121.879167,25.048304],[121.881112,25.047453],[121.881463,25.047426],[121.883718,25.04798],[121.884718,25.048804],[121.888755,25.049343],[121.888914,25.050245],[121.88886,25.051088],[121.889168,25.051433],[121.889326,25.05198],[121.890355,25.052661],[121.890582,25.053204],[121.890343,25.053878],[121.889833,25.054149],[121.889185,25.054817],[121.88925,25.055517],[121.889025,25.056355],[121.888186,25.05701],[121.887942,25.057412],[121.887833,25.059716],[121.887951,25.060496],[121.887427,25.061473],[121.887088,25.063557],[121.88589,25.065012],[121.885653,25.065943],[121.885003,25.066798],[121.884653,25.067719],[121.884085,25.068121],[121.883804,25.069094],[121.883077,25.069758],[121.882976,25.070147],[121.883083,25.071502],[121.88289,25.071953],[121.882341,25.072367],[121.881637,25.07256],[121.87995,25.072432],[121.87921,25.073366],[121.878588,25.073729]]]},"properties":{"code":"65000250005","name":"三港里","countyCode":"65000","countyName":"新北市","townCode":"65000250","townName":"雙溪區","level":"village","unassigned":false,"note":"","label":[121.87932546390995,25.0593695376692],"bounds":[121.866811,25.045266,121.890582,25.073729],"focusBounds":[121.866811,25.045266,121.890582,25.073729],"color":"#efb44f"}},{"type":"Feature","id":"65000250006","geometry":{"type":"Polygon","coordinates":[[[121.866426,25.095159],[121.865423,25.095202],[121.863421,25.095903],[121.862606,25.09593],[121.861985,25.096473],[121.861215,25.096479],[121.861146,25.095271],[121.860566,25.093745],[121.861498,25.092057],[121.861389,25.09149],[121.860674,25.090113],[121.860404,25.089937],[121.860242,25.089842],[121.858824,25.090005],[121.858432,25.089856],[121.858459,25.089626],[121.860302,25.085157],[121.861072,25.083941],[121.866069,25.081132],[121.866339,25.080916],[121.866406,25.080552],[121.865988,25.08012],[121.863678,25.078756],[121.86114,25.07754],[121.861032,25.077162],[121.861146,25.075974],[121.860539,25.07484],[121.860512,25.074461],[121.860903,25.074137],[121.862524,25.073584],[121.86274,25.073071],[121.861079,25.070842],[121.858851,25.068398],[121.858486,25.068047],[121.857169,25.067466],[121.856427,25.066899],[121.855002,25.06301],[121.85324,25.061566],[121.851863,25.061876],[121.851049,25.061292],[121.850332,25.060528],[121.849745,25.060137],[121.849076,25.060018],[121.850209,25.058958],[121.849987,25.058731],[121.850165,25.058282],[121.849993,25.058092],[121.850079,25.057514],[121.849848,25.056868],[121.849886,25.056246],[121.850052,25.055959],[121.850395,25.056017],[121.850942,25.056639],[121.851178,25.056668],[121.85046,25.055891],[121.850492,25.055755],[121.849687,25.055531],[121.848807,25.055745],[121.848603,25.056027],[121.84839,25.055889],[121.847767,25.055404],[121.847332,25.054732],[121.84559,25.05376],[121.845266,25.053125],[121.845151,25.051883],[121.844962,25.051397],[121.842896,25.050141],[121.841398,25.049452],[121.841728,25.048358],[121.842295,25.047224],[121.843456,25.046319],[121.844469,25.045873],[121.845954,25.046022],[121.846562,25.045927],[121.848075,25.045144],[121.848939,25.044861],[121.851599,25.045333],[121.852666,25.045266],[121.854354,25.043564],[121.854921,25.043348],[121.856244,25.043564],[121.857109,25.042916],[121.857473,25.043227],[121.858081,25.044415],[121.858527,25.044712],[121.859188,25.044699],[121.860458,25.044118],[121.860965,25.04378],[121.860836,25.043328],[121.860924,25.042963],[121.861228,25.042799],[121.861775,25.042883],[121.861902,25.043049],[121.86272,25.0422],[121.863732,25.04081],[121.86386,25.040554],[121.863048,25.039716],[121.863294,25.03957],[121.863294,25.039371],[121.862935,25.039206],[121.863348,25.038705],[121.864766,25.038679],[121.864367,25.037903],[121.86439,25.037325],[121.864861,25.037336],[121.865898,25.039163],[121.866392,25.039654],[121.866826,25.040718],[121.867346,25.040915],[121.868796,25.04428],[121.869483,25.046986],[121.868964,25.047183],[121.868743,25.046983],[121.868498,25.047067],[121.868653,25.047402],[121.868428,25.047506],[121.868875,25.047832],[121.867365,25.049128],[121.867,25.04983],[121.866973,25.05037],[121.867432,25.051032],[121.869242,25.052274],[121.869607,25.054367],[121.870849,25.055745],[121.870808,25.056299],[121.871783,25.056736],[121.871674,25.057511],[121.871865,25.058286],[121.871754,25.058434],[121.87037,25.058604],[121.869219,25.058388],[121.867426,25.060498],[121.866906,25.06166],[121.866811,25.065198],[121.867297,25.065684],[121.868749,25.066481],[121.869816,25.068182],[121.869802,25.069627],[121.86935,25.07091],[121.870187,25.07095],[121.872037,25.070464],[121.872578,25.070451],[121.876629,25.070829],[121.877344,25.071612],[121.878588,25.073729],[121.878101,25.073964],[121.877638,25.074725],[121.877161,25.076677],[121.877664,25.077775],[121.877727,25.079226],[121.878158,25.079849],[121.878007,25.08143],[121.87839,25.082493],[121.878383,25.083105],[121.877517,25.084541],[121.877415,25.085038],[121.876673,25.085408],[121.876027,25.087254],[121.876228,25.087946],[121.87607,25.088629],[121.876451,25.089365],[121.87648,25.090576],[121.877061,25.091839],[121.876549,25.093286],[121.875534,25.094599],[121.874155,25.095004],[121.873071,25.094458],[121.872839,25.094082],[121.87232,25.093758],[121.871315,25.093678],[121.870481,25.09398],[121.869818,25.094004],[121.868865,25.093731],[121.867591,25.094094],[121.867065,25.094105],[121.866951,25.094812],[121.866426,25.095159]]]},"properties":{"code":"65000250006","name":"牡丹里","countyCode":"65000","countyName":"新北市","townCode":"65000250","townName":"雙溪區","level":"village","unassigned":false,"note":"","label":[121.85990686563531,25.056118048041316],"bounds":[121.841398,25.037325,121.878588,25.096479],"focusBounds":[121.841398,25.037325,121.878588,25.096479],"color":"#78a7e3"}},{"type":"Feature","id":"65000250007","geometry":{"type":"Polygon","coordinates":[[[121.841398,25.049452],[121.842896,25.050141],[121.844962,25.051397],[121.845151,25.051883],[121.845266,25.053125],[121.84559,25.05376],[121.847332,25.054732],[121.847767,25.055404],[121.84839,25.055889],[121.848603,25.056027],[121.848807,25.055745],[121.849687,25.055531],[121.850492,25.055755],[121.85046,25.055891],[121.851178,25.056668],[121.850942,25.056639],[121.850395,25.056017],[121.850052,25.055959],[121.849886,25.056246],[121.849848,25.056868],[121.850079,25.057514],[121.849993,25.058092],[121.850165,25.058282],[121.849987,25.058731],[121.850209,25.058958],[121.849076,25.060018],[121.849745,25.060137],[121.850332,25.060528],[121.851049,25.061292],[121.851863,25.061876],[121.85324,25.061566],[121.855002,25.06301],[121.856427,25.066899],[121.857169,25.067466],[121.858486,25.068047],[121.858851,25.068398],[121.861079,25.070842],[121.86274,25.073071],[121.862524,25.073584],[121.860903,25.074137],[121.860512,25.074461],[121.860539,25.07484],[121.861146,25.075974],[121.861032,25.077162],[121.86114,25.07754],[121.863678,25.078756],[121.865988,25.08012],[121.866406,25.080552],[121.866339,25.080916],[121.866069,25.081132],[121.861072,25.083941],[121.860302,25.085157],[121.858459,25.089626],[121.858432,25.089856],[121.858824,25.090005],[121.860242,25.089842],[121.860404,25.089937],[121.860674,25.090113],[121.861389,25.09149],[121.861498,25.092057],[121.860566,25.093745],[121.861146,25.095271],[121.861215,25.096479],[121.860199,25.096591],[121.859757,25.096333],[121.858731,25.096304],[121.858207,25.096504],[121.857865,25.097161],[121.857568,25.09735],[121.85729,25.097275],[121.856328,25.096411],[121.85577,25.096104],[121.854518,25.095831],[121.853666,25.095334],[121.853183,25.094725],[121.852582,25.092032],[121.851874,25.091224],[121.851719,25.090818],[121.851759,25.089726],[121.851555,25.089166],[121.851134,25.089022],[121.849785,25.088964],[121.848845,25.089045],[121.847838,25.08935],[121.847548,25.089289],[121.845367,25.086881],[121.844527,25.085192],[121.843883,25.084618],[121.843486,25.083365],[121.843014,25.082455],[121.84096,25.080809],[121.840673,25.080469],[121.840822,25.079256],[121.840372,25.078097],[121.839174,25.076464],[121.836548,25.074094],[121.834982,25.073642],[121.833928,25.072728],[121.832592,25.071902],[121.832114,25.071023],[121.832143,25.070414],[121.832356,25.068905],[121.831471,25.067301],[121.829737,25.065018],[121.829584,25.064514],[121.829741,25.063809],[121.829686,25.063134],[121.830528,25.061966],[121.830467,25.060611],[121.83067,25.059632],[121.830512,25.059142],[121.831276,25.058127],[121.830377,25.056824],[121.830393,25.05629],[121.830768,25.05564],[121.831642,25.054885],[121.832098,25.053275],[121.832917,25.052147],[121.833179,25.051361],[121.833809,25.050346],[121.834014,25.049529],[121.833872,25.048226],[121.834119,25.047878],[121.834703,25.047606],[121.838912,25.049263],[121.840289,25.050019],[121.841154,25.049452],[121.841398,25.049452]]]},"properties":{"code":"65000250007","name":"三貂里","countyCode":"65000","countyName":"新北市","townCode":"65000250","townName":"雙溪區","level":"village","unassigned":false,"note":"","label":[121.84846180247395,25.072490784422715],"bounds":[121.829584,25.047606,121.866406,25.09735],"focusBounds":[121.829584,25.047606,121.866406,25.09735],"color":"#dd8590"}},{"type":"Feature","id":"65000250008","geometry":{"type":"Polygon","coordinates":[[[121.850538,25.02296],[121.850505,25.024443],[121.851012,25.025847],[121.851808,25.026522],[121.853247,25.028305],[121.856204,25.029817],[121.858165,25.03128],[121.858311,25.031524],[121.858236,25.032107],[121.858767,25.033227],[121.85918,25.033584],[121.858976,25.03374],[121.860478,25.034362],[121.860896,25.034313],[121.861755,25.034595],[121.863372,25.034683],[121.863367,25.034809],[121.863874,25.034973],[121.863707,25.035549],[121.863254,25.036062],[121.86306,25.036882],[121.863294,25.037306],[121.86439,25.037325],[121.864367,25.037903],[121.864766,25.038679],[121.863348,25.038705],[121.862935,25.039206],[121.863294,25.039371],[121.863294,25.03957],[121.863048,25.039716],[121.86386,25.040554],[121.863732,25.04081],[121.86272,25.0422],[121.861902,25.043049],[121.861775,25.042883],[121.861228,25.042799],[121.860924,25.042963],[121.860836,25.043328],[121.860965,25.04378],[121.860458,25.044118],[121.859188,25.044699],[121.858527,25.044712],[121.858081,25.044415],[121.857473,25.043227],[121.857109,25.042916],[121.856244,25.043564],[121.854921,25.043348],[121.854354,25.043564],[121.852666,25.045266],[121.851599,25.045333],[121.848939,25.044861],[121.848075,25.045144],[121.846562,25.045927],[121.845954,25.046022],[121.844469,25.045873],[121.843456,25.046319],[121.842295,25.047224],[121.841728,25.048358],[121.841398,25.049452],[121.841154,25.049452],[121.840289,25.050019],[121.838912,25.049263],[121.834703,25.047606],[121.834791,25.047255],[121.834597,25.04664],[121.834706,25.045894],[121.834055,25.045305],[121.833963,25.044375],[121.833209,25.04442],[121.832611,25.044116],[121.831942,25.044122],[121.831537,25.044248],[121.830815,25.044822],[121.831412,25.042468],[121.831029,25.040557],[121.831057,25.039814],[121.831253,25.039541],[121.839184,25.032976],[121.842704,25.031012],[121.842554,25.029936],[121.842724,25.029297],[121.843659,25.027862],[121.844665,25.027828],[121.845507,25.027588],[121.84683,25.025384],[121.847725,25.0245],[121.849784,25.022949],[121.850352,25.022796],[121.850538,25.02296]]]},"properties":{"code":"65000250008","name":"平林里","countyCode":"65000","countyName":"新北市","townCode":"65000250","townName":"雙溪區","level":"village","unassigned":false,"note":"","label":[121.84626664704636,25.03769111423874],"bounds":[121.830815,25.022796,121.864766,25.050019],"focusBounds":[121.830815,25.022796,121.864766,25.050019],"color":"#a49ad4"}},{"type":"Feature","id":"65000250009","geometry":{"type":"Polygon","coordinates":[[[121.850538,25.02296],[121.850352,25.022796],[121.849784,25.022949],[121.847725,25.0245],[121.84683,25.025384],[121.845507,25.027588],[121.844665,25.027828],[121.843659,25.027862],[121.842724,25.029297],[121.842554,25.029936],[121.842704,25.031012],[121.839184,25.032976],[121.831253,25.039541],[121.831057,25.039814],[121.831029,25.040557],[121.831412,25.042468],[121.830815,25.044822],[121.83005,25.045206],[121.829347,25.045067],[121.827625,25.045529],[121.826716,25.04487],[121.825603,25.045019],[121.824785,25.044903],[121.82352,25.045925],[121.821805,25.045974],[121.821508,25.045839],[121.820674,25.044493],[121.820303,25.043587],[121.819561,25.042799],[121.818065,25.042037],[121.816879,25.042114],[121.816191,25.041523],[121.81589,25.040929],[121.814601,25.041422],[121.813697,25.041275],[121.812425,25.040682],[121.81144,25.039719],[121.810325,25.039056],[121.809478,25.037732],[121.808889,25.037584],[121.808474,25.036901],[121.80865,25.036249],[121.8087,25.034941],[121.808181,25.034489],[121.807662,25.033098],[121.806886,25.032128],[121.80676,25.031648],[121.806558,25.031574],[121.808744,25.028116],[121.810061,25.025172],[121.810601,25.024605],[121.812437,25.024065],[121.813099,25.023633],[121.813396,25.023322],[121.813963,25.022012],[121.814639,25.021377],[121.817154,25.021059],[121.817571,25.021459],[121.818215,25.021648],[121.819857,25.021522],[121.820345,25.021284],[121.820535,25.020645],[121.822005,25.020419],[121.82372,25.019919],[121.824665,25.02095],[121.825122,25.021178],[121.825647,25.021072],[121.825981,25.020287],[121.829176,25.020783],[121.830985,25.02077],[121.831674,25.020554],[121.83478,25.017839],[121.837744,25.014936],[121.838743,25.013775],[121.838993,25.012532],[121.838129,25.009656],[121.838223,25.008927],[121.839202,25.007846],[121.840161,25.00709],[121.842902,25.006942],[121.843767,25.006131],[121.845036,25.00605],[121.846437,25.005349],[121.847305,25.006469],[121.848087,25.007037],[121.848318,25.007401],[121.848345,25.007833],[121.848007,25.009021],[121.847176,25.009966],[121.845448,25.011411],[121.845367,25.011641],[121.845799,25.012586],[121.846994,25.013761],[121.847089,25.014018],[121.8469,25.015152],[121.846197,25.016624],[121.846191,25.017839],[121.846312,25.018055],[121.846893,25.018136],[121.848108,25.017718],[121.84854,25.018082],[121.850397,25.021053],[121.850573,25.021836],[121.850538,25.02296]]]},"properties":{"code":"65000250009","name":"上林里","countyCode":"65000","countyName":"新北市","townCode":"65000250","townName":"雙溪區","level":"village","unassigned":false,"note":"","label":[121.82697556602348,25.030749091024138],"bounds":[121.806558,25.005349,121.850573,25.045974],"focusBounds":[121.806558,25.005349,121.850573,25.045974],"color":"#a8bf62"}},{"type":"Feature","id":"65000250010","geometry":{"type":"Polygon","coordinates":[[[121.809578,24.994654],[121.811647,24.994316],[121.812793,24.994282],[121.813235,24.993137],[121.81399,24.992169],[121.815172,24.991515],[121.816131,24.991486],[121.817119,24.991694],[121.819496,24.993176],[121.820548,24.994207],[121.821916,24.9946],[121.822991,24.993127],[121.823018,24.991979],[121.823247,24.991588],[121.825692,24.991642],[121.825881,24.991763],[121.826043,24.992209],[121.826056,24.994991],[121.826394,24.995396],[121.828663,24.996976],[121.829027,24.997799],[121.829221,24.998756],[121.830551,24.99836],[121.831446,24.997655],[121.832724,24.997576],[121.833613,24.997766],[121.834614,24.998231],[121.835401,24.997988],[121.83559,24.998083],[121.836009,24.999163],[121.836306,24.999339],[121.836697,24.999379],[121.837737,24.999109],[121.838115,24.99919],[121.839965,25.000109],[121.843566,25.001325],[121.843936,25.003174],[121.844624,25.003944],[121.84538,25.004295],[121.846437,25.005349],[121.845036,25.00605],[121.843767,25.006131],[121.842902,25.006942],[121.840161,25.00709],[121.839202,25.007846],[121.838223,25.008927],[121.838129,25.009656],[121.838993,25.012532],[121.838743,25.013775],[121.837744,25.014936],[121.83478,25.017839],[121.831674,25.020554],[121.830985,25.02077],[121.829176,25.020783],[121.825981,25.020287],[121.825647,25.021072],[121.825122,25.021178],[121.824665,25.02095],[121.82372,25.019919],[121.822005,25.020419],[121.820535,25.020645],[121.820345,25.021284],[121.819857,25.021522],[121.818215,25.021648],[121.817571,25.021459],[121.817154,25.021059],[121.814639,25.021377],[121.813963,25.022012],[121.813396,25.023322],[121.813099,25.023633],[121.812437,25.024065],[121.810601,25.024605],[121.810061,25.025172],[121.808744,25.028116],[121.806558,25.031574],[121.804581,25.031596],[121.803808,25.030903],[121.802793,25.030943],[121.802045,25.030588],[121.80107,25.030484],[121.800682,25.030222],[121.799404,25.030096],[121.799001,25.029386],[121.798463,25.029009],[121.798041,25.028928],[121.797363,25.028262],[121.796993,25.027481],[121.796493,25.027027],[121.796001,25.026816],[121.795734,25.026309],[121.794644,25.025497],[121.793931,25.024602],[121.792773,25.023631],[121.791071,25.022865],[121.797245,25.018393],[121.798366,25.017731],[121.799527,25.017272],[121.802822,25.01761],[121.804335,25.017488],[121.805145,25.01711],[121.806488,25.015739],[121.805725,25.014627],[121.805147,25.014379],[121.805166,25.014175],[121.805482,25.013726],[121.805892,25.013683],[121.806128,25.013321],[121.806738,25.013849],[121.807069,25.013681],[121.807204,25.012984],[121.806853,25.012397],[121.807185,25.011988],[121.805834,25.010885],[121.805537,25.010763],[121.804105,25.010736],[121.803687,25.01048],[121.803606,25.009521],[121.801708,25.005808],[121.801479,25.004687],[121.801546,25.00439],[121.801877,25.004065],[121.809453,25.000433],[121.812498,24.998569],[121.812377,24.997502],[121.812026,24.9968],[121.810135,24.995544],[121.809578,24.994654]]]},"properties":{"code":"65000250010","name":"外柑里","countyCode":"65000","countyName":"新北市","townCode":"65000250","townName":"雙溪區","level":"village","unassigned":false,"note":"","label":[121.82049239301857,25.007470349291363],"bounds":[121.791071,24.991486,121.846437,25.031596],"focusBounds":[121.791071,24.991486,121.846437,25.031596],"color":"#68bec9"}},{"type":"Feature","id":"65000250011","geometry":{"type":"Polygon","coordinates":[[[121.809578,24.994654],[121.810135,24.995544],[121.812026,24.9968],[121.812377,24.997502],[121.812498,24.998569],[121.809453,25.000433],[121.801877,25.004065],[121.801546,25.00439],[121.801479,25.004687],[121.801708,25.005808],[121.803606,25.009521],[121.803687,25.01048],[121.804105,25.010736],[121.805537,25.010763],[121.805834,25.010885],[121.807185,25.011988],[121.806853,25.012397],[121.807204,25.012984],[121.807069,25.013681],[121.806738,25.013849],[121.806128,25.013321],[121.805892,25.013683],[121.805482,25.013726],[121.805166,25.014175],[121.805147,25.014379],[121.805725,25.014627],[121.806488,25.015739],[121.805145,25.01711],[121.804335,25.017488],[121.802822,25.01761],[121.799527,25.017272],[121.798366,25.017731],[121.797245,25.018393],[121.791071,25.022865],[121.78981,25.022863],[121.789174,25.023024],[121.788867,25.022829],[121.78853,25.022388],[121.788298,25.021331],[121.786885,25.020469],[121.784531,25.017881],[121.78457,25.016418],[121.784215,25.014956],[121.784347,25.01369],[121.783797,25.013129],[121.782398,25.012235],[121.781993,25.011164],[121.780929,25.010923],[121.780176,25.010509],[121.778729,25.007944],[121.778762,25.007349],[121.779348,25.006444],[121.778052,25.006349],[121.777126,25.005758],[121.775603,25.003619],[121.774959,25.00324],[121.77472,25.002516],[121.772563,25.001698],[121.771156,25.000329],[121.76996,25.000224],[121.769454,24.99985],[121.768949,24.99976],[121.768592,24.999078],[121.767832,24.999082],[121.765019,24.997076],[121.764306,24.996278],[121.763708,24.99619],[121.764406,24.99527],[121.764601,24.993888],[121.764914,24.99337],[121.765671,24.993062],[121.766955,24.992868],[121.767701,24.992384],[121.76863,24.991119],[121.768736,24.990142],[121.769268,24.989933],[121.769681,24.989379],[121.771178,24.988928],[121.773096,24.989133],[121.773442,24.988651],[121.774336,24.988552],[121.774678,24.988231],[121.77508,24.987206],[121.775535,24.986835],[121.775455,24.986636],[121.775627,24.986607],[121.775793,24.985529],[121.776705,24.985283],[121.777123,24.984846],[121.777641,24.984309],[121.778287,24.984126],[121.7787,24.984185],[121.778989,24.983923],[121.779512,24.983786],[121.780229,24.982924],[121.781366,24.982097],[121.783624,24.981839],[121.785275,24.982058],[121.786539,24.983071],[121.789749,24.9831],[121.790566,24.983299],[121.791003,24.983603],[121.792337,24.983484],[121.79441,24.986308],[121.795719,24.987685],[121.797961,24.988144],[121.804153,24.988927],[121.805247,24.989279],[121.806219,24.989873],[121.808008,24.991318],[121.808629,24.992047],[121.809578,24.994654]]]},"properties":{"code":"65000250011","name":"長源里","countyCode":"65000","countyName":"新北市","townCode":"65000250","townName":"雙溪區","level":"village","unassigned":false,"note":"","label":[121.78986555184093,24.999669348904327],"bounds":[121.763708,24.981839,121.812498,25.023024],"focusBounds":[121.763708,24.981839,121.812498,25.023024],"color":"#df9f6a"}},{"type":"Feature","id":"65000250012","geometry":{"type":"Polygon","coordinates":[[[121.843566,25.001325],[121.839965,25.000109],[121.838115,24.99919],[121.837737,24.999109],[121.836697,24.999379],[121.836306,24.999339],[121.836009,24.999163],[121.83559,24.998083],[121.835401,24.997988],[121.834614,24.998231],[121.833613,24.997766],[121.832724,24.997576],[121.831446,24.997655],[121.830551,24.99836],[121.829221,24.998756],[121.829027,24.997799],[121.828663,24.996976],[121.826394,24.995396],[121.826056,24.994991],[121.826043,24.992209],[121.825881,24.991763],[121.825692,24.991642],[121.823247,24.991588],[121.823018,24.991979],[121.822991,24.993127],[121.821916,24.9946],[121.820548,24.994207],[121.819496,24.993176],[121.817119,24.991694],[121.816131,24.991486],[121.815172,24.991515],[121.81399,24.992169],[121.813235,24.993137],[121.812793,24.994282],[121.811647,24.994316],[121.809578,24.994654],[121.808629,24.992047],[121.808008,24.991318],[121.806219,24.989873],[121.805247,24.989279],[121.804153,24.988927],[121.797961,24.988144],[121.795719,24.987685],[121.79441,24.986308],[121.792337,24.983484],[121.792838,24.983103],[121.792751,24.980795],[121.793698,24.979571],[121.793758,24.978193],[121.794083,24.977419],[121.793794,24.976569],[121.793957,24.975489],[121.793885,24.973163],[121.793342,24.972189],[121.792762,24.971636],[121.792902,24.971275],[121.792819,24.971031],[121.791886,24.970307],[121.791762,24.968116],[121.792206,24.967059],[121.792217,24.966346],[121.791454,24.965673],[121.791189,24.96478],[121.790698,24.964365],[121.79085,24.962228],[121.79015,24.960378],[121.790299,24.959684],[121.791244,24.957634],[121.791101,24.956421],[121.791262,24.955497],[121.79215,24.954614],[121.793275,24.954323],[121.793285,24.953695],[121.79232,24.951697],[121.791952,24.95143],[121.790982,24.951163],[121.790296,24.949792],[121.790123,24.948698],[121.78958,24.948192],[121.788693,24.946191],[121.787772,24.944981],[121.78796,24.94371],[121.789503,24.940433],[121.788826,24.939527],[121.787005,24.938027],[121.786241,24.937005],[121.785933,24.935561],[121.78599,24.934321],[121.784988,24.933274],[121.785033,24.932804],[121.785467,24.931948],[121.785319,24.931034],[121.784796,24.930225],[121.783231,24.928888],[121.78187,24.928227],[121.780734,24.923294],[121.780164,24.922268],[121.779097,24.921307],[121.778133,24.919587],[121.778568,24.91925],[121.781545,24.918],[121.782183,24.917174],[121.783957,24.915678],[121.784756,24.913945],[121.784934,24.910854],[121.785695,24.908405],[121.785697,24.907513],[121.786125,24.906466],[121.786389,24.906259],[121.788049,24.906126],[121.788424,24.905543],[121.789323,24.904907],[121.789723,24.904074],[121.790273,24.903639],[121.791138,24.903412],[121.791338,24.902305],[121.79225,24.901688],[121.793411,24.899748],[121.795184,24.899753],[121.796332,24.901078],[121.797164,24.90162],[121.797334,24.901581],[121.797596,24.901091],[121.798665,24.901041],[121.79889,24.900865],[121.799438,24.901158],[121.800052,24.901214],[121.802206,24.900995],[121.803369,24.901803],[121.804291,24.901692],[121.804373,24.901247],[121.804623,24.901189],[121.805069,24.901415],[121.805312,24.901735],[121.805951,24.901894],[121.806145,24.902548],[121.807154,24.902609],[121.807732,24.903209],[121.808552,24.902927],[121.809207,24.903385],[121.810476,24.903631],[121.810692,24.904574],[121.810458,24.905194],[121.810689,24.90561],[121.811032,24.905822],[121.811077,24.90621],[121.811635,24.906519],[121.812747,24.906081],[121.8135,24.905401],[121.815378,24.904692],[121.816395,24.903676],[121.817447,24.903001],[121.818276,24.902719],[121.819846,24.902923],[121.820781,24.903811],[121.822045,24.904182],[121.822387,24.904549],[121.823524,24.9046],[121.823827,24.904854],[121.824738,24.904923],[121.825581,24.90527],[121.825963,24.905232],[121.826731,24.904859],[121.827011,24.904544],[121.828097,24.90537],[121.829361,24.905269],[121.829981,24.904967],[121.830843,24.905021],[121.831267,24.90483],[121.831919,24.904968],[121.832706,24.905608],[121.833292,24.906644],[121.833794,24.906873],[121.834575,24.906911],[121.8364,24.90835],[121.837214,24.909477],[121.838029,24.910056],[121.838853,24.911757],[121.839655,24.912763],[121.840608,24.91336],[121.841571,24.914206],[121.842359,24.915212],[121.843326,24.9154],[121.843738,24.915723],[121.844851,24.917166],[121.845316,24.918034],[121.845598,24.919369],[121.846721,24.920285],[121.847671,24.920727],[121.849004,24.921728],[121.849884,24.922154],[121.850642,24.922984],[121.850848,24.923423],[121.851411,24.923383],[121.852061,24.92369],[121.853632,24.925119],[121.853984,24.925916],[121.853886,24.926978],[121.853745,24.927198],[121.853877,24.927813],[121.853749,24.927924],[121.853043,24.928119],[121.852168,24.92863],[121.85165,24.929264],[121.850616,24.929432],[121.849145,24.930328],[121.849339,24.931314],[121.848639,24.932798],[121.847935,24.933685],[121.847799,24.934153],[121.847897,24.935305],[121.847508,24.936193],[121.846978,24.936913],[121.846865,24.937508],[121.846627,24.937839],[121.845703,24.938394],[121.844241,24.938718],[121.843649,24.939049],[121.842627,24.939233],[121.84161,24.94088],[121.84066,24.941236],[121.840098,24.941724],[121.839847,24.942203],[121.839675,24.943258],[121.839048,24.944636],[121.839421,24.945574],[121.839247,24.946425],[121.839734,24.947143],[121.840683,24.947865],[121.841755,24.951125],[121.841265,24.952576],[121.841523,24.953362],[121.841412,24.954264],[121.841961,24.954784],[121.842657,24.954904],[121.842968,24.95513],[121.843306,24.956481],[121.843644,24.957083],[121.844425,24.957592],[121.845187,24.957749],[121.845538,24.959213],[121.845711,24.959417],[121.847052,24.960343],[121.848305,24.960256],[121.848758,24.959997],[121.849719,24.960898],[121.850363,24.961178],[121.851676,24.959974],[121.852249,24.959861],[121.852566,24.959605],[121.853303,24.960016],[121.85398,24.959956],[121.854112,24.961147],[121.854382,24.961593],[121.855219,24.961744],[121.855781,24.962227],[121.856361,24.962306],[121.856866,24.962641],[121.857562,24.962771],[121.858595,24.963341],[121.861253,24.96366],[121.860944,24.964261],[121.860664,24.965971],[121.861687,24.967744],[121.861284,24.968275],[121.861358,24.970077],[121.860944,24.971165],[121.860853,24.973579],[121.861221,24.974174],[121.861273,24.974785],[121.862262,24.975041],[121.861832,24.975725],[121.862033,24.976498],[121.861864,24.977793],[121.862241,24.978251],[121.862284,24.979151],[121.862582,24.979583],[121.862407,24.981559],[121.8631,24.982196],[121.864135,24.9824],[121.864721,24.983128],[121.865131,24.984089],[121.865081,24.984431],[121.863796,24.985502],[121.864533,24.987049],[121.865311,24.987796],[121.866048,24.989547],[121.866587,24.990135],[121.867351,24.990347],[121.867659,24.991205],[121.867941,24.991497],[121.868327,24.991607],[121.868811,24.992008],[121.869825,24.992156],[121.870976,24.993208],[121.871295,24.994579],[121.871618,24.995161],[121.867223,24.996368],[121.865846,24.996597],[121.86538,24.996476],[121.864914,24.996111],[121.864036,24.994261],[121.863618,24.993694],[121.863226,24.993397],[121.862335,24.993194],[121.861187,24.993789],[121.858925,24.995922],[121.858061,24.996165],[121.855508,24.995706],[121.854631,24.995855],[121.853321,24.996503],[121.851741,24.997772],[121.84983,24.998853],[121.846778,24.999109],[121.845009,24.999811],[121.843996,25.000419],[121.843605,25.000986],[121.843566,25.001325]]]},"properties":{"code":"65000250012","name":"泰平里","countyCode":"65000","countyName":"新北市","townCode":"65000250","townName":"雙溪區","level":"village","unassigned":false,"note":"","label":[121.81746719614546,24.958155122865804],"bounds":[121.778133,24.899748,121.871618,25.001325],"focusBounds":[121.778133,24.899748,121.871618,25.001325],"color":"#c38cb8"}}]}
