{"type":"FeatureCollection","features":[{"type":"Feature","id":"65000130001","geometry":{"type":"Polygon","coordinates":[[[121.448151,24.976482],[121.447746,24.976268],[121.447717,24.975911],[121.448365,24.975108],[121.447901,24.974894],[121.447556,24.974293],[121.446713,24.974055],[121.445964,24.97464],[121.444131,24.972693],[121.44377,24.972926],[121.443458,24.972655],[121.443084,24.973519],[121.442198,24.97296],[121.441468,24.972721],[121.440896,24.97176],[121.440828,24.971348],[121.440519,24.970974],[121.440161,24.97075],[121.439761,24.97074],[121.439826,24.970276],[121.439398,24.969675],[121.44013,24.969116],[121.43897,24.968665],[121.439297,24.967902],[121.440136,24.967212],[121.440106,24.966475],[121.440433,24.966225],[121.440457,24.966035],[121.440344,24.96472],[121.440832,24.963465],[121.441967,24.963188],[121.441948,24.963043],[121.442902,24.962287],[121.443348,24.96171],[121.443515,24.960972],[121.443491,24.959408],[121.444568,24.959057],[121.444811,24.958688],[121.446322,24.958355],[121.447441,24.958319],[121.449749,24.957379],[121.450939,24.956552],[121.45381,24.954149],[121.454183,24.956275],[121.45473,24.957197],[121.454367,24.957976],[121.454433,24.9591],[121.455123,24.960456],[121.455015,24.960688],[121.454427,24.960992],[121.453558,24.962021],[121.453296,24.963365],[121.452707,24.963942],[121.453148,24.964674],[121.454409,24.965602],[121.454992,24.966274],[121.454962,24.966982],[121.455313,24.968505],[121.455075,24.970914],[121.455717,24.972496],[121.455493,24.973581],[121.452428,24.971652],[121.452303,24.972485],[121.451738,24.973097],[121.451774,24.973347],[121.452148,24.973769],[121.452119,24.974347],[121.451512,24.974567],[121.451072,24.974953],[121.450239,24.975215],[121.449906,24.975566],[121.449894,24.975988],[121.450542,24.975893],[121.451161,24.976482],[121.451119,24.976619],[121.450661,24.976604],[121.450615,24.977381],[121.450322,24.977515],[121.450199,24.977761],[121.44992,24.977587],[121.449743,24.977191],[121.448151,24.976482]]]},"properties":{"code":"65000130001","name":"埤塘里","countyCode":"65000","countyName":"新北市","townCode":"65000130","townName":"土城區","level":"village","unassigned":false,"note":"","label":[121.44734994489764,24.967039700904984],"bounds":[121.43897,24.954149,121.455717,24.977761],"focusBounds":[121.43897,24.954149,121.455717,24.977761],"color":"#c38cb8"}},{"type":"Feature","id":"65000130002","geometry":{"type":"Polygon","coordinates":[[[121.441114,24.974085],[121.440679,24.973466],[121.440449,24.972743],[121.44065,24.972776],[121.440621,24.972636],[121.440931,24.972495],[121.440621,24.971741],[121.440822,24.971642],[121.440896,24.97176],[121.441468,24.972721],[121.442198,24.97296],[121.443084,24.973519],[121.444194,24.973794],[121.444028,24.974392],[121.442874,24.974091],[121.442761,24.974382],[121.441864,24.974459],[121.4415,24.974406],[121.441114,24.974085]]]},"properties":{"code":"65000130002","name":"土城里","countyCode":"65000","countyName":"新北市","townCode":"65000130","townName":"土城區","level":"village","unassigned":false,"note":"","label":[121.44186727255494,24.973655066381227],"bounds":[121.440449,24.971642,121.444194,24.974459],"focusBounds":[121.440449,24.971642,121.444194,24.974459],"color":"#98b69b"}},{"type":"Feature","id":"65000130003","geometry":{"type":"Polygon","coordinates":[[[121.448258,24.979427],[121.447652,24.980323],[121.447244,24.98006],[121.447853,24.979409],[121.445932,24.980206],[121.443104,24.980948],[121.442089,24.977511],[121.442071,24.974989],[121.445563,24.975792],[121.447092,24.975768],[121.447746,24.976268],[121.448151,24.976482],[121.448085,24.977166],[121.448402,24.978133],[121.448258,24.979427]]]},"properties":{"code":"65000130003","name":"員林里","countyCode":"65000","countyName":"新北市","townCode":"65000130","townName":"土城區","level":"village","unassigned":false,"note":"","label":[121.44497638883779,24.978056813158236],"bounds":[121.442071,24.974989,121.448402,24.980948],"focusBounds":[121.442071,24.974989,121.448402,24.980948],"color":"#efb44f"}},{"type":"Feature","id":"65000130004","geometry":{"type":"Polygon","coordinates":[[[121.438734,24.97694],[121.438518,24.977089],[121.438762,24.979425],[121.438215,24.979591],[121.437175,24.977763],[121.434965,24.978823],[121.434205,24.976114],[121.433818,24.975539],[121.433224,24.97511],[121.433998,24.974284],[121.433977,24.974084],[121.432763,24.971725],[121.433803,24.970296],[121.434853,24.971545],[121.434889,24.972667],[121.43546,24.973405],[121.437227,24.97535],[121.43828,24.975332],[121.438613,24.975249],[121.438589,24.975082],[121.437328,24.972281],[121.436733,24.971906],[121.436579,24.971489],[121.437465,24.971269],[121.437828,24.970906],[121.438381,24.971156],[121.438589,24.970645],[121.439285,24.970805],[121.439761,24.97074],[121.440161,24.97075],[121.440519,24.970974],[121.440828,24.971348],[121.440896,24.97176],[121.440822,24.971642],[121.440621,24.971741],[121.440931,24.972495],[121.440621,24.972636],[121.44065,24.972776],[121.440449,24.972743],[121.440679,24.973466],[121.441114,24.974085],[121.439216,24.975447],[121.439014,24.975545],[121.438963,24.975387],[121.438786,24.975428],[121.438683,24.975867],[121.438509,24.975873],[121.438734,24.97694]]]},"properties":{"code":"65000130004","name":"員仁里","countyCode":"65000","countyName":"新北市","townCode":"65000130","townName":"土城區","level":"village","unassigned":false,"note":"","label":[121.43596949196758,24.97634315576571],"bounds":[121.432763,24.970296,121.441114,24.979591],"focusBounds":[121.432763,24.970296,121.441114,24.979591],"color":"#efb44f"}},{"type":"Feature","id":"65000130005","geometry":{"type":"Polygon","coordinates":[[[121.440317,24.976107],[121.440845,24.976563],[121.441459,24.976845],[121.44146,24.977034],[121.441707,24.977111],[121.441759,24.977539],[121.441466,24.977722],[121.44147,24.978159],[121.439561,24.978957],[121.439933,24.978574],[121.439638,24.978234],[121.439366,24.978251],[121.43918,24.977299],[121.439321,24.977451],[121.439954,24.977018],[121.439825,24.976824],[121.43955,24.976828],[121.439444,24.976598],[121.440317,24.976107]]]},"properties":{"code":"65000130005","name":"長風里","countyCode":"65000","countyName":"新北市","townCode":"65000130","townName":"土城區","level":"village","unassigned":false,"note":"","label":[121.44056731183822,24.977605675616505],"bounds":[121.43918,24.976107,121.441759,24.978957],"focusBounds":[121.43918,24.976107,121.441759,24.978957],"color":"#78a7e3"}},{"type":"Feature","id":"65000130006","geometry":{"type":"Polygon","coordinates":[[[121.44887,24.985829],[121.447699,24.986226],[121.447586,24.985893],[121.445819,24.98666],[121.445952,24.986881],[121.442719,24.988416],[121.443002,24.988766],[121.443264,24.988576],[121.443571,24.988742],[121.442927,24.98923],[121.442711,24.989224],[121.442324,24.988844],[121.442675,24.988612],[121.442499,24.988494],[121.440232,24.989534],[121.44009,24.988174],[121.439371,24.987362],[121.443196,24.985917],[121.443441,24.985471],[121.444523,24.984954],[121.446949,24.984316],[121.447116,24.984694],[121.448555,24.984281],[121.44887,24.985829]]]},"properties":{"code":"65000130006","name":"日新里","countyCode":"65000","countyName":"新北市","townCode":"65000130","townName":"土城區","level":"village","unassigned":false,"note":"","label":[121.44431489363193,24.98635574250799],"bounds":[121.439371,24.984281,121.44887,24.989534],"focusBounds":[121.439371,24.984281,121.44887,24.989534],"color":"#a49ad4"}},{"type":"Feature","id":"65000130007","geometry":{"type":"Polygon","coordinates":[[[121.437743,24.984976],[121.437681,24.984564],[121.436944,24.983184],[121.435557,24.982187],[121.43947,24.980729],[121.440074,24.982201],[121.441195,24.981747],[121.441157,24.981633],[121.441452,24.981526],[121.441498,24.98164],[121.44239,24.981144],[121.443104,24.980948],[121.445932,24.980206],[121.447853,24.979409],[121.447244,24.98006],[121.447652,24.980323],[121.448258,24.979427],[121.448173,24.982248],[121.448316,24.982234],[121.448396,24.982465],[121.445594,24.983313],[121.445905,24.983943],[121.447921,24.983229],[121.448297,24.983787],[121.448472,24.983753],[121.448555,24.984281],[121.447116,24.984694],[121.446949,24.984316],[121.444523,24.984954],[121.443441,24.985471],[121.443196,24.985917],[121.439371,24.987362],[121.438947,24.9866],[121.438321,24.986374],[121.437743,24.984976]]]},"properties":{"code":"65000130007","name":"日和里","countyCode":"65000","countyName":"新北市","townCode":"65000130","townName":"土城區","level":"village","unassigned":false,"note":"","label":[121.4417090847938,24.984000580734573],"bounds":[121.435557,24.979409,121.448555,24.987362],"focusBounds":[121.435557,24.979409,121.448555,24.987362],"color":"#a8bf62"}},{"type":"Feature","id":"65000130008","geometry":{"type":"Polygon","coordinates":[[[121.446137,24.99184],[121.446233,24.991432],[121.445628,24.990773],[121.44609,24.990249],[121.445811,24.99001],[121.446735,24.989301],[121.448992,24.98796],[121.449265,24.9878],[121.449757,24.988522],[121.450007,24.988379],[121.45153,24.990229],[121.452178,24.990336],[121.452637,24.990163],[121.453029,24.990432],[121.453023,24.990998],[121.452413,24.991127],[121.451229,24.991933],[121.450193,24.992411],[121.449659,24.99308],[121.449109,24.992604],[121.447143,24.9919],[121.446137,24.99184]]]},"properties":{"code":"65000130008","name":"貨饒里","countyCode":"65000","countyName":"新北市","townCode":"65000130","townName":"土城區","level":"village","unassigned":false,"note":"","label":[121.44901482495641,24.990426889554342],"bounds":[121.445628,24.9878,121.453029,24.99308],"focusBounds":[121.445628,24.9878,121.453029,24.99308],"color":"#a8bf62"}},{"type":"Feature","id":"65000130009","geometry":{"type":"Polygon","coordinates":[[[121.448151,24.976482],[121.449743,24.977191],[121.44992,24.977587],[121.450199,24.977761],[121.450322,24.977515],[121.450615,24.977381],[121.450661,24.976604],[121.451119,24.976619],[121.451161,24.976482],[121.450542,24.975893],[121.449894,24.975988],[121.449906,24.975566],[121.450239,24.975215],[121.451072,24.974953],[121.451512,24.974567],[121.452119,24.974347],[121.452148,24.973769],[121.451774,24.973347],[121.451738,24.973097],[121.452303,24.972485],[121.452428,24.971652],[121.455493,24.973581],[121.456893,24.974509],[121.456634,24.976452],[121.456193,24.976839],[121.456205,24.977279],[121.455575,24.977809],[121.455932,24.978213],[121.456098,24.978867],[121.456985,24.978832],[121.45708,24.978969],[121.45677,24.979272],[121.456979,24.979676],[121.456883,24.980307],[121.45636,24.981057],[121.457193,24.98111],[121.457883,24.982086],[121.458079,24.98271],[121.457752,24.983909],[121.455364,24.982231],[121.452606,24.980099],[121.451572,24.981037],[121.448402,24.978133],[121.448085,24.977166],[121.448151,24.976482]]]},"properties":{"code":"65000130009","name":"柑林里","countyCode":"65000","countyName":"新北市","townCode":"65000130","townName":"土城區","level":"village","unassigned":false,"note":"","label":[121.45324601881299,24.977742882743147],"bounds":[121.448085,24.971652,121.458079,24.983909],"focusBounds":[121.448085,24.971652,121.458079,24.983909],"color":"#68bec9"}},{"type":"Feature","id":"65000130010","geometry":{"type":"Polygon","coordinates":[[[121.454085,24.986585],[121.455439,24.987505],[121.454885,24.988452],[121.455048,24.988749],[121.454957,24.988901],[121.454828,24.988832],[121.454532,24.989749],[121.453172,24.98945],[121.452472,24.989524],[121.452172,24.988582],[121.450928,24.987354],[121.450341,24.987146],[121.452712,24.985549],[121.454085,24.986585]]]},"properties":{"code":"65000130010","name":"埤林里","countyCode":"65000","countyName":"新北市","townCode":"65000130","townName":"土城區","level":"village","unassigned":false,"note":"","label":[121.4531730397618,24.98767358869241],"bounds":[121.450341,24.985549,121.455439,24.989749],"focusBounds":[121.450341,24.985549,121.455439,24.989749],"color":"#df9f6a"}},{"type":"Feature","id":"65000130011","geometry":{"type":"Polygon","coordinates":[[[121.453742,24.992647],[121.453924,24.992516],[121.456077,24.993451],[121.456002,24.993912],[121.456342,24.993998],[121.45619,24.994807],[121.456272,24.996342],[121.456117,24.996272],[121.4549,24.995721],[121.454335,24.993948],[121.454208,24.993741],[121.453702,24.993504],[121.453742,24.992647]]]},"properties":{"code":"65000130011","name":"瑞興里","countyCode":"65000","countyName":"新北市","townCode":"65000130","townName":"土城區","level":"village","unassigned":false,"note":"","label":[121.45527634608129,24.99425742393492],"bounds":[121.453702,24.992516,121.456342,24.996342],"focusBounds":[121.453702,24.992516,121.456342,24.996342],"color":"#98b69b"}},{"type":"Feature","id":"65000130012","geometry":{"type":"Polygon","coordinates":[[[121.462382,24.978699],[121.459617,24.98161],[121.459123,24.981554],[121.458945,24.977121],[121.460833,24.977493],[121.461937,24.977935],[121.462719,24.978344],[121.462382,24.978699]]]},"properties":{"code":"65000130012","name":"清水里","countyCode":"65000","countyName":"新北市","townCode":"65000130","townName":"土城區","level":"village","unassigned":false,"note":"","label":[121.46034707459313,24.97894786553515],"bounds":[121.458945,24.977121,121.462719,24.98161],"focusBounds":[121.458945,24.977121,121.462719,24.98161],"color":"#58b99d"}},{"type":"Feature","id":"65000130013","geometry":{"type":"Polygon","coordinates":[[[121.457562,24.973606],[121.458623,24.973025],[121.459193,24.972964],[121.459222,24.972069],[121.459742,24.972302],[121.459895,24.972678],[121.46103,24.971896],[121.461714,24.972056],[121.462844,24.972609],[121.465438,24.971676],[121.466193,24.971527],[121.466865,24.971628],[121.467531,24.972377],[121.468305,24.97277],[121.468525,24.973331],[121.468745,24.973639],[121.463492,24.977065],[121.462921,24.977279],[121.462469,24.977059],[121.461937,24.977935],[121.460833,24.977493],[121.458945,24.977121],[121.458924,24.976202],[121.458478,24.976191],[121.458184,24.974776],[121.457655,24.974709],[121.457629,24.974344],[121.457944,24.974224],[121.457562,24.973606]]]},"properties":{"code":"65000130013","name":"清和里","countyCode":"65000","countyName":"新北市","townCode":"65000130","townName":"土城區","level":"village","unassigned":false,"note":"","label":[121.46265946554456,24.974835441847908],"bounds":[121.457562,24.971527,121.468745,24.977935],"focusBounds":[121.457562,24.971527,121.468745,24.977935],"color":"#efb44f"}},{"type":"Feature","id":"65000130014","geometry":{"type":"Polygon","coordinates":[[[121.463896,24.98544],[121.462666,24.984013],[121.461553,24.983168],[121.460536,24.981984],[121.459617,24.98161],[121.462382,24.978699],[121.464504,24.980491],[121.463177,24.981943],[121.463332,24.982454],[121.464034,24.983198],[121.463647,24.983805],[121.463808,24.984132],[121.463689,24.984751],[121.46411,24.985326],[121.463896,24.98544]]]},"properties":{"code":"65000130014","name":"永豐里","countyCode":"65000","countyName":"新北市","townCode":"65000130","townName":"土城區","level":"village","unassigned":false,"note":"","label":[121.46190987281818,24.98131763425406],"bounds":[121.459617,24.978699,121.464504,24.98544],"focusBounds":[121.459617,24.978699,121.464504,24.98544],"color":"#efb44f"}},{"type":"Feature","id":"65000130015","geometry":{"type":"Polygon","coordinates":[[[121.468525,24.973331],[121.468305,24.97277],[121.467531,24.972377],[121.466865,24.971628],[121.466193,24.971527],[121.465438,24.971676],[121.462844,24.972609],[121.461714,24.972056],[121.46103,24.971896],[121.459895,24.972678],[121.459742,24.972302],[121.459222,24.972069],[121.459193,24.972964],[121.458623,24.973025],[121.457562,24.973606],[121.457109,24.974049],[121.456893,24.974509],[121.455493,24.973581],[121.455717,24.972496],[121.455075,24.970914],[121.455313,24.968505],[121.454962,24.966982],[121.454992,24.966274],[121.454409,24.965602],[121.453148,24.964674],[121.452707,24.963942],[121.453296,24.963365],[121.453558,24.962021],[121.454427,24.960992],[121.455015,24.960688],[121.455123,24.960456],[121.454433,24.9591],[121.454367,24.957976],[121.45473,24.957197],[121.454183,24.956275],[121.45381,24.954149],[121.454046,24.953342],[121.454016,24.951968],[121.454688,24.95148],[121.454724,24.950582],[121.455497,24.9496],[121.455224,24.948571],[121.455783,24.94794],[121.456092,24.947108],[121.457079,24.946104],[121.457499,24.946095],[121.457734,24.946152],[121.458747,24.947274],[121.459456,24.94773],[121.460704,24.94767],[121.461726,24.947455],[121.463561,24.949221],[121.465446,24.950679],[121.466924,24.951553],[121.467194,24.952301],[121.466874,24.953007],[121.467813,24.954399],[121.469832,24.954526],[121.470111,24.954679],[121.470251,24.955079],[121.47078,24.955112],[121.471394,24.955157],[121.47181,24.955826],[121.472201,24.956149],[121.472015,24.957041],[121.472092,24.957628],[121.471838,24.958313],[121.471883,24.958981],[121.473469,24.960108],[121.473774,24.96074],[121.474709,24.96093],[121.476825,24.962226],[121.477445,24.962349],[121.477757,24.962869],[121.479257,24.963273],[121.479701,24.963585],[121.479802,24.963924],[121.479892,24.964746],[121.47868,24.96657],[121.478809,24.966986],[121.478337,24.967273],[121.477683,24.967404],[121.476226,24.967178],[121.473656,24.967541],[121.47296,24.968112],[121.471978,24.969581],[121.470896,24.970414],[121.4702,24.971556],[121.46876,24.972473],[121.468525,24.973331]]]},"properties":{"code":"65000130015","name":"清化里","countyCode":"65000","countyName":"新北市","townCode":"65000130","townName":"土城區","level":"village","unassigned":false,"note":"","label":[121.46372550482418,24.96205591966105],"bounds":[121.452707,24.946095,121.479892,24.974509],"focusBounds":[121.452707,24.946095,121.479892,24.974509],"color":"#78a7e3"}},{"type":"Feature","id":"65000130016","geometry":{"type":"Polygon","coordinates":[[[121.461143,24.989142],[121.460471,24.990013],[121.458829,24.984441],[121.459263,24.98315],[121.459123,24.981554],[121.459617,24.98161],[121.460536,24.981984],[121.461553,24.983168],[121.462666,24.984013],[121.463896,24.98544],[121.464181,24.98578],[121.464294,24.985916],[121.463716,24.986474],[121.462943,24.988007],[121.461143,24.989142]]]},"properties":{"code":"65000130016","name":"清溪里","countyCode":"65000","countyName":"新北市","townCode":"65000130","townName":"土城區","level":"village","unassigned":false,"note":"","label":[121.46137854344789,24.985730946809355],"bounds":[121.458829,24.981554,121.464294,24.990013],"focusBounds":[121.458829,24.981554,121.464294,24.990013],"color":"#a49ad4"}},{"type":"Feature","id":"65000130017","geometry":{"type":"Polygon","coordinates":[[[121.471468,24.983632],[121.471,24.985274],[121.4707,24.985102],[121.470803,24.984932],[121.47054,24.984854],[121.469333,24.986764],[121.469031,24.986509],[121.468937,24.986656],[121.469257,24.986882],[121.468825,24.987559],[121.469527,24.987898],[121.469183,24.988495],[121.46908,24.98844],[121.468353,24.988052],[121.466445,24.987035],[121.466516,24.986824],[121.466958,24.986837],[121.466849,24.986687],[121.467279,24.986181],[121.467787,24.985063],[121.468147,24.984223],[121.468013,24.984104],[121.468103,24.983864],[121.469257,24.983037],[121.469887,24.982329],[121.470268,24.982532],[121.470202,24.982758],[121.470375,24.983008],[121.471468,24.983632]]]},"properties":{"code":"65000130017","name":"峯廷里","countyCode":"65000","countyName":"新北市","townCode":"65000130","townName":"土城區","level":"village","unassigned":false,"note":"","label":[121.4690146302131,24.985100983547852],"bounds":[121.466445,24.982329,121.471468,24.988495],"focusBounds":[121.466445,24.982329,121.471468,24.988495],"color":"#a49ad4"}},{"type":"Feature","id":"65000130018","geometry":{"type":"Polygon","coordinates":[[[121.466633,24.990789],[121.466855,24.990743],[121.466773,24.990172],[121.467098,24.989824],[121.467703,24.99014],[121.468,24.98971],[121.467706,24.989542],[121.467861,24.989282],[121.467309,24.989026],[121.467421,24.988336],[121.467609,24.988392],[121.467786,24.987923],[121.468294,24.988135],[121.468353,24.988052],[121.46908,24.98844],[121.468839,24.988717],[121.46863,24.989841],[121.468931,24.990371],[121.468697,24.990389],[121.468311,24.992399],[121.468218,24.993767],[121.468113,24.993689],[121.467425,24.993379],[121.46715,24.992982],[121.467122,24.992008],[121.466199,24.991095],[121.466704,24.991076],[121.466633,24.990789]]]},"properties":{"code":"65000130018","name":"平和里","countyCode":"65000","countyName":"新北市","townCode":"65000130","townName":"土城區","level":"village","unassigned":false,"note":"","label":[121.4676818342557,24.99102589958801],"bounds":[121.466199,24.987923,121.46908,24.993767],"focusBounds":[121.466199,24.987923,121.46908,24.993767],"color":"#a8bf62"}},{"type":"Feature","id":"65000130019","geometry":{"type":"Polygon","coordinates":[[[121.465866,24.984432],[121.467069,24.982995],[121.467073,24.98139],[121.467251,24.98103],[121.467032,24.980816],[121.467231,24.980661],[121.467346,24.980888],[121.467895,24.979841],[121.467621,24.979064],[121.467894,24.977874],[121.46797,24.977714],[121.468835,24.978019],[121.469538,24.976113],[121.468764,24.975805],[121.469512,24.974852],[121.468745,24.973639],[121.468525,24.973331],[121.46876,24.972473],[121.4702,24.971556],[121.470896,24.970414],[121.471978,24.969581],[121.47296,24.968112],[121.473656,24.967541],[121.476226,24.967178],[121.477683,24.967404],[121.478337,24.967273],[121.478809,24.966986],[121.479467,24.967715],[121.479469,24.969037],[121.479866,24.970091],[121.479576,24.972623],[121.480549,24.973042],[121.481729,24.97314],[121.48183,24.973218],[121.48164,24.973628],[121.481027,24.974481],[121.480637,24.975382],[121.479374,24.976004],[121.479264,24.977281],[121.479068,24.977727],[121.478195,24.978245],[121.477526,24.979132],[121.477016,24.97943],[121.476432,24.979516],[121.475868,24.979274],[121.475681,24.979339],[121.475207,24.980248],[121.475057,24.981141],[121.474533,24.981923],[121.474176,24.983207],[121.474367,24.983987],[121.473445,24.983608],[121.472058,24.982627],[121.471844,24.982764],[121.471468,24.983632],[121.470375,24.983008],[121.470202,24.982758],[121.470268,24.982532],[121.469887,24.982329],[121.469257,24.983037],[121.468103,24.983864],[121.468013,24.984104],[121.468147,24.984223],[121.467787,24.985063],[121.465866,24.984432]]]},"properties":{"code":"65000130019","name":"廷寮里","countyCode":"65000","countyName":"新北市","townCode":"65000130","townName":"土城區","level":"village","unassigned":false,"note":"","label":[121.47443319223449,24.974494069836396],"bounds":[121.465866,24.966986,121.48183,24.985063],"focusBounds":[121.465866,24.966986,121.48183,24.985063],"color":"#68bec9"}},{"type":"Feature","id":"65000130020","geometry":{"type":"Polygon","coordinates":[[[121.45381,24.954149],[121.450939,24.956552],[121.449749,24.957379],[121.447441,24.958319],[121.446322,24.958355],[121.444811,24.958688],[121.444568,24.959057],[121.443491,24.959408],[121.443515,24.960972],[121.443348,24.96171],[121.442902,24.962287],[121.441948,24.963043],[121.441967,24.963188],[121.440832,24.963465],[121.440344,24.96472],[121.440457,24.966035],[121.440433,24.966225],[121.440106,24.966475],[121.440136,24.967212],[121.439297,24.967902],[121.43897,24.968665],[121.44013,24.969116],[121.439398,24.969675],[121.439826,24.970276],[121.439761,24.97074],[121.439285,24.970805],[121.438589,24.970645],[121.438381,24.971156],[121.437828,24.970906],[121.437465,24.971269],[121.436579,24.971489],[121.436733,24.971906],[121.437328,24.972281],[121.438589,24.975082],[121.438613,24.975249],[121.43828,24.975332],[121.437227,24.97535],[121.43546,24.973405],[121.434889,24.972667],[121.434853,24.971545],[121.434836,24.970865],[121.434131,24.9684],[121.433993,24.968426],[121.433693,24.968071],[121.43405,24.967961],[121.433854,24.967087],[121.434166,24.966393],[121.433929,24.966349],[121.433966,24.966009],[121.433398,24.965882],[121.433446,24.9656],[121.434345,24.965781],[121.434457,24.965416],[121.434593,24.965416],[121.434736,24.964682],[121.435121,24.964304],[121.435269,24.963677],[121.435116,24.963062],[121.434721,24.962472],[121.434639,24.960627],[121.435502,24.959896],[121.435833,24.957693],[121.435859,24.956495],[121.435681,24.955665],[121.436106,24.955669],[121.436608,24.955166],[121.436602,24.954917],[121.436091,24.95406],[121.436186,24.952799],[121.436388,24.952543],[121.437346,24.952115],[121.437899,24.95149],[121.439594,24.950782],[121.439648,24.948385],[121.440011,24.947695],[121.441082,24.947219],[121.442883,24.945727],[121.443555,24.94568],[121.444299,24.945858],[121.444549,24.945614],[121.445709,24.945126],[121.445976,24.943354],[121.447431,24.941347],[121.448234,24.94172],[121.45014,24.943521],[121.451482,24.944293],[121.454132,24.944351],[121.455649,24.945117],[121.456051,24.946286],[121.457079,24.946104],[121.456092,24.947108],[121.455783,24.94794],[121.455224,24.948571],[121.455497,24.9496],[121.454724,24.950582],[121.454688,24.95148],[121.454016,24.951968],[121.454046,24.953342],[121.45381,24.954149]]]},"properties":{"code":"65000130020","name":"大安里","countyCode":"65000","countyName":"新北市","townCode":"65000130","townName":"土城區","level":"village","unassigned":false,"note":"","label":[121.44598481482439,24.95196198468502],"bounds":[121.433398,24.941347,121.457079,24.97535],"focusBounds":[121.433398,24.941347,121.457079,24.97535],"color":"#df9f6a"}},{"type":"Feature","id":"65000130021","geometry":{"type":"Polygon","coordinates":[[[121.442883,24.945727],[121.441082,24.947219],[121.440011,24.947695],[121.439648,24.948385],[121.439594,24.950782],[121.437899,24.95149],[121.437346,24.952115],[121.436388,24.952543],[121.436186,24.952799],[121.436091,24.95406],[121.436602,24.954917],[121.436608,24.955166],[121.436106,24.955669],[121.435681,24.955665],[121.435859,24.956495],[121.435833,24.957693],[121.435502,24.959896],[121.434639,24.960627],[121.434721,24.962472],[121.435116,24.963062],[121.435269,24.963677],[121.435121,24.964304],[121.434736,24.964682],[121.434593,24.965416],[121.434457,24.965416],[121.434345,24.965781],[121.433446,24.9656],[121.433398,24.965882],[121.433966,24.966009],[121.433929,24.966349],[121.434166,24.966393],[121.433854,24.967087],[121.43405,24.967961],[121.433693,24.968071],[121.433993,24.968426],[121.434131,24.9684],[121.434836,24.970865],[121.434853,24.971545],[121.433803,24.970296],[121.431673,24.967886],[121.428615,24.96562],[121.426581,24.964341],[121.426307,24.964026],[121.426281,24.963129],[121.426099,24.963096],[121.426265,24.962888],[121.425121,24.961559],[121.425014,24.961226],[121.425448,24.959097],[121.426846,24.959424],[121.427043,24.957473],[121.426674,24.953433],[121.426252,24.952958],[121.425431,24.952446],[121.424961,24.951756],[121.424788,24.950751],[121.425103,24.949133],[121.424378,24.947895],[121.423574,24.947107],[121.423823,24.946715],[121.424769,24.946542],[121.425418,24.946792],[121.426869,24.946858],[121.42882,24.945668],[121.429219,24.945079],[121.430016,24.944906],[121.430682,24.945192],[121.432366,24.945192],[121.433442,24.944805],[121.434894,24.945073],[121.435495,24.944811],[121.43628,24.944781],[121.436922,24.945144],[121.437404,24.94524],[121.439111,24.945388],[121.440152,24.945293],[121.441033,24.945787],[121.441985,24.94559],[121.442883,24.945727]]]},"properties":{"code":"65000130021","name":"永寧里","countyCode":"65000","countyName":"新北市","townCode":"65000130","townName":"土城區","level":"village","unassigned":false,"note":"","label":[121.43163880818256,24.95389348382735],"bounds":[121.423574,24.944781,121.442883,24.971545],"focusBounds":[121.423574,24.944781,121.442883,24.971545],"color":"#c38cb8"}},{"type":"Feature","id":"65000130022","geometry":{"type":"Polygon","coordinates":[[[121.415669,24.958504],[121.417722,24.960139],[121.41817,24.960284],[121.418907,24.960982],[121.419909,24.961561],[121.421566,24.96164],[121.421786,24.961343],[121.422476,24.961765],[121.424463,24.962357],[121.424299,24.962814],[121.424479,24.962874],[121.424661,24.962418],[121.425854,24.962898],[121.425466,24.963405],[121.425949,24.963716],[121.426281,24.963129],[121.426307,24.964026],[121.426581,24.964341],[121.428615,24.96562],[121.431673,24.967886],[121.433803,24.970296],[121.432763,24.971725],[121.433977,24.974084],[121.433998,24.974284],[121.433224,24.97511],[121.431915,24.974059],[121.430692,24.973442],[121.430286,24.972962],[121.428813,24.972081],[121.428033,24.971601],[121.426682,24.971763],[121.425639,24.97132],[121.424624,24.970522],[121.424263,24.969901],[121.422951,24.968904],[121.420708,24.967996],[121.419529,24.967627],[121.418011,24.967554],[121.415829,24.966809],[121.413404,24.966263],[121.412739,24.965973],[121.411897,24.965217],[121.410678,24.965061],[121.410325,24.964851],[121.41032,24.964402],[121.410728,24.964042],[121.409997,24.962367],[121.409989,24.960875],[121.410368,24.95924],[121.410297,24.958725],[121.412029,24.958811],[121.412411,24.959532],[121.413097,24.959591],[121.413957,24.958749],[121.414622,24.958991],[121.415241,24.9582],[121.415669,24.958504]]]},"properties":{"code":"65000130022","name":"沛陂里","countyCode":"65000","countyName":"新北市","townCode":"65000130","townName":"土城區","level":"village","unassigned":false,"note":"","label":[121.42176192888172,24.964899236201006],"bounds":[121.409989,24.9582,121.433998,24.97511],"focusBounds":[121.409989,24.9582,121.433998,24.97511],"color":"#98b69b"}},{"type":"Feature","id":"65000130023","geometry":{"type":"Polygon","coordinates":[[[121.426281,24.963129],[121.425949,24.963716],[121.425466,24.963405],[121.425854,24.962898],[121.424661,24.962418],[121.424479,24.962874],[121.424299,24.962814],[121.424463,24.962357],[121.422476,24.961765],[121.421786,24.961343],[121.421566,24.96164],[121.419909,24.961561],[121.418907,24.960982],[121.41817,24.960284],[121.417722,24.960139],[121.415669,24.958504],[121.417436,24.956392],[121.4178,24.955703],[121.417355,24.955229],[121.417825,24.954837],[121.418089,24.955157],[121.418477,24.954423],[121.417028,24.952821],[121.417851,24.951795],[121.419285,24.950909],[121.419558,24.950457],[121.419314,24.948559],[121.419552,24.947679],[121.419921,24.947113],[121.420754,24.946739],[121.422812,24.946846],[121.423574,24.947107],[121.424378,24.947895],[121.425103,24.949133],[121.424788,24.950751],[121.424961,24.951756],[121.425431,24.952446],[121.426252,24.952958],[121.426674,24.953433],[121.427043,24.957473],[121.426846,24.959424],[121.425448,24.959097],[121.425014,24.961226],[121.425121,24.961559],[121.426265,24.962888],[121.426099,24.963096],[121.426281,24.963129]]]},"properties":{"code":"65000130023","name":"頂埔里","countyCode":"65000","countyName":"新北市","townCode":"65000130","townName":"土城區","level":"village","unassigned":false,"note":"","label":[121.42252906793344,24.955605889655597],"bounds":[121.415669,24.946739,121.427043,24.963716],"focusBounds":[121.415669,24.946739,121.427043,24.963716],"color":"#58b99d"}},{"type":"Feature","id":"65000130024","geometry":{"type":"Polygon","coordinates":[[[121.417028,24.952821],[121.418477,24.954423],[121.418089,24.955157],[121.417825,24.954837],[121.417355,24.955229],[121.4178,24.955703],[121.417436,24.956392],[121.415669,24.958504],[121.415241,24.9582],[121.414622,24.958991],[121.413957,24.958749],[121.413097,24.959591],[121.412411,24.959532],[121.412029,24.958811],[121.410297,24.958725],[121.410274,24.956877],[121.410552,24.956227],[121.409976,24.954507],[121.411393,24.953831],[121.412458,24.953814],[121.413127,24.954779],[121.413371,24.95466],[121.415057,24.954944],[121.415265,24.954843],[121.415884,24.953605],[121.415787,24.95327],[121.417028,24.952821]]]},"properties":{"code":"65000130024","name":"頂福里","countyCode":"65000","countyName":"新北市","townCode":"65000130","townName":"土城區","level":"village","unassigned":false,"note":"","label":[121.41387763204503,24.956785858349456],"bounds":[121.409976,24.952821,121.418477,24.959591],"focusBounds":[121.409976,24.952821,121.418477,24.959591],"color":"#efb44f"}},{"type":"Feature","id":"65000130025","geometry":{"type":"Polygon","coordinates":[[[121.409149,24.9533],[121.411049,24.952369],[121.410856,24.952092],[121.411014,24.952],[121.411212,24.952289],[121.41133,24.952232],[121.411482,24.952453],[121.411645,24.952381],[121.411759,24.952504],[121.412271,24.952033],[121.414282,24.952979],[121.414853,24.952955],[121.415305,24.952771],[121.415787,24.95327],[121.415884,24.953605],[121.415265,24.954843],[121.415057,24.954944],[121.413371,24.95466],[121.413127,24.954779],[121.412458,24.953814],[121.411393,24.953831],[121.409976,24.954507],[121.409793,24.954027],[121.409149,24.9533]]]},"properties":{"code":"65000130025","name":"頂新里","countyCode":"65000","countyName":"新北市","townCode":"65000130","townName":"土城區","level":"village","unassigned":false,"note":"","label":[121.41356131336795,24.953666095926565],"bounds":[121.409149,24.952,121.415884,24.954944],"focusBounds":[121.409149,24.952,121.415884,24.954944],"color":"#78a7e3"}},{"type":"Feature","id":"65000130026","geometry":{"type":"Polygon","coordinates":[[[121.409149,24.9533],[121.407568,24.952139],[121.408648,24.951303],[121.408811,24.950988],[121.408467,24.949825],[121.40857,24.947697],[121.408861,24.94714],[121.408814,24.946085],[121.409422,24.945552],[121.409129,24.944792],[121.409649,24.943914],[121.40978,24.943284],[121.409656,24.942668],[121.409221,24.941898],[121.409248,24.94166],[121.410233,24.94137],[121.412753,24.94135],[121.413199,24.941515],[121.413537,24.941477],[121.414263,24.940908],[121.414734,24.939699],[121.414668,24.939448],[121.415058,24.939426],[121.415973,24.938981],[121.416701,24.938025],[121.41726,24.937719],[121.417686,24.937542],[121.418483,24.937764],[121.41891,24.938326],[121.419644,24.938766],[121.419945,24.938776],[121.421128,24.93834],[121.422201,24.938262],[121.424393,24.938459],[121.425176,24.938376],[121.425776,24.938492],[121.426819,24.939064],[121.428238,24.939072],[121.428594,24.938882],[121.429237,24.939088],[121.430436,24.939202],[121.430994,24.93964],[121.431976,24.939942],[121.432531,24.940891],[121.433073,24.941009],[121.434177,24.940284],[121.435162,24.938452],[121.435978,24.937374],[121.436705,24.935572],[121.43709,24.935653],[121.439168,24.936221],[121.439443,24.936388],[121.439952,24.937111],[121.440668,24.937208],[121.441586,24.937574],[121.442267,24.937629],[121.442811,24.938385],[121.443892,24.939096],[121.444921,24.940088],[121.447431,24.941347],[121.445976,24.943354],[121.445709,24.945126],[121.444549,24.945614],[121.444299,24.945858],[121.443555,24.94568],[121.442883,24.945727],[121.441985,24.94559],[121.441033,24.945787],[121.440152,24.945293],[121.439111,24.945388],[121.437404,24.94524],[121.436922,24.945144],[121.43628,24.944781],[121.435495,24.944811],[121.434894,24.945073],[121.433442,24.944805],[121.432366,24.945192],[121.430682,24.945192],[121.430016,24.944906],[121.429219,24.945079],[121.42882,24.945668],[121.426869,24.946858],[121.425418,24.946792],[121.424769,24.946542],[121.423823,24.946715],[121.423574,24.947107],[121.422812,24.946846],[121.420754,24.946739],[121.419921,24.947113],[121.419552,24.947679],[121.419314,24.948559],[121.419558,24.950457],[121.419285,24.950909],[121.417851,24.951795],[121.417028,24.952821],[121.415787,24.95327],[121.415305,24.952771],[121.414853,24.952955],[121.414282,24.952979],[121.412271,24.952033],[121.411759,24.952504],[121.411645,24.952381],[121.411482,24.952453],[121.41133,24.952232],[121.411212,24.952289],[121.411014,24.952],[121.410856,24.952092],[121.411049,24.952369],[121.409149,24.9533]]]},"properties":{"code":"65000130026","name":"祖田里","countyCode":"65000","countyName":"新北市","townCode":"65000130","townName":"土城區","level":"village","unassigned":false,"note":"","label":[121.42217324801277,24.942538444808246],"bounds":[121.407568,24.935572,121.447431,24.9533],"focusBounds":[121.407568,24.935572,121.447431,24.9533],"color":"#dd8590"}},{"type":"Feature","id":"65000130027","geometry":{"type":"Polygon","coordinates":[[[121.449265,24.9878],[121.448992,24.98796],[121.449428,24.986726],[121.448947,24.986076],[121.451179,24.98413],[121.452712,24.985549],[121.450341,24.987146],[121.449265,24.9878]]]},"properties":{"code":"65000130027","name":"樂利里","countyCode":"65000","countyName":"新北市","townCode":"65000130","townName":"土城區","level":"village","unassigned":false,"note":"","label":[121.45062772977921,24.98586720966324],"bounds":[121.448947,24.98413,121.452712,24.98796],"focusBounds":[121.448947,24.98413,121.452712,24.98796],"color":"#a49ad4"}},{"type":"Feature","id":"65000130028","geometry":{"type":"Polygon","coordinates":[[[121.459382,24.988498],[121.457282,24.988403],[121.456419,24.988106],[121.455439,24.987505],[121.454085,24.986585],[121.454676,24.985818],[121.455242,24.985084],[121.457052,24.986528],[121.457854,24.985798],[121.458329,24.98608],[121.458954,24.986862],[121.458977,24.987059],[121.458566,24.987016],[121.458518,24.987332],[121.459047,24.987332],[121.459382,24.988498]]]},"properties":{"code":"65000130028","name":"廣福里","countyCode":"65000","countyName":"新北市","townCode":"65000130","townName":"土城區","level":"village","unassigned":false,"note":"","label":[121.45709077697776,24.987415221265486],"bounds":[121.454085,24.985084,121.459382,24.988498],"focusBounds":[121.454085,24.985084,121.459382,24.988498],"color":"#a8bf62"}},{"type":"Feature","id":"65000130029","geometry":{"type":"Polygon","coordinates":[[[121.451572,24.981037],[121.452889,24.982234],[121.451896,24.983261],[121.452005,24.983402],[121.451873,24.983899],[121.452481,24.984447],[121.452897,24.983719],[121.453345,24.984137],[121.453704,24.984208],[121.453559,24.984468],[121.454507,24.985096],[121.454175,24.985536],[121.454676,24.985818],[121.454085,24.986585],[121.452712,24.985549],[121.451179,24.98413],[121.449644,24.982484],[121.451572,24.981037]]]},"properties":{"code":"65000130029","name":"學府里","countyCode":"65000","countyName":"新北市","townCode":"65000130","townName":"土城區","level":"village","unassigned":false,"note":"","label":[121.4512542994859,24.98250894195948],"bounds":[121.449644,24.981037,121.454676,24.986585],"focusBounds":[121.449644,24.981037,121.454676,24.986585],"color":"#68bec9"}},{"type":"Feature","id":"65000130030","geometry":{"type":"Polygon","coordinates":[[[121.468218,24.993767],[121.468311,24.992399],[121.468697,24.990389],[121.468931,24.990371],[121.469087,24.99014],[121.469202,24.990203],[121.468956,24.990458],[121.469008,24.990636],[121.46972,24.991316],[121.469916,24.991202],[121.470109,24.991283],[121.47082,24.99032],[121.470939,24.990385],[121.471389,24.990053],[121.471574,24.990129],[121.471721,24.989892],[121.475773,24.991445],[121.475402,24.991571],[121.474931,24.992007],[121.474943,24.992225],[121.475356,24.992618],[121.47482,24.993135],[121.474595,24.993018],[121.474405,24.993145],[121.474148,24.993534],[121.473053,24.994097],[121.472413,24.993919],[121.470685,24.992826],[121.470398,24.992404],[121.47016,24.992305],[121.470217,24.991854],[121.470029,24.991742],[121.469808,24.992134],[121.469143,24.992693],[121.468997,24.993243],[121.469051,24.994458],[121.468958,24.994625],[121.468218,24.993767]]]},"properties":{"code":"65000130030","name":"延壽里","countyCode":"65000","countyName":"新北市","townCode":"65000130","townName":"土城區","level":"village","unassigned":false,"note":"","label":[121.47215039282469,24.991904942511464],"bounds":[121.468218,24.989892,121.475773,24.994625],"focusBounds":[121.468218,24.989892,121.475773,24.994625],"color":"#df9f6a"}},{"type":"Feature","id":"65000130031","geometry":{"type":"Polygon","coordinates":[[[121.465546,24.990165],[121.465156,24.990051],[121.464955,24.989717],[121.464125,24.989627],[121.463707,24.989342],[121.463459,24.989448],[121.464366,24.988297],[121.465717,24.9891],[121.46626,24.988349],[121.466445,24.987035],[121.468353,24.988052],[121.468294,24.988135],[121.467786,24.987923],[121.467609,24.988392],[121.467421,24.988336],[121.467309,24.989026],[121.467861,24.989282],[121.467706,24.989542],[121.468,24.98971],[121.467703,24.99014],[121.467098,24.989824],[121.466773,24.990172],[121.466855,24.990743],[121.466633,24.990789],[121.466092,24.990343],[121.465546,24.990165]]]},"properties":{"code":"65000130031","name":"安和里","countyCode":"65000","countyName":"新北市","townCode":"65000130","townName":"土城區","level":"village","unassigned":false,"note":"","label":[121.46640419883245,24.98940865193701],"bounds":[121.463459,24.987035,121.468353,24.990789],"focusBounds":[121.463459,24.987035,121.468353,24.990789],"color":"#c38cb8"}},{"type":"Feature","id":"65000130032","geometry":{"type":"Polygon","coordinates":[[[121.459123,24.981554],[121.459263,24.98315],[121.458829,24.984441],[121.460471,24.990013],[121.460448,24.990044],[121.460186,24.990448],[121.460209,24.99011],[121.459382,24.988498],[121.459047,24.987332],[121.458518,24.987332],[121.458566,24.987016],[121.458977,24.987059],[121.458954,24.986862],[121.458329,24.98608],[121.457383,24.984798],[121.457573,24.98417],[121.456507,24.983559],[121.456749,24.983291],[121.457752,24.983909],[121.458079,24.98271],[121.457883,24.982086],[121.457193,24.98111],[121.45636,24.981057],[121.456883,24.980307],[121.456979,24.979676],[121.45677,24.979272],[121.45708,24.978969],[121.456985,24.978832],[121.456098,24.978867],[121.455932,24.978213],[121.455575,24.977809],[121.456205,24.977279],[121.456193,24.976839],[121.456634,24.976452],[121.456893,24.974509],[121.457109,24.974049],[121.457562,24.973606],[121.457944,24.974224],[121.457629,24.974344],[121.457655,24.974709],[121.458184,24.974776],[121.458478,24.976191],[121.458924,24.976202],[121.458945,24.977121],[121.459123,24.981554]]]},"properties":{"code":"65000130032","name":"青雲里","countyCode":"65000","countyName":"新北市","townCode":"65000130","townName":"土城區","level":"village","unassigned":false,"note":"","label":[121.45758108913441,24.977536907577893],"bounds":[121.455575,24.973606,121.460471,24.990448],"focusBounds":[121.455575,24.973606,121.460471,24.990448],"color":"#98b69b"}},{"type":"Feature","id":"65000130033","geometry":{"type":"Polygon","coordinates":[[[121.435557,24.982187],[121.435159,24.981711],[121.434745,24.980647],[121.434711,24.979743],[121.434965,24.978823],[121.437175,24.977763],[121.438215,24.979591],[121.438762,24.979425],[121.438518,24.977089],[121.438734,24.97694],[121.439444,24.976598],[121.43955,24.976828],[121.439825,24.976824],[121.439954,24.977018],[121.439321,24.977451],[121.43918,24.977299],[121.439366,24.978251],[121.439638,24.978234],[121.439933,24.978574],[121.439561,24.978957],[121.44147,24.978159],[121.441466,24.977722],[121.441759,24.977539],[121.441707,24.977111],[121.44146,24.977034],[121.441459,24.976845],[121.440845,24.976563],[121.440317,24.976107],[121.441708,24.97458],[121.442071,24.974989],[121.442089,24.977511],[121.443104,24.980948],[121.44239,24.981144],[121.441498,24.98164],[121.441452,24.981526],[121.441157,24.981633],[121.441195,24.981747],[121.440074,24.982201],[121.43947,24.980729],[121.435557,24.982187]]]},"properties":{"code":"65000130033","name":"員福里","countyCode":"65000","countyName":"新北市","townCode":"65000130","townName":"土城區","level":"village","unassigned":false,"note":"","label":[121.4408691124441,24.980145006586508],"bounds":[121.434711,24.97458,121.443104,24.982201],"focusBounds":[121.434711,24.97458,121.443104,24.982201],"color":"#58b99d"}},{"type":"Feature","id":"65000130034","geometry":{"type":"Polygon","coordinates":[[[121.469183,24.988495],[121.469527,24.987898],[121.468825,24.987559],[121.469257,24.986882],[121.468937,24.986656],[121.469031,24.986509],[121.469333,24.986764],[121.47054,24.984854],[121.470803,24.984932],[121.4707,24.985102],[121.471,24.985274],[121.471468,24.983632],[121.471844,24.982764],[121.472058,24.982627],[121.473445,24.983608],[121.474367,24.983987],[121.474923,24.98404],[121.475929,24.985221],[121.476853,24.985827],[121.477927,24.987402],[121.478479,24.98797],[121.478784,24.988758],[121.479607,24.989788],[121.479717,24.990324],[121.479117,24.990301],[121.477516,24.990955],[121.477032,24.990596],[121.476716,24.99081],[121.475773,24.991445],[121.471721,24.989892],[121.469183,24.988495]]]},"properties":{"code":"65000130034","name":"延吉里","countyCode":"65000","countyName":"新北市","townCode":"65000130","townName":"土城區","level":"village","unassigned":false,"note":"","label":[121.47366931353416,24.987417209409106],"bounds":[121.468825,24.982627,121.479717,24.991445],"focusBounds":[121.468825,24.982627,121.479717,24.991445],"color":"#efb44f"}},{"type":"Feature","id":"65000130035","geometry":{"type":"Polygon","coordinates":[[[121.454532,24.989749],[121.456929,24.99028],[121.457853,24.989742],[121.45811,24.98979],[121.458046,24.990053],[121.458486,24.99015],[121.458856,24.989956],[121.459156,24.990014],[121.459374,24.990551],[121.459784,24.990669],[121.45918,24.991032],[121.457724,24.991114],[121.457095,24.991385],[121.456573,24.992608],[121.456611,24.993147],[121.456342,24.993998],[121.456002,24.993912],[121.456077,24.993451],[121.453924,24.992516],[121.453742,24.992647],[121.453023,24.990998],[121.453029,24.990432],[121.452637,24.990163],[121.452383,24.989902],[121.452472,24.989524],[121.453172,24.98945],[121.454532,24.989749]]]},"properties":{"code":"65000130035","name":"復興里","countyCode":"65000","countyName":"新北市","townCode":"65000130","townName":"土城區","level":"village","unassigned":false,"note":"","label":[121.45530768750062,24.991519007162978],"bounds":[121.452383,24.98945,121.459784,24.993998],"focusBounds":[121.452383,24.98945,121.459784,24.993998],"color":"#78a7e3"}},{"type":"Feature","id":"65000130036","geometry":{"type":"Polygon","coordinates":[[[121.440232,24.989534],[121.442499,24.988494],[121.442675,24.988612],[121.442324,24.988844],[121.442711,24.989224],[121.442927,24.98923],[121.443571,24.988742],[121.443264,24.988576],[121.443002,24.988766],[121.442719,24.988416],[121.445952,24.986881],[121.445819,24.98666],[121.447586,24.985893],[121.447699,24.986226],[121.44887,24.985829],[121.448859,24.986154],[121.448947,24.986076],[121.449428,24.986726],[121.448992,24.98796],[121.446735,24.989301],[121.445811,24.99001],[121.44609,24.990249],[121.445628,24.990773],[121.446233,24.991432],[121.446137,24.99184],[121.444237,24.991045],[121.443501,24.991766],[121.442738,24.992891],[121.442017,24.992204],[121.440996,24.992161],[121.440859,24.992586],[121.440511,24.992199],[121.440334,24.990503],[121.440232,24.989534]]]},"properties":{"code":"65000130036","name":"裕生里","countyCode":"65000","countyName":"新北市","townCode":"65000130","townName":"土城區","level":"village","unassigned":false,"note":"","label":[121.44494568716284,24.98893213800141],"bounds":[121.440232,24.985829,121.449428,24.992891],"focusBounds":[121.440232,24.985829,121.449428,24.992891],"color":"#dd8590"}},{"type":"Feature","id":"65000130037","geometry":{"type":"Polygon","coordinates":[[[121.443084,24.973519],[121.443458,24.972655],[121.44377,24.972926],[121.444131,24.972693],[121.445964,24.97464],[121.446713,24.974055],[121.447556,24.974293],[121.447901,24.974894],[121.448365,24.975108],[121.447717,24.975911],[121.447746,24.976268],[121.447092,24.975768],[121.445563,24.975792],[121.442071,24.974989],[121.441708,24.97458],[121.440317,24.976107],[121.439444,24.976598],[121.438734,24.97694],[121.438509,24.975873],[121.438683,24.975867],[121.438786,24.975428],[121.438963,24.975387],[121.439014,24.975545],[121.439216,24.975447],[121.441114,24.974085],[121.4415,24.974406],[121.441864,24.974459],[121.442761,24.974382],[121.442874,24.974091],[121.444028,24.974392],[121.444194,24.973794],[121.443084,24.973519]]]},"properties":{"code":"65000130037","name":"員信里","countyCode":"65000","countyName":"新北市","townCode":"65000130","townName":"土城區","level":"village","unassigned":false,"note":"","label":[121.44487676331883,24.974783789105864],"bounds":[121.438509,24.972655,121.448365,24.97694],"focusBounds":[121.438509,24.972655,121.448365,24.97694],"color":"#a49ad4"}},{"type":"Feature","id":"65000130038","geometry":{"type":"Polygon","coordinates":[[[121.465866,24.984432],[121.464512,24.985703],[121.464181,24.98578],[121.463896,24.98544],[121.46411,24.985326],[121.463689,24.984751],[121.463808,24.984132],[121.463647,24.983805],[121.464034,24.983198],[121.463332,24.982454],[121.463177,24.981943],[121.464504,24.980491],[121.465059,24.980258],[121.46501,24.980527],[121.465863,24.980665],[121.46594,24.980372],[121.467056,24.9802],[121.467895,24.979841],[121.467346,24.980888],[121.467231,24.980661],[121.467032,24.980816],[121.467251,24.98103],[121.467073,24.98139],[121.467069,24.982995],[121.465866,24.984432]]]},"properties":{"code":"65000130038","name":"永富里","countyCode":"65000","countyName":"新北市","townCode":"65000130","townName":"土城區","level":"village","unassigned":false,"note":"","label":[121.46545021294476,24.982388618162275],"bounds":[121.463177,24.979841,121.467895,24.98578],"focusBounds":[121.463177,24.979841,121.467895,24.98578],"color":"#a8bf62"}},{"type":"Feature","id":"65000130039","geometry":{"type":"Polygon","coordinates":[[[121.450341,24.987146],[121.450928,24.987354],[121.452172,24.988582],[121.452472,24.989524],[121.452383,24.989902],[121.452637,24.990163],[121.452178,24.990336],[121.45153,24.990229],[121.450007,24.988379],[121.449757,24.988522],[121.449265,24.9878],[121.450341,24.987146]]]},"properties":{"code":"65000130039","name":"學成里","countyCode":"65000","countyName":"新北市","townCode":"65000130","townName":"土城區","level":"village","unassigned":false,"note":"","label":[121.45111991919784,24.988560994437982],"bounds":[121.449265,24.987146,121.452637,24.990336],"focusBounds":[121.449265,24.987146,121.452637,24.990336],"color":"#68bec9"}},{"type":"Feature","id":"65000130040","geometry":{"type":"Polygon","coordinates":[[[121.463459,24.989448],[121.463435,24.989187],[121.463242,24.989058],[121.46279,24.98927],[121.461945,24.989163],[121.461686,24.989384],[121.461143,24.989142],[121.462943,24.988007],[121.463716,24.986474],[121.464294,24.985916],[121.464371,24.985841],[121.466445,24.987035],[121.46626,24.988349],[121.465717,24.9891],[121.464366,24.988297],[121.463459,24.989448]]]},"properties":{"code":"65000130040","name":"延和里","countyCode":"65000","countyName":"新北市","townCode":"65000130","townName":"土城區","level":"village","unassigned":false,"note":"","label":[121.46473526954061,24.987283740454323],"bounds":[121.461143,24.985841,121.466445,24.989448],"focusBounds":[121.461143,24.985841,121.466445,24.989448],"color":"#df9f6a"}},{"type":"Feature","id":"65000130041","geometry":{"type":"Polygon","coordinates":[[[121.457752,24.983909],[121.456749,24.983291],[121.456507,24.983559],[121.457573,24.98417],[121.457383,24.984798],[121.458329,24.98608],[121.457854,24.985798],[121.457052,24.986528],[121.455242,24.985084],[121.454676,24.985818],[121.454175,24.985536],[121.454507,24.985096],[121.453559,24.984468],[121.453704,24.984208],[121.455364,24.982231],[121.457752,24.983909]]]},"properties":{"code":"65000130041","name":"中正里","countyCode":"65000","countyName":"新北市","townCode":"65000130","townName":"土城區","level":"village","unassigned":false,"note":"","label":[121.45542122777869,24.98396603119701],"bounds":[121.453559,24.982231,121.458329,24.986528],"focusBounds":[121.453559,24.982231,121.458329,24.986528],"color":"#c38cb8"}},{"type":"Feature","id":"65000130042","geometry":{"type":"Polygon","coordinates":[[[121.453704,24.984208],[121.453345,24.984137],[121.452897,24.983719],[121.452481,24.984447],[121.451873,24.983899],[121.452005,24.983402],[121.451896,24.983261],[121.452889,24.982234],[121.451572,24.981037],[121.452606,24.980099],[121.455364,24.982231],[121.453704,24.984208]]]},"properties":{"code":"65000130042","name":"學士里","countyCode":"65000","countyName":"新北市","townCode":"65000130","townName":"土城區","level":"village","unassigned":false,"note":"","label":[121.45381793072607,24.982553796252496],"bounds":[121.451572,24.980099,121.455364,24.984447],"focusBounds":[121.451572,24.980099,121.455364,24.984447],"color":"#98b69b"}},{"type":"Feature","id":"65000130043","geometry":{"type":"Polygon","coordinates":[[[121.448555,24.984281],[121.448472,24.983753],[121.448297,24.983787],[121.447921,24.983229],[121.445905,24.983943],[121.445594,24.983313],[121.448396,24.982465],[121.448316,24.982234],[121.448173,24.982248],[121.448258,24.979427],[121.448402,24.978133],[121.451572,24.981037],[121.449644,24.982484],[121.451179,24.98413],[121.448947,24.986076],[121.448859,24.986154],[121.44887,24.985829],[121.448555,24.984281]]]},"properties":{"code":"65000130043","name":"明德里","countyCode":"65000","countyName":"新北市","townCode":"65000130","townName":"土城區","level":"village","unassigned":false,"note":"","label":[121.44962689053253,24.981010563446613],"bounds":[121.445594,24.978133,121.451572,24.986154],"focusBounds":[121.445594,24.978133,121.451572,24.986154],"color":"#58b99d"}},{"type":"Feature","id":"65000130044","geometry":{"type":"Polygon","coordinates":[[[121.459784,24.990669],[121.459374,24.990551],[121.459156,24.990014],[121.458856,24.989956],[121.458486,24.99015],[121.458046,24.990053],[121.45811,24.98979],[121.457853,24.989742],[121.456929,24.99028],[121.454532,24.989749],[121.454828,24.988832],[121.454957,24.988901],[121.455048,24.988749],[121.454885,24.988452],[121.455439,24.987505],[121.456419,24.988106],[121.457282,24.988403],[121.459382,24.988498],[121.460209,24.99011],[121.460186,24.990448],[121.459784,24.990669]]]},"properties":{"code":"65000130044","name":"廣興里","countyCode":"65000","countyName":"新北市","townCode":"65000130","townName":"土城區","level":"village","unassigned":false,"note":"","label":[121.45681638795097,24.9892488939595],"bounds":[121.454532,24.987505,121.460209,24.990669],"focusBounds":[121.454532,24.987505,121.460209,24.990669],"color":"#efb44f"}},{"type":"Feature","id":"65000130045","geometry":{"type":"Polygon","coordinates":[[[121.468745,24.973639],[121.469512,24.974852],[121.468764,24.975805],[121.469538,24.976113],[121.468835,24.978019],[121.46797,24.977714],[121.467894,24.977874],[121.467621,24.979064],[121.467895,24.979841],[121.467056,24.9802],[121.46594,24.980372],[121.465863,24.980665],[121.46501,24.980527],[121.465059,24.980258],[121.464504,24.980491],[121.462382,24.978699],[121.462719,24.978344],[121.461937,24.977935],[121.462469,24.977059],[121.462921,24.977279],[121.463492,24.977065],[121.468745,24.973639]]]},"properties":{"code":"65000130045","name":"青山里","countyCode":"65000","countyName":"新北市","townCode":"65000130","townName":"土城區","level":"village","unassigned":false,"note":"","label":[121.46613937475966,24.97749449310201],"bounds":[121.461937,24.973639,121.469538,24.980665],"focusBounds":[121.461937,24.973639,121.469538,24.980665],"color":"#78a7e3"}},{"type":"Feature","id":"65000130046","geometry":{"type":"Polygon","coordinates":[[[121.467787,24.985063],[121.467279,24.986181],[121.466849,24.986687],[121.466958,24.986837],[121.466516,24.986824],[121.466445,24.987035],[121.464371,24.985841],[121.464294,24.985916],[121.464181,24.98578],[121.464512,24.985703],[121.465866,24.984432],[121.467787,24.985063]]]},"properties":{"code":"65000130046","name":"金城里","countyCode":"65000","countyName":"新北市","townCode":"65000130","townName":"土城區","level":"village","unassigned":false,"note":"","label":[121.46619987241458,24.98563567987654],"bounds":[121.464181,24.984432,121.467787,24.987035],"focusBounds":[121.464181,24.984432,121.467787,24.987035],"color":"#dd8590"}},{"type":"Feature","id":"65000130047","geometry":{"type":"Polygon","coordinates":[[[121.471721,24.989892],[121.471574,24.990129],[121.471389,24.990053],[121.470939,24.990385],[121.47082,24.99032],[121.470109,24.991283],[121.469916,24.991202],[121.46972,24.991316],[121.469008,24.990636],[121.468956,24.990458],[121.469202,24.990203],[121.469087,24.99014],[121.468931,24.990371],[121.46863,24.989841],[121.468839,24.988717],[121.46908,24.98844],[121.469183,24.988495],[121.471721,24.989892]]]},"properties":{"code":"65000130047","name":"延祿里","countyCode":"65000","countyName":"新北市","townCode":"65000130","townName":"土城區","level":"village","unassigned":false,"note":"","label":[121.47002193147368,24.989961088662255],"bounds":[121.46863,24.98844,121.471721,24.991316],"focusBounds":[121.46863,24.98844,121.471721,24.991316],"color":"#68bec9"}}]}
