{"type":"FeatureCollection","features":[{"type":"Feature","id":"65000030001","geometry":{"type":"Polygon","coordinates":[[[121.494465,25.002136],[121.493959,25.004942],[121.494976,25.005141],[121.494619,25.005589],[121.494652,25.005995],[121.494909,25.006343],[121.495436,25.006551],[121.496013,25.006582],[121.496504,25.006075],[121.497963,25.006213],[121.498351,25.006622],[121.498352,25.00682],[121.498447,25.008511],[121.498313,25.008718],[121.498075,25.009011],[121.497822,25.009042],[121.497434,25.008944],[121.49652,25.008341],[121.495122,25.008288],[121.494817,25.008397],[121.494035,25.009186],[121.493117,25.009227],[121.492659,25.009526],[121.491366,25.011539],[121.490497,25.012572],[121.490187,25.012898],[121.489565,25.013177],[121.489394,25.014098],[121.488821,25.015169],[121.488695,25.01576],[121.484239,25.015721],[121.482004,25.015701],[121.482252,25.015173],[121.482553,25.014531],[121.482285,25.013568],[121.481911,25.013132],[121.48167,25.012609],[121.482208,25.012184],[121.482053,25.01124],[121.482022,25.010544],[121.481562,25.010479],[121.481594,25.01026],[121.481999,25.010342],[121.482039,25.009155],[121.482356,25.008561],[121.482207,25.008105],[121.482133,25.007512],[121.482729,25.006253],[121.483074,25.004892],[121.485866,25.004796],[121.487832,25.004659],[121.490928,25.00327],[121.493484,25.00212],[121.494465,25.002136]]]},"properties":{"code":"65000030001","name":"中原里","countyCode":"65000","countyName":"新北市","townCode":"65000030","townName":"中和區","level":"village","unassigned":false,"note":"","label":[121.48691122971995,25.00946637365866],"bounds":[121.481562,25.00212,121.498447,25.01576],"focusBounds":[121.481562,25.00212,121.498447,25.01576],"color":"#df9f6a"}},{"type":"Feature","id":"65000030002","geometry":{"type":"Polygon","coordinates":[[[121.485866,25.004796],[121.483074,25.004892],[121.483322,25.002818],[121.483555,25.001131],[121.483705,25.000799],[121.483824,24.998784],[121.483678,24.996036],[121.485157,24.996156],[121.488028,24.996157],[121.489876,24.996243],[121.489228,24.998491],[121.488656,24.998484],[121.4881,25.000184],[121.487134,25.001026],[121.486793,25.001605],[121.485962,25.003747],[121.485866,25.004796]]]},"properties":{"code":"65000030002","name":"平河里","countyCode":"65000","countyName":"新北市","townCode":"65000030","townName":"中和區","level":"village","unassigned":false,"note":"","label":[121.48612937095355,24.99876387793801],"bounds":[121.483074,24.996036,121.489876,25.004892],"focusBounds":[121.483074,24.996036,121.489876,25.004892],"color":"#c38cb8"}},{"type":"Feature","id":"65000030003","geometry":{"type":"Polygon","coordinates":[[[121.482523,24.999519],[121.482926,24.999516],[121.48293,24.998501],[121.482258,24.998472],[121.482259,24.99834],[121.482085,24.998345],[121.482021,24.997579],[121.482245,24.99759],[121.482229,24.997211],[121.482529,24.997039],[121.482679,24.996149],[121.48299,24.995696],[121.483096,24.99563],[121.483678,24.996036],[121.483824,24.998784],[121.483705,25.000799],[121.483555,25.001131],[121.482504,25.001089],[121.482523,24.999519]]]},"properties":{"code":"65000030003","name":"信和里","countyCode":"65000","countyName":"新北市","townCode":"65000030","townName":"中和區","level":"village","unassigned":false,"note":"","label":[121.48299793865873,24.997730223547407],"bounds":[121.482021,24.99563,121.483824,25.001131],"focusBounds":[121.482021,24.99563,121.483824,25.001131],"color":"#58b99d"}},{"type":"Feature","id":"65000030004","geometry":{"type":"Polygon","coordinates":[[[121.482418,24.99343],[121.482985,24.993304],[121.483001,24.993047],[121.483915,24.992708],[121.484288,24.992738],[121.484755,24.992599],[121.484743,24.992445],[121.485175,24.992539],[121.485539,24.992354],[121.48574,24.993453],[121.486557,24.993471],[121.486558,24.993773],[121.486531,24.994413],[121.485745,24.994898],[121.485157,24.996156],[121.483678,24.996036],[121.483096,24.99563],[121.48299,24.995696],[121.482595,24.995719],[121.482605,24.995245],[121.482299,24.994948],[121.482331,24.99452],[121.482785,24.994507],[121.482753,24.993961],[121.482408,24.993909],[121.482418,24.99343]]]},"properties":{"code":"65000030004","name":"仁和里","countyCode":"65000","countyName":"新北市","townCode":"65000030","townName":"中和區","level":"village","unassigned":false,"note":"","label":[121.48432706904228,24.994285800409337],"bounds":[121.482299,24.992354,121.486558,24.996156],"focusBounds":[121.482299,24.992354,121.486558,24.996156],"color":"#78a7e3"}},{"type":"Feature","id":"65000030005","geometry":{"type":"Polygon","coordinates":[[[121.486558,24.993773],[121.487467,24.993758],[121.487535,24.994281],[121.488641,24.994328],[121.488028,24.996157],[121.485157,24.996156],[121.485745,24.994898],[121.486531,24.994413],[121.486558,24.993773]]]},"properties":{"code":"65000030005","name":"中正里","countyCode":"65000","countyName":"新北市","townCode":"65000030","townName":"中和區","level":"village","unassigned":false,"note":"","label":[121.4871348002971,24.995159231050096],"bounds":[121.485157,24.993758,121.488641,24.996157],"focusBounds":[121.485157,24.993758,121.488641,24.996157],"color":"#dd8590"}},{"type":"Feature","id":"65000030006","geometry":{"type":"Polygon","coordinates":[[[121.492256,24.99398],[121.493001,24.99451],[121.493174,24.994881],[121.492842,24.996802],[121.491345,24.996358],[121.489876,24.996243],[121.49061,24.994072],[121.492256,24.99398]]]},"properties":{"code":"65000030006","name":"建和里","countyCode":"65000","countyName":"新北市","townCode":"65000030","townName":"中和區","level":"village","unassigned":false,"note":"","label":[121.49169056375678,24.99523597829986],"bounds":[121.489876,24.99398,121.493174,24.996802],"focusBounds":[121.489876,24.99398,121.493174,24.996802],"color":"#78a7e3"}},{"type":"Feature","id":"65000030007","geometry":{"type":"Polygon","coordinates":[[[121.494465,25.002136],[121.493484,25.00212],[121.490928,25.00327],[121.49429,24.997611],[121.495756,24.998724],[121.497159,25.000781],[121.498162,25.001791],[121.500036,25.002651],[121.496682,25.002341],[121.494465,25.002136]]]},"properties":{"code":"65000030007","name":"連和里","countyCode":"65000","countyName":"新北市","townCode":"65000030","townName":"中和區","level":"village","unassigned":false,"note":"","label":[121.49478979528664,25.00049207564426],"bounds":[121.490928,24.997611,121.500036,25.00327],"focusBounds":[121.490928,24.997611,121.500036,25.00327],"color":"#dd8590"}},{"type":"Feature","id":"65000030008","geometry":{"type":"Polygon","coordinates":[[[121.49429,24.997611],[121.494389,24.997456],[121.494654,24.997635],[121.494796,24.997411],[121.494501,24.997294],[121.495823,24.995684],[121.496895,24.996658],[121.497242,24.996081],[121.497376,24.99614],[121.497202,24.996446],[121.49727,24.996961],[121.497711,24.997175],[121.499224,24.998689],[121.499208,24.998874],[121.497159,25.000781],[121.495756,24.998724],[121.49429,24.997611]]]},"properties":{"code":"65000030008","name":"連城里","countyCode":"65000","countyName":"新北市","townCode":"65000030","townName":"中和區","level":"village","unassigned":false,"note":"","label":[121.4970080571247,24.998290603707975],"bounds":[121.49429,24.995684,121.499224,25.000781],"focusBounds":[121.49429,24.995684,121.499224,25.000781],"color":"#a49ad4"}},{"type":"Feature","id":"65000030009","geometry":{"type":"Polygon","coordinates":[[[121.499224,24.998689],[121.497711,24.997175],[121.49727,24.996961],[121.497202,24.996446],[121.497376,24.99614],[121.497242,24.996081],[121.496895,24.996658],[121.495823,24.995684],[121.495477,24.995416],[121.495433,24.993789],[121.494204,24.99386],[121.493934,24.99354],[121.493934,24.992931],[121.494521,24.992085],[121.494462,24.991785],[121.495018,24.992686],[121.495924,24.993206],[121.49605,24.993753],[121.496354,24.994249],[121.497297,24.994523],[121.497794,24.995488],[121.499027,24.995863],[121.499168,24.996137],[121.498688,24.996354],[121.498935,24.996983],[121.498763,24.997144],[121.49887,24.997275],[121.498682,24.997372],[121.49824,24.996986],[121.497999,24.997394],[121.498243,24.997324],[121.498822,24.997703],[121.499299,24.998379],[121.499415,24.998295],[121.499529,24.998395],[121.499224,24.998689]]]},"properties":{"code":"65000030009","name":"力行里","countyCode":"65000","countyName":"新北市","townCode":"65000030","townName":"中和區","level":"village","unassigned":false,"note":"","label":[121.49668785917221,24.995280759423757],"bounds":[121.493934,24.991785,121.499529,24.998689],"focusBounds":[121.493934,24.991785,121.499529,24.998689],"color":"#a8bf62"}},{"type":"Feature","id":"65000030010","geometry":{"type":"Polygon","coordinates":[[[121.507406,25.001767],[121.506246,25.003227],[121.504623,25.00231],[121.504345,25.002601],[121.502809,25.001812],[121.502956,25.002322],[121.502302,25.002315],[121.502121,25.002147],[121.501755,25.002372],[121.502061,25.0013],[121.50199,25.001076],[121.501268,25.001121],[121.500645,25.001556],[121.500122,25.001344],[121.502023,24.99974],[121.506404,24.99963],[121.506718,24.999611],[121.506732,24.99978],[121.506365,24.999801],[121.506411,25.000686],[121.507406,25.001767]]]},"properties":{"code":"65000030010","name":"枋寮里","countyCode":"65000","countyName":"新北市","townCode":"65000030","townName":"中和區","level":"village","unassigned":false,"note":"","label":[121.50419979937962,25.001105755172688],"bounds":[121.500122,24.999611,121.507406,25.003227],"focusBounds":[121.500122,24.999611,121.507406,25.003227],"color":"#68bec9"}},{"type":"Feature","id":"65000030011","geometry":{"type":"Polygon","coordinates":[[[121.499616,24.998531],[121.499893,24.998328],[121.500557,24.998459],[121.501713,24.998437],[121.501713,24.998189],[121.502045,24.998198],[121.502004,24.997998],[121.50262,24.998318],[121.503122,24.998199],[121.503626,24.998379],[121.503843,24.998308],[121.503783,24.998226],[121.504113,24.997919],[121.504774,24.998374],[121.504695,24.998611],[121.504936,24.998613],[121.505989,24.996832],[121.506507,24.997465],[121.506284,24.997812],[121.506404,24.99963],[121.502023,24.99974],[121.500122,25.001344],[121.500209,25.000828],[121.50049,25.000379],[121.500028,25.000269],[121.499318,24.999513],[121.499616,24.998531]]]},"properties":{"code":"65000030011","name":"漳和里","countyCode":"65000","countyName":"新北市","townCode":"65000030","townName":"中和區","level":"village","unassigned":false,"note":"","label":[121.50296313299587,24.99897643518715],"bounds":[121.499318,24.996832,121.506507,25.001344],"focusBounds":[121.499318,24.996832,121.506507,25.001344],"color":"#df9f6a"}},{"type":"Feature","id":"65000030012","geometry":{"type":"Polygon","coordinates":[[[121.499616,24.998531],[121.499318,24.999513],[121.500028,25.000269],[121.50049,25.000379],[121.500209,25.000828],[121.500122,25.001344],[121.500645,25.001556],[121.501268,25.001121],[121.50199,25.001076],[121.502061,25.0013],[121.501755,25.002372],[121.501031,25.002222],[121.500744,25.002365],[121.500584,25.002686],[121.500089,25.002654],[121.500036,25.002651],[121.498162,25.001791],[121.497159,25.000781],[121.499208,24.998874],[121.499616,24.998531]]]},"properties":{"code":"65000030012","name":"廟美里","countyCode":"65000","countyName":"新北市","townCode":"65000030","townName":"中和區","level":"village","unassigned":false,"note":"","label":[121.49903278834108,25.000948163583438],"bounds":[121.497159,24.998531,121.502061,25.002686],"focusBounds":[121.497159,24.998531,121.502061,25.002686],"color":"#c38cb8"}},{"type":"Feature","id":"65000030013","geometry":{"type":"Polygon","coordinates":[[[121.494465,25.002136],[121.496682,25.002341],[121.49646,25.004226],[121.495436,25.006551],[121.494909,25.006343],[121.494652,25.005995],[121.494619,25.005589],[121.494976,25.005141],[121.493959,25.004942],[121.494465,25.002136]]]},"properties":{"code":"65000030013","name":"福真里","countyCode":"65000","countyName":"新北市","townCode":"65000030","townName":"中和區","level":"village","unassigned":false,"note":"","label":[121.49529899368436,25.003966241434362],"bounds":[121.493959,25.002136,121.496682,25.006551],"focusBounds":[121.493959,25.002136,121.496682,25.006551],"color":"#98b69b"}},{"type":"Feature","id":"65000030014","geometry":{"type":"Polygon","coordinates":[[[121.500089,25.002654],[121.498862,25.004461],[121.496531,25.005705],[121.496504,25.006075],[121.496013,25.006582],[121.495436,25.006551],[121.49646,25.004226],[121.496682,25.002341],[121.500036,25.002651],[121.500089,25.002654]]]},"properties":{"code":"65000030014","name":"福善里","countyCode":"65000","countyName":"新北市","townCode":"65000030","townName":"中和區","level":"village","unassigned":false,"note":"","label":[121.4977785178771,25.003635068063254],"bounds":[121.495436,25.002341,121.500089,25.006582],"focusBounds":[121.495436,25.002341,121.500089,25.006582],"color":"#58b99d"}},{"type":"Feature","id":"65000030015","geometry":{"type":"Polygon","coordinates":[[[121.498352,25.00682],[121.499374,25.006674],[121.499695,25.005823],[121.499978,25.005878],[121.500634,25.004907],[121.501402,25.005083],[121.501676,25.004786],[121.502014,25.004704],[121.503135,25.005132],[121.503119,25.005418],[121.502839,25.005804],[121.501597,25.005988],[121.502058,25.006739],[121.501449,25.006964],[121.500581,25.007059],[121.500834,25.007337],[121.500424,25.007591],[121.500705,25.007916],[121.499442,25.008603],[121.498864,25.008367],[121.498447,25.008511],[121.498352,25.00682]]]},"properties":{"code":"65000030015","name":"福美里","countyCode":"65000","countyName":"新北市","townCode":"65000030","townName":"中和區","level":"village","unassigned":false,"note":"","label":[121.50071793427128,25.006202506238743],"bounds":[121.498352,25.004704,121.503135,25.008603],"focusBounds":[121.498352,25.004704,121.503135,25.008603],"color":"#dd8590"}},{"type":"Feature","id":"65000030016","geometry":{"type":"Polygon","coordinates":[[[121.496504,25.006075],[121.496531,25.005705],[121.498862,25.004461],[121.500089,25.002654],[121.500584,25.002686],[121.500622,25.002688],[121.501188,25.003428],[121.501244,25.003824],[121.500568,25.00415],[121.500488,25.004702],[121.500634,25.004907],[121.499978,25.005878],[121.499695,25.005823],[121.499374,25.006674],[121.498352,25.00682],[121.498351,25.006622],[121.497963,25.006213],[121.496504,25.006075]]]},"properties":{"code":"65000030016","name":"福祥里","countyCode":"65000","countyName":"新北市","townCode":"65000030","townName":"中和區","level":"village","unassigned":false,"note":"","label":[121.49955427826715,25.004926766738663],"bounds":[121.496504,25.002654,121.501244,25.00682],"focusBounds":[121.496504,25.002654,121.501244,25.00682],"color":"#78a7e3"}},{"type":"Feature","id":"65000030017","geometry":{"type":"Polygon","coordinates":[[[121.508134,25.004476],[121.507284,25.005293],[121.506192,25.005573],[121.505681,25.005976],[121.504031,25.004571],[121.504876,25.003936],[121.506246,25.003227],[121.507406,25.001767],[121.5079,25.002444],[121.508646,25.002451],[121.509005,25.003893],[121.508876,25.00421],[121.508134,25.004476]]]},"properties":{"code":"65000030017","name":"瓦[磘]里","countyCode":"65000","countyName":"新北市","townCode":"65000030","townName":"中和區","level":"village","unassigned":false,"note":"","label":[121.50676151758691,25.004228734300447],"bounds":[121.504031,25.001767,121.509005,25.005976],"focusBounds":[121.504031,25.001767,121.509005,25.005976],"color":"#dd8590"}},{"type":"Feature","id":"65000030018","geometry":{"type":"Polygon","coordinates":[[[121.506246,25.003227],[121.504876,25.003936],[121.504031,25.004571],[121.502162,25.003054],[121.501699,25.002849],[121.500622,25.002688],[121.500584,25.002686],[121.500744,25.002365],[121.501031,25.002222],[121.501755,25.002372],[121.502121,25.002147],[121.502302,25.002315],[121.502956,25.002322],[121.502809,25.001812],[121.504345,25.002601],[121.504623,25.00231],[121.506246,25.003227]]]},"properties":{"code":"65000030018","name":"福和里","countyCode":"65000","countyName":"新北市","townCode":"65000030","townName":"中和區","level":"village","unassigned":false,"note":"","label":[121.50368307222428,25.003145932746314],"bounds":[121.500584,25.001812,121.506246,25.004571],"focusBounds":[121.500584,25.001812,121.506246,25.004571],"color":"#a49ad4"}},{"type":"Feature","id":"65000030019","geometry":{"type":"Polygon","coordinates":[[[121.500634,25.004907],[121.500488,25.004702],[121.500568,25.00415],[121.501244,25.003824],[121.501188,25.003428],[121.500622,25.002688],[121.501699,25.002849],[121.502162,25.003054],[121.504031,25.004571],[121.505681,25.005976],[121.505519,25.006092],[121.504581,25.006454],[121.503672,25.00703],[121.502889,25.007017],[121.502545,25.007149],[121.500705,25.007916],[121.500424,25.007591],[121.500834,25.007337],[121.500581,25.007059],[121.501449,25.006964],[121.502058,25.006739],[121.501597,25.005988],[121.502839,25.005804],[121.503119,25.005418],[121.503135,25.005132],[121.502014,25.004704],[121.501676,25.004786],[121.501402,25.005083],[121.500634,25.004907]]]},"properties":{"code":"65000030019","name":"佳和里","countyCode":"65000","countyName":"新北市","townCode":"65000030","townName":"中和區","level":"village","unassigned":false,"note":"","label":[121.50381685813656,25.00590652836068],"bounds":[121.500424,25.002688,121.505681,25.007916],"focusBounds":[121.500424,25.002688,121.505681,25.007916],"color":"#a8bf62"}},{"type":"Feature","id":"65000030020","geometry":{"type":"Polygon","coordinates":[[[121.511013,25.000341],[121.511485,24.999895],[121.51109,24.999564],[121.511363,24.999289],[121.510268,24.997974],[121.511409,24.997116],[121.51198,24.996683],[121.512708,24.997534],[121.513027,24.997519],[121.51319,24.997675],[121.514307,24.998984],[121.514187,24.99943],[121.514144,25.000285],[121.514865,25.001228],[121.51501,25.00176],[121.514523,25.003751],[121.513881,25.003613],[121.511013,25.000341]]]},"properties":{"code":"65000030020","name":"安樂里","countyCode":"65000","countyName":"新北市","townCode":"65000030","townName":"中和區","level":"village","unassigned":false,"note":"","label":[121.51283345328231,25.00008069358575],"bounds":[121.510268,24.996683,121.51501,25.003751],"focusBounds":[121.510268,24.996683,121.51501,25.003751],"color":"#68bec9"}},{"type":"Feature","id":"65000030021","geometry":{"type":"Polygon","coordinates":[[[121.509558,24.997298],[121.509355,24.997088],[121.50917,24.997173],[121.508915,24.996784],[121.508738,24.996874],[121.508406,24.99657],[121.508196,24.996259],[121.50851,24.996111],[121.508307,24.995798],[121.507972,24.995946],[121.507679,24.995574],[121.509076,24.994997],[121.50968,24.994895],[121.511409,24.997116],[121.510268,24.997974],[121.509558,24.997298]]]},"properties":{"code":"65000030021","name":"安和里","countyCode":"65000","countyName":"新北市","townCode":"65000030","townName":"中和區","level":"village","unassigned":false,"note":"","label":[121.50961105926007,24.996212418906985],"bounds":[121.507679,24.994895,121.511409,24.997974],"focusBounds":[121.507679,24.994895,121.511409,24.997974],"color":"#df9f6a"}},{"type":"Feature","id":"65000030022","geometry":{"type":"Polygon","coordinates":[[[121.511013,25.000341],[121.510912,25.00022],[121.509986,25.00149],[121.508702,25.000011],[121.507514,24.998576],[121.508933,24.997534],[121.509558,24.997298],[121.510268,24.997974],[121.511363,24.999289],[121.51109,24.999564],[121.511485,24.999895],[121.511013,25.000341]]]},"properties":{"code":"65000030022","name":"安平里","countyCode":"65000","countyName":"新北市","townCode":"65000030","townName":"中和區","level":"village","unassigned":false,"note":"","label":[121.50962990742336,24.999223175833528],"bounds":[121.507514,24.997298,121.511485,25.00149],"focusBounds":[121.507514,24.997298,121.511485,25.00149],"color":"#c38cb8"}},{"type":"Feature","id":"65000030023","geometry":{"type":"Polygon","coordinates":[[[121.514477,25.003877],[121.513868,25.004162],[121.51254,25.004327],[121.510052,25.001566],[121.509986,25.00149],[121.510912,25.00022],[121.511013,25.000341],[121.513881,25.003613],[121.514523,25.003751],[121.514479,25.003872],[121.514477,25.003877]]]},"properties":{"code":"65000030023","name":"中安里","countyCode":"65000","countyName":"新北市","townCode":"65000030","townName":"中和區","level":"village","unassigned":false,"note":"","label":[121.51195597507648,25.002547793838037],"bounds":[121.509986,25.00022,121.514523,25.004327],"focusBounds":[121.509986,25.00022,121.514523,25.004327],"color":"#98b69b"}},{"type":"Feature","id":"65000030024","geometry":{"type":"Polygon","coordinates":[[[121.506507,24.997465],[121.506777,24.99665],[121.507246,24.995875],[121.507679,24.995574],[121.507972,24.995946],[121.508307,24.995798],[121.50851,24.996111],[121.508196,24.996259],[121.508406,24.99657],[121.508738,24.996874],[121.508915,24.996784],[121.50917,24.997173],[121.509355,24.997088],[121.509558,24.997298],[121.508933,24.997534],[121.507514,24.998576],[121.508702,25.000011],[121.508232,24.999786],[121.506732,24.99978],[121.506718,24.999611],[121.506404,24.99963],[121.506284,24.997812],[121.506507,24.997465]]]},"properties":{"code":"65000030024","name":"泰安里","countyCode":"65000","countyName":"新北市","townCode":"65000030","townName":"中和區","level":"village","unassigned":false,"note":"","label":[121.50750222034856,24.997442556441953],"bounds":[121.506284,24.995574,121.509558,25.000011],"focusBounds":[121.506284,24.995574,121.509558,25.000011],"color":"#58b99d"}},{"type":"Feature","id":"65000030025","geometry":{"type":"Polygon","coordinates":[[[121.499563,24.993571],[121.499406,24.992989],[121.499536,24.992951],[121.499983,24.992857],[121.500579,24.993624],[121.500995,24.994726],[121.501697,24.995363],[121.502492,24.995634],[121.502004,24.997998],[121.502045,24.998198],[121.501713,24.998189],[121.501713,24.998437],[121.500557,24.998459],[121.499893,24.998328],[121.499616,24.998531],[121.499208,24.998874],[121.499224,24.998689],[121.499529,24.998395],[121.499415,24.998295],[121.499299,24.998379],[121.498822,24.997703],[121.498243,24.997324],[121.497999,24.997394],[121.49824,24.996986],[121.498682,24.997372],[121.49887,24.997275],[121.498763,24.997144],[121.498935,24.996983],[121.498688,24.996354],[121.499168,24.996137],[121.500472,24.995367],[121.500276,24.994883],[121.499812,24.994852],[121.499672,24.994123],[121.499919,24.994099],[121.499898,24.993767],[121.499605,24.993785],[121.499563,24.993571]]]},"properties":{"code":"65000030025","name":"新南里","countyCode":"65000","countyName":"新北市","townCode":"65000030","townName":"中和區","level":"village","unassigned":false,"note":"","label":[121.50075279941353,24.99688283315037],"bounds":[121.497999,24.992857,121.502492,24.998874],"focusBounds":[121.497999,24.992857,121.502492,24.998874],"color":"#efb44f"}},{"type":"Feature","id":"65000030026","geometry":{"type":"Polygon","coordinates":[[[121.503925,24.993242],[121.503763,24.993274],[121.503821,24.994311],[121.503374,24.994346],[121.50336,24.994735],[121.503618,24.995125],[121.503418,24.995635],[121.503528,24.995963],[121.503849,24.996216],[121.504199,24.995935],[121.50445,24.996179],[121.50395,24.996667],[121.504622,24.997153],[121.504113,24.997919],[121.503783,24.998226],[121.503843,24.998308],[121.503626,24.998379],[121.503122,24.998199],[121.50262,24.998318],[121.502004,24.997998],[121.502492,24.995634],[121.503449,24.993278],[121.504077,24.992349],[121.504597,24.992274],[121.504628,24.992491],[121.504296,24.993169],[121.503925,24.993242]]]},"properties":{"code":"65000030026","name":"南山里","countyCode":"65000","countyName":"新北市","townCode":"65000030","townName":"中和區","level":"village","unassigned":false,"note":"","label":[121.50317449773,24.997218942421764],"bounds":[121.502004,24.992274,121.504628,24.998379],"focusBounds":[121.502004,24.992274,121.504628,24.998379],"color":"#78a7e3"}},{"type":"Feature","id":"65000030027","geometry":{"type":"Polygon","coordinates":[[[121.519862,24.993766],[121.520889,24.992637],[121.521068,24.99208],[121.520545,24.992005],[121.521061,24.991154],[121.521008,24.991019],[121.521253,24.990949],[121.522121,24.9907],[121.522277,24.991264],[121.523004,24.991324],[121.523713,24.991587],[121.522537,24.993002],[121.521943,24.994071],[121.522001,24.994445],[121.522254,24.996134],[121.520849,24.996356],[121.520354,24.996248],[121.520001,24.99378],[121.519862,24.993766]]]},"properties":{"code":"65000030027","name":"秀山里","countyCode":"65000","countyName":"新北市","townCode":"65000030","townName":"中和區","level":"village","unassigned":false,"note":"","label":[121.52117480578623,24.993637657033105],"bounds":[121.519862,24.9907,121.523713,24.996356],"focusBounds":[121.519862,24.9907,121.523713,24.996356],"color":"#dd8590"}},{"type":"Feature","id":"65000030028","geometry":{"type":"Polygon","coordinates":[[[121.524031,24.994885],[121.523353,24.994638],[121.522001,24.994445],[121.521943,24.994071],[121.522537,24.993002],[121.523713,24.991587],[121.524864,24.992395],[121.524593,24.992671],[121.524585,24.99348],[121.524467,24.993592],[121.524333,24.993451],[121.523999,24.99397],[121.524031,24.994885]]]},"properties":{"code":"65000030028","name":"秀成里","countyCode":"65000","countyName":"新北市","townCode":"65000030","townName":"中和區","level":"village","unassigned":false,"note":"","label":[121.52341130631237,24.99330464422241],"bounds":[121.521943,24.991587,121.524864,24.994885],"focusBounds":[121.521943,24.991587,121.524864,24.994885],"color":"#a49ad4"}},{"type":"Feature","id":"65000030029","geometry":{"type":"Polygon","coordinates":[[[121.522001,24.994445],[121.523353,24.994638],[121.524031,24.994885],[121.525686,24.995218],[121.525673,24.995026],[121.526445,24.995194],[121.526584,24.995858],[121.526522,24.996339],[121.525929,24.997562],[121.525689,24.997503],[121.522465,24.996841],[121.520849,24.996356],[121.522254,24.996134],[121.522001,24.994445]]]},"properties":{"code":"65000030029","name":"秀福里","countyCode":"65000","countyName":"新北市","townCode":"65000030","townName":"中和區","level":"village","unassigned":false,"note":"","label":[121.52416978140292,24.996052066176794],"bounds":[121.520849,24.994445,121.526584,24.997562],"focusBounds":[121.520849,24.994445,121.526584,24.997562],"color":"#a8bf62"}},{"type":"Feature","id":"65000030030","geometry":{"type":"Polygon","coordinates":[[[121.528257,24.995443],[121.526741,24.995437],[121.526619,24.995547],[121.526642,24.994631],[121.525261,24.992712],[121.524864,24.992395],[121.523713,24.991587],[121.523004,24.991324],[121.522277,24.991264],[121.522121,24.9907],[121.521253,24.990949],[121.521609,24.989394],[121.521625,24.98834],[121.522153,24.988343],[121.523453,24.987914],[121.522689,24.986147],[121.522526,24.985123],[121.522787,24.984373],[121.523544,24.983875],[121.526209,24.985817],[121.527411,24.987015],[121.527807,24.98702],[121.53031,24.989164],[121.531699,24.990506],[121.531743,24.99164],[121.531378,24.992562],[121.531756,24.993202],[121.531799,24.993755],[121.531367,24.995433],[121.528257,24.995443]]]},"properties":{"code":"65000030030","name":"秀景里","countyCode":"65000","countyName":"新北市","townCode":"65000030","townName":"中和區","level":"village","unassigned":false,"note":"","label":[121.52688004459647,24.99024247435179],"bounds":[121.521253,24.983875,121.531799,24.995547],"focusBounds":[121.521253,24.983875,121.531799,24.995547],"color":"#68bec9"}},{"type":"Feature","id":"65000030031","geometry":{"type":"Polygon","coordinates":[[[121.516124,24.995048],[121.514932,24.994524],[121.514552,24.994159],[121.51436,24.993698],[121.513851,24.993433],[121.513922,24.992393],[121.517372,24.992002],[121.517639,24.993714],[121.517362,24.993744],[121.517699,24.99453],[121.516736,24.994589],[121.516124,24.995048]]]},"properties":{"code":"65000030031","name":"秀明里","countyCode":"65000","countyName":"新北市","townCode":"65000030","townName":"中和區","level":"village","unassigned":false,"note":"","label":[121.51592269983307,24.99345265646906],"bounds":[121.513851,24.992002,121.517699,24.995048],"focusBounds":[121.513851,24.992002,121.517699,24.995048],"color":"#df9f6a"}},{"type":"Feature","id":"65000030032","geometry":{"type":"Polygon","coordinates":[[[121.521008,24.991019],[121.518825,24.991728],[121.517503,24.991985],[121.518005,24.99033],[121.516678,24.989713],[121.51701,24.989309],[121.518469,24.988951],[121.51882,24.988305],[121.519794,24.988083],[121.521625,24.98834],[121.521609,24.989394],[121.521253,24.990949],[121.521008,24.991019]]]},"properties":{"code":"65000030032","name":"秀峰里","countyCode":"65000","countyName":"新北市","townCode":"65000030","townName":"中和區","level":"village","unassigned":false,"note":"","label":[121.51977368040141,24.989753618550406],"bounds":[121.516678,24.988083,121.521625,24.991985],"focusBounds":[121.516678,24.988083,121.521625,24.991985],"color":"#c38cb8"}},{"type":"Feature","id":"65000030033","geometry":{"type":"Polygon","coordinates":[[[121.517639,24.993714],[121.517986,24.993833],[121.519862,24.993766],[121.520001,24.99378],[121.520354,24.996248],[121.518285,24.995898],[121.51708,24.995592],[121.516955,24.995322],[121.516124,24.995048],[121.516736,24.994589],[121.517699,24.99453],[121.517362,24.993744],[121.517639,24.993714]]]},"properties":{"code":"65000030033","name":"秀仁里","countyCode":"65000","countyName":"新北市","townCode":"65000030","townName":"中和區","level":"village","unassigned":false,"note":"","label":[121.51881189600651,24.994895164639615],"bounds":[121.516124,24.993714,121.520354,24.996248],"focusBounds":[121.516124,24.993714,121.520354,24.996248],"color":"#58b99d"}},{"type":"Feature","id":"65000030034","geometry":{"type":"Polygon","coordinates":[[[121.504956,24.981017],[121.50544,24.981221],[121.505284,24.98159],[121.505761,24.981777],[121.505895,24.981475],[121.506948,24.982003],[121.50598,24.983847],[121.505529,24.984348],[121.504683,24.983933],[121.504125,24.983104],[121.504956,24.981017]]]},"properties":{"code":"65000030034","name":"頂南里","countyCode":"65000","countyName":"新北市","townCode":"65000030","townName":"中和區","level":"village","unassigned":false,"note":"","label":[121.50542861064372,24.982715986935943],"bounds":[121.504125,24.981017,121.506948,24.984348],"focusBounds":[121.504125,24.981017,121.506948,24.984348],"color":"#58b99d"}},{"type":"Feature","id":"65000030035","geometry":{"type":"Polygon","coordinates":[[[121.51184,24.979571],[121.510563,24.980848],[121.509881,24.98067],[121.509368,24.981555],[121.509546,24.98189],[121.508665,24.982902],[121.506948,24.982003],[121.505895,24.981475],[121.505761,24.981777],[121.505284,24.98159],[121.50544,24.981221],[121.504956,24.981017],[121.505151,24.979432],[121.505878,24.977806],[121.507109,24.97593],[121.507627,24.975979],[121.509005,24.976511],[121.510279,24.97785],[121.510907,24.978094],[121.511265,24.979255],[121.51184,24.979571]]]},"properties":{"code":"65000030035","name":"華新里","countyCode":"65000","countyName":"新北市","townCode":"65000030","townName":"中和區","level":"village","unassigned":false,"note":"","label":[121.50778337160324,24.979436964514207],"bounds":[121.504956,24.97593,121.51184,24.982902],"focusBounds":[121.504956,24.97593,121.51184,24.982902],"color":"#efb44f"}},{"type":"Feature","id":"65000030036","geometry":{"type":"Polygon","coordinates":[[[121.510468,24.98977],[121.509738,24.988782],[121.511005,24.985577],[121.510621,24.98546],[121.510857,24.984898],[121.510337,24.984729],[121.510141,24.985174],[121.509972,24.985065],[121.510624,24.983146],[121.511621,24.983733],[121.51153,24.984363],[121.512173,24.985151],[121.513309,24.985033],[121.51345,24.985136],[121.513481,24.98565],[121.512507,24.985747],[121.512541,24.985919],[121.512099,24.986124],[121.512072,24.986714],[121.511921,24.986669],[121.511713,24.986848],[121.510468,24.98977]]]},"properties":{"code":"65000030036","name":"東南里","countyCode":"65000","countyName":"新北市","townCode":"65000030","townName":"中和區","level":"village","unassigned":false,"note":"","label":[121.51146611800053,24.98613042637881],"bounds":[121.509738,24.983146,121.513481,24.98977],"focusBounds":[121.509738,24.983146,121.513481,24.98977],"color":"#78a7e3"}},{"type":"Feature","id":"65000030037","geometry":{"type":"Polygon","coordinates":[[[121.51345,24.985136],[121.513309,24.985033],[121.512173,24.985151],[121.51153,24.984363],[121.511621,24.983733],[121.510624,24.983146],[121.510399,24.982832],[121.510013,24.982735],[121.509056,24.98298],[121.508665,24.982902],[121.509546,24.98189],[121.509368,24.981555],[121.509881,24.98067],[121.510563,24.980848],[121.51184,24.979571],[121.512625,24.979907],[121.513426,24.981015],[121.513983,24.981505],[121.514488,24.981798],[121.513909,24.982629],[121.513829,24.983172],[121.51401,24.983695],[121.514679,24.984385],[121.514782,24.984927],[121.514178,24.984949],[121.514164,24.984658],[121.513657,24.984609],[121.51345,24.985136]]]},"properties":{"code":"65000030037","name":"華南里","countyCode":"65000","countyName":"新北市","townCode":"65000030","townName":"中和區","level":"village","unassigned":false,"note":"","label":[121.51211940121554,24.982109621576107],"bounds":[121.508665,24.979571,121.514782,24.985151],"focusBounds":[121.508665,24.979571,121.514782,24.985151],"color":"#dd8590"}},{"type":"Feature","id":"65000030038","geometry":{"type":"Polygon","coordinates":[[[121.509506,24.988423],[121.509863,24.987251],[121.509266,24.987019],[121.508009,24.98589],[121.507909,24.98604],[121.507298,24.985538],[121.508665,24.982902],[121.509056,24.98298],[121.510013,24.982735],[121.510399,24.982832],[121.510624,24.983146],[121.509972,24.985065],[121.510141,24.985174],[121.510337,24.984729],[121.510857,24.984898],[121.510621,24.98546],[121.511005,24.985577],[121.509738,24.988782],[121.509506,24.988423]]]},"properties":{"code":"65000030038","name":"忠孝里","countyCode":"65000","countyName":"新北市","townCode":"65000030","townName":"中和區","level":"village","unassigned":false,"note":"","label":[121.50885144820181,24.98513013155255],"bounds":[121.507298,24.982735,121.511005,24.988782],"focusBounds":[121.507298,24.982735,121.511005,24.988782],"color":"#a49ad4"}},{"type":"Feature","id":"65000030039","geometry":{"type":"Polygon","coordinates":[[[121.51345,24.985136],[121.513657,24.984609],[121.514164,24.984658],[121.514178,24.984949],[121.514782,24.984927],[121.514855,24.985777],[121.515377,24.986496],[121.515384,24.986505],[121.513977,24.986974],[121.513157,24.988471],[121.512804,24.988228],[121.512072,24.986714],[121.512099,24.986124],[121.512541,24.985919],[121.512507,24.985747],[121.513481,24.98565],[121.51345,24.985136]]]},"properties":{"code":"65000030039","name":"崇南里","countyCode":"65000","countyName":"新北市","townCode":"65000030","townName":"中和區","level":"village","unassigned":false,"note":"","label":[121.51312838667158,24.986616190020875],"bounds":[121.512072,24.984609,121.515384,24.988471],"focusBounds":[121.512072,24.984609,121.515384,24.988471],"color":"#a8bf62"}},{"type":"Feature","id":"65000030040","geometry":{"type":"Polygon","coordinates":[[[121.51882,24.988305],[121.518469,24.988951],[121.51701,24.989309],[121.516678,24.989713],[121.516045,24.990266],[121.515165,24.989891],[121.514843,24.989928],[121.514868,24.98955],[121.513354,24.989023],[121.513176,24.989334],[121.512801,24.989193],[121.513157,24.988471],[121.513977,24.986974],[121.515384,24.986505],[121.515901,24.987121],[121.516665,24.987345],[121.517239,24.987928],[121.51793,24.987653],[121.51882,24.988305]]]},"properties":{"code":"65000030040","name":"景南里","countyCode":"65000","countyName":"新北市","townCode":"65000030","townName":"中和區","level":"village","unassigned":false,"note":"","label":[121.51565785895306,24.98846604889025],"bounds":[121.512801,24.986505,121.51882,24.990266],"focusBounds":[121.512801,24.986505,121.51882,24.990266],"color":"#68bec9"}},{"type":"Feature","id":"65000030041","geometry":{"type":"Polygon","coordinates":[[[121.49698,24.970065],[121.49555,24.972465],[121.495309,24.973319],[121.494404,24.974202],[121.494368,24.974465],[121.494879,24.975286],[121.496338,24.976447],[121.496996,24.976741],[121.49784,24.976693],[121.497739,24.977712],[121.498053,24.977917],[121.498462,24.978665],[121.49815,24.979494],[121.49904,24.979806],[121.497732,24.980895],[121.499878,24.981578],[121.501002,24.982424],[121.500936,24.98284],[121.500579,24.983242],[121.49882,24.984117],[121.49885,24.984651],[121.498471,24.98438],[121.497777,24.983922],[121.496926,24.983292],[121.493771,24.981685],[121.493009,24.981437],[121.490364,24.980308],[121.48977,24.979514],[121.489109,24.979311],[121.48902,24.978767],[121.489458,24.978278],[121.489361,24.977758],[121.487788,24.977539],[121.487342,24.977338],[121.486541,24.976385],[121.485739,24.975071],[121.48164,24.973628],[121.48183,24.973218],[121.481729,24.97314],[121.480549,24.973042],[121.479576,24.972623],[121.479866,24.970091],[121.479469,24.969037],[121.479467,24.967715],[121.478809,24.966986],[121.47868,24.96657],[121.479892,24.964746],[121.479802,24.963924],[121.481249,24.963947],[121.481867,24.96335],[121.48242,24.963341],[121.484278,24.964728],[121.484756,24.964865],[121.485719,24.964786],[121.488718,24.966259],[121.490135,24.967201],[121.490621,24.967338],[121.491681,24.967335],[121.492516,24.968152],[121.493909,24.968908],[121.495004,24.96881],[121.495337,24.969099],[121.495837,24.969205],[121.496282,24.96974],[121.49698,24.970065]]]},"properties":{"code":"65000030041","name":"橫路里","countyCode":"65000","countyName":"新北市","townCode":"65000030","townName":"中和區","level":"village","unassigned":false,"note":"","label":[121.48939407258993,24.972320899813475],"bounds":[121.47868,24.963341,121.501002,24.984651],"focusBounds":[121.47868,24.963341,121.501002,24.984651],"color":"#df9f6a"}},{"type":"Feature","id":"65000030042","geometry":{"type":"Polygon","coordinates":[[[121.49885,24.984651],[121.49882,24.984117],[121.500579,24.983242],[121.500936,24.98284],[121.501002,24.982424],[121.499878,24.981578],[121.497732,24.980895],[121.49904,24.979806],[121.49815,24.979494],[121.498462,24.978665],[121.498053,24.977917],[121.497739,24.977712],[121.49784,24.976693],[121.496996,24.976741],[121.496338,24.976447],[121.494879,24.975286],[121.494368,24.974465],[121.494404,24.974202],[121.495309,24.973319],[121.49555,24.972465],[121.49698,24.970065],[121.497585,24.97035],[121.497815,24.970765],[121.498625,24.970573],[121.499498,24.97069],[121.500023,24.970203],[121.500981,24.970112],[121.501737,24.969811],[121.502111,24.969962],[121.502703,24.970629],[121.502845,24.971341],[121.503535,24.971766],[121.504259,24.972678],[121.504074,24.973217],[121.504691,24.973311],[121.505571,24.973769],[121.505876,24.974392],[121.505936,24.975015],[121.506551,24.97525],[121.507109,24.97593],[121.505878,24.977806],[121.505151,24.979432],[121.504956,24.981017],[121.504125,24.983104],[121.504683,24.983933],[121.504776,24.985095],[121.504155,24.985767],[121.503806,24.986625],[121.503506,24.986621],[121.50282,24.98738],[121.502607,24.986908],[121.502378,24.98603],[121.502039,24.985749],[121.501663,24.985583],[121.500948,24.985672],[121.499996,24.985008],[121.499153,24.984861],[121.49885,24.984651]]]},"properties":{"code":"65000030042","name":"內南里","countyCode":"65000","countyName":"新北市","townCode":"65000030","townName":"中和區","level":"village","unassigned":false,"note":"","label":[121.50178173739639,24.976574009530268],"bounds":[121.494368,24.969811,121.507109,24.98738],"focusBounds":[121.494368,24.969811,121.507109,24.98738],"color":"#c38cb8"}},{"type":"Feature","id":"65000030043","geometry":{"type":"Polygon","coordinates":[[[121.509506,24.988423],[121.509352,24.988732],[121.509432,24.989001],[121.509302,24.989104],[121.508762,24.988954],[121.508462,24.989731],[121.508588,24.989761],[121.507568,24.990169],[121.507515,24.990441],[121.507032,24.990719],[121.506937,24.990274],[121.507359,24.989409],[121.507045,24.989],[121.506871,24.988195],[121.506647,24.987033],[121.506118,24.986846],[121.506799,24.985975],[121.507798,24.98651],[121.507909,24.98604],[121.508009,24.98589],[121.509266,24.987019],[121.509863,24.987251],[121.509506,24.988423]]]},"properties":{"code":"65000030043","name":"壽南里","countyCode":"65000","countyName":"新北市","townCode":"65000030","townName":"中和區","level":"village","unassigned":false,"note":"","label":[121.50812336552133,24.9877995031429],"bounds":[121.506118,24.98589,121.509863,24.990719],"focusBounds":[121.506118,24.98589,121.509863,24.990719],"color":"#98b69b"}},{"type":"Feature","id":"65000030044","geometry":{"type":"Polygon","coordinates":[[[121.506937,24.990274],[121.506694,24.989921],[121.505858,24.989755],[121.503796,24.990302],[121.502823,24.990247],[121.502607,24.986908],[121.50282,24.98738],[121.503506,24.986621],[121.503806,24.986625],[121.50444,24.986906],[121.504827,24.987694],[121.506871,24.988195],[121.507045,24.989],[121.507359,24.989409],[121.506937,24.990274]]]},"properties":{"code":"65000030044","name":"外南里","countyCode":"65000","countyName":"新北市","townCode":"65000030","townName":"中和區","level":"village","unassigned":false,"note":"","label":[121.50408161585578,24.988758092881127],"bounds":[121.502607,24.986621,121.507359,24.990302],"focusBounds":[121.502607,24.986621,121.507359,24.990302],"color":"#58b99d"}},{"type":"Feature","id":"65000030045","geometry":{"type":"Polygon","coordinates":[[[121.504077,24.992349],[121.499983,24.992857],[121.499856,24.992781],[121.4999,24.991547],[121.500075,24.990336],[121.500455,24.990219],[121.502823,24.990247],[121.503796,24.990302],[121.504504,24.991833],[121.504077,24.992349]]]},"properties":{"code":"65000030045","name":"復興里","countyCode":"65000","countyName":"新北市","townCode":"65000030","townName":"中和區","level":"village","unassigned":false,"note":"","label":[121.50197666627012,24.991423466370975],"bounds":[121.499856,24.990219,121.504504,24.992857],"focusBounds":[121.499856,24.990219,121.504504,24.992857],"color":"#efb44f"}},{"type":"Feature","id":"65000030046","geometry":{"type":"Polygon","coordinates":[[[121.504077,24.992349],[121.503449,24.993278],[121.502492,24.995634],[121.501697,24.995363],[121.500995,24.994726],[121.500579,24.993624],[121.499983,24.992857],[121.504077,24.992349]]]},"properties":{"code":"65000030046","name":"和興里","countyCode":"65000","countyName":"新北市","townCode":"65000030","townName":"中和區","level":"village","unassigned":false,"note":"","label":[121.50199521182441,24.993757133896295],"bounds":[121.499983,24.992349,121.504077,24.995634],"focusBounds":[121.499983,24.992349,121.504077,24.995634],"color":"#dd8590"}},{"type":"Feature","id":"65000030047","geometry":{"type":"Polygon","coordinates":[[[121.510644,24.994492],[121.510463,24.994255],[121.509414,24.993931],[121.50829,24.993687],[121.508204,24.993966],[121.506726,24.993599],[121.506687,24.993246],[121.509906,24.992887],[121.510407,24.992771],[121.511075,24.992326],[121.511657,24.991548],[121.512127,24.990619],[121.513158,24.99066],[121.514415,24.991055],[121.513918,24.992037],[121.513922,24.992393],[121.513851,24.993433],[121.512906,24.993381],[121.512223,24.993565],[121.511839,24.993653],[121.510644,24.994492]]]},"properties":{"code":"65000030047","name":"景平里","countyCode":"65000","countyName":"新北市","townCode":"65000030","townName":"中和區","level":"village","unassigned":false,"note":"","label":[121.51267686667556,24.992217240793046],"bounds":[121.506687,24.990619,121.514415,24.994492],"focusBounds":[121.506687,24.990619,121.514415,24.994492],"color":"#dd8590"}},{"type":"Feature","id":"65000030048","geometry":{"type":"Polygon","coordinates":[[[121.509906,24.992887],[121.509702,24.992475],[121.508823,24.992255],[121.508989,24.991685],[121.50878,24.991619],[121.508902,24.991299],[121.508565,24.990733],[121.510468,24.98977],[121.511657,24.991548],[121.511075,24.992326],[121.510407,24.992771],[121.509906,24.992887]]]},"properties":{"code":"65000030048","name":"景新里","countyCode":"65000","countyName":"新北市","townCode":"65000030","townName":"中和區","level":"village","unassigned":false,"note":"","label":[121.51013141681088,24.99138799187118],"bounds":[121.508565,24.98977,121.511657,24.992887],"focusBounds":[121.508565,24.98977,121.511657,24.992887],"color":"#68bec9"}},{"type":"Feature","id":"65000030049","geometry":{"type":"Polygon","coordinates":[[[121.506687,24.993246],[121.504907,24.993486],[121.504873,24.993381],[121.50406,24.99342],[121.503925,24.993242],[121.504296,24.993169],[121.504628,24.992491],[121.504597,24.992274],[121.5055,24.991453],[121.507032,24.990719],[121.507515,24.990441],[121.507568,24.990169],[121.508588,24.989761],[121.508462,24.989731],[121.508762,24.988954],[121.509302,24.989104],[121.509432,24.989001],[121.509352,24.988732],[121.509506,24.988423],[121.509738,24.988782],[121.510468,24.98977],[121.508565,24.990733],[121.508902,24.991299],[121.50878,24.991619],[121.508989,24.991685],[121.508823,24.992255],[121.509702,24.992475],[121.509906,24.992887],[121.506687,24.993246]]]},"properties":{"code":"65000030049","name":"景福里","countyCode":"65000","countyName":"新北市","townCode":"65000030","townName":"中和區","level":"village","unassigned":false,"note":"","label":[121.50748930170718,24.9918061869611],"bounds":[121.503925,24.988423,121.510468,24.993486],"focusBounds":[121.503925,24.988423,121.510468,24.993486],"color":"#a8bf62"}},{"type":"Feature","id":"65000030050","geometry":{"type":"Polygon","coordinates":[[[121.504907,24.993486],[121.506687,24.993246],[121.506726,24.993599],[121.508204,24.993966],[121.50829,24.993687],[121.509414,24.993931],[121.510463,24.994255],[121.510644,24.994492],[121.510222,24.994832],[121.50968,24.994895],[121.509076,24.994997],[121.507679,24.995574],[121.507246,24.995875],[121.506777,24.99665],[121.506507,24.997465],[121.505989,24.996832],[121.504907,24.993486]]]},"properties":{"code":"65000030050","name":"景安里","countyCode":"65000","countyName":"新北市","townCode":"65000030","townName":"中和區","level":"village","unassigned":false,"note":"","label":[121.50690328627712,24.99478138956713],"bounds":[121.504907,24.993246,121.510644,24.997465],"focusBounds":[121.504907,24.993246,121.510644,24.997465],"color":"#68bec9"}},{"type":"Feature","id":"65000030051","geometry":{"type":"Polygon","coordinates":[[[121.504113,24.997919],[121.504622,24.997153],[121.50395,24.996667],[121.50445,24.996179],[121.504199,24.995935],[121.503849,24.996216],[121.503528,24.995963],[121.503418,24.995635],[121.503618,24.995125],[121.50336,24.994735],[121.503374,24.994346],[121.503821,24.994311],[121.503763,24.993274],[121.503925,24.993242],[121.50406,24.99342],[121.504873,24.993381],[121.504907,24.993486],[121.505989,24.996832],[121.504936,24.998613],[121.504695,24.998611],[121.504774,24.998374],[121.504113,24.997919]]]},"properties":{"code":"65000030051","name":"景文里","countyCode":"65000","countyName":"新北市","townCode":"65000030","townName":"中和區","level":"village","unassigned":false,"note":"","label":[121.50454097209324,24.995126026315624],"bounds":[121.50336,24.993242,121.505989,24.998613],"focusBounds":[121.50336,24.993242,121.505989,24.998613],"color":"#c38cb8"}},{"type":"Feature","id":"65000030052","geometry":{"type":"Polygon","coordinates":[[[121.493009,24.981437],[121.49259,24.982518],[121.491626,24.98337],[121.492085,24.983492],[121.491459,24.984089],[121.491875,24.9867],[121.491749,24.987398],[121.492136,24.988081],[121.491097,24.989596],[121.489792,24.989116],[121.488886,24.989153],[121.487803,24.988692],[121.484294,24.986029],[121.484321,24.98576],[121.486051,24.984881],[121.487134,24.983945],[121.487424,24.983325],[121.487298,24.982487],[121.487921,24.98262],[121.488174,24.982427],[121.488338,24.982133],[121.487916,24.982072],[121.488039,24.980977],[121.489109,24.979311],[121.48977,24.979514],[121.490364,24.980308],[121.493009,24.981437]]]},"properties":{"code":"65000030052","name":"錦和里","countyCode":"65000","countyName":"新北市","townCode":"65000030","townName":"中和區","level":"village","unassigned":false,"note":"","label":[121.48894298530564,24.985944770453948],"bounds":[121.484294,24.979311,121.493009,24.989596],"focusBounds":[121.484294,24.979311,121.493009,24.989596],"color":"#c38cb8"}},{"type":"Feature","id":"65000030053","geometry":{"type":"Polygon","coordinates":[[[121.491097,24.989596],[121.492136,24.988081],[121.491749,24.987398],[121.491875,24.9867],[121.491459,24.984089],[121.492085,24.983492],[121.491626,24.98337],[121.49259,24.982518],[121.493009,24.981437],[121.493771,24.981685],[121.496926,24.983292],[121.497777,24.983922],[121.496631,24.986336],[121.495418,24.988057],[121.493477,24.988813],[121.493691,24.989236],[121.491697,24.99056],[121.491211,24.989535],[121.491097,24.989596]]]},"properties":{"code":"65000030053","name":"錦昌里","countyCode":"65000","countyName":"新北市","townCode":"65000030","townName":"中和區","level":"village","unassigned":false,"note":"","label":[121.49427738867963,24.985070343513506],"bounds":[121.491097,24.981437,121.497777,24.99056],"focusBounds":[121.491097,24.981437,121.497777,24.99056],"color":"#98b69b"}},{"type":"Feature","id":"65000030054","geometry":{"type":"Polygon","coordinates":[[[121.485539,24.992354],[121.485175,24.992539],[121.484743,24.992445],[121.484755,24.992599],[121.484288,24.992738],[121.483915,24.992708],[121.483001,24.993047],[121.482985,24.993304],[121.482418,24.99343],[121.480858,24.993468],[121.480631,24.992503],[121.480057,24.992607],[121.480242,24.993453],[121.479049,24.993228],[121.476716,24.99081],[121.477032,24.990596],[121.477516,24.990955],[121.479117,24.990301],[121.479717,24.990324],[121.479607,24.989788],[121.478784,24.988758],[121.478479,24.98797],[121.477927,24.987402],[121.476853,24.985827],[121.475929,24.985221],[121.474923,24.98404],[121.474367,24.983987],[121.474176,24.983207],[121.474533,24.981923],[121.475057,24.981141],[121.475207,24.980248],[121.475681,24.979339],[121.475868,24.979274],[121.476432,24.979516],[121.477016,24.97943],[121.477526,24.979132],[121.478195,24.978245],[121.479068,24.977727],[121.479264,24.977281],[121.479374,24.976004],[121.480637,24.975382],[121.481027,24.974481],[121.48164,24.973628],[121.485739,24.975071],[121.486541,24.976385],[121.487342,24.977338],[121.487788,24.977539],[121.489361,24.977758],[121.489458,24.978278],[121.48902,24.978767],[121.489109,24.979311],[121.488039,24.980977],[121.487916,24.982072],[121.488338,24.982133],[121.488174,24.982427],[121.487921,24.98262],[121.487298,24.982487],[121.487424,24.983325],[121.487134,24.983945],[121.486051,24.984881],[121.484321,24.98576],[121.484294,24.986029],[121.483623,24.987924],[121.483694,24.991123],[121.485043,24.991706],[121.485539,24.992354]]]},"properties":{"code":"65000030054","name":"灰[磘]里","countyCode":"65000","countyName":"新北市","townCode":"65000030","townName":"中和區","level":"village","unassigned":false,"note":"","label":[121.48120901936052,24.9821070762276],"bounds":[121.474176,24.973628,121.489458,24.993468],"focusBounds":[121.474176,24.973628,121.489458,24.993468],"color":"#58b99d"}},{"type":"Feature","id":"65000030055","geometry":{"type":"Polygon","coordinates":[[[121.476058,25.002048],[121.477655,25.003354],[121.479154,25.004289],[121.478815,25.004648],[121.479092,25.004879],[121.479719,25.004397],[121.48028,25.004283],[121.480205,25.004495],[121.480443,25.004514],[121.480563,25.004259],[121.480854,25.004369],[121.48104,25.004279],[121.481327,25.003608],[121.481628,25.003365],[121.482095,25.003275],[121.482376,25.002821],[121.483322,25.002818],[121.483074,25.004892],[121.482729,25.006253],[121.481556,25.00634],[121.480558,25.006623],[121.479849,25.006459],[121.479982,25.00598],[121.479285,25.005934],[121.477952,25.005532],[121.476456,25.005672],[121.477243,25.004033],[121.476892,25.003657],[121.476303,25.003459],[121.476058,25.002048]]]},"properties":{"code":"65000030055","name":"積穗里","countyCode":"65000","countyName":"新北市","townCode":"65000030","townName":"中和區","level":"village","unassigned":false,"note":"","label":[121.48095920050253,25.0054133971162],"bounds":[121.476058,25.002048,121.483322,25.006623],"focusBounds":[121.476058,25.002048,121.483322,25.006623],"color":"#efb44f"}},{"type":"Feature","id":"65000030056","geometry":{"type":"Polygon","coordinates":[[[121.474474,25.00099],[121.474576,25.000721],[121.475542,25.001093],[121.475972,25.00177],[121.475849,25.002046],[121.475921,25.003062],[121.474031,25.002739],[121.474474,25.00099]]]},"properties":{"code":"65000030056","name":"民享里","countyCode":"65000","countyName":"新北市","townCode":"65000030","townName":"中和區","level":"village","unassigned":false,"note":"","label":[121.47504664516228,25.002018286313078],"bounds":[121.474031,25.000721,121.475972,25.003062],"focusBounds":[121.474031,25.000721,121.475972,25.003062],"color":"#78a7e3"}},{"type":"Feature","id":"65000030057","geometry":{"type":"Polygon","coordinates":[[[121.475245,25.010164],[121.473239,25.008075],[121.473873,25.006555],[121.473771,25.006095],[121.476456,25.005672],[121.477952,25.005532],[121.479285,25.005934],[121.479982,25.00598],[121.479849,25.006459],[121.480558,25.006623],[121.481556,25.00634],[121.482729,25.006253],[121.482133,25.007512],[121.482207,25.008105],[121.481437,25.00907],[121.480756,25.00952],[121.479936,25.009696],[121.477841,25.009292],[121.476312,25.008086],[121.476341,25.007933],[121.476222,25.008009],[121.47545,25.007444],[121.475129,25.008461],[121.476022,25.008761],[121.475245,25.010164]]]},"properties":{"code":"65000030057","name":"員山里","countyCode":"65000","countyName":"新北市","townCode":"65000030","townName":"中和區","level":"village","unassigned":false,"note":"","label":[121.4784475462427,25.007545234483107],"bounds":[121.473239,25.005532,121.482729,25.010164],"focusBounds":[121.473239,25.005532,121.482729,25.010164],"color":"#dd8590"}},{"type":"Feature","id":"65000030058","geometry":{"type":"Polygon","coordinates":[[[121.481246,24.999154],[121.479954,24.999027],[121.478615,24.998432],[121.477263,24.997466],[121.477101,24.997231],[121.477134,24.996915],[121.475715,24.995987],[121.474539,24.996054],[121.474634,24.995268],[121.474346,24.993698],[121.474148,24.993534],[121.474405,24.993145],[121.474595,24.993018],[121.47482,24.993135],[121.475356,24.992618],[121.474943,24.992225],[121.474931,24.992007],[121.476698,24.994116],[121.478372,24.995315],[121.478094,24.995408],[121.478212,24.995758],[121.479097,24.995919],[121.479655,24.996303],[121.479951,24.995966],[121.480179,24.996202],[121.481193,24.996539],[121.481246,24.999154]]]},"properties":{"code":"65000030058","name":"嘉穗里","countyCode":"65000","countyName":"新北市","townCode":"65000030","townName":"中和區","level":"village","unassigned":false,"note":"","label":[121.47894473000649,24.997234737039577],"bounds":[121.474148,24.992007,121.481246,24.999154],"focusBounds":[121.474148,24.992007,121.481246,24.999154],"color":"#a49ad4"}},{"type":"Feature","id":"65000030059","geometry":{"type":"Polygon","coordinates":[[[121.482418,24.99343],[121.482408,24.993909],[121.482753,24.993961],[121.482785,24.994507],[121.482331,24.99452],[121.482299,24.994948],[121.482605,24.995245],[121.482595,24.995719],[121.48299,24.995696],[121.482679,24.996149],[121.482529,24.997039],[121.482229,24.997211],[121.482245,24.99759],[121.482021,24.997579],[121.482085,24.998345],[121.482259,24.99834],[121.482258,24.998472],[121.48293,24.998501],[121.482926,24.999516],[121.482523,24.999519],[121.481257,24.999501],[121.481246,24.999154],[121.481193,24.996539],[121.480921,24.99498],[121.480858,24.993468],[121.482418,24.99343]]]},"properties":{"code":"65000030059","name":"文元里","countyCode":"65000","countyName":"新北市","townCode":"65000030","townName":"中和區","level":"village","unassigned":false,"note":"","label":[121.48192734715202,24.996110825553764],"bounds":[121.480858,24.99343,121.48299,24.999519],"focusBounds":[121.480858,24.99343,121.48299,24.999519],"color":"#a8bf62"}},{"type":"Feature","id":"65000030060","geometry":{"type":"Polygon","coordinates":[[[121.475849,25.002046],[121.475972,25.00177],[121.475542,25.001093],[121.475971,25.000506],[121.475645,25.00006],[121.476066,24.999631],[121.478969,24.999757],[121.480893,25.000981],[121.481311,25.001078],[121.481251,25.002786],[121.480563,25.004259],[121.480443,25.004514],[121.480205,25.004495],[121.48028,25.004283],[121.479719,25.004397],[121.479092,25.004879],[121.478815,25.004648],[121.479154,25.004289],[121.477655,25.003354],[121.476058,25.002048],[121.475849,25.002046]]]},"properties":{"code":"65000030060","name":"嘉新里","countyCode":"65000","countyName":"新北市","townCode":"65000030","townName":"中和區","level":"village","unassigned":false,"note":"","label":[121.47867824487476,25.00186801834251],"bounds":[121.475542,24.999631,121.481311,25.004879],"focusBounds":[121.475542,24.999631,121.481311,25.004879],"color":"#68bec9"}},{"type":"Feature","id":"65000030061","geometry":{"type":"Polygon","coordinates":[[[121.474539,24.996054],[121.475715,24.995987],[121.477134,24.996915],[121.477101,24.997231],[121.477263,24.997466],[121.478615,24.998432],[121.479954,24.999027],[121.481246,24.999154],[121.481257,24.999501],[121.481311,25.001078],[121.480893,25.000981],[121.478969,24.999757],[121.476066,24.999631],[121.475645,25.00006],[121.475497,24.999027],[121.474518,24.996479],[121.474539,24.996054]]]},"properties":{"code":"65000030061","name":"民安里","countyCode":"65000","countyName":"新北市","townCode":"65000030","townName":"中和區","level":"village","unassigned":false,"note":"","label":[121.47661831852592,24.998425112242856],"bounds":[121.474518,24.995987,121.481311,25.001078],"focusBounds":[121.474518,24.995987,121.481311,25.001078],"color":"#df9f6a"}},{"type":"Feature","id":"65000030062","geometry":{"type":"Polygon","coordinates":[[[121.483322,25.002818],[121.482376,25.002821],[121.482095,25.003275],[121.481628,25.003365],[121.481327,25.003608],[121.48104,25.004279],[121.480854,25.004369],[121.480563,25.004259],[121.481251,25.002786],[121.481311,25.001078],[121.481257,24.999501],[121.482523,24.999519],[121.482504,25.001089],[121.483555,25.001131],[121.483322,25.002818]]]},"properties":{"code":"65000030062","name":"安穗里","countyCode":"65000","countyName":"新北市","townCode":"65000030","townName":"中和區","level":"village","unassigned":false,"note":"","label":[121.4821707675505,25.001945069975218],"bounds":[121.480563,24.999501,121.483555,25.004369],"focusBounds":[121.480563,24.999501,121.483555,25.004369],"color":"#98b69b"}},{"type":"Feature","id":"65000030063","geometry":{"type":"Polygon","coordinates":[[[121.471088,25.006629],[121.471835,25.00636],[121.472267,25.003528],[121.472636,25.003547],[121.473273,25.00398],[121.473533,25.00398],[121.473697,25.003957],[121.473743,25.003539],[121.474013,25.003455],[121.47402,25.005139],[121.473771,25.006095],[121.473873,25.006555],[121.473239,25.008075],[121.472129,25.007152],[121.471088,25.006629]]]},"properties":{"code":"65000030063","name":"瑞穗里","countyCode":"65000","countyName":"新北市","townCode":"65000030","townName":"中和區","level":"village","unassigned":false,"note":"","label":[121.47290572190852,25.005630721696118],"bounds":[121.471088,25.003455,121.47402,25.008075],"focusBounds":[121.471088,25.003455,121.47402,25.008075],"color":"#98b69b"}},{"type":"Feature","id":"65000030064","geometry":{"type":"Polygon","coordinates":[[[121.475542,25.001093],[121.474576,25.000721],[121.474474,25.00099],[121.472695,25.00033],[121.472772,24.999652],[121.472644,24.999077],[121.4705,24.99642],[121.469229,24.994922],[121.469051,24.994458],[121.468997,24.993243],[121.469143,24.992693],[121.469808,24.992134],[121.470029,24.991742],[121.470217,24.991854],[121.47016,24.992305],[121.470398,24.992404],[121.470685,24.992826],[121.472413,24.993919],[121.473053,24.994097],[121.474148,24.993534],[121.474346,24.993698],[121.474634,24.995268],[121.474539,24.996054],[121.474518,24.996479],[121.475497,24.999027],[121.475645,25.00006],[121.475971,25.000506],[121.475542,25.001093]]]},"properties":{"code":"65000030064","name":"明穗里","countyCode":"65000","countyName":"新北市","townCode":"65000030","townName":"中和區","level":"village","unassigned":false,"note":"","label":[121.47262303177122,24.99603895281325],"bounds":[121.468997,24.991742,121.475971,25.001093],"focusBounds":[121.468997,24.991742,121.475971,25.001093],"color":"#58b99d"}},{"type":"Feature","id":"65000030065","geometry":{"type":"Polygon","coordinates":[[[121.4705,24.99642],[121.470078,24.997124],[121.470078,24.997459],[121.468419,24.999205],[121.46728,25.000159],[121.466248,25.002175],[121.465848,25.002036],[121.46605,25.001285],[121.466431,25.000884],[121.466541,25.000429],[121.466213,24.999915],[121.465777,24.998574],[121.466856,24.997985],[121.467471,24.997282],[121.468134,24.996322],[121.468958,24.994625],[121.469051,24.994458],[121.469229,24.994922],[121.4705,24.99642]]]},"properties":{"code":"65000030065","name":"清穗里","countyCode":"65000","countyName":"新北市","townCode":"65000030","townName":"中和區","level":"village","unassigned":false,"note":"","label":[121.46826956668238,24.997901299233224],"bounds":[121.465777,24.994458,121.4705,25.002175],"focusBounds":[121.465777,24.994458,121.4705,25.002175],"color":"#efb44f"}},{"type":"Feature","id":"65000030066","geometry":{"type":"Polygon","coordinates":[[[121.471565,25.000275],[121.470427,25.000265],[121.468854,25.001166],[121.466255,25.002176],[121.466248,25.002175],[121.46728,25.000159],[121.468419,24.999205],[121.470078,24.997459],[121.470078,24.997124],[121.4705,24.99642],[121.472644,24.999077],[121.472772,24.999652],[121.472695,25.00033],[121.471565,25.000275]]]},"properties":{"code":"65000030066","name":"自強里","countyCode":"65000","countyName":"新北市","townCode":"65000030","townName":"中和區","level":"village","unassigned":false,"note":"","label":[121.47046288209447,24.998967104663723],"bounds":[121.466248,24.99642,121.472772,25.002176],"focusBounds":[121.466248,24.99642,121.472772,25.002176],"color":"#78a7e3"}},{"type":"Feature","id":"65000030067","geometry":{"type":"Polygon","coordinates":[[[121.470928,25.006572],[121.471259,25.005881],[121.470323,25.005452],[121.47075,25.004224],[121.469952,25.00389],[121.47035,25.0027],[121.470496,25.002749],[121.470676,25.002348],[121.470957,25.001811],[121.471356,25.001879],[121.471337,25.000851],[121.471581,25.000851],[121.471565,25.000275],[121.472695,25.00033],[121.472267,25.003528],[121.471835,25.00636],[121.471088,25.006629],[121.470928,25.006572]]]},"properties":{"code":"65000030067","name":"德穗里","countyCode":"65000","countyName":"新北市","townCode":"65000030","townName":"中和區","level":"village","unassigned":false,"note":"","label":[121.47125677785839,25.00337263903709],"bounds":[121.469952,25.000275,121.472695,25.006629],"focusBounds":[121.469952,25.000275,121.472695,25.006629],"color":"#dd8590"}},{"type":"Feature","id":"65000030068","geometry":{"type":"Polygon","coordinates":[[[121.469952,25.00389],[121.47075,25.004224],[121.470323,25.005452],[121.471259,25.005881],[121.470928,25.006572],[121.469745,25.005979],[121.467979,25.004458],[121.467961,25.004197],[121.468402,25.00331],[121.469952,25.00389]]]},"properties":{"code":"65000030068","name":"民生里","countyCode":"65000","countyName":"新北市","townCode":"65000030","townName":"中和區","level":"village","unassigned":false,"note":"","label":[121.46967321641499,25.004701115198714],"bounds":[121.467961,25.00331,121.471259,25.006572],"focusBounds":[121.467961,25.00331,121.471259,25.006572],"color":"#68bec9"}},{"type":"Feature","id":"65000030069","geometry":{"type":"Polygon","coordinates":[[[121.469952,25.00389],[121.468402,25.00331],[121.466815,25.002864],[121.466851,25.00228],[121.466292,25.002181],[121.466255,25.002176],[121.468854,25.001166],[121.468925,25.002273],[121.470676,25.002348],[121.470496,25.002749],[121.47035,25.0027],[121.469952,25.00389]]]},"properties":{"code":"65000030069","name":"國光里","countyCode":"65000","countyName":"新北市","townCode":"65000030","townName":"中和區","level":"village","unassigned":false,"note":"","label":[121.46805691691378,25.002344254343498],"bounds":[121.466255,25.001166,121.470676,25.00389],"focusBounds":[121.466255,25.001166,121.470676,25.00389],"color":"#a8bf62"}},{"type":"Feature","id":"65000030070","geometry":{"type":"Polygon","coordinates":[[[121.468113,24.993689],[121.465162,24.997184],[121.465012,24.996991],[121.464224,24.995668],[121.464408,24.995296],[121.466254,24.992973],[121.4669,24.993225],[121.46715,24.992982],[121.467425,24.993379],[121.468113,24.993689]]]},"properties":{"code":"65000030070","name":"壽德里","countyCode":"65000","countyName":"新北市","townCode":"65000030","townName":"中和區","level":"village","unassigned":false,"note":"","label":[121.46596527022191,24.99478409407581],"bounds":[121.464224,24.992973,121.468113,24.997184],"focusBounds":[121.464224,24.992973,121.468113,24.997184],"color":"#68bec9"}},{"type":"Feature","id":"65000030071","geometry":{"type":"Polygon","coordinates":[[[121.468958,24.994625],[121.468134,24.996322],[121.467471,24.997282],[121.466856,24.997985],[121.465777,24.998574],[121.465411,24.998006],[121.465638,24.997786],[121.465162,24.997184],[121.468113,24.993689],[121.468218,24.993767],[121.468958,24.994625]]]},"properties":{"code":"65000030071","name":"明德里","countyCode":"65000","countyName":"新北市","townCode":"65000030","townName":"中和區","level":"village","unassigned":false,"note":"","label":[121.46711265452167,24.996282813141114],"bounds":[121.465162,24.993689,121.468958,24.998574],"focusBounds":[121.465162,24.993689,121.468958,24.998574],"color":"#98b69b"}},{"type":"Feature","id":"65000030072","geometry":{"type":"Polygon","coordinates":[[[121.517503,24.991985],[121.518825,24.991728],[121.521008,24.991019],[121.521061,24.991154],[121.520545,24.992005],[121.521068,24.99208],[121.520889,24.992637],[121.519862,24.993766],[121.517986,24.993833],[121.517639,24.993714],[121.517372,24.992002],[121.517503,24.991985]]]},"properties":{"code":"65000030072","name":"秀水里","countyCode":"65000","countyName":"新北市","townCode":"65000030","townName":"中和區","level":"village","unassigned":false,"note":"","label":[121.51924504863209,24.992689988897546],"bounds":[121.517372,24.991019,121.521068,24.993833],"focusBounds":[121.517372,24.991019,121.521068,24.993833],"color":"#98b69b"}},{"type":"Feature","id":"65000030073","geometry":{"type":"Polygon","coordinates":[[[121.499563,24.993571],[121.49605,24.993753],[121.495924,24.993206],[121.495018,24.992686],[121.494462,24.991785],[121.494887,24.991436],[121.494718,24.990551],[121.495813,24.9903],[121.496139,24.991062],[121.49674,24.991246],[121.496993,24.991201],[121.497485,24.990766],[121.499377,24.992425],[121.499536,24.992951],[121.499406,24.992989],[121.499563,24.993571]]]},"properties":{"code":"65000030073","name":"德行里","countyCode":"65000","countyName":"新北市","townCode":"65000030","townName":"中和區","level":"village","unassigned":false,"note":"","label":[121.49698679375626,24.992453570305642],"bounds":[121.494462,24.9903,121.499563,24.993753],"focusBounds":[121.494462,24.9903,121.499563,24.993753],"color":"#58b99d"}},{"type":"Feature","id":"65000030074","geometry":{"type":"Polygon","coordinates":[[[121.513583,24.99547],[121.514439,24.996739],[121.514998,24.998047],[121.514307,24.998984],[121.51319,24.997675],[121.513027,24.997519],[121.512708,24.997534],[121.51198,24.996683],[121.513583,24.99547]]]},"properties":{"code":"65000030074","name":"宜安里","countyCode":"65000","countyName":"新北市","townCode":"65000030","townName":"中和區","level":"village","unassigned":false,"note":"","label":[121.51366276273191,24.997045042460883],"bounds":[121.51198,24.99547,121.514998,24.998984],"focusBounds":[121.51198,24.99547,121.514998,24.998984],"color":"#78a7e3"}},{"type":"Feature","id":"65000030075","geometry":{"type":"Polygon","coordinates":[[[121.51198,24.996683],[121.511409,24.997116],[121.50968,24.994895],[121.510222,24.994832],[121.510644,24.994492],[121.511839,24.993653],[121.512223,24.993565],[121.513408,24.99518],[121.513583,24.99547],[121.51198,24.996683]]]},"properties":{"code":"65000030075","name":"安順里","countyCode":"65000","countyName":"新北市","townCode":"65000030","townName":"中和區","level":"village","unassigned":false,"note":"","label":[121.51171933360955,24.995308854301662],"bounds":[121.50968,24.993565,121.513583,24.997116],"focusBounds":[121.50968,24.993565,121.513583,24.997116],"color":"#efb44f"}},{"type":"Feature","id":"65000030076","geometry":{"type":"Polygon","coordinates":[[[121.524031,24.994885],[121.523999,24.99397],[121.524333,24.993451],[121.524467,24.993592],[121.524585,24.99348],[121.524593,24.992671],[121.524864,24.992395],[121.525261,24.992712],[121.526642,24.994631],[121.526619,24.995547],[121.526584,24.995858],[121.526445,24.995194],[121.525673,24.995026],[121.525686,24.995218],[121.524031,24.994885]]]},"properties":{"code":"65000030076","name":"秀義里","countyCode":"65000","countyName":"新北市","townCode":"65000030","townName":"中和區","level":"village","unassigned":false,"note":"","label":[121.52521962099622,24.99420191627403],"bounds":[121.523999,24.992395,121.526642,24.995858],"focusBounds":[121.523999,24.992395,121.526642,24.995858],"color":"#78a7e3"}},{"type":"Feature","id":"65000030077","geometry":{"type":"Polygon","coordinates":[[[121.514843,24.989928],[121.515165,24.989891],[121.516045,24.990266],[121.516678,24.989713],[121.518005,24.99033],[121.517503,24.991985],[121.517372,24.992002],[121.513922,24.992393],[121.513918,24.992037],[121.514415,24.991055],[121.514843,24.989928]]]},"properties":{"code":"65000030077","name":"秀士里","countyCode":"65000","countyName":"新北市","townCode":"65000030","townName":"中和區","level":"village","unassigned":false,"note":"","label":[121.5160224304631,24.99120524187424],"bounds":[121.513918,24.989713,121.518005,24.992393],"focusBounds":[121.513918,24.989713,121.518005,24.992393],"color":"#a49ad4"}},{"type":"Feature","id":"65000030078","geometry":{"type":"Polygon","coordinates":[[[121.512127,24.990619],[121.511657,24.991548],[121.510468,24.98977],[121.511713,24.986848],[121.511921,24.986669],[121.512072,24.986714],[121.512804,24.988228],[121.513157,24.988471],[121.512801,24.989193],[121.512127,24.990619]]]},"properties":{"code":"65000030078","name":"興南里","countyCode":"65000","countyName":"新北市","townCode":"65000030","townName":"中和區","level":"village","unassigned":false,"note":"","label":[121.51179903930914,24.989081988798063],"bounds":[121.510468,24.986669,121.513157,24.991548],"focusBounds":[121.510468,24.986669,121.513157,24.991548],"color":"#a49ad4"}},{"type":"Feature","id":"65000030079","geometry":{"type":"Polygon","coordinates":[[[121.512127,24.990619],[121.512801,24.989193],[121.513176,24.989334],[121.513354,24.989023],[121.514868,24.98955],[121.514843,24.989928],[121.514415,24.991055],[121.513158,24.99066],[121.512127,24.990619]]]},"properties":{"code":"65000030079","name":"景本里","countyCode":"65000","countyName":"新北市","townCode":"65000030","townName":"中和區","level":"village","unassigned":false,"note":"","label":[121.51371968923132,24.989993171227795],"bounds":[121.512127,24.989023,121.514868,24.991055],"focusBounds":[121.512127,24.989023,121.514868,24.991055],"color":"#a8bf62"}},{"type":"Feature","id":"65000030080","geometry":{"type":"Polygon","coordinates":[[[121.507909,24.98604],[121.507798,24.98651],[121.506799,24.985975],[121.506118,24.986846],[121.506647,24.987033],[121.506871,24.988195],[121.504827,24.987694],[121.50444,24.986906],[121.503806,24.986625],[121.504155,24.985767],[121.504776,24.985095],[121.504683,24.983933],[121.505529,24.984348],[121.507298,24.985538],[121.507909,24.98604]]]},"properties":{"code":"65000030080","name":"福南里","countyCode":"65000","countyName":"新北市","townCode":"65000030","townName":"中和區","level":"village","unassigned":false,"note":"","label":[121.50544639087288,24.98598327826091],"bounds":[121.503806,24.983933,121.507909,24.988195],"focusBounds":[121.503806,24.983933,121.507909,24.988195],"color":"#68bec9"}},{"type":"Feature","id":"65000030081","geometry":{"type":"Polygon","coordinates":[[[121.499536,24.992951],[121.499377,24.992425],[121.497485,24.990766],[121.497334,24.988414],[121.49775,24.987145],[121.498656,24.986146],[121.498471,24.98438],[121.49885,24.984651],[121.499153,24.984861],[121.499996,24.985008],[121.500948,24.985672],[121.501663,24.985583],[121.502039,24.985749],[121.502378,24.98603],[121.502607,24.986908],[121.502823,24.990247],[121.500455,24.990219],[121.500075,24.990336],[121.4999,24.991547],[121.499856,24.992781],[121.499983,24.992857],[121.499536,24.992951]]]},"properties":{"code":"65000030081","name":"中興里","countyCode":"65000","countyName":"新北市","townCode":"65000030","townName":"中和區","level":"village","unassigned":false,"note":"","label":[121.49995722522543,24.988076726503017],"bounds":[121.497334,24.98438,121.502823,24.992951],"focusBounds":[121.497334,24.98438,121.502823,24.992951],"color":"#98b69b"}},{"type":"Feature","id":"65000030082","geometry":{"type":"Polygon","coordinates":[[[121.504597,24.992274],[121.504077,24.992349],[121.504504,24.991833],[121.503796,24.990302],[121.505858,24.989755],[121.506694,24.989921],[121.506937,24.990274],[121.507032,24.990719],[121.5055,24.991453],[121.504597,24.992274]]]},"properties":{"code":"65000030082","name":"吉興里","countyCode":"65000","countyName":"新北市","townCode":"65000030","townName":"中和區","level":"village","unassigned":false,"note":"","label":[121.50531072336875,24.9906891914815],"bounds":[121.503796,24.989755,121.507032,24.992349],"focusBounds":[121.503796,24.989755,121.507032,24.992349],"color":"#c38cb8"}},{"type":"Feature","id":"65000030083","geometry":{"type":"Polygon","coordinates":[[[121.487467,24.993758],[121.488887,24.993896],[121.489024,24.994235],[121.49061,24.994072],[121.489876,24.996243],[121.488028,24.996157],[121.488641,24.994328],[121.487535,24.994281],[121.487467,24.993758]]]},"properties":{"code":"65000030083","name":"中山里","countyCode":"65000","countyName":"新北市","townCode":"65000030","townName":"中和區","level":"village","unassigned":false,"note":"","label":[121.48930126172348,24.995140115843967],"bounds":[121.487467,24.993758,121.49061,24.996243],"focusBounds":[121.487467,24.993758,121.49061,24.996243],"color":"#98b69b"}},{"type":"Feature","id":"65000030084","geometry":{"type":"Polygon","coordinates":[[[121.495823,24.995684],[121.494501,24.997294],[121.494796,24.997411],[121.494654,24.997635],[121.494389,24.997456],[121.49429,24.997611],[121.490928,25.00327],[121.487832,25.004659],[121.485866,25.004796],[121.485962,25.003747],[121.486793,25.001605],[121.487134,25.001026],[121.4881,25.000184],[121.488656,24.998484],[121.489228,24.998491],[121.489876,24.996243],[121.491345,24.996358],[121.492842,24.996802],[121.493174,24.994881],[121.493001,24.99451],[121.492256,24.99398],[121.494204,24.99386],[121.495433,24.993789],[121.495477,24.995416],[121.495823,24.995684]]]},"properties":{"code":"65000030084","name":"碧河里","countyCode":"65000","countyName":"新北市","townCode":"65000030","townName":"中和區","level":"village","unassigned":false,"note":"","label":[121.49082111895606,24.999591260476997],"bounds":[121.485866,24.993789,121.495823,25.004796],"focusBounds":[121.485866,24.993789,121.495823,25.004796],"color":"#58b99d"}},{"type":"Feature","id":"65000030085","geometry":{"type":"Polygon","coordinates":[[[121.485539,24.992354],[121.485043,24.991706],[121.483694,24.991123],[121.483623,24.987924],[121.484294,24.986029],[121.487803,24.988692],[121.488886,24.989153],[121.489792,24.989116],[121.491097,24.989596],[121.491211,24.989535],[121.491697,24.99056],[121.493504,24.990897],[121.493919,24.991142],[121.494462,24.991785],[121.494521,24.992085],[121.493934,24.992931],[121.493934,24.99354],[121.494204,24.99386],[121.492256,24.99398],[121.49061,24.994072],[121.489024,24.994235],[121.488887,24.993896],[121.487467,24.993758],[121.486558,24.993773],[121.486557,24.993471],[121.48574,24.993453],[121.485539,24.992354]]]},"properties":{"code":"65000030085","name":"錦中里","countyCode":"65000","countyName":"新北市","townCode":"65000030","townName":"中和區","level":"village","unassigned":false,"note":"","label":[121.48833062494523,24.991379386229266],"bounds":[121.483623,24.986029,121.494521,24.994235],"focusBounds":[121.483623,24.986029,121.494521,24.994235],"color":"#efb44f"}},{"type":"Feature","id":"65000030086","geometry":{"type":"Polygon","coordinates":[[[121.494462,24.991785],[121.493919,24.991142],[121.493504,24.990897],[121.491697,24.99056],[121.493691,24.989236],[121.493477,24.988813],[121.495418,24.988057],[121.496631,24.986336],[121.497777,24.983922],[121.498471,24.98438],[121.498656,24.986146],[121.49775,24.987145],[121.497334,24.988414],[121.497485,24.990766],[121.496993,24.991201],[121.49674,24.991246],[121.496139,24.991062],[121.495813,24.9903],[121.494718,24.990551],[121.494887,24.991436],[121.494462,24.991785]]]},"properties":{"code":"65000030086","name":"錦盛里","countyCode":"65000","countyName":"新北市","townCode":"65000030","townName":"中和區","level":"village","unassigned":false,"note":"","label":[121.49618873213517,24.989020660199778],"bounds":[121.491697,24.983922,121.498656,24.991785],"focusBounds":[121.491697,24.983922,121.498656,24.991785],"color":"#78a7e3"}},{"type":"Feature","id":"65000030087","geometry":{"type":"Polygon","coordinates":[[[121.476456,25.005672],[121.473771,25.006095],[121.47402,25.005139],[121.474013,25.003455],[121.474031,25.002739],[121.475921,25.003062],[121.475849,25.002046],[121.476058,25.002048],[121.476303,25.003459],[121.476892,25.003657],[121.477243,25.004033],[121.476456,25.005672]]]},"properties":{"code":"65000030087","name":"民有里","countyCode":"65000","countyName":"新北市","townCode":"65000030","townName":"中和區","level":"village","unassigned":false,"note":"","label":[121.47535131678536,25.004405308599786],"bounds":[121.473771,25.002046,121.477243,25.006095],"focusBounds":[121.473771,25.002046,121.477243,25.006095],"color":"#a49ad4"}},{"type":"Feature","id":"65000030088","geometry":{"type":"Polygon","coordinates":[[[121.475245,25.010164],[121.476022,25.008761],[121.475129,25.008461],[121.47545,25.007444],[121.476222,25.008009],[121.476341,25.007933],[121.476312,25.008086],[121.477841,25.009292],[121.479936,25.009696],[121.480756,25.00952],[121.481437,25.00907],[121.482207,25.008105],[121.482356,25.008561],[121.482039,25.009155],[121.481999,25.010342],[121.481594,25.01026],[121.481562,25.010479],[121.482022,25.010544],[121.482053,25.01124],[121.481571,25.011522],[121.480842,25.011624],[121.478336,25.011197],[121.476695,25.011322],[121.476056,25.011102],[121.47551,25.010723],[121.475245,25.010164]]]},"properties":{"code":"65000030088","name":"員富里","countyCode":"65000","countyName":"新北市","townCode":"65000030","townName":"中和區","level":"village","unassigned":false,"note":"","label":[121.47851713306991,25.010324746316293],"bounds":[121.475129,25.007444,121.482356,25.011624],"focusBounds":[121.475129,25.007444,121.482356,25.011624],"color":"#a49ad4"}},{"type":"Feature","id":"65000030089","geometry":{"type":"Polygon","coordinates":[[[121.476716,24.99081],[121.479049,24.993228],[121.480242,24.993453],[121.480057,24.992607],[121.480631,24.992503],[121.480858,24.993468],[121.480921,24.99498],[121.481193,24.996539],[121.480179,24.996202],[121.479951,24.995966],[121.479655,24.996303],[121.479097,24.995919],[121.478212,24.995758],[121.478094,24.995408],[121.478372,24.995315],[121.476698,24.994116],[121.474931,24.992007],[121.475402,24.991571],[121.475773,24.991445],[121.476716,24.99081]]]},"properties":{"code":"65000030089","name":"嘉慶里","countyCode":"65000","countyName":"新北市","townCode":"65000030","townName":"中和區","level":"village","unassigned":false,"note":"","label":[121.47813203089312,24.99385227172266],"bounds":[121.474931,24.99081,121.481193,24.996539],"focusBounds":[121.474931,24.99081,121.481193,24.996539],"color":"#68bec9"}},{"type":"Feature","id":"65000030090","geometry":{"type":"Polygon","coordinates":[[[121.472267,25.003528],[121.472695,25.00033],[121.474474,25.00099],[121.474031,25.002739],[121.474013,25.003455],[121.473743,25.003539],[121.473697,25.003957],[121.473533,25.00398],[121.473273,25.00398],[121.472636,25.003547],[121.472267,25.003528]]]},"properties":{"code":"65000030090","name":"冠穗里","countyCode":"65000","countyName":"新北市","townCode":"65000030","townName":"中和區","level":"village","unassigned":false,"note":"","label":[121.47330434675607,25.002141693985966],"bounds":[121.472267,25.00033,121.474474,25.00398],"focusBounds":[121.472267,25.00033,121.474474,25.00398],"color":"#68bec9"}},{"type":"Feature","id":"65000030091","geometry":{"type":"Polygon","coordinates":[[[121.468854,25.001166],[121.470427,25.000265],[121.471565,25.000275],[121.471581,25.000851],[121.471337,25.000851],[121.471356,25.001879],[121.470957,25.001811],[121.470676,25.002348],[121.468925,25.002273],[121.468854,25.001166]]]},"properties":{"code":"65000030091","name":"國華里","countyCode":"65000","countyName":"新北市","townCode":"65000030","townName":"中和區","level":"village","unassigned":false,"note":"","label":[121.47022239580883,25.001355764090423],"bounds":[121.468854,25.000265,121.471581,25.002348],"focusBounds":[121.468854,25.000265,121.471581,25.002348],"color":"#df9f6a"}},{"type":"Feature","id":"65000030092","geometry":{"type":"Polygon","coordinates":[[[121.508665,24.982902],[121.507298,24.985538],[121.505529,24.984348],[121.50598,24.983847],[121.506948,24.982003],[121.508665,24.982902]]]},"properties":{"code":"65000030092","name":"正南里","countyCode":"65000","countyName":"新北市","townCode":"65000030","townName":"中和區","level":"village","unassigned":false,"note":"","label":[121.50711633973029,24.983753810922927],"bounds":[121.505529,24.982003,121.508665,24.985538],"focusBounds":[121.505529,24.982003,121.508665,24.985538],"color":"#c38cb8"}},{"type":"Feature","id":"65000030093","geometry":{"type":"Polygon","coordinates":[[[121.49605,24.993753],[121.499563,24.993571],[121.499605,24.993785],[121.499898,24.993767],[121.499919,24.994099],[121.499672,24.994123],[121.499812,24.994852],[121.500276,24.994883],[121.500472,24.995367],[121.499168,24.996137],[121.499027,24.995863],[121.497794,24.995488],[121.497297,24.994523],[121.496354,24.994249],[121.49605,24.993753]]]},"properties":{"code":"65000030093","name":"正行里","countyCode":"65000","countyName":"新北市","townCode":"65000030","townName":"中和區","level":"village","unassigned":false,"note":"","label":[121.49857780605896,24.9946745011956],"bounds":[121.49605,24.993571,121.500472,24.996137],"focusBounds":[121.49605,24.993571,121.500472,24.996137],"color":"#98b69b"}}]}
