{"type":"FeatureCollection","features":[{"type":"Feature","id":"65000110001","geometry":{"type":"Polygon","coordinates":[[[121.661555,25.069633],[121.661116,25.069752],[121.661306,25.070147],[121.661565,25.070168],[121.66177,25.07168],[121.660918,25.070987],[121.660371,25.070971],[121.659979,25.070207],[121.659676,25.070341],[121.659468,25.07011],[121.6592,25.07012],[121.658967,25.070677],[121.658402,25.06987],[121.657893,25.06959],[121.658134,25.068874],[121.657943,25.068784],[121.658029,25.06859],[121.658358,25.068555],[121.658733,25.067585],[121.659792,25.067478],[121.660716,25.068393],[121.661518,25.068915],[121.661108,25.068859],[121.661077,25.069463],[121.661523,25.0695],[121.661555,25.069633]]]},"properties":{"code":"65000110001","name":"義民里","countyCode":"65000","countyName":"新北市","townCode":"65000110","townName":"汐止區","level":"village","unassigned":false,"note":"","label":[121.65984386396914,25.069074260537622],"bounds":[121.657893,25.067478,121.66177,25.07168],"focusBounds":[121.657893,25.067478,121.66177,25.07168],"color":"#efb44f"}},{"type":"Feature","id":"65000110002","geometry":{"type":"Polygon","coordinates":[[[121.659792,25.067478],[121.658733,25.067585],[121.658358,25.068555],[121.658029,25.06859],[121.657943,25.068784],[121.658134,25.068874],[121.657893,25.06959],[121.655785,25.068715],[121.656014,25.068378],[121.656217,25.068469],[121.65655,25.068158],[121.656306,25.068011],[121.656858,25.067302],[121.656805,25.067192],[121.657253,25.06704],[121.657261,25.066799],[121.657567,25.066688],[121.657567,25.066566],[121.657364,25.066539],[121.657672,25.065929],[121.659428,25.066697],[121.660501,25.067507],[121.659792,25.067478]]]},"properties":{"code":"65000110002","name":"禮門里","countyCode":"65000","countyName":"新北市","townCode":"65000110","townName":"汐止區","level":"village","unassigned":false,"note":"","label":[121.65782122199853,25.0676698583228],"bounds":[121.655785,25.065929,121.660501,25.06959],"focusBounds":[121.655785,25.065929,121.660501,25.06959],"color":"#78a7e3"}},{"type":"Feature","id":"65000110003","geometry":{"type":"Polygon","coordinates":[[[121.650038,25.063375],[121.650744,25.063845],[121.652321,25.064273],[121.655251,25.066585],[121.656805,25.067192],[121.656858,25.067302],[121.656306,25.068011],[121.65655,25.068158],[121.656217,25.068469],[121.656014,25.068378],[121.655785,25.068715],[121.654463,25.068174],[121.653892,25.068099],[121.651129,25.068589],[121.649863,25.068546],[121.648347,25.068288],[121.647807,25.068713],[121.647743,25.069259],[121.644637,25.069152],[121.643663,25.066202],[121.649586,25.065109],[121.647998,25.064574],[121.647717,25.064613],[121.646783,25.064098],[121.646858,25.063651],[121.647081,25.063612],[121.646791,25.062899],[121.649139,25.063113],[121.650038,25.063375]]]},"properties":{"code":"65000110003","name":"智慧里","countyCode":"65000","countyName":"新北市","townCode":"65000110","townName":"汐止區","level":"village","unassigned":false,"note":"","label":[121.6514236555151,25.066283088356386],"bounds":[121.643663,25.062899,121.656858,25.069259],"focusBounds":[121.643663,25.062899,121.656858,25.069259],"color":"#dd8590"}},{"type":"Feature","id":"65000110004","geometry":{"type":"Polygon","coordinates":[[[121.663631,25.069973],[121.662233,25.070267],[121.661829,25.070073],[121.661555,25.069633],[121.661523,25.0695],[121.661077,25.069463],[121.661108,25.068859],[121.661518,25.068915],[121.660716,25.068393],[121.659792,25.067478],[121.660501,25.067507],[121.660992,25.067879],[121.661127,25.067768],[121.663631,25.069973]]]},"properties":{"code":"65000110004","name":"信望里","countyCode":"65000","countyName":"新北市","townCode":"65000110","townName":"汐止區","level":"village","unassigned":false,"note":"","label":[121.66210579960867,25.069417885680487],"bounds":[121.659792,25.067478,121.663631,25.070267],"focusBounds":[121.659792,25.067478,121.663631,25.070267],"color":"#a49ad4"}},{"type":"Feature","id":"65000110005","geometry":{"type":"Polygon","coordinates":[[[121.665423,25.070011],[121.665814,25.070827],[121.666357,25.070751],[121.666531,25.071523],[121.666998,25.072223],[121.667064,25.074015],[121.667349,25.074856],[121.666898,25.07563],[121.666728,25.075304],[121.666307,25.075419],[121.666371,25.075569],[121.666173,25.075627],[121.665443,25.074973],[121.665382,25.074134],[121.665537,25.073009],[121.665421,25.07231],[121.66493,25.071416],[121.663976,25.070339],[121.665423,25.070011]]]},"properties":{"code":"65000110005","name":"橋東里","countyCode":"65000","countyName":"新北市","townCode":"65000110","townName":"汐止區","level":"village","unassigned":false,"note":"","label":[121.66624992163159,25.07264872537263],"bounds":[121.663976,25.070011,121.667349,25.07563],"focusBounds":[121.663976,25.070011,121.667349,25.07563],"color":"#a8bf62"}},{"type":"Feature","id":"65000110006","geometry":{"type":"Polygon","coordinates":[[[121.661127,25.067768],[121.660992,25.067879],[121.660501,25.067507],[121.659428,25.066697],[121.657672,25.065929],[121.657397,25.065267],[121.657712,25.064773],[121.65708,25.064559],[121.657431,25.063895],[121.658131,25.064188],[121.658416,25.063413],[121.65876,25.06359],[121.65915,25.063028],[121.659637,25.063216],[121.660142,25.062939],[121.661349,25.063005],[121.66196,25.063164],[121.663434,25.064256],[121.661914,25.065753],[121.661564,25.066037],[121.66215,25.066655],[121.661127,25.067768]]]},"properties":{"code":"65000110006","name":"秀峰里","countyCode":"65000","countyName":"新北市","townCode":"65000110","townName":"汐止區","level":"village","unassigned":false,"note":"","label":[121.66020978491825,25.064970057116305],"bounds":[121.65708,25.062939,121.663434,25.067879],"focusBounds":[121.65708,25.062939,121.663434,25.067879],"color":"#68bec9"}},{"type":"Feature","id":"65000110007","geometry":{"type":"Polygon","coordinates":[[[121.665423,25.070011],[121.663976,25.070339],[121.663631,25.069973],[121.661127,25.067768],[121.66215,25.066655],[121.661564,25.066037],[121.661914,25.065753],[121.666079,25.067236],[121.665632,25.068402],[121.665809,25.069787],[121.665423,25.070011]]]},"properties":{"code":"65000110007","name":"新昌里","countyCode":"65000","countyName":"新北市","townCode":"65000110","townName":"汐止區","level":"village","unassigned":false,"note":"","label":[121.66395777980581,25.06811734765694],"bounds":[121.661127,25.065753,121.666079,25.070339],"focusBounds":[121.661127,25.065753,121.666079,25.070339],"color":"#df9f6a"}},{"type":"Feature","id":"65000110008","geometry":{"type":"Polygon","coordinates":[[[121.653707,25.062324],[121.657431,25.063895],[121.65708,25.064559],[121.657712,25.064773],[121.657397,25.065267],[121.657672,25.065929],[121.655606,25.065293],[121.654634,25.064796],[121.650079,25.063186],[121.650038,25.063375],[121.649139,25.063113],[121.646791,25.062899],[121.641777,25.060767],[121.641349,25.059737],[121.642019,25.059878],[121.643689,25.059708],[121.644774,25.059998],[121.645735,25.060543],[121.64688,25.060959],[121.649693,25.061438],[121.651577,25.061594],[121.653707,25.062324]]]},"properties":{"code":"65000110008","name":"復興里","countyCode":"65000","countyName":"新北市","townCode":"65000110","townName":"汐止區","level":"village","unassigned":false,"note":"","label":[121.65144368017174,25.06262548348184],"bounds":[121.641349,25.059708,121.657712,25.065929],"focusBounds":[121.641349,25.059708,121.657712,25.065929],"color":"#c38cb8"}},{"type":"Feature","id":"65000110009","geometry":{"type":"Polygon","coordinates":[[[121.68497,25.064106],[121.669992,25.072031],[121.669325,25.070848],[121.669841,25.070378],[121.669251,25.069815],[121.668371,25.069315],[121.668253,25.069393],[121.667791,25.068912],[121.668058,25.068708],[121.667768,25.068353],[121.668487,25.068147],[121.669887,25.068137],[121.669613,25.061759],[121.668692,25.060003],[121.669201,25.059103],[121.66948,25.058962],[121.669416,25.058704],[121.670242,25.058374],[121.671483,25.058826],[121.672986,25.056475],[121.675755,25.052174],[121.678648,25.048696],[121.68289,25.039124],[121.683535,25.039467],[121.684196,25.040083],[121.686075,25.040187],[121.686463,25.040438],[121.68674,25.040963],[121.687335,25.041031],[121.687647,25.041216],[121.685544,25.044254],[121.687559,25.046725],[121.69009,25.051322],[121.692829,25.052646],[121.692627,25.055773],[121.691766,25.06051],[121.690353,25.061192],[121.688896,25.060456],[121.687274,25.059223],[121.68485,25.060407],[121.684571,25.063486],[121.68497,25.064106]]]},"properties":{"code":"65000110009","name":"茄苳里","countyCode":"65000","countyName":"新北市","townCode":"65000110","townName":"汐止區","level":"village","unassigned":false,"note":"","label":[121.68166746102908,25.055006808998957],"bounds":[121.667768,25.039124,121.692829,25.072031],"focusBounds":[121.667768,25.039124,121.692829,25.072031],"color":"#98b69b"}},{"type":"Feature","id":"65000110010","geometry":{"type":"Polygon","coordinates":[[[121.671267,25.080401],[121.67031,25.081242],[121.669229,25.080058],[121.665667,25.07745],[121.666198,25.07665],[121.665443,25.074973],[121.666173,25.075627],[121.666371,25.075569],[121.666307,25.075419],[121.666728,25.075304],[121.666898,25.07563],[121.667349,25.074856],[121.668462,25.072842],[121.670186,25.074392],[121.672993,25.075318],[121.673541,25.07456],[121.674217,25.074968],[121.673749,25.075569],[121.674616,25.07584],[121.673997,25.077607],[121.673575,25.07832],[121.671267,25.080401]]]},"properties":{"code":"65000110010","name":"長安里","countyCode":"65000","countyName":"新北市","townCode":"65000110","townName":"汐止區","level":"village","unassigned":false,"note":"","label":[121.67014129190213,25.07728763409378],"bounds":[121.665443,25.072842,121.674616,25.081242],"focusBounds":[121.665443,25.072842,121.674616,25.081242],"color":"#58b99d"}},{"type":"Feature","id":"65000110011","geometry":{"type":"Polygon","coordinates":[[[121.680094,25.074575],[121.679094,25.074642],[121.677544,25.074401],[121.676238,25.074536],[121.675084,25.074878],[121.674616,25.07584],[121.673749,25.075569],[121.674217,25.074968],[121.673541,25.07456],[121.672993,25.075318],[121.670186,25.074392],[121.668462,25.072842],[121.669992,25.072031],[121.68497,25.064106],[121.686722,25.065655],[121.688231,25.06643],[121.688617,25.067055],[121.688397,25.068303],[121.688273,25.068486],[121.68788,25.06847],[121.68589,25.070074],[121.682951,25.071889],[121.68087,25.074077],[121.680094,25.074575]]]},"properties":{"code":"65000110011","name":"保安里","countyCode":"65000","countyName":"新北市","townCode":"65000110","townName":"汐止區","level":"village","unassigned":false,"note":"","label":[121.6792855088386,25.070871249179273],"bounds":[121.668462,25.064106,121.688617,25.07584],"focusBounds":[121.668462,25.064106,121.688617,25.07584],"color":"#dd8590"}},{"type":"Feature","id":"65000110012","geometry":{"type":"Polygon","coordinates":[[[121.671267,25.080401],[121.673575,25.07832],[121.673997,25.077607],[121.674616,25.07584],[121.675084,25.074878],[121.676238,25.074536],[121.677544,25.074401],[121.679094,25.074642],[121.680094,25.074575],[121.681106,25.077069],[121.680413,25.07706],[121.680203,25.077198],[121.680207,25.078089],[121.679225,25.078538],[121.678969,25.079583],[121.679772,25.080085],[121.680495,25.081883],[121.679911,25.083521],[121.679932,25.084326],[121.680539,25.084585],[121.681006,25.084551],[121.681299,25.084368],[121.681541,25.084417],[121.681676,25.084909],[121.681737,25.087112],[121.681545,25.087675],[121.680868,25.088185],[121.680473,25.088264],[121.679324,25.08775],[121.678345,25.087004],[121.677281,25.085865],[121.675192,25.083628],[121.67403,25.08292],[121.674429,25.082207],[121.671267,25.080401]]]},"properties":{"code":"65000110012","name":"保長里","countyCode":"65000","countyName":"新北市","townCode":"65000110","townName":"汐止區","level":"village","unassigned":false,"note":"","label":[121.67700192777924,25.08143921385898],"bounds":[121.671267,25.074401,121.681737,25.088264],"focusBounds":[121.671267,25.074401,121.681737,25.088264],"color":"#78a7e3"}},{"type":"Feature","id":"65000110013","geometry":{"type":"Polygon","coordinates":[[[121.67403,25.08292],[121.672505,25.08382],[121.669518,25.085058],[121.669042,25.085599],[121.667913,25.085757],[121.66759,25.086233],[121.666824,25.086811],[121.66653,25.08729],[121.666369,25.087995],[121.665849,25.08815],[121.665546,25.088519],[121.664921,25.08872],[121.664596,25.089278],[121.663076,25.089611],[121.662608,25.089362],[121.661797,25.089404],[121.661239,25.089948],[121.661198,25.090451],[121.660911,25.090886],[121.660208,25.090791],[121.659026,25.09151],[121.658534,25.091565],[121.65816,25.090008],[121.658308,25.088883],[121.658178,25.08771],[121.656395,25.084465],[121.656086,25.08312],[121.655183,25.082345],[121.654939,25.08143],[121.654927,25.080377],[121.659135,25.080871],[121.659569,25.077879],[121.660425,25.075925],[121.660425,25.075609],[121.661225,25.076156],[121.663554,25.076554],[121.665667,25.07745],[121.669229,25.080058],[121.67031,25.081242],[121.671267,25.080401],[121.674429,25.082207],[121.67403,25.08292]]]},"properties":{"code":"65000110013","name":"鄉長里","countyCode":"65000","countyName":"新北市","townCode":"65000110","townName":"汐止區","level":"village","unassigned":false,"note":"","label":[121.66355715029673,25.08303054196803],"bounds":[121.654927,25.075609,121.674429,25.091565],"focusBounds":[121.654927,25.075609,121.674429,25.091565],"color":"#dd8590"}},{"type":"Feature","id":"65000110014","geometry":{"type":"Polygon","coordinates":[[[121.660425,25.075609],[121.660425,25.075925],[121.659569,25.077879],[121.659135,25.080871],[121.654927,25.080377],[121.648629,25.079622],[121.649618,25.078037],[121.64911,25.076991],[121.648247,25.076829],[121.64847,25.07554],[121.64943,25.075473],[121.649875,25.075182],[121.650202,25.074515],[121.650184,25.073853],[121.649727,25.072539],[121.647743,25.069259],[121.647807,25.068713],[121.648347,25.068288],[121.649863,25.068546],[121.651129,25.068589],[121.653892,25.068099],[121.654463,25.068174],[121.655785,25.068715],[121.657893,25.06959],[121.658402,25.06987],[121.658967,25.070677],[121.65946,25.072211],[121.659565,25.073579],[121.65971,25.074635],[121.660425,25.075609]]]},"properties":{"code":"65000110014","name":"江北里","countyCode":"65000","countyName":"新北市","townCode":"65000110","townName":"汐止區","level":"village","unassigned":false,"note":"","label":[121.65489788490251,25.074363055768977],"bounds":[121.647743,25.068099,121.660425,25.080871],"focusBounds":[121.647743,25.068099,121.660425,25.080871],"color":"#a49ad4"}},{"type":"Feature","id":"65000110015","geometry":{"type":"Polygon","coordinates":[[[121.648247,25.076829],[121.64911,25.076991],[121.649618,25.078037],[121.648629,25.079622],[121.654927,25.080377],[121.654939,25.08143],[121.655183,25.082345],[121.656086,25.08312],[121.656395,25.084465],[121.658178,25.08771],[121.658308,25.088883],[121.65816,25.090008],[121.658534,25.091565],[121.658117,25.09179],[121.657567,25.092813],[121.655701,25.09345],[121.656188,25.094622],[121.65552,25.095515],[121.653573,25.096238],[121.652935,25.097335],[121.652014,25.097942],[121.651831,25.097978],[121.65076,25.096932],[121.649067,25.09562],[121.647195,25.09315],[121.643131,25.091799],[121.642726,25.090617],[121.643326,25.089363],[121.643219,25.088045],[121.643742,25.086037],[121.64436,25.085128],[121.645097,25.08347],[121.645768,25.082539],[121.646392,25.081243],[121.647699,25.079633],[121.648247,25.076829]]]},"properties":{"code":"65000110015","name":"拱北里","countyCode":"65000","countyName":"新北市","townCode":"65000110","townName":"汐止區","level":"village","unassigned":false,"note":"","label":[121.65071777583115,25.0876675714291],"bounds":[121.642726,25.076829,121.658534,25.097978],"focusBounds":[121.642726,25.076829,121.658534,25.097978],"color":"#68bec9"}},{"type":"Feature","id":"65000110016","geometry":{"type":"Polygon","coordinates":[[[121.626798,25.139705],[121.623942,25.139671],[121.618975,25.138338],[121.618106,25.138469],[121.61713,25.138915],[121.616779,25.138909],[121.616631,25.138648],[121.616631,25.138029],[121.61628,25.137571],[121.611467,25.133389],[121.609332,25.13261],[121.608868,25.132241],[121.608231,25.131468],[121.607821,25.130211],[121.607512,25.129163],[121.605579,25.127212],[121.604974,25.126773],[121.60432,25.125852],[121.604465,25.125709],[121.604727,25.125719],[121.605,25.126349],[121.606462,25.127247],[121.606836,25.127333],[121.607264,25.127188],[121.607192,25.126957],[121.606396,25.126645],[121.606236,25.126225],[121.60516,25.124816],[121.604881,25.124165],[121.604388,25.123901],[121.604429,25.12353],[121.604845,25.123347],[121.605267,25.123476],[121.605665,25.124434],[121.605885,25.124633],[121.606331,25.124633],[121.606949,25.124934],[121.607858,25.124853],[121.608601,25.124956],[121.610146,25.124482],[121.610853,25.123573],[121.611804,25.12318],[121.614525,25.122857],[121.615826,25.122529],[121.616557,25.122163],[121.617829,25.122357],[121.620639,25.120044],[121.624163,25.116283],[121.624867,25.115785],[121.625648,25.115245],[121.627217,25.113706],[121.630741,25.10988],[121.63411,25.107448],[121.635061,25.106421],[121.635643,25.105377],[121.636558,25.102116],[121.636837,25.099388],[121.637069,25.099038],[121.637883,25.098662],[121.640082,25.096929],[121.640914,25.096057],[121.641436,25.093517],[121.642726,25.090617],[121.643131,25.091799],[121.647195,25.09315],[121.649067,25.09562],[121.65076,25.096932],[121.651831,25.097978],[121.651073,25.098178],[121.650652,25.098537],[121.650587,25.099],[121.650754,25.099727],[121.650441,25.100442],[121.649055,25.101571],[121.648925,25.101859],[121.650153,25.103321],[121.651885,25.103501],[121.652225,25.104739],[121.651676,25.105697],[121.651607,25.106221],[121.650496,25.108027],[121.650534,25.10882],[121.650239,25.109552],[121.649366,25.110087],[121.648813,25.110728],[121.648828,25.111171],[121.647668,25.111892],[121.64685,25.113102],[121.646238,25.113625],[121.645954,25.11492],[121.645717,25.115289],[121.646084,25.116129],[121.645903,25.117388],[121.645987,25.118166],[121.645686,25.119032],[121.646259,25.120039],[121.646244,25.121053],[121.64573,25.121102],[121.645256,25.121392],[121.644688,25.122198],[121.644901,25.123369],[121.644515,25.124016],[121.644378,25.125014],[121.644105,25.125336],[121.643179,25.127682],[121.642841,25.1279],[121.641819,25.128082],[121.641273,25.12865],[121.640776,25.129592],[121.638305,25.130743],[121.636765,25.130806],[121.634923,25.13044],[121.63405,25.130835],[121.63314,25.130987],[121.632548,25.132396],[121.631848,25.132652],[121.631456,25.133079],[121.630379,25.133761],[121.629569,25.133906],[121.628385,25.135011],[121.627925,25.135858],[121.627768,25.137167],[121.626798,25.139705]]]},"properties":{"code":"65000110016","name":"烘內里","countyCode":"65000","countyName":"新北市","townCode":"65000110","townName":"汐止區","level":"village","unassigned":false,"note":"","label":[121.63439490958083,25.11999575489358],"bounds":[121.60432,25.090617,121.652225,25.139705],"focusBounds":[121.60432,25.090617,121.652225,25.139705],"color":"#c38cb8"}},{"type":"Feature","id":"65000110017","geometry":{"type":"Polygon","coordinates":[[[121.642726,25.090617],[121.641436,25.093517],[121.640914,25.096057],[121.640082,25.096929],[121.637883,25.098662],[121.637069,25.099038],[121.636837,25.099388],[121.636558,25.102116],[121.635643,25.105377],[121.635061,25.106421],[121.63411,25.107448],[121.630741,25.10988],[121.627217,25.113706],[121.625648,25.115245],[121.624867,25.115785],[121.623593,25.113588],[121.623152,25.113078],[121.62194,25.112024],[121.621143,25.112135],[121.620727,25.111814],[121.620151,25.110926],[121.619926,25.109921],[121.61903,25.10993],[121.618971,25.109425],[121.619782,25.109384],[121.618755,25.105047],[121.617243,25.101394],[121.617413,25.101121],[121.618335,25.100653],[121.618647,25.100209],[121.621498,25.098312],[121.622158,25.097317],[121.623286,25.096928],[121.624125,25.097089],[121.625366,25.097059],[121.626009,25.096441],[121.629731,25.09736],[121.632559,25.092899],[121.635376,25.090843],[121.636647,25.08883],[121.638013,25.084727],[121.638511,25.084695],[121.638541,25.083242],[121.639107,25.081775],[121.639434,25.081312],[121.640023,25.081034],[121.639901,25.080694],[121.64093,25.080474],[121.640801,25.078729],[121.641044,25.078299],[121.641858,25.07832],[121.642548,25.079127],[121.644984,25.080188],[121.645346,25.080166],[121.645721,25.079838],[121.645923,25.078444],[121.645863,25.076862],[121.645584,25.075416],[121.64847,25.07554],[121.648247,25.076829],[121.647699,25.079633],[121.646392,25.081243],[121.645768,25.082539],[121.645097,25.08347],[121.64436,25.085128],[121.643742,25.086037],[121.643219,25.088045],[121.643326,25.089363],[121.642726,25.090617]]]},"properties":{"code":"65000110017","name":"八連里","countyCode":"65000","countyName":"新北市","townCode":"65000110","townName":"汐止區","level":"village","unassigned":false,"note":"","label":[121.62690163037071,25.1039265528684],"bounds":[121.617243,25.075416,121.64847,25.115785],"focusBounds":[121.617243,25.075416,121.64847,25.115785],"color":"#df9f6a"}},{"type":"Feature","id":"65000110018","geometry":{"type":"Polygon","coordinates":[[[121.641777,25.060767],[121.641337,25.06097],[121.641411,25.061478],[121.641092,25.062185],[121.6411,25.062621],[121.641368,25.062982],[121.641041,25.062987],[121.640993,25.0626],[121.640684,25.062409],[121.639244,25.062362],[121.638453,25.061813],[121.637853,25.062442],[121.63774,25.062805],[121.637514,25.062868],[121.637251,25.062602],[121.637125,25.06265],[121.637634,25.063584],[121.636872,25.064116],[121.63626,25.063705],[121.634309,25.063357],[121.633089,25.062808],[121.631895,25.061866],[121.630388,25.060293],[121.629619,25.059261],[121.629233,25.057399],[121.628775,25.056171],[121.628217,25.055364],[121.627433,25.054795],[121.627463,25.054069],[121.628325,25.053412],[121.634779,25.054801],[121.635769,25.055202],[121.637696,25.055716],[121.638902,25.056576],[121.640859,25.058827],[121.641349,25.059737],[121.641777,25.060767]]]},"properties":{"code":"65000110018","name":"樟樹里","countyCode":"65000","countyName":"新北市","townCode":"65000110","townName":"汐止區","level":"village","unassigned":false,"note":"","label":[121.6347721258648,25.059119353140563],"bounds":[121.627433,25.053412,121.641777,25.064116],"focusBounds":[121.627433,25.053412,121.641777,25.064116],"color":"#98b69b"}},{"type":"Feature","id":"65000110019","geometry":{"type":"Polygon","coordinates":[[[121.62485,25.073482],[121.625874,25.069597],[121.626262,25.068996],[121.626797,25.069278],[121.627081,25.068962],[121.626554,25.068589],[121.627064,25.067944],[121.627232,25.067936],[121.627588,25.067009],[121.631376,25.067412],[121.630925,25.06789],[121.631188,25.068028],[121.631614,25.067676],[121.631565,25.06811],[121.632103,25.068199],[121.632066,25.068345],[121.63189,25.068317],[121.631895,25.068733],[121.631489,25.068658],[121.630899,25.069866],[121.630037,25.069544],[121.628933,25.070978],[121.629357,25.071305],[121.62908,25.071755],[121.629063,25.072116],[121.628195,25.072186],[121.627476,25.072056],[121.627351,25.072342],[121.626876,25.072724],[121.626739,25.073348],[121.626127,25.073806],[121.625648,25.074988],[121.624558,25.074939],[121.62485,25.073482]]]},"properties":{"code":"65000110019","name":"北峰里","countyCode":"65000","countyName":"新北市","townCode":"65000110","townName":"汐止區","level":"village","unassigned":false,"note":"","label":[121.62754745590982,25.07062034142809],"bounds":[121.624558,25.067009,121.632103,25.074988],"focusBounds":[121.624558,25.067009,121.632103,25.074988],"color":"#efb44f"}},{"type":"Feature","id":"65000110020","geometry":{"type":"Polygon","coordinates":[[[121.627588,25.067009],[121.627232,25.067936],[121.627064,25.067944],[121.626554,25.068589],[121.627081,25.068962],[121.626797,25.069278],[121.626262,25.068996],[121.625874,25.069597],[121.62485,25.073482],[121.623352,25.072938],[121.623525,25.072639],[121.622581,25.072075],[121.622237,25.072027],[121.620653,25.072633],[121.621267,25.071847],[121.621315,25.070403],[121.62151,25.069575],[121.620999,25.069578],[121.620795,25.069117],[121.620358,25.06876],[121.620005,25.068588],[121.619597,25.068651],[121.619467,25.068275],[121.618947,25.06807],[121.618603,25.067671],[121.617674,25.067625],[121.617588,25.067147],[121.617957,25.066281],[121.626977,25.066942],[121.627588,25.067009]]]},"properties":{"code":"65000110020","name":"北山里","countyCode":"65000","countyName":"新北市","townCode":"65000110","townName":"汐止區","level":"village","unassigned":false,"note":"","label":[121.62350705716182,25.06897638245941],"bounds":[121.617588,25.066281,121.627588,25.073482],"focusBounds":[121.617588,25.066281,121.627588,25.073482],"color":"#58b99d"}},{"type":"Feature","id":"65000110021","geometry":{"type":"Polygon","coordinates":[[[121.659283,25.059689],[121.65595,25.059276],[121.654486,25.060234],[121.654918,25.059069],[121.655604,25.058832],[121.655717,25.058449],[121.655469,25.057856],[121.655523,25.05735],[121.655255,25.057248],[121.654938,25.057705],[121.654471,25.057932],[121.653848,25.058005],[121.653569,25.057801],[121.653625,25.052779],[121.654569,25.052448],[121.654253,25.049794],[121.653866,25.049449],[121.653507,25.049468],[121.652708,25.049993],[121.652808,25.050694],[121.652642,25.051195],[121.651965,25.05175],[121.652067,25.05194],[121.651767,25.052095],[121.651772,25.05282],[121.651214,25.053335],[121.650394,25.053626],[121.64983,25.054],[121.64983,25.054577],[121.650286,25.055567],[121.64299,25.058366],[121.642903,25.058512],[121.644774,25.059998],[121.643689,25.059708],[121.642019,25.059878],[121.641349,25.059737],[121.640859,25.058827],[121.638902,25.056576],[121.637696,25.055716],[121.635769,25.055202],[121.635465,25.054868],[121.632881,25.053501],[121.636037,25.05317],[121.636816,25.052847],[121.637131,25.052061],[121.637143,25.049773],[121.637374,25.049047],[121.637915,25.048401],[121.638916,25.047684],[121.639253,25.047841],[121.639598,25.047498],[121.640013,25.047554],[121.639945,25.047059],[121.640087,25.046943],[121.639895,25.046699],[121.640177,25.046497],[121.640295,25.046174],[121.640932,25.04633],[121.641436,25.046311],[121.64149,25.046145],[121.640506,25.041935],[121.640192,25.04148],[121.638917,25.040444],[121.637184,25.039034],[121.634207,25.037623],[121.632627,25.036439],[121.631799,25.035581],[121.632905,25.035841],[121.633478,25.03574],[121.633814,25.035406],[121.634073,25.034796],[121.634853,25.034997],[121.635642,25.034467],[121.636484,25.034298],[121.637905,25.033742],[121.638398,25.033106],[121.639907,25.032013],[121.640457,25.031928],[121.641547,25.031317],[121.642109,25.031284],[121.643316,25.030484],[121.643747,25.030492],[121.644001,25.029951],[121.644272,25.029773],[121.645196,25.029662],[121.645489,25.029458],[121.645943,25.02939],[121.646536,25.02884],[121.646483,25.028214],[121.646838,25.027972],[121.64742,25.028204],[121.64798,25.028637],[121.648797,25.027916],[121.649516,25.028112],[121.650237,25.027625],[121.65096,25.027793],[121.651456,25.027747],[121.651844,25.02815],[121.652631,25.027574],[121.653245,25.027476],[121.654183,25.027916],[121.654897,25.027752],[121.655147,25.027436],[121.655486,25.02767],[121.656822,25.027942],[121.65729,25.028258],[121.657684,25.028869],[121.660801,25.030446],[121.661334,25.030491],[121.663151,25.030175],[121.66482,25.029545],[121.665855,25.029944],[121.665524,25.030216],[121.665836,25.03373],[121.667616,25.033162],[121.669718,25.033043],[121.670507,25.032693],[121.670758,25.032729],[121.671937,25.034236],[121.672229,25.034399],[121.674479,25.034908],[121.677161,25.034841],[121.677705,25.035312],[121.678336,25.03631],[121.681156,25.037527],[121.68179,25.038089],[121.682133,25.038689],[121.68289,25.039124],[121.678648,25.048696],[121.675755,25.052174],[121.672986,25.056475],[121.669754,25.055177],[121.670001,25.054851],[121.669502,25.054574],[121.669245,25.054978],[121.66399,25.052874],[121.661886,25.056868],[121.660044,25.058687],[121.659283,25.059689]]]},"properties":{"code":"65000110021","name":"白雲里","countyCode":"65000","countyName":"新北市","townCode":"65000110","townName":"汐止區","level":"village","unassigned":false,"note":"","label":[121.65973145910955,25.04158230809578],"bounds":[121.631799,25.027436,121.68289,25.060234],"focusBounds":[121.631799,25.027436,121.68289,25.060234],"color":"#efb44f"}},{"type":"Feature","id":"65000110022","geometry":{"type":"Polygon","coordinates":[[[121.624264,25.055479],[121.624067,25.055236],[121.623432,25.055002],[121.62165,25.056512],[121.620656,25.056675],[121.620303,25.056451],[121.620195,25.055823],[121.620748,25.054854],[121.621068,25.054106],[121.620868,25.053424],[121.620538,25.053072],[121.620167,25.05316],[121.618174,25.052296],[121.617223,25.051298],[121.616469,25.050802],[121.616306,25.050553],[121.616319,25.049049],[121.616447,25.048694],[121.617584,25.048729],[121.619205,25.048228],[121.619268,25.048488],[121.619976,25.048648],[121.620239,25.04911],[121.620481,25.049056],[121.620347,25.048876],[121.620394,25.048279],[121.620616,25.048161],[121.620781,25.048395],[121.621291,25.048075],[121.621383,25.047753],[121.621737,25.047551],[121.622398,25.047829],[121.623148,25.047172],[121.625473,25.046461],[121.624808,25.043772],[121.624487,25.04226],[121.626059,25.043007],[121.627806,25.04339],[121.629303,25.044628],[121.629933,25.044908],[121.630682,25.044962],[121.63168,25.044709],[121.633213,25.045414],[121.634063,25.045446],[121.635603,25.045087],[121.635408,25.044357],[121.635676,25.044032],[121.635864,25.043959],[121.636647,25.044129],[121.637066,25.043851],[121.637082,25.043588],[121.63741,25.043249],[121.637696,25.042307],[121.637578,25.04205],[121.637919,25.041195],[121.638235,25.040814],[121.63868,25.04071],[121.638917,25.040444],[121.640192,25.04148],[121.640506,25.041935],[121.64149,25.046145],[121.641436,25.046311],[121.640932,25.04633],[121.640295,25.046174],[121.640177,25.046497],[121.639895,25.046699],[121.640087,25.046943],[121.639945,25.047059],[121.640013,25.047554],[121.639598,25.047498],[121.639253,25.047841],[121.638916,25.047684],[121.637915,25.048401],[121.637374,25.049047],[121.637143,25.049773],[121.637131,25.052061],[121.636816,25.052847],[121.636037,25.05317],[121.632881,25.053501],[121.635465,25.054868],[121.635769,25.055202],[121.634779,25.054801],[121.628325,25.053412],[121.627463,25.054069],[121.627433,25.054795],[121.626838,25.054659],[121.625994,25.05475],[121.624264,25.055479]]]},"properties":{"code":"65000110022","name":"橫科里","countyCode":"65000","countyName":"新北市","townCode":"65000110","townName":"汐止區","level":"village","unassigned":false,"note":"","label":[121.62945151242275,25.049174176431798],"bounds":[121.616306,25.040444,121.64149,25.056675],"focusBounds":[121.616306,25.040444,121.64149,25.056675],"color":"#78a7e3"}},{"type":"Feature","id":"65000110023","geometry":{"type":"Polygon","coordinates":[[[121.700109,25.067345],[121.696418,25.065973],[121.695545,25.065919],[121.695265,25.066113],[121.694249,25.066086],[121.693772,25.066292],[121.693406,25.06616],[121.693397,25.066275],[121.691789,25.065758],[121.691979,25.063066],[121.692294,25.062334],[121.691462,25.061678],[121.690353,25.061192],[121.691766,25.06051],[121.692627,25.055773],[121.692829,25.052646],[121.69009,25.051322],[121.687559,25.046725],[121.685544,25.044254],[121.687647,25.041216],[121.688398,25.04161],[121.691235,25.041597],[121.692334,25.041887],[121.692681,25.041597],[121.693577,25.041445],[121.693814,25.040951],[121.695692,25.040759],[121.695799,25.040596],[121.695664,25.040034],[121.695726,25.03931],[121.696347,25.038385],[121.695704,25.038064],[121.695509,25.037776],[121.695534,25.036906],[121.696456,25.035888],[121.696941,25.035101],[121.698061,25.034913],[121.699726,25.033976],[121.700113,25.033988],[121.700601,25.034239],[121.701096,25.034187],[121.701651,25.03391],[121.702288,25.03314],[121.702539,25.032514],[121.703185,25.031983],[121.70393,25.032353],[121.704734,25.032475],[121.705285,25.032839],[121.706454,25.033094],[121.706975,25.033464],[121.707791,25.033506],[121.708303,25.03409],[121.709247,25.033796],[121.710335,25.033791],[121.711044,25.033498],[121.711998,25.033379],[121.712575,25.03349],[121.713113,25.033991],[121.713207,25.034724],[121.713384,25.034944],[121.714164,25.035214],[121.714635,25.035692],[121.715499,25.036056],[121.715776,25.03625],[121.716112,25.037395],[121.71611,25.038507],[121.716641,25.039187],[121.716656,25.040306],[121.715976,25.041747],[121.717807,25.042957],[121.718178,25.043503],[121.718298,25.044051],[121.719808,25.045267],[121.720967,25.047201],[121.721437,25.047405],[121.722276,25.048197],[121.723358,25.048517],[121.724544,25.048318],[121.7266,25.049352],[121.726984,25.04941],[121.727113,25.049579],[121.726986,25.049987],[121.727393,25.050664],[121.727942,25.051268],[121.728929,25.051826],[121.729333,25.052683],[121.730088,25.053348],[121.729672,25.054003],[121.728799,25.054418],[121.728222,25.054955],[121.727537,25.055856],[121.726979,25.056305],[121.726941,25.056718],[121.726133,25.058181],[121.725564,25.058415],[121.722829,25.058454],[121.722479,25.058582],[121.722023,25.059191],[121.721991,25.060111],[121.720806,25.060418],[121.720345,25.060926],[121.719099,25.061518],[121.718482,25.062893],[121.717824,25.063815],[121.717309,25.064287],[121.716743,25.064564],[121.714626,25.066684],[121.713507,25.067405],[121.712832,25.067479],[121.712369,25.068034],[121.710677,25.068022],[121.709421,25.06773],[121.706614,25.066554],[121.705396,25.066841],[121.704267,25.067929],[121.703643,25.067723],[121.702394,25.067781],[121.701867,25.067521],[121.700109,25.067345]]]},"properties":{"code":"65000110023","name":"東山里","countyCode":"65000","countyName":"新北市","townCode":"65000110","townName":"汐止區","level":"village","unassigned":false,"note":"","label":[121.70700460594448,25.05263687163633],"bounds":[121.685544,25.031983,121.730088,25.068034],"focusBounds":[121.685544,25.031983,121.730088,25.068034],"color":"#dd8590"}},{"type":"Feature","id":"65000110024","geometry":{"type":"Polygon","coordinates":[[[121.624808,25.043772],[121.625473,25.046461],[121.623148,25.047172],[121.622398,25.047829],[121.621737,25.047551],[121.621383,25.047753],[121.621291,25.048075],[121.620781,25.048395],[121.620616,25.048161],[121.620394,25.048279],[121.620347,25.048876],[121.620481,25.049056],[121.620239,25.04911],[121.619976,25.048648],[121.619268,25.048488],[121.619205,25.048228],[121.617584,25.048729],[121.616447,25.048694],[121.616519,25.048013],[121.6193,25.043246],[121.619779,25.042867],[121.62036,25.042095],[121.620971,25.042366],[121.620966,25.042681],[121.621235,25.04271],[121.621237,25.043028],[121.621691,25.043021],[121.622551,25.043615],[121.622903,25.044286],[121.623139,25.04415],[121.623053,25.044008],[121.6239,25.043787],[121.624808,25.043772]]]},"properties":{"code":"65000110024","name":"福山里","countyCode":"65000","countyName":"新北市","townCode":"65000110","townName":"汐止區","level":"village","unassigned":false,"note":"","label":[121.62060490046537,25.045595365658855],"bounds":[121.616447,25.042095,121.625473,25.04911],"focusBounds":[121.616447,25.042095,121.625473,25.04911],"color":"#a49ad4"}},{"type":"Feature","id":"65000110025","geometry":{"type":"Polygon","coordinates":[[[121.624808,25.043772],[121.6239,25.043787],[121.623053,25.044008],[121.623139,25.04415],[121.622903,25.044286],[121.622551,25.043615],[121.621691,25.043021],[121.621237,25.043028],[121.621235,25.04271],[121.620966,25.042681],[121.620971,25.042366],[121.62036,25.042095],[121.62114,25.040873],[121.621861,25.040112],[121.622902,25.039792],[121.6235,25.039346],[121.624073,25.040524],[121.624487,25.04226],[121.624808,25.043772]]]},"properties":{"code":"65000110025","name":"宜興里","countyCode":"65000","countyName":"新北市","townCode":"65000110","townName":"汐止區","level":"village","unassigned":false,"note":"","label":[121.62277439087877,25.0418350140397],"bounds":[121.62036,25.039346,121.624808,25.044286],"focusBounds":[121.62036,25.039346,121.624808,25.044286],"color":"#a8bf62"}},{"type":"Feature","id":"65000110026","geometry":{"type":"Polygon","coordinates":[[[121.63626,25.063705],[121.634054,25.065345],[121.633979,25.065727],[121.634527,25.06621],[121.633971,25.06656],[121.634331,25.066846],[121.63409,25.067116],[121.633225,25.066437],[121.632844,25.066957],[121.63308,25.067035],[121.632526,25.067645],[121.631376,25.067412],[121.627588,25.067009],[121.626977,25.066942],[121.627045,25.066589],[121.626809,25.066327],[121.626744,25.065967],[121.626798,25.064539],[121.627667,25.064655],[121.627305,25.063923],[121.627648,25.063728],[121.628023,25.063058],[121.627766,25.062999],[121.628247,25.061205],[121.629818,25.062254],[121.629926,25.062069],[121.629785,25.061994],[121.630095,25.061295],[121.630342,25.061484],[121.630552,25.061299],[121.629986,25.060756],[121.630388,25.060293],[121.631895,25.061866],[121.633089,25.062808],[121.634309,25.063357],[121.63626,25.063705]]]},"properties":{"code":"65000110026","name":"中興里","countyCode":"65000","countyName":"新北市","townCode":"65000110","townName":"汐止區","level":"village","unassigned":false,"note":"","label":[121.63112321512698,25.064655305159484],"bounds":[121.626744,25.060293,121.63626,25.067645],"focusBounds":[121.626744,25.060293,121.63626,25.067645],"color":"#68bec9"}},{"type":"Feature","id":"65000110027","geometry":{"type":"Polygon","coordinates":[[[121.640546,25.073285],[121.639544,25.074027],[121.638651,25.073345],[121.638211,25.074045],[121.638073,25.075249],[121.635815,25.077768],[121.633224,25.082084],[121.631603,25.083578],[121.631708,25.083777],[121.631043,25.085186],[121.630431,25.085944],[121.628308,25.085926],[121.627576,25.084838],[121.627579,25.084304],[121.628516,25.083225],[121.629196,25.081349],[121.62942,25.081402],[121.630276,25.078693],[121.630915,25.079356],[121.631634,25.07934],[121.631979,25.079195],[121.633105,25.077671],[121.632849,25.077155],[121.633123,25.077014],[121.633326,25.077356],[121.634142,25.076482],[121.634682,25.075751],[121.634795,25.075029],[121.634629,25.074593],[121.634076,25.074001],[121.632781,25.073329],[121.631598,25.07306],[121.63045,25.073454],[121.630233,25.07294],[121.630805,25.072884],[121.631359,25.072645],[121.631514,25.07248],[121.63146,25.072163],[121.631202,25.072134],[121.630666,25.072359],[121.630011,25.072276],[121.630238,25.072014],[121.631423,25.071371],[121.632786,25.068627],[121.633325,25.067897],[121.634128,25.068201],[121.635669,25.068991],[121.638385,25.071055],[121.63931,25.071542],[121.640344,25.071856],[121.640546,25.073285]]]},"properties":{"code":"65000110027","name":"湖光里","countyCode":"65000","countyName":"新北市","townCode":"65000110","townName":"汐止區","level":"village","unassigned":false,"note":"","label":[121.63489652598943,25.071588746572402],"bounds":[121.627576,25.067897,121.640546,25.085944],"focusBounds":[121.627576,25.067897,121.640546,25.085944],"color":"#df9f6a"}},{"type":"Feature","id":"65000110028","geometry":{"type":"Polygon","coordinates":[[[121.663976,25.070339],[121.663454,25.070921],[121.663488,25.071178],[121.66386,25.07159],[121.663842,25.071929],[121.662814,25.072203],[121.662119,25.071961],[121.66177,25.07168],[121.661565,25.070168],[121.661306,25.070147],[121.661116,25.069752],[121.661555,25.069633],[121.661829,25.070073],[121.662233,25.070267],[121.663631,25.069973],[121.663976,25.070339]]]},"properties":{"code":"65000110028","name":"仁德里","countyCode":"65000","countyName":"新北市","townCode":"65000110","townName":"汐止區","level":"village","unassigned":false,"note":"","label":[121.66264545898531,25.071032470100658],"bounds":[121.661116,25.069633,121.663976,25.072203],"focusBounds":[121.661116,25.069633,121.663976,25.072203],"color":"#98b69b"}},{"type":"Feature","id":"65000110029","geometry":{"type":"Polygon","coordinates":[[[121.644637,25.069152],[121.642813,25.069089],[121.642635,25.068013],[121.642204,25.068446],[121.641974,25.068977],[121.641215,25.069443],[121.641365,25.070064],[121.641065,25.070132],[121.641108,25.070292],[121.640941,25.070394],[121.64008,25.070602],[121.63847,25.066567],[121.638223,25.066015],[121.642225,25.065499],[121.642248,25.065327],[121.643337,25.065323],[121.643663,25.066202],[121.644637,25.069152]]]},"properties":{"code":"65000110029","name":"厚德里","countyCode":"65000","countyName":"新北市","townCode":"65000110","townName":"汐止區","level":"village","unassigned":false,"note":"","label":[121.64080116048494,25.067472340278265],"bounds":[121.638223,25.065323,121.644637,25.070602],"focusBounds":[121.638223,25.065323,121.644637,25.070602],"color":"#98b69b"}},{"type":"Feature","id":"65000110030","geometry":{"type":"Polygon","coordinates":[[[121.646791,25.062899],[121.647081,25.063612],[121.646858,25.063651],[121.646783,25.064098],[121.647717,25.064613],[121.647998,25.064574],[121.649586,25.065109],[121.643663,25.066202],[121.643337,25.065323],[121.642248,25.065327],[121.642225,25.065499],[121.638223,25.066015],[121.637431,25.064739],[121.636872,25.064116],[121.637634,25.063584],[121.637125,25.06265],[121.637251,25.062602],[121.637514,25.062868],[121.63774,25.062805],[121.637853,25.062442],[121.638453,25.061813],[121.639244,25.062362],[121.640684,25.062409],[121.640993,25.0626],[121.641041,25.062987],[121.641368,25.062982],[121.6411,25.062621],[121.641092,25.062185],[121.641411,25.061478],[121.641337,25.06097],[121.641777,25.060767],[121.646791,25.062899]]]},"properties":{"code":"65000110030","name":"忠孝里","countyCode":"65000","countyName":"新北市","townCode":"65000110","townName":"汐止區","level":"village","unassigned":false,"note":"","label":[121.64340130466167,25.063477081607388],"bounds":[121.636872,25.060767,121.649586,25.066202],"focusBounds":[121.636872,25.060767,121.649586,25.066202],"color":"#58b99d"}},{"type":"Feature","id":"65000110031","geometry":{"type":"Polygon","coordinates":[[[121.658416,25.063413],[121.658131,25.064188],[121.657431,25.063895],[121.653707,25.062324],[121.654469,25.060611],[121.654307,25.060611],[121.654254,25.060387],[121.654486,25.060234],[121.65595,25.059276],[121.659283,25.059689],[121.659083,25.060646],[121.659588,25.060648],[121.65969,25.060916],[121.659117,25.061787],[121.657964,25.062896],[121.658416,25.063413]]]},"properties":{"code":"65000110031","name":"自強里","countyCode":"65000","countyName":"新北市","townCode":"65000110","townName":"汐止區","level":"village","unassigned":false,"note":"","label":[121.65681044571602,25.061337161913578],"bounds":[121.653707,25.059276,121.65969,25.064188],"focusBounds":[121.653707,25.059276,121.65969,25.064188],"color":"#78a7e3"}},{"type":"Feature","id":"65000110032","geometry":{"type":"Polygon","coordinates":[[[121.654486,25.060234],[121.654254,25.060387],[121.654307,25.060611],[121.654469,25.060611],[121.653707,25.062324],[121.651577,25.061594],[121.649693,25.061438],[121.64688,25.060959],[121.645735,25.060543],[121.644774,25.059998],[121.642903,25.058512],[121.64299,25.058366],[121.650286,25.055567],[121.64983,25.054577],[121.64983,25.054],[121.650394,25.053626],[121.651214,25.053335],[121.651772,25.05282],[121.651767,25.052095],[121.652067,25.05194],[121.651965,25.05175],[121.652642,25.051195],[121.652808,25.050694],[121.652708,25.049993],[121.653507,25.049468],[121.653866,25.049449],[121.654253,25.049794],[121.654569,25.052448],[121.653625,25.052779],[121.653569,25.057801],[121.653848,25.058005],[121.654471,25.057932],[121.654938,25.057705],[121.655255,25.057248],[121.655523,25.05735],[121.655469,25.057856],[121.655717,25.058449],[121.655604,25.058832],[121.654918,25.059069],[121.654486,25.060234]]]},"properties":{"code":"65000110032","name":"文化里","countyCode":"65000","countyName":"新北市","townCode":"65000110","townName":"汐止區","level":"village","unassigned":false,"note":"","label":[121.65064822091017,25.05839993854049],"bounds":[121.642903,25.049449,121.655717,25.062324],"focusBounds":[121.642903,25.049449,121.655717,25.062324],"color":"#dd8590"}},{"type":"Feature","id":"65000110033","geometry":{"type":"Polygon","coordinates":[[[121.628996,25.074003],[121.628501,25.074094],[121.627521,25.0755],[121.625648,25.074988],[121.626127,25.073806],[121.626739,25.073348],[121.626876,25.072724],[121.627351,25.072342],[121.627476,25.072056],[121.628195,25.072186],[121.629063,25.072116],[121.62908,25.071755],[121.629357,25.071305],[121.628933,25.070978],[121.630037,25.069544],[121.630899,25.069866],[121.631489,25.068658],[121.631895,25.068733],[121.63189,25.068317],[121.632066,25.068345],[121.632103,25.068199],[121.631565,25.06811],[121.631614,25.067676],[121.631188,25.068028],[121.630925,25.06789],[121.631376,25.067412],[121.632526,25.067645],[121.633325,25.067897],[121.632786,25.068627],[121.631423,25.071371],[121.630238,25.072014],[121.630011,25.072276],[121.629863,25.073243],[121.629192,25.073985],[121.628996,25.074003]]]},"properties":{"code":"65000110033","name":"金龍里","countyCode":"65000","countyName":"新北市","townCode":"65000110","townName":"汐止區","level":"village","unassigned":false,"note":"","label":[121.63035634153582,25.07080649643122],"bounds":[121.625648,25.067412,121.633325,25.0755],"focusBounds":[121.625648,25.067412,121.633325,25.0755],"color":"#dd8590"}},{"type":"Feature","id":"65000110034","geometry":{"type":"Polygon","coordinates":[[[121.637431,25.064739],[121.636861,25.065215],[121.637039,25.065486],[121.636747,25.065704],[121.63651,25.065509],[121.634594,25.067082],[121.634734,25.067456],[121.634128,25.068201],[121.633325,25.067897],[121.632526,25.067645],[121.63308,25.067035],[121.632844,25.066957],[121.633225,25.066437],[121.63409,25.067116],[121.634331,25.066846],[121.633971,25.06656],[121.634527,25.06621],[121.633979,25.065727],[121.634054,25.065345],[121.63626,25.063705],[121.636872,25.064116],[121.637431,25.064739]]]},"properties":{"code":"65000110034","name":"福德里","countyCode":"65000","countyName":"新北市","townCode":"65000110","townName":"汐止區","level":"village","unassigned":false,"note":"","label":[121.63510929166462,25.06560958393692],"bounds":[121.632526,25.063705,121.637431,25.068201],"focusBounds":[121.632526,25.063705,121.637431,25.068201],"color":"#a49ad4"}},{"type":"Feature","id":"65000110035","geometry":{"type":"Polygon","coordinates":[[[121.634128,25.068201],[121.634734,25.067456],[121.634594,25.067082],[121.63651,25.065509],[121.636747,25.065704],[121.637039,25.065486],[121.636861,25.065215],[121.637431,25.064739],[121.638223,25.066015],[121.63847,25.066567],[121.635669,25.068991],[121.634128,25.068201]]]},"properties":{"code":"65000110035","name":"興福里","countyCode":"65000","countyName":"新北市","townCode":"65000110","townName":"汐止區","level":"village","unassigned":false,"note":"","label":[121.63636716207347,25.06700629241667],"bounds":[121.634128,25.064739,121.63847,25.068991],"focusBounds":[121.634128,25.064739,121.63847,25.068991],"color":"#a8bf62"}},{"type":"Feature","id":"65000110036","geometry":{"type":"Polygon","coordinates":[[[121.64008,25.070602],[121.640344,25.071856],[121.63931,25.071542],[121.638385,25.071055],[121.635669,25.068991],[121.63847,25.066567],[121.64008,25.070602]]]},"properties":{"code":"65000110036","name":"康福里","countyCode":"65000","countyName":"新北市","townCode":"65000110","townName":"汐止區","level":"village","unassigned":false,"note":"","label":[121.63800210511151,25.069080233367117],"bounds":[121.635669,25.066567,121.640344,25.071856],"focusBounds":[121.635669,25.066567,121.640344,25.071856],"color":"#68bec9"}},{"type":"Feature","id":"65000110037","geometry":{"type":"Polygon","coordinates":[[[121.630276,25.078693],[121.62942,25.081402],[121.629196,25.081349],[121.628516,25.083225],[121.627579,25.084304],[121.628018,25.083529],[121.627666,25.082555],[121.627234,25.082221],[121.625937,25.081951],[121.625309,25.081167],[121.624215,25.080259],[121.624147,25.079983],[121.624521,25.079126],[121.624302,25.078822],[121.6239,25.078684],[121.623873,25.078389],[121.624014,25.078148],[121.624243,25.078108],[121.625079,25.078835],[121.624808,25.077775],[121.624483,25.077526],[121.623412,25.077269],[121.623234,25.077107],[121.623222,25.075932],[121.622773,25.074659],[121.62261,25.074531],[121.622011,25.074826],[121.621601,25.074789],[121.621227,25.07389],[121.620629,25.073249],[121.620653,25.072633],[121.622237,25.072027],[121.622581,25.072075],[121.623525,25.072639],[121.623352,25.072938],[121.62485,25.073482],[121.624558,25.074939],[121.625648,25.074988],[121.627521,25.0755],[121.628501,25.074094],[121.628996,25.074003],[121.629781,25.075337],[121.629362,25.075812],[121.629324,25.076546],[121.629586,25.07744],[121.629977,25.077625],[121.630276,25.078693]]]},"properties":{"code":"65000110037","name":"忠山里","countyCode":"65000","countyName":"新北市","townCode":"65000110","townName":"汐止區","level":"village","unassigned":false,"note":"","label":[121.62738153672623,25.078240673638263],"bounds":[121.620629,25.072027,121.630276,25.084304],"focusBounds":[121.620629,25.072027,121.630276,25.084304],"color":"#98b69b"}},{"type":"Feature","id":"65000110038","geometry":{"type":"Polygon","coordinates":[[[121.630388,25.060293],[121.629986,25.060756],[121.630552,25.061299],[121.630342,25.061484],[121.630095,25.061295],[121.629785,25.061994],[121.629926,25.062069],[121.629818,25.062254],[121.628247,25.061205],[121.627766,25.062999],[121.628023,25.063058],[121.627648,25.063728],[121.627305,25.063923],[121.627667,25.064655],[121.626798,25.064539],[121.626744,25.065967],[121.626809,25.066327],[121.627045,25.066589],[121.626977,25.066942],[121.617957,25.066281],[121.617783,25.06556],[121.617888,25.065109],[121.617564,25.065185],[121.617112,25.065863],[121.616721,25.065797],[121.616669,25.065061],[121.61614,25.063934],[121.619001,25.062822],[121.620775,25.061357],[121.621754,25.060178],[121.622508,25.058439],[121.624067,25.056163],[121.624264,25.055479],[121.625994,25.05475],[121.626838,25.054659],[121.627433,25.054795],[121.628217,25.055364],[121.628775,25.056171],[121.629233,25.057399],[121.629619,25.059261],[121.630388,25.060293]]]},"properties":{"code":"65000110038","name":"環河里","countyCode":"65000","countyName":"新北市","townCode":"65000110","townName":"汐止區","level":"village","unassigned":false,"note":"","label":[121.62437320171283,25.062075137283664],"bounds":[121.61614,25.054659,121.630552,25.066942],"focusBounds":[121.61614,25.054659,121.630552,25.066942],"color":"#efb44f"}},{"type":"Feature","id":"65000110039","geometry":{"type":"Polygon","coordinates":[[[121.638917,25.040444],[121.63868,25.04071],[121.638235,25.040814],[121.637919,25.041195],[121.637578,25.04205],[121.637696,25.042307],[121.63741,25.043249],[121.637082,25.043588],[121.637066,25.043851],[121.636647,25.044129],[121.635864,25.043959],[121.635676,25.044032],[121.635408,25.044357],[121.635603,25.045087],[121.634063,25.045446],[121.633213,25.045414],[121.63168,25.044709],[121.630682,25.044962],[121.629933,25.044908],[121.629303,25.044628],[121.627806,25.04339],[121.626059,25.043007],[121.624487,25.04226],[121.624073,25.040524],[121.6235,25.039346],[121.624447,25.038441],[121.624931,25.037724],[121.625302,25.037667],[121.626048,25.037901],[121.626403,25.037872],[121.627485,25.037277],[121.629645,25.036626],[121.629967,25.036257],[121.63021,25.035079],[121.631799,25.035581],[121.632627,25.036439],[121.634207,25.037623],[121.637184,25.039034],[121.638917,25.040444]]]},"properties":{"code":"65000110039","name":"東勢里","countyCode":"65000","countyName":"新北市","townCode":"65000110","townName":"汐止區","level":"village","unassigned":false,"note":"","label":[121.63103093286168,25.04054625174031],"bounds":[121.6235,25.035079,121.638917,25.045446],"focusBounds":[121.6235,25.035079,121.638917,25.045446],"color":"#98b69b"}},{"type":"Feature","id":"65000110040","geometry":{"type":"Polygon","coordinates":[[[121.64008,25.070602],[121.640941,25.070394],[121.641108,25.070292],[121.641065,25.070132],[121.641365,25.070064],[121.641215,25.069443],[121.641974,25.068977],[121.642204,25.068446],[121.642635,25.068013],[121.642813,25.069089],[121.644637,25.069152],[121.647743,25.069259],[121.649727,25.072539],[121.650184,25.073853],[121.650202,25.074515],[121.649875,25.075182],[121.64943,25.075473],[121.64847,25.07554],[121.645584,25.075416],[121.643149,25.075074],[121.641919,25.07466],[121.640986,25.074122],[121.640546,25.073285],[121.640344,25.071856],[121.64008,25.070602]]]},"properties":{"code":"65000110040","name":"山光里","countyCode":"65000","countyName":"新北市","townCode":"65000110","townName":"汐止區","level":"village","unassigned":false,"note":"","label":[121.64512267654618,25.072259672560058],"bounds":[121.64008,25.068013,121.650202,25.07554],"focusBounds":[121.64008,25.068013,121.650202,25.07554],"color":"#58b99d"}},{"type":"Feature","id":"65000110041","geometry":{"type":"Polygon","coordinates":[[[121.650038,25.063375],[121.650079,25.063186],[121.654634,25.064796],[121.655606,25.065293],[121.657672,25.065929],[121.657364,25.066539],[121.657567,25.066566],[121.657567,25.066688],[121.657261,25.066799],[121.657253,25.06704],[121.656805,25.067192],[121.655251,25.066585],[121.652321,25.064273],[121.650744,25.063845],[121.650038,25.063375]]]},"properties":{"code":"65000110041","name":"大同里","countyCode":"65000","countyName":"新北市","townCode":"65000110","townName":"汐止區","level":"village","unassigned":false,"note":"","label":[121.65551908609442,25.06596881671514],"bounds":[121.650038,25.063186,121.657672,25.067192],"focusBounds":[121.650038,25.063186,121.657672,25.067192],"color":"#efb44f"}},{"type":"Feature","id":"65000110042","geometry":{"type":"Polygon","coordinates":[[[121.669613,25.061759],[121.669887,25.068137],[121.668487,25.068147],[121.667768,25.068353],[121.668058,25.068708],[121.667791,25.068912],[121.668253,25.069393],[121.668371,25.069315],[121.669251,25.069815],[121.669841,25.070378],[121.669325,25.070848],[121.669992,25.072031],[121.668462,25.072842],[121.667349,25.074856],[121.667064,25.074015],[121.666998,25.072223],[121.666531,25.071523],[121.666357,25.070751],[121.665814,25.070827],[121.665423,25.070011],[121.665809,25.069787],[121.665632,25.068402],[121.666079,25.067236],[121.667549,25.065007],[121.669613,25.061759]]]},"properties":{"code":"65000110042","name":"崇德里","countyCode":"65000","countyName":"新北市","townCode":"65000110","townName":"汐止區","level":"village","unassigned":false,"note":"","label":[121.66831621566104,25.066621133318684],"bounds":[121.665423,25.061759,121.669992,25.074856],"focusBounds":[121.665423,25.061759,121.669992,25.074856],"color":"#78a7e3"}},{"type":"Feature","id":"65000110043","geometry":{"type":"Polygon","coordinates":[[[121.645584,25.075416],[121.645863,25.076862],[121.645923,25.078444],[121.645721,25.079838],[121.645346,25.080166],[121.644984,25.080188],[121.642548,25.079127],[121.641858,25.07832],[121.641044,25.078299],[121.640801,25.078729],[121.64093,25.080474],[121.639901,25.080694],[121.640023,25.081034],[121.639434,25.081312],[121.639107,25.081775],[121.638541,25.083242],[121.638511,25.084695],[121.638013,25.084727],[121.636647,25.08883],[121.635376,25.090843],[121.632559,25.092899],[121.629731,25.09736],[121.626009,25.096441],[121.626255,25.095877],[121.625367,25.095106],[121.625063,25.093667],[121.625533,25.093065],[121.625762,25.092237],[121.626319,25.091466],[121.625971,25.090785],[121.625985,25.090516],[121.628172,25.088182],[121.6283,25.087057],[121.628615,25.086471],[121.628308,25.085926],[121.630431,25.085944],[121.631043,25.085186],[121.631708,25.083777],[121.631603,25.083578],[121.633224,25.082084],[121.635815,25.077768],[121.638073,25.075249],[121.638211,25.074045],[121.638651,25.073345],[121.639544,25.074027],[121.640546,25.073285],[121.640986,25.074122],[121.641919,25.07466],[121.643149,25.075074],[121.645584,25.075416]]]},"properties":{"code":"65000110043","name":"湖興里","countyCode":"65000","countyName":"新北市","townCode":"65000110","townName":"汐止區","level":"village","unassigned":false,"note":"","label":[121.63450027657991,25.085246314021575],"bounds":[121.625063,25.073285,121.645923,25.09736],"focusBounds":[121.625063,25.073285,121.645923,25.09736],"color":"#dd8590"}},{"type":"Feature","id":"65000110044","geometry":{"type":"Polygon","coordinates":[[[121.617243,25.101394],[121.618755,25.105047],[121.619782,25.109384],[121.618971,25.109425],[121.61903,25.10993],[121.619926,25.109921],[121.620151,25.110926],[121.620727,25.111814],[121.621143,25.112135],[121.62194,25.112024],[121.623152,25.113078],[121.623593,25.113588],[121.624867,25.115785],[121.624163,25.116283],[121.620639,25.120044],[121.617829,25.122357],[121.616557,25.122163],[121.615826,25.122529],[121.614525,25.122857],[121.611804,25.12318],[121.610853,25.123573],[121.610146,25.124482],[121.608601,25.124956],[121.607858,25.124853],[121.606949,25.124934],[121.606331,25.124633],[121.605885,25.124633],[121.605665,25.124434],[121.605267,25.123476],[121.604845,25.123347],[121.604429,25.12353],[121.604388,25.123901],[121.604881,25.124165],[121.60516,25.124816],[121.606236,25.126225],[121.606396,25.126645],[121.607192,25.126957],[121.607264,25.127188],[121.606836,25.127333],[121.606462,25.127247],[121.605,25.126349],[121.604727,25.125719],[121.604465,25.125709],[121.60432,25.125852],[121.603782,25.125767],[121.603462,25.1255],[121.602733,25.126197],[121.601719,25.126025],[121.601168,25.124325],[121.601185,25.123254],[121.600851,25.122479],[121.600766,25.121847],[121.599811,25.120332],[121.599361,25.120419],[121.598868,25.120117],[121.598074,25.117811],[121.597382,25.116596],[121.597501,25.116212],[121.596102,25.114357],[121.595685,25.114156],[121.59549,25.113494],[121.596322,25.11239],[121.596446,25.111423],[121.597491,25.109508],[121.598385,25.10891],[121.599103,25.108897],[121.599463,25.108587],[121.599746,25.108409],[121.600184,25.108584],[121.601146,25.108392],[121.602357,25.108363],[121.602951,25.108161],[121.603462,25.107771],[121.604757,25.107352],[121.6063,25.107286],[121.606763,25.106964],[121.607996,25.106757],[121.610383,25.105164],[121.611894,25.104655],[121.613536,25.104581],[121.61511,25.103994],[121.615464,25.10384],[121.616176,25.103094],[121.616692,25.102344],[121.616802,25.101894],[121.617243,25.101394]]]},"properties":{"code":"65000110044","name":"長青里","countyCode":"65000","countyName":"新北市","townCode":"65000110","townName":"汐止區","level":"village","unassigned":false,"note":"","label":[121.61013085117312,25.114909201654196],"bounds":[121.59549,25.101394,121.624867,25.127333],"focusBounds":[121.59549,25.101394,121.624867,25.127333],"color":"#a49ad4"}},{"type":"Feature","id":"65000110045","geometry":{"type":"Polygon","coordinates":[[[121.663434,25.064256],[121.664518,25.063153],[121.665439,25.062482],[121.66567,25.062562],[121.665718,25.062732],[121.665355,25.063833],[121.667549,25.065007],[121.666079,25.067236],[121.661914,25.065753],[121.663434,25.064256]]]},"properties":{"code":"65000110045","name":"福安里","countyCode":"65000","countyName":"新北市","townCode":"65000110","townName":"汐止區","level":"village","unassigned":false,"note":"","label":[121.6646772903553,25.06514310521309],"bounds":[121.661914,25.062482,121.667549,25.067236],"focusBounds":[121.661914,25.062482,121.667549,25.067236],"color":"#a8bf62"}},{"type":"Feature","id":"65000110046","geometry":{"type":"Polygon","coordinates":[[[121.669613,25.061759],[121.667549,25.065007],[121.665355,25.063833],[121.665718,25.062732],[121.66567,25.062562],[121.665439,25.062482],[121.664518,25.063153],[121.663434,25.064256],[121.66196,25.063164],[121.661349,25.063005],[121.660142,25.062939],[121.659637,25.063216],[121.65915,25.063028],[121.65876,25.06359],[121.658416,25.063413],[121.657964,25.062896],[121.659117,25.061787],[121.65969,25.060916],[121.659588,25.060648],[121.659083,25.060646],[121.659283,25.059689],[121.660044,25.058687],[121.661886,25.056868],[121.66399,25.052874],[121.669245,25.054978],[121.669502,25.054574],[121.670001,25.054851],[121.669754,25.055177],[121.672986,25.056475],[121.671483,25.058826],[121.670242,25.058374],[121.669416,25.058704],[121.66948,25.058962],[121.669201,25.059103],[121.668692,25.060003],[121.669613,25.061759]]]},"properties":{"code":"65000110046","name":"秀山里","countyCode":"65000","countyName":"新北市","townCode":"65000110","townName":"汐止區","level":"village","unassigned":false,"note":"","label":[121.6652580571289,25.058680508144604],"bounds":[121.657964,25.052874,121.672986,25.065007],"focusBounds":[121.657964,25.052874,121.672986,25.065007],"color":"#df9f6a"}},{"type":"Feature","id":"65000110047","geometry":{"type":"Polygon","coordinates":[[[121.665443,25.074973],[121.666198,25.07665],[121.665667,25.07745],[121.663554,25.076554],[121.661225,25.076156],[121.660425,25.075609],[121.65971,25.074635],[121.659565,25.073579],[121.662617,25.073199],[121.665421,25.07231],[121.665537,25.073009],[121.665382,25.074134],[121.665443,25.074973]]]},"properties":{"code":"65000110047","name":"建成里","countyCode":"65000","countyName":"新北市","townCode":"65000110","townName":"汐止區","level":"village","unassigned":false,"note":"","label":[121.66323101175166,25.074751946216775],"bounds":[121.659565,25.07231,121.666198,25.07745],"focusBounds":[121.659565,25.07231,121.666198,25.07745],"color":"#df9f6a"}},{"type":"Feature","id":"65000110048","geometry":{"type":"Polygon","coordinates":[[[121.665421,25.07231],[121.662617,25.073199],[121.659565,25.073579],[121.65946,25.072211],[121.658967,25.070677],[121.6592,25.07012],[121.659468,25.07011],[121.659676,25.070341],[121.659979,25.070207],[121.660371,25.070971],[121.660918,25.070987],[121.66177,25.07168],[121.662119,25.071961],[121.662814,25.072203],[121.663842,25.071929],[121.66386,25.07159],[121.663488,25.071178],[121.663454,25.070921],[121.663976,25.070339],[121.66493,25.071416],[121.665421,25.07231]]]},"properties":{"code":"65000110048","name":"城中里","countyCode":"65000","countyName":"新北市","townCode":"65000110","townName":"汐止區","level":"village","unassigned":false,"note":"","label":[121.66059778891689,25.07221414379077],"bounds":[121.658967,25.07011,121.665421,25.073579],"focusBounds":[121.658967,25.07011,121.665421,25.073579],"color":"#c38cb8"}},{"type":"Feature","id":"65000110049","geometry":{"type":"Polygon","coordinates":[[[121.630011,25.072276],[121.630666,25.072359],[121.631202,25.072134],[121.63146,25.072163],[121.631514,25.07248],[121.631359,25.072645],[121.630805,25.072884],[121.630233,25.07294],[121.63045,25.073454],[121.631598,25.07306],[121.632781,25.073329],[121.634076,25.074001],[121.634629,25.074593],[121.634795,25.075029],[121.634682,25.075751],[121.634142,25.076482],[121.633326,25.077356],[121.633123,25.077014],[121.632849,25.077155],[121.633105,25.077671],[121.631979,25.079195],[121.631634,25.07934],[121.630915,25.079356],[121.630276,25.078693],[121.629977,25.077625],[121.629586,25.07744],[121.629324,25.076546],[121.629362,25.075812],[121.629781,25.075337],[121.628996,25.074003],[121.629192,25.073985],[121.629863,25.073243],[121.630011,25.072276]]]},"properties":{"code":"65000110049","name":"湖蓮里","countyCode":"65000","countyName":"新北市","townCode":"65000110","townName":"汐止區","level":"village","unassigned":false,"note":"","label":[121.63175074966183,25.075529886835696],"bounds":[121.628996,25.072134,121.634795,25.079356],"focusBounds":[121.628996,25.072134,121.634795,25.079356],"color":"#58b99d"}},{"type":"Feature","id":"65000110050","geometry":{"type":"Polygon","coordinates":[[[121.688805,25.071629],[121.688421,25.071738],[121.687766,25.072384],[121.685787,25.073511],[121.685548,25.073876],[121.685134,25.073996],[121.684804,25.074538],[121.683986,25.07478],[121.68163,25.07695],[121.681106,25.077069],[121.680094,25.074575],[121.68087,25.074077],[121.682951,25.071889],[121.68589,25.070074],[121.68788,25.06847],[121.688273,25.068486],[121.688397,25.068303],[121.688617,25.067055],[121.688231,25.06643],[121.686722,25.065655],[121.68497,25.064106],[121.684571,25.063486],[121.68485,25.060407],[121.687274,25.059223],[121.688896,25.060456],[121.690353,25.061192],[121.691462,25.061678],[121.692294,25.062334],[121.691979,25.063066],[121.691789,25.065758],[121.693397,25.066275],[121.693406,25.06616],[121.693772,25.066292],[121.694249,25.066086],[121.695265,25.066113],[121.695545,25.065919],[121.696418,25.065973],[121.700109,25.067345],[121.699359,25.067447],[121.698882,25.067923],[121.697665,25.069198],[121.696535,25.070094],[121.695234,25.069975],[121.693526,25.070299],[121.692072,25.070312],[121.690848,25.070929],[121.690241,25.0717],[121.689956,25.071754],[121.689302,25.071555],[121.688805,25.071629]]]},"properties":{"code":"65000110050","name":"保新里","countyCode":"65000","countyName":"新北市","townCode":"65000110","townName":"汐止區","level":"village","unassigned":false,"note":"","label":[121.69087378459267,25.0679871843563],"bounds":[121.680094,25.059223,121.700109,25.077069],"focusBounds":[121.680094,25.059223,121.700109,25.077069],"color":"#efb44f"}}]}
