{"type":"FeatureCollection","features":[{"type":"Feature","id":"65000050001","geometry":{"type":"Polygon","coordinates":[[[121.442454,25.034032],[121.442497,25.032769],[121.442952,25.032845],[121.442935,25.031639],[121.44318,25.031642],[121.443187,25.031427],[121.445557,25.031307],[121.44647,25.031509],[121.446267,25.034807],[121.442454,25.034032]]]},"properties":{"code":"65000050001","name":"海山里","countyCode":"65000","countyName":"新北市","townCode":"65000050","townName":"新莊區","level":"village","unassigned":false,"note":"","label":[121.44462372354495,25.032913662381645],"bounds":[121.442454,25.031307,121.44647,25.034807],"focusBounds":[121.442454,25.031307,121.44647,25.034807],"color":"#dd8590"}},{"type":"Feature","id":"65000050002","geometry":{"type":"Polygon","coordinates":[[[121.467288,25.057387],[121.466751,25.057216],[121.466824,25.056974],[121.466577,25.056918],[121.466501,25.057191],[121.465867,25.057204],[121.46555,25.057406],[121.46353,25.0573],[121.463499,25.057893],[121.462981,25.057845],[121.463136,25.05728],[121.459705,25.057169],[121.459717,25.056281],[121.459705,25.051321],[121.459696,25.04946],[121.467385,25.049287],[121.468011,25.051829],[121.468687,25.052978],[121.468595,25.053555],[121.468088,25.054162],[121.467767,25.055101],[121.467381,25.056091],[121.467288,25.057387]]]},"properties":{"code":"65000050002","name":"頭前里","countyCode":"65000","countyName":"新北市","townCode":"65000050","townName":"新莊區","level":"village","unassigned":false,"note":"","label":[121.46381780278365,25.053341239257172],"bounds":[121.459696,25.049287,121.468687,25.057893],"focusBounds":[121.459696,25.049287,121.468687,25.057893],"color":"#a49ad4"}},{"type":"Feature","id":"65000050003","geometry":{"type":"Polygon","coordinates":[[[121.443187,25.031427],[121.44318,25.031642],[121.442935,25.031639],[121.442952,25.032845],[121.442497,25.032769],[121.442454,25.034032],[121.442017,25.033928],[121.441071,25.033737],[121.438854,25.030176],[121.437681,25.027838],[121.438374,25.027888],[121.439591,25.027489],[121.440375,25.027535],[121.441135,25.027966],[121.441582,25.028956],[121.44322,25.029633],[121.443187,25.031427]]]},"properties":{"code":"65000050003","name":"國泰里","countyCode":"65000","countyName":"新北市","townCode":"65000050","townName":"新莊區","level":"village","unassigned":false,"note":"","label":[121.44112493572462,25.030602213175275],"bounds":[121.437681,25.027489,121.44322,25.034032],"focusBounds":[121.437681,25.027489,121.44322,25.034032],"color":"#a8bf62"}},{"type":"Feature","id":"65000050004","geometry":{"type":"Polygon","coordinates":[[[121.446324,25.034819],[121.446267,25.034807],[121.44647,25.031509],[121.447934,25.03167],[121.448195,25.031953],[121.449367,25.032233],[121.449064,25.033223],[121.448694,25.033189],[121.448683,25.033369],[121.448415,25.033351],[121.448335,25.035246],[121.446324,25.034819]]]},"properties":{"code":"65000050004","name":"全安里","countyCode":"65000","countyName":"新北市","townCode":"65000050","townName":"新莊區","level":"village","unassigned":false,"note":"","label":[121.44739383568685,25.033328730043323],"bounds":[121.446267,25.031509,121.449367,25.035246],"focusBounds":[121.446267,25.031509,121.449367,25.035246],"color":"#68bec9"}},{"type":"Feature","id":"65000050005","geometry":{"type":"Polygon","coordinates":[[[121.459705,25.057169],[121.463136,25.05728],[121.462981,25.057845],[121.463499,25.057893],[121.46353,25.0573],[121.46555,25.057406],[121.465867,25.057204],[121.466501,25.057191],[121.466577,25.056918],[121.466824,25.056974],[121.466751,25.057216],[121.467288,25.057387],[121.467359,25.058763],[121.466068,25.060559],[121.465345,25.062519],[121.465136,25.063829],[121.465369,25.06527],[121.465549,25.065528],[121.465166,25.065757],[121.464974,25.067062],[121.464679,25.067608],[121.463003,25.068613],[121.461734,25.068823],[121.460033,25.068267],[121.462432,25.066947],[121.46274,25.066332],[121.46287,25.065474],[121.457123,25.062985],[121.453758,25.06292],[121.453497,25.062491],[121.453478,25.061717],[121.452546,25.061587],[121.452561,25.061177],[121.45311,25.061018],[121.45312,25.060552],[121.459766,25.060496],[121.459705,25.057169]]]},"properties":{"code":"65000050005","name":"福基里","countyCode":"65000","countyName":"新北市","townCode":"65000050","townName":"新莊區","level":"village","unassigned":false,"note":"","label":[121.46232664349749,25.0619194169128],"bounds":[121.452546,25.056918,121.467359,25.068823],"focusBounds":[121.452546,25.056918,121.467359,25.068823],"color":"#df9f6a"}},{"type":"Feature","id":"65000050006","geometry":{"type":"Polygon","coordinates":[[[121.447934,25.03167],[121.44647,25.031509],[121.445557,25.031307],[121.443187,25.031427],[121.44322,25.029633],[121.44448,25.029835],[121.445422,25.029423],[121.446176,25.029324],[121.446588,25.028965],[121.446716,25.029032],[121.446543,25.029442],[121.446513,25.030472],[121.448025,25.030522],[121.448339,25.030826],[121.44813,25.030787],[121.447934,25.03167]]]},"properties":{"code":"65000050006","name":"豐年里","countyCode":"65000","countyName":"新北市","townCode":"65000050","townName":"新莊區","level":"village","unassigned":false,"note":"","label":[121.44552243879544,25.0303590607584],"bounds":[121.443187,25.028965,121.448339,25.03167],"focusBounds":[121.443187,25.028965,121.448339,25.03167],"color":"#c38cb8"}},{"type":"Feature","id":"65000050007","geometry":{"type":"Polygon","coordinates":[[[121.445635,25.038091],[121.443915,25.037849],[121.442872,25.038403],[121.442032,25.038469],[121.442017,25.033928],[121.442454,25.034032],[121.446267,25.034807],[121.446324,25.034819],[121.446168,25.036528],[121.445752,25.036522],[121.445635,25.038091]]]},"properties":{"code":"65000050007","name":"忠孝里","countyCode":"65000","countyName":"新北市","townCode":"65000050","townName":"新莊區","level":"village","unassigned":false,"note":"","label":[121.44385924701866,25.036098450082676],"bounds":[121.442017,25.033928,121.446324,25.038469],"focusBounds":[121.442017,25.033928,121.446324,25.038469],"color":"#98b69b"}},{"type":"Feature","id":"65000050008","geometry":{"type":"Polygon","coordinates":[[[121.453947,25.040005],[121.453953,25.039588],[121.454831,25.039611],[121.455045,25.038478],[121.456572,25.038329],[121.456969,25.038509],[121.457203,25.038253],[121.457004,25.038041],[121.457544,25.037134],[121.458942,25.038004],[121.457338,25.03943],[121.457717,25.03996],[121.457682,25.040898],[121.456552,25.040624],[121.454861,25.040394],[121.453947,25.040005]]]},"properties":{"code":"65000050008","name":"恆安里","countyCode":"65000","countyName":"新北市","townCode":"65000050","townName":"新莊區","level":"village","unassigned":false,"note":"","label":[121.45615660140778,25.039470110757335],"bounds":[121.453947,25.037134,121.458942,25.040898],"focusBounds":[121.453947,25.037134,121.458942,25.040898],"color":"#58b99d"}},{"type":"Feature","id":"65000050009","geometry":{"type":"Polygon","coordinates":[[[121.425456,25.023641],[121.428868,25.025737],[121.428494,25.0271],[121.426926,25.026574],[121.424815,25.025988],[121.424238,25.025614],[121.424967,25.024365],[121.425456,25.023641]]]},"properties":{"code":"65000050009","name":"後港里","countyCode":"65000","countyName":"新北市","townCode":"65000050","townName":"新莊區","level":"village","unassigned":false,"note":"","label":[121.42651951534322,25.025482898387175],"bounds":[121.424238,25.023641,121.428868,25.0271],"focusBounds":[121.424238,25.023641,121.428868,25.0271],"color":"#efb44f"}},{"type":"Feature","id":"65000050010","geometry":{"type":"Polygon","coordinates":[[[121.448335,25.035246],[121.448415,25.033351],[121.448683,25.033369],[121.448694,25.033189],[121.449064,25.033223],[121.449367,25.032233],[121.450272,25.03249],[121.450116,25.035625],[121.448438,25.035268],[121.448335,25.035246]]]},"properties":{"code":"65000050010","name":"文衡里","countyCode":"65000","countyName":"新北市","townCode":"65000050","townName":"新莊區","level":"village","unassigned":false,"note":"","label":[121.44928578328444,25.034084064935684],"bounds":[121.448335,25.032233,121.450272,25.035625],"focusBounds":[121.448335,25.032233,121.450272,25.035625],"color":"#dd8590"}},{"type":"Feature","id":"65000050011","geometry":{"type":"Polygon","coordinates":[[[121.456552,25.040624],[121.456252,25.042539],[121.454429,25.044082],[121.453241,25.043837],[121.452559,25.043699],[121.452637,25.041152],[121.452232,25.039593],[121.452633,25.039678],[121.453947,25.040005],[121.454861,25.040394],[121.456552,25.040624]]]},"properties":{"code":"65000050011","name":"中美里","countyCode":"65000","countyName":"新北市","townCode":"65000050","townName":"新莊區","level":"village","unassigned":false,"note":"","label":[121.45428779108197,25.04197788707763],"bounds":[121.452232,25.039593,121.456552,25.044082],"focusBounds":[121.452232,25.039593,121.456552,25.044082],"color":"#a49ad4"}},{"type":"Feature","id":"65000050012","geometry":{"type":"Polygon","coordinates":[[[121.423713,25.021794],[121.425601,25.020722],[121.426398,25.022058],[121.425456,25.023641],[121.424967,25.024365],[121.424766,25.024091],[121.424442,25.024229],[121.424664,25.023913],[121.424321,25.023915],[121.424074,25.023376],[121.424464,25.023097],[121.424261,25.023069],[121.423713,25.021794]]]},"properties":{"code":"65000050012","name":"八德里","countyCode":"65000","countyName":"新北市","townCode":"65000050","townName":"新莊區","level":"village","unassigned":false,"note":"","label":[121.42507455501463,25.022247299497593],"bounds":[121.423713,25.020722,121.426398,25.024365],"focusBounds":[121.423713,25.020722,121.426398,25.024365],"color":"#a8bf62"}},{"type":"Feature","id":"65000050013","geometry":{"type":"Polygon","coordinates":[[[121.452786,25.031367],[121.452206,25.033086],[121.451732,25.032879],[121.451486,25.03312],[121.451633,25.033171],[121.451588,25.03348],[121.4514,25.03347],[121.451319,25.033776],[121.451565,25.033848],[121.451444,25.034152],[121.451322,25.039432],[121.449893,25.039225],[121.450116,25.035625],[121.450272,25.03249],[121.450637,25.032357],[121.452264,25.030939],[121.452786,25.031367]]]},"properties":{"code":"65000050013","name":"興漢里","countyCode":"65000","countyName":"新北市","townCode":"65000050","townName":"新莊區","level":"village","unassigned":false,"note":"","label":[121.45075874088539,25.035340098515555],"bounds":[121.449893,25.030939,121.452786,25.039432],"focusBounds":[121.449893,25.030939,121.452786,25.039432],"color":"#a8bf62"}},{"type":"Feature","id":"65000050014","geometry":{"type":"Polygon","coordinates":[[[121.453241,25.043837],[121.452302,25.04542],[121.447997,25.044749],[121.448199,25.043774],[121.448483,25.042746],[121.449848,25.043197],[121.452559,25.043699],[121.453241,25.043837]]]},"properties":{"code":"65000050014","name":"中和里","countyCode":"65000","countyName":"新北市","townCode":"65000050","townName":"新莊區","level":"village","unassigned":false,"note":"","label":[121.45043886324095,25.044218156358603],"bounds":[121.447997,25.042746,121.453241,25.04542],"focusBounds":[121.447997,25.042746,121.453241,25.04542],"color":"#68bec9"}},{"type":"Feature","id":"65000050015","geometry":{"type":"Polygon","coordinates":[[[121.429284,25.017264],[121.42913,25.012587],[121.430242,25.011651],[121.429895,25.011296],[121.429135,25.011869],[121.429138,25.011401],[121.429679,25.011036],[121.429403,25.010776],[121.429141,25.010931],[121.429177,25.00989],[121.429494,25.009631],[121.429368,25.009497],[121.429019,25.0096],[121.428273,25.008808],[121.428077,25.008961],[121.427685,25.008546],[121.427112,25.009008],[121.427536,25.009393],[121.427334,25.009513],[121.427067,25.010655],[121.426741,25.010518],[121.427035,25.010529],[121.427105,25.010317],[121.426909,25.010211],[121.426548,25.010362],[121.426488,25.010184],[121.426723,25.009864],[121.426331,25.00988],[121.426531,25.008948],[121.426882,25.008504],[121.426893,25.008251],[121.427204,25.008207],[121.427252,25.008489],[121.427818,25.008511],[121.428071,25.008796],[121.428086,25.008569],[121.428286,25.008433],[121.428895,25.008184],[121.42916,25.008282],[121.429003,25.008051],[121.429334,25.007596],[121.429195,25.007276],[121.429896,25.006972],[121.42963,25.006513],[121.43001,25.006202],[121.430137,25.005835],[121.430061,25.0055],[121.430848,25.00488],[121.432046,25.003426],[121.431593,25.002922],[121.431283,25.002133],[121.431318,25.001697],[121.431042,25.001048],[121.431234,25.000835],[121.430458,24.998106],[121.430398,24.99721],[121.430348,24.996654],[121.4299,24.995972],[121.429907,24.995475],[121.430087,24.995218],[121.430931,24.996253],[121.430631,24.996937],[121.430808,24.998102],[121.431799,24.999296],[121.43346,25.000184],[121.434743,25.000302],[121.434892,24.999987],[121.436371,25.000168],[121.436459,25.000783],[121.43699,25.003137],[121.436854,25.004582],[121.436804,25.006801],[121.437373,25.009639],[121.434799,25.01114],[121.43496,25.011646],[121.434601,25.011938],[121.435049,25.012136],[121.434218,25.012731],[121.434509,25.013552],[121.433942,25.013405],[121.43384,25.014013],[121.434748,25.014251],[121.435817,25.017508],[121.435572,25.018005],[121.434491,25.018035],[121.434569,25.018288],[121.435372,25.018339],[121.43549,25.019374],[121.4352,25.019393],[121.435189,25.019636],[121.435055,25.019642],[121.435902,25.021931],[121.435011,25.022381],[121.435526,25.023319],[121.434905,25.023626],[121.43469,25.023227],[121.434336,25.023393],[121.434415,25.023868],[121.434119,25.024014],[121.434054,25.023741],[121.433706,25.023817],[121.433577,25.024094],[121.43333,25.024142],[121.433388,25.024382],[121.431404,25.025068],[121.4302,25.024889],[121.430119,25.022779],[121.430558,25.022889],[121.430834,25.021844],[121.430387,25.021708],[121.430301,25.021931],[121.42963,25.021643],[121.429492,25.020833],[121.429395,25.01916],[121.429284,25.017264]]]},"properties":{"code":"65000050015","name":"西盛里","countyCode":"65000","countyName":"新北市","townCode":"65000050","townName":"新莊區","level":"village","unassigned":false,"note":"","label":[121.43328805716182,25.00798736893791],"bounds":[121.426331,24.995218,121.437373,25.025068],"focusBounds":[121.426331,24.995218,121.437373,25.025068],"color":"#df9f6a"}},{"type":"Feature","id":"65000050016","geometry":{"type":"Polygon","coordinates":[[[121.452633,25.039678],[121.452232,25.039593],[121.451322,25.039432],[121.451444,25.034152],[121.451565,25.033848],[121.451319,25.033776],[121.4514,25.03347],[121.451588,25.03348],[121.451633,25.033171],[121.451486,25.03312],[121.451732,25.032879],[121.452206,25.033086],[121.452786,25.031367],[121.454977,25.032941],[121.453871,25.0352],[121.453649,25.036401],[121.45257,25.036179],[121.452633,25.039678]]]},"properties":{"code":"65000050016","name":"榮和里","countyCode":"65000","countyName":"新北市","townCode":"65000050","townName":"新莊區","level":"village","unassigned":false,"note":"","label":[121.4526713801947,25.034867731529406],"bounds":[121.451319,25.031367,121.454977,25.039678],"focusBounds":[121.451319,25.031367,121.454977,25.039678],"color":"#c38cb8"}},{"type":"Feature","id":"65000050017","geometry":{"type":"Polygon","coordinates":[[[121.447691,25.046413],[121.447997,25.044749],[121.452302,25.04542],[121.451663,25.046613],[121.451461,25.046985],[121.45117,25.046763],[121.448647,25.046262],[121.448609,25.046411],[121.447691,25.046413]]]},"properties":{"code":"65000050017","name":"中泰里","countyCode":"65000","countyName":"新北市","townCode":"65000050","townName":"新莊區","level":"village","unassigned":false,"note":"","label":[121.44988451714718,25.045775324945115],"bounds":[121.447691,25.044749,121.452302,25.046985],"focusBounds":[121.447691,25.044749,121.452302,25.046985],"color":"#58b99d"}},{"type":"Feature","id":"65000050018","geometry":{"type":"Polygon","coordinates":[[[121.435526,25.023319],[121.435011,25.022381],[121.435902,25.021931],[121.435055,25.019642],[121.435189,25.019636],[121.4352,25.019393],[121.43549,25.019374],[121.435372,25.018339],[121.434569,25.018288],[121.434491,25.018035],[121.435572,25.018005],[121.435817,25.017508],[121.434748,25.014251],[121.43384,25.014013],[121.433942,25.013405],[121.434509,25.013552],[121.434218,25.012731],[121.435049,25.012136],[121.434601,25.011938],[121.43496,25.011646],[121.434799,25.01114],[121.437373,25.009639],[121.437656,25.010653],[121.438613,25.012466],[121.44051,25.01535],[121.442662,25.01806],[121.44437,25.02073],[121.44537,25.022385],[121.445817,25.023302],[121.448749,25.027324],[121.446759,25.02796],[121.446899,25.029127],[121.446716,25.029032],[121.446588,25.028965],[121.446176,25.029324],[121.445422,25.029423],[121.44448,25.029835],[121.44322,25.029633],[121.441582,25.028956],[121.441135,25.027966],[121.440375,25.027535],[121.439591,25.027489],[121.438374,25.027888],[121.437681,25.027838],[121.437627,25.02717],[121.435526,25.023319]]]},"properties":{"code":"65000050018","name":"瓊林里","countyCode":"65000","countyName":"新北市","townCode":"65000050","townName":"新莊區","level":"village","unassigned":false,"note":"","label":[121.44028356063237,25.02262285528196],"bounds":[121.43384,25.009639,121.448749,25.029835],"focusBounds":[121.43384,25.009639,121.448749,25.029835],"color":"#efb44f"}},{"type":"Feature","id":"65000050019","geometry":{"type":"Polygon","coordinates":[[[121.45815,25.034839],[121.456752,25.035469],[121.456353,25.035202],[121.455881,25.035831],[121.455986,25.035895],[121.455865,25.036075],[121.455618,25.035941],[121.455311,25.03607],[121.455149,25.036377],[121.454813,25.036443],[121.454793,25.036616],[121.453649,25.036401],[121.453871,25.0352],[121.454977,25.032941],[121.45815,25.034839]]]},"properties":{"code":"65000050019","name":"文德里","countyCode":"65000","countyName":"新北市","townCode":"65000050","townName":"新莊區","level":"village","unassigned":false,"note":"","label":[121.45528075256055,25.034829232695646],"bounds":[121.453649,25.032941,121.45815,25.036616],"focusBounds":[121.453649,25.032941,121.45815,25.036616],"color":"#efb44f"}},{"type":"Feature","id":"65000050020","geometry":{"type":"Polygon","coordinates":[[[121.450224,25.048621],[121.450178,25.04803],[121.450323,25.047839],[121.451225,25.048015],[121.451461,25.046985],[121.451663,25.046613],[121.452172,25.047233],[121.45252,25.048134],[121.452358,25.049251],[121.451804,25.049232],[121.451811,25.049117],[121.450224,25.048621]]]},"properties":{"code":"65000050020","name":"中誠里","countyCode":"65000","countyName":"新北市","townCode":"65000050","townName":"新莊區","level":"village","unassigned":false,"note":"","label":[121.45182110451769,25.04828522986338],"bounds":[121.450178,25.046613,121.45252,25.049251],"focusBounds":[121.450178,25.046613,121.45252,25.049251],"color":"#78a7e3"}},{"type":"Feature","id":"65000050021","geometry":{"type":"Polygon","coordinates":[[[121.420364,25.025841],[121.417791,25.026642],[121.416807,25.02479],[121.415811,25.024194],[121.416198,25.023372],[121.416807,25.022809],[121.416723,25.021159],[121.418954,25.020388],[121.41953,25.02282],[121.419703,25.02448],[121.420364,25.025841]]]},"properties":{"code":"65000050021","name":"裕民里","countyCode":"65000","countyName":"新北市","townCode":"65000050","townName":"新莊區","level":"village","unassigned":false,"note":"","label":[121.41811820461785,25.023711935674168],"bounds":[121.415811,25.020388,121.420364,25.026642],"focusBounds":[121.415811,25.020388,121.420364,25.026642],"color":"#dd8590"}},{"type":"Feature","id":"65000050022","geometry":{"type":"Polygon","coordinates":[[[121.454793,25.036616],[121.454813,25.036443],[121.455149,25.036377],[121.455311,25.03607],[121.455618,25.035941],[121.455865,25.036075],[121.455986,25.035895],[121.455881,25.035831],[121.456353,25.035202],[121.456752,25.035469],[121.45815,25.034839],[121.461282,25.036571],[121.46297,25.037367],[121.466267,25.038522],[121.466165,25.040573],[121.466307,25.041163],[121.466072,25.041696],[121.466036,25.042299],[121.458942,25.038004],[121.457544,25.037134],[121.456826,25.036814],[121.454793,25.036616]]]},"properties":{"code":"65000050022","name":"文明里","countyCode":"65000","countyName":"新北市","townCode":"65000050","townName":"新莊區","level":"village","unassigned":false,"note":"","label":[121.46160515916714,25.038170139923032],"bounds":[121.454793,25.034839,121.466307,25.042299],"focusBounds":[121.454793,25.034839,121.466307,25.042299],"color":"#a49ad4"}},{"type":"Feature","id":"65000050023","geometry":{"type":"Polygon","coordinates":[[[121.447365,25.049113],[121.44749,25.04773],[121.449776,25.048471],[121.449783,25.04874],[121.450219,25.048751],[121.450224,25.048621],[121.451811,25.049117],[121.451804,25.049232],[121.452358,25.049251],[121.452036,25.050679],[121.450092,25.050116],[121.449088,25.050283],[121.449094,25.050178],[121.448525,25.050056],[121.448519,25.050243],[121.447689,25.050465],[121.447441,25.049871],[121.447365,25.049113]]]},"properties":{"code":"65000050023","name":"中港里","countyCode":"65000","countyName":"新北市","townCode":"65000050","townName":"新莊區","level":"village","unassigned":false,"note":"","label":[121.44895565924226,25.049176761564492],"bounds":[121.447365,25.04773,121.452358,25.050679],"focusBounds":[121.447365,25.04773,121.452358,25.050679],"color":"#68bec9"}},{"type":"Feature","id":"65000050024","geometry":{"type":"Polygon","coordinates":[[[121.421932,25.026105],[121.421457,25.026064],[121.420499,25.026444],[121.420415,25.026817],[121.421062,25.027319],[121.420879,25.027524],[121.421111,25.027915],[121.421049,25.028073],[121.420736,25.027975],[121.420607,25.028362],[121.418902,25.027879],[121.418453,25.02762],[121.418005,25.027072],[121.417791,25.026642],[121.420364,25.025841],[121.421277,25.025547],[121.421932,25.026105]]]},"properties":{"code":"65000050024","name":"富國里","countyCode":"65000","countyName":"新北市","townCode":"65000050","townName":"新莊區","level":"village","unassigned":false,"note":"","label":[121.41955881228868,25.027078275523436],"bounds":[121.417791,25.025547,121.421932,25.028362],"focusBounds":[121.417791,25.025547,121.421932,25.028362],"color":"#df9f6a"}},{"type":"Feature","id":"65000050025","geometry":{"type":"Polygon","coordinates":[[[121.45974,25.047233],[121.459746,25.046932],[121.459375,25.046915],[121.459373,25.047138],[121.459064,25.047123],[121.45885,25.046312],[121.458694,25.046295],[121.458699,25.046608],[121.457786,25.046643],[121.457876,25.044411],[121.457955,25.042315],[121.457608,25.042246],[121.457632,25.041854],[121.457428,25.041851],[121.457563,25.041262],[121.457833,25.041085],[121.457682,25.040898],[121.457717,25.03996],[121.457338,25.03943],[121.458942,25.038004],[121.466036,25.042299],[121.46595,25.042958],[121.464179,25.041759],[121.464179,25.042492],[121.463551,25.042487],[121.463565,25.041523],[121.463041,25.041511],[121.463057,25.041316],[121.462226,25.041282],[121.462086,25.041486],[121.460566,25.041096],[121.460456,25.041871],[121.460559,25.043472],[121.461632,25.043485],[121.461624,25.04377],[121.461774,25.04376],[121.46164,25.044266],[121.461267,25.044268],[121.461278,25.044052],[121.460571,25.044007],[121.460537,25.044138],[121.460534,25.044477],[121.461326,25.044515],[121.46131,25.044741],[121.461707,25.044843],[121.461492,25.045845],[121.461617,25.046985],[121.461236,25.047028],[121.461225,25.047247],[121.45974,25.047233]]]},"properties":{"code":"65000050025","name":"思源里","countyCode":"65000","countyName":"新北市","townCode":"65000050","townName":"新莊區","level":"village","unassigned":false,"note":"","label":[121.45925895473232,25.042862157856284],"bounds":[121.457338,25.038004,121.466036,25.047247],"focusBounds":[121.457338,25.038004,121.466036,25.047247],"color":"#df9f6a"}},{"type":"Feature","id":"65000050026","geometry":{"type":"Polygon","coordinates":[[[121.457544,25.037134],[121.457004,25.038041],[121.457203,25.038253],[121.456969,25.038509],[121.456572,25.038329],[121.455045,25.038478],[121.454831,25.039611],[121.453953,25.039588],[121.453947,25.040005],[121.452633,25.039678],[121.45257,25.036179],[121.453649,25.036401],[121.454793,25.036616],[121.456826,25.036814],[121.457544,25.037134]]]},"properties":{"code":"65000050026","name":"立人里","countyCode":"65000","countyName":"新北市","townCode":"65000050","townName":"新莊區","level":"village","unassigned":false,"note":"","label":[121.45395230604827,25.037757229267946],"bounds":[121.45257,25.036179,121.457544,25.040005],"focusBounds":[121.45257,25.036179,121.457544,25.040005],"color":"#98b69b"}},{"type":"Feature","id":"65000050027","geometry":{"type":"Polygon","coordinates":[[[121.421676,25.022097],[121.421625,25.021969],[121.421062,25.022168],[121.420862,25.021774],[121.421186,25.021672],[121.421045,25.021018],[121.420663,25.020954],[121.421259,25.020715],[121.421009,25.020224],[121.421486,25.020049],[121.420887,25.018672],[121.420423,25.018668],[121.421525,25.017653],[121.421771,25.018127],[121.421489,25.018257],[121.421644,25.018517],[121.42192,25.018414],[121.422302,25.019262],[121.42143,25.019661],[121.424238,25.025614],[121.42397,25.02604],[121.42364,25.025782],[121.423275,25.024931],[121.422181,25.025263],[121.422038,25.024954],[121.422449,25.024763],[121.422187,25.024474],[121.421792,25.02348],[121.421985,25.023247],[121.4218,25.023201],[121.421636,25.022618],[121.421676,25.022097]]]},"properties":{"code":"65000050027","name":"南港里","countyCode":"65000","countyName":"新北市","townCode":"65000050","townName":"新莊區","level":"village","unassigned":false,"note":"","label":[121.42255964428122,25.02360180231951],"bounds":[121.420423,25.017653,121.424238,25.02604],"focusBounds":[121.420423,25.017653,121.424238,25.02604],"color":"#98b69b"}},{"type":"Feature","id":"65000050028","geometry":{"type":"Polygon","coordinates":[[[121.457747,25.046893],[121.457549,25.047476],[121.458127,25.048212],[121.458254,25.049448],[121.456368,25.049401],[121.456143,25.049076],[121.456056,25.048133],[121.455781,25.048174],[121.45583,25.04685],[121.457747,25.046893]]]},"properties":{"code":"65000050028","name":"仁愛里","countyCode":"65000","countyName":"新北市","townCode":"65000050","townName":"新莊區","level":"village","unassigned":false,"note":"","label":[121.45699829003264,25.04828743970436],"bounds":[121.455781,25.04685,121.458254,25.049448],"focusBounds":[121.455781,25.04685,121.458254,25.049448],"color":"#58b99d"}},{"type":"Feature","id":"65000050029","geometry":{"type":"Polygon","coordinates":[[[121.452232,25.039593],[121.452637,25.041152],[121.452559,25.043699],[121.449848,25.043197],[121.448483,25.042746],[121.44528,25.041318],[121.445581,25.040818],[121.446987,25.038498],[121.447785,25.038851],[121.44784,25.038733],[121.448079,25.038791],[121.449893,25.039225],[121.451322,25.039432],[121.452232,25.039593]]]},"properties":{"code":"65000050029","name":"立德里","countyCode":"65000","countyName":"新北市","townCode":"65000050","townName":"新莊區","level":"village","unassigned":false,"note":"","label":[121.44940101950114,25.041078455937452],"bounds":[121.44528,25.038498,121.452637,25.043699],"focusBounds":[121.44528,25.038498,121.452637,25.043699],"color":"#efb44f"}},{"type":"Feature","id":"65000050030","geometry":{"type":"Polygon","coordinates":[[[121.456662,25.05086],[121.456649,25.050734],[121.456326,25.050751],[121.456314,25.050184],[121.456141,25.050184],[121.456138,25.049399],[121.456368,25.049401],[121.458254,25.049448],[121.459696,25.04946],[121.459705,25.051321],[121.458356,25.051331],[121.457882,25.051167],[121.457615,25.051448],[121.457986,25.052365],[121.456751,25.05232],[121.456662,25.05086]]]},"properties":{"code":"65000050030","name":"信義里","countyCode":"65000","countyName":"新北市","townCode":"65000050","townName":"新莊區","level":"village","unassigned":false,"note":"","label":[121.45790051646117,25.050306362947204],"bounds":[121.456138,25.049399,121.459705,25.052365],"focusBounds":[121.456138,25.049399,121.459705,25.052365],"color":"#78a7e3"}},{"type":"Feature","id":"65000050031","geometry":{"type":"Polygon","coordinates":[[[121.445581,25.040818],[121.445471,25.040559],[121.442907,25.040208],[121.4428,25.039189],[121.442034,25.039135],[121.442032,25.038469],[121.442872,25.038403],[121.443915,25.037849],[121.445635,25.038091],[121.44635,25.038209],[121.446987,25.038498],[121.445581,25.040818]]]},"properties":{"code":"65000050031","name":"立言里","countyCode":"65000","countyName":"新北市","townCode":"65000050","townName":"新莊區","level":"village","unassigned":false,"note":"","label":[121.44455082197803,25.03918571700781],"bounds":[121.442032,25.037849,121.446987,25.040818],"focusBounds":[121.442032,25.037849,121.446987,25.040818],"color":"#a49ad4"}},{"type":"Feature","id":"65000050032","geometry":{"type":"Polygon","coordinates":[[[121.428432,25.020938],[121.427123,25.021167],[121.426398,25.022058],[121.425601,25.020722],[121.42461,25.018565],[121.426501,25.017933],[121.427665,25.017615],[121.427101,25.018063],[121.42739,25.018366],[121.427896,25.018104],[121.42788,25.01834],[121.427383,25.018373],[121.427225,25.018529],[121.427659,25.018701],[121.427667,25.018986],[121.427218,25.019387],[121.427118,25.01941],[121.427262,25.019973],[121.427466,25.019934],[121.427522,25.020104],[121.427773,25.020051],[121.428432,25.020938]]]},"properties":{"code":"65000050032","name":"民安里","countyCode":"65000","countyName":"新北市","townCode":"65000050","townName":"新莊區","level":"village","unassigned":false,"note":"","label":[121.42616048436356,25.01959259356814],"bounds":[121.42461,25.017615,121.428432,25.022058],"focusBounds":[121.42461,25.017615,121.428432,25.022058],"color":"#a49ad4"}},{"type":"Feature","id":"65000050033","geometry":{"type":"Polygon","coordinates":[[[121.459705,25.051321],[121.459717,25.056281],[121.457976,25.056265],[121.458038,25.054456],[121.458063,25.053718],[121.457986,25.052365],[121.457615,25.051448],[121.457882,25.051167],[121.458356,25.051331],[121.459705,25.051321]]]},"properties":{"code":"65000050033","name":"和平里","countyCode":"65000","countyName":"新北市","townCode":"65000050","townName":"新莊區","level":"village","unassigned":false,"note":"","label":[121.458853560509,25.05374031971637],"bounds":[121.457615,25.051167,121.459717,25.056281],"focusBounds":[121.457615,25.051167,121.459717,25.056281],"color":"#a8bf62"}},{"type":"Feature","id":"65000050034","geometry":{"type":"Polygon","coordinates":[[[121.448483,25.042746],[121.448199,25.043774],[121.446853,25.043485],[121.446704,25.043306],[121.444533,25.04333],[121.444177,25.043189],[121.44528,25.041318],[121.448483,25.042746]]]},"properties":{"code":"65000050034","name":"立功里","countyCode":"65000","countyName":"新北市","townCode":"65000050","townName":"新莊區","level":"village","unassigned":false,"note":"","label":[121.44610085567055,25.042498419580262],"bounds":[121.444177,25.041318,121.448483,25.043774],"focusBounds":[121.444177,25.041318,121.448483,25.043774],"color":"#df9f6a"}},{"type":"Feature","id":"65000050035","geometry":{"type":"Polygon","coordinates":[[[121.428432,25.020938],[121.427773,25.020051],[121.427522,25.020104],[121.427466,25.019934],[121.427262,25.019973],[121.427118,25.01941],[121.427218,25.019387],[121.429395,25.01916],[121.429492,25.020833],[121.429246,25.020857],[121.428984,25.021306],[121.428432,25.020938]]]},"properties":{"code":"65000050035","name":"民本里","countyCode":"65000","countyName":"新北市","townCode":"65000050","townName":"新莊區","level":"village","unassigned":false,"note":"","label":[121.42868981720405,25.020036045089043],"bounds":[121.427118,25.01916,121.429492,25.021306],"focusBounds":[121.427118,25.01916,121.429492,25.021306],"color":"#c38cb8"}},{"type":"Feature","id":"65000050036","geometry":{"type":"Polygon","coordinates":[[[121.45974,25.047233],[121.461225,25.047247],[121.461236,25.047028],[121.461617,25.046985],[121.461492,25.045845],[121.461707,25.044843],[121.46131,25.044741],[121.461326,25.044515],[121.460534,25.044477],[121.460537,25.044138],[121.460571,25.044007],[121.461278,25.044052],[121.461267,25.044268],[121.46164,25.044266],[121.461774,25.04376],[121.461624,25.04377],[121.461632,25.043485],[121.460559,25.043472],[121.460456,25.041871],[121.460566,25.041096],[121.462086,25.041486],[121.462226,25.041282],[121.463057,25.041316],[121.463041,25.041511],[121.463565,25.041523],[121.463551,25.042487],[121.464179,25.042492],[121.464179,25.041759],[121.46595,25.042958],[121.46573,25.043769],[121.466068,25.044562],[121.466143,25.045201],[121.467171,25.047061],[121.467385,25.049287],[121.459696,25.04946],[121.45974,25.047233]]]},"properties":{"code":"65000050036","name":"化成里","countyCode":"65000","countyName":"新北市","townCode":"65000050","townName":"新莊區","level":"village","unassigned":false,"note":"","label":[121.46388243491505,25.04592773799675],"bounds":[121.459696,25.041096,121.467385,25.04946],"focusBounds":[121.459696,25.041096,121.467385,25.04946],"color":"#c38cb8"}},{"type":"Feature","id":"65000050037","geometry":{"type":"Polygon","coordinates":[[[121.446196,25.046711],[121.446407,25.044875],[121.446113,25.044857],[121.446126,25.044642],[121.444565,25.044594],[121.444569,25.044735],[121.443339,25.044588],[121.444177,25.043189],[121.444533,25.04333],[121.446704,25.043306],[121.446853,25.043485],[121.448199,25.043774],[121.447997,25.044749],[121.447691,25.046413],[121.447588,25.046957],[121.446196,25.046711]]]},"properties":{"code":"65000050037","name":"立志里","countyCode":"65000","countyName":"新北市","townCode":"65000050","townName":"新莊區","level":"village","unassigned":false,"note":"","label":[121.44711404610408,25.044434154441184],"bounds":[121.443339,25.043189,121.448199,25.046957],"focusBounds":[121.443339,25.043189,121.448199,25.046957],"color":"#98b69b"}},{"type":"Feature","id":"65000050038","geometry":{"type":"Polygon","coordinates":[[[121.42913,25.012587],[121.429134,25.011955],[121.427837,25.01288],[121.426866,25.013094],[121.426888,25.013219],[121.426642,25.013324],[121.426402,25.013338],[121.426365,25.013228],[121.426025,25.013317],[121.426499,25.011848],[121.426292,25.011746],[121.427067,25.010655],[121.427334,25.009513],[121.427536,25.009393],[121.427112,25.009008],[121.427685,25.008546],[121.428077,25.008961],[121.428273,25.008808],[121.429019,25.0096],[121.429368,25.009497],[121.429494,25.009631],[121.429177,25.00989],[121.429141,25.010931],[121.429403,25.010776],[121.429679,25.011036],[121.429138,25.011401],[121.429135,25.011869],[121.429895,25.011296],[121.430242,25.011651],[121.42913,25.012587]]]},"properties":{"code":"65000050038","name":"光華里","countyCode":"65000","countyName":"新北市","townCode":"65000050","townName":"新莊區","level":"village","unassigned":false,"note":"","label":[121.42798988247773,25.011298983338328],"bounds":[121.426025,25.008546,121.430242,25.013338],"focusBounds":[121.426025,25.008546,121.430242,25.013338],"color":"#58b99d"}},{"type":"Feature","id":"65000050039","geometry":{"type":"Polygon","coordinates":[[[121.457682,25.040898],[121.457833,25.041085],[121.457563,25.041262],[121.457428,25.041851],[121.457632,25.041854],[121.457608,25.042246],[121.457955,25.042315],[121.457876,25.044411],[121.454429,25.044082],[121.456252,25.042539],[121.456552,25.040624],[121.457682,25.040898]]]},"properties":{"code":"65000050039","name":"思賢里","countyCode":"65000","countyName":"新北市","townCode":"65000050","townName":"新莊區","level":"village","unassigned":false,"note":"","label":[121.45688091646264,25.043311136057497],"bounds":[121.454429,25.040624,121.457955,25.044411],"focusBounds":[121.454429,25.040624,121.457955,25.044411],"color":"#efb44f"}},{"type":"Feature","id":"65000050040","geometry":{"type":"Polygon","coordinates":[[[121.441905,25.041658],[121.441777,25.041405],[121.441061,25.041534],[121.44053,25.04143],[121.437356,25.043223],[121.436687,25.038876],[121.435694,25.039345],[121.432729,25.041149],[121.432603,25.041005],[121.431166,25.039345],[121.43094,25.039454],[121.429802,25.037671],[121.428655,25.036249],[121.425825,25.033058],[121.424088,25.031835],[121.426165,25.030159],[121.433507,25.032366],[121.441071,25.033737],[121.442017,25.033928],[121.442032,25.038469],[121.442034,25.039135],[121.442093,25.041595],[121.441905,25.041658]]]},"properties":{"code":"65000050040","name":"營盤里","countyCode":"65000","countyName":"新北市","townCode":"65000050","townName":"新莊區","level":"village","unassigned":false,"note":"","label":[121.43366898212727,25.03607681099007],"bounds":[121.424088,25.030159,121.442093,25.043223],"focusBounds":[121.424088,25.030159,121.442093,25.043223],"color":"#78a7e3"}},{"type":"Feature","id":"65000050041","geometry":{"type":"Polygon","coordinates":[[[121.429284,25.017264],[121.428958,25.017142],[121.428971,25.017516],[121.428152,25.017554],[121.428045,25.014724],[121.427968,25.013154],[121.427837,25.01288],[121.429134,25.011955],[121.42913,25.012587],[121.429284,25.017264]]]},"properties":{"code":"65000050041","name":"光榮里","countyCode":"65000","countyName":"新北市","townCode":"65000050","townName":"新莊區","level":"village","unassigned":false,"note":"","label":[121.42863259259009,25.01492197710146],"bounds":[121.427837,25.011955,121.429284,25.017554],"focusBounds":[121.427837,25.011955,121.429284,25.017554],"color":"#dd8590"}},{"type":"Feature","id":"65000050042","geometry":{"type":"Polygon","coordinates":[[[121.454195,25.044389],[121.454728,25.044775],[121.454761,25.045197],[121.45456,25.045194],[121.454547,25.045433],[121.454761,25.045434],[121.454736,25.04826],[121.452937,25.048184],[121.453797,25.04636],[121.453898,25.044736],[121.454195,25.044389]]]},"properties":{"code":"65000050042","name":"自強里","countyCode":"65000","countyName":"新北市","townCode":"65000050","townName":"新莊區","level":"village","unassigned":false,"note":"","label":[121.45412975593237,25.047095806612006],"bounds":[121.452937,25.044389,121.454761,25.04826],"focusBounds":[121.452937,25.044389,121.454761,25.04826],"color":"#a49ad4"}},{"type":"Feature","id":"65000050043","geometry":{"type":"Polygon","coordinates":[[[121.400939,25.034274],[121.40152,25.034421],[121.402319,25.034053],[121.402803,25.033487],[121.402956,25.033003],[121.403234,25.032886],[121.403844,25.032169],[121.404427,25.031872],[121.404912,25.032007],[121.405361,25.031953],[121.406222,25.031522],[121.406688,25.031065],[121.407272,25.031101],[121.408093,25.030338],[121.410291,25.029845],[121.411426,25.02908],[121.412208,25.03005],[121.412794,25.029636],[121.413341,25.030006],[121.414846,25.029677],[121.416361,25.0291],[121.416917,25.028741],[121.417339,25.028149],[121.417312,25.027476],[121.418005,25.027072],[121.418453,25.02762],[121.418902,25.027879],[121.420607,25.028362],[121.422625,25.02903],[121.423396,25.029295],[121.422096,25.030368],[121.421751,25.029939],[121.421297,25.028755],[121.4182,25.030298],[121.416558,25.030202],[121.417592,25.031825],[121.418169,25.033432],[121.418122,25.033604],[121.41741,25.033835],[121.416987,25.034559],[121.416843,25.034745],[121.415602,25.035],[121.414818,25.034443],[121.412684,25.035172],[121.413266,25.038076],[121.413241,25.03884],[121.412884,25.039071],[121.411933,25.039],[121.411468,25.039425],[121.411276,25.03975],[121.412015,25.040362],[121.411596,25.040934],[121.411309,25.04071],[121.410678,25.040753],[121.410764,25.041618],[121.409536,25.040823],[121.409599,25.041191],[121.410153,25.04188],[121.41047,25.042333],[121.410403,25.0428],[121.409681,25.043149],[121.409647,25.043533],[121.408769,25.044373],[121.408235,25.044617],[121.406599,25.044732],[121.404817,25.045265],[121.403742,25.045281],[121.403046,25.045489],[121.400028,25.044577],[121.399266,25.044542],[121.398921,25.044222],[121.398298,25.044106],[121.398281,25.043929],[121.398508,25.043805],[121.400703,25.043268],[121.400072,25.043005],[121.399424,25.042926],[121.397664,25.0437],[121.397029,25.043543],[121.397098,25.043209],[121.39676,25.043087],[121.396171,25.043644],[121.39574,25.043449],[121.395206,25.043615],[121.394379,25.043463],[121.393872,25.04378],[121.393578,25.043593],[121.392852,25.0435],[121.391807,25.04267],[121.39084,25.042206],[121.390672,25.041945],[121.390852,25.041568],[121.391324,25.041495],[121.392741,25.042067],[121.393553,25.041997],[121.393584,25.041434],[121.394357,25.041222],[121.394378,25.040088],[121.395349,25.039914],[121.39605,25.039518],[121.397139,25.03925],[121.397584,25.038491],[121.398972,25.038612],[121.399141,25.038423],[121.399264,25.037746],[121.399592,25.037499],[121.4,25.037526],[121.40075,25.037945],[121.401074,25.037728],[121.401281,25.037386],[121.400793,25.036952],[121.401203,25.036367],[121.400887,25.036169],[121.400375,25.036248],[121.399591,25.035943],[121.40008,25.034812],[121.401201,25.034509],[121.400939,25.034274]]]},"properties":{"code":"65000050043","name":"丹鳳里","countyCode":"65000","countyName":"新北市","townCode":"65000050","townName":"新莊區","level":"village","unassigned":false,"note":"","label":[121.40639909243681,25.037326621850916],"bounds":[121.390672,25.027072,121.423396,25.045489],"focusBounds":[121.390672,25.027072,121.423396,25.045489],"color":"#68bec9"}},{"type":"Feature","id":"65000050044","geometry":{"type":"Polygon","coordinates":[[[121.42461,25.018565],[121.424409,25.018602],[121.424189,25.018261],[121.423834,25.016812],[121.423483,25.014897],[121.423644,25.014944],[121.423899,25.015105],[121.424001,25.015038],[121.424159,25.013592],[121.424399,25.013171],[121.424603,25.013087],[121.424732,25.013348],[121.424897,25.013355],[121.424774,25.012817],[121.425042,25.01295],[121.425146,25.012697],[121.425387,25.012652],[121.425249,25.012161],[121.426121,25.011739],[121.426486,25.011136],[121.426527,25.010675],[121.426741,25.010518],[121.427067,25.010655],[121.426292,25.011746],[121.426499,25.011848],[121.426025,25.013317],[121.425943,25.014816],[121.426074,25.016267],[121.426501,25.017933],[121.42461,25.018565]]]},"properties":{"code":"65000050044","name":"光明里","countyCode":"65000","countyName":"新北市","townCode":"65000050","townName":"新莊區","level":"village","unassigned":false,"note":"","label":[121.42485452647784,25.01583689695233],"bounds":[121.423483,25.010518,121.427067,25.018602],"focusBounds":[121.423483,25.010518,121.427067,25.018602],"color":"#68bec9"}},{"type":"Feature","id":"65000050045","geometry":{"type":"Polygon","coordinates":[[[121.454736,25.04826],[121.454761,25.045434],[121.454547,25.045433],[121.45456,25.045194],[121.454761,25.045197],[121.454728,25.044775],[121.454195,25.044389],[121.454429,25.044082],[121.457876,25.044411],[121.457786,25.046643],[121.457747,25.046893],[121.45583,25.04685],[121.455781,25.048174],[121.454736,25.04826]]]},"properties":{"code":"65000050045","name":"自立里","countyCode":"65000","countyName":"新北市","townCode":"65000050","townName":"新莊區","level":"village","unassigned":false,"note":"","label":[121.45606535618623,25.045546381548988],"bounds":[121.454195,25.044082,121.457876,25.04826],"focusBounds":[121.454195,25.044082,121.457876,25.04826],"color":"#c38cb8"}},{"type":"Feature","id":"65000050046","geometry":{"type":"Polygon","coordinates":[[[121.413775,25.028183],[121.414566,25.027987],[121.415894,25.027243],[121.417791,25.026642],[121.418005,25.027072],[121.417312,25.027476],[121.417339,25.028149],[121.416917,25.028741],[121.416361,25.0291],[121.414846,25.029677],[121.413775,25.028183]]]},"properties":{"code":"65000050046","name":"合鳳里","countyCode":"65000","countyName":"新北市","townCode":"65000050","townName":"新莊區","level":"village","unassigned":false,"note":"","label":[121.415927795519,25.028248298283458],"bounds":[121.413775,25.026642,121.418005,25.029677],"focusBounds":[121.413775,25.026642,121.418005,25.029677],"color":"#c38cb8"}},{"type":"Feature","id":"65000050047","geometry":{"type":"Polygon","coordinates":[[[121.456662,25.05086],[121.453068,25.050867],[121.452869,25.049268],[121.456138,25.049399],[121.456141,25.050184],[121.456314,25.050184],[121.456326,25.050751],[121.456649,25.050734],[121.456662,25.05086]]]},"properties":{"code":"65000050047","name":"幸福里","countyCode":"65000","countyName":"新北市","townCode":"65000050","townName":"新莊區","level":"village","unassigned":false,"note":"","label":[121.45458742723847,25.050100624723513],"bounds":[121.452869,25.049268,121.456662,25.050867],"focusBounds":[121.452869,25.049268,121.456662,25.050867],"color":"#98b69b"}},{"type":"Feature","id":"65000050048","geometry":{"type":"Polygon","coordinates":[[[121.412794,25.029636],[121.412208,25.03005],[121.411426,25.02908],[121.410291,25.029845],[121.408093,25.030338],[121.407272,25.031101],[121.406688,25.031065],[121.406222,25.031522],[121.405361,25.031953],[121.404912,25.032007],[121.404427,25.031872],[121.403844,25.032169],[121.403234,25.032886],[121.402956,25.033003],[121.402803,25.033487],[121.402319,25.034053],[121.40152,25.034421],[121.400939,25.034274],[121.400072,25.03432],[121.399409,25.034768],[121.398574,25.034754],[121.398501,25.033232],[121.39824,25.032495],[121.398772,25.031542],[121.398661,25.031383],[121.39834,25.031538],[121.397971,25.031218],[121.398527,25.030721],[121.39827,25.030096],[121.399205,25.029484],[121.400383,25.029066],[121.400713,25.02917],[121.401488,25.028224],[121.401071,25.027085],[121.401184,25.026618],[121.402,25.025922],[121.403063,25.025663],[121.403772,25.025275],[121.404032,25.024926],[121.404028,25.024494],[121.404434,25.023903],[121.405754,25.023171],[121.405985,25.022848],[121.40657,25.022537],[121.407206,25.021887],[121.408683,25.020862],[121.409057,25.020795],[121.409808,25.021038],[121.410269,25.020941],[121.410456,25.021077],[121.41177,25.021921],[121.415811,25.024194],[121.416807,25.02479],[121.417791,25.026642],[121.415894,25.027243],[121.414566,25.027987],[121.413775,25.028183],[121.412996,25.027898],[121.412215,25.028517],[121.412211,25.028876],[121.412794,25.029636]]]},"properties":{"code":"65000050048","name":"雙鳳里","countyCode":"65000","countyName":"新北市","townCode":"65000050","townName":"新莊區","level":"village","unassigned":false,"note":"","label":[121.40740134611272,25.02681611318195],"bounds":[121.397971,25.020795,121.417791,25.034768],"focusBounds":[121.397971,25.020795,121.417791,25.034768],"color":"#58b99d"}},{"type":"Feature","id":"65000050049","geometry":{"type":"Polygon","coordinates":[[[121.452679,25.049263],[121.452713,25.048157],[121.452937,25.048184],[121.454736,25.04826],[121.455781,25.048174],[121.456056,25.048133],[121.456143,25.049076],[121.456368,25.049401],[121.456138,25.049399],[121.452869,25.049268],[121.452679,25.049263]]]},"properties":{"code":"65000050049","name":"自信里","countyCode":"65000","countyName":"新北市","townCode":"65000050","townName":"新莊區","level":"village","unassigned":false,"note":"","label":[121.45445666564478,25.048789793960733],"bounds":[121.452679,25.048133,121.456368,25.049401],"focusBounds":[121.452679,25.048133,121.456368,25.049401],"color":"#efb44f"}},{"type":"Feature","id":"65000050050","geometry":{"type":"Polygon","coordinates":[[[121.415811,25.024194],[121.41177,25.021921],[121.412419,25.02084],[121.412595,25.020947],[121.413312,25.019953],[121.413284,25.01974],[121.413613,25.019079],[121.413877,25.018942],[121.414332,25.019454],[121.414573,25.019518],[121.415579,25.01922],[121.416831,25.019326],[121.417578,25.02002],[121.417983,25.019439],[121.418815,25.019329],[121.418954,25.020388],[121.416723,25.021159],[121.416807,25.022809],[121.416198,25.023372],[121.415811,25.024194]]]},"properties":{"code":"65000050050","name":"龍鳳里","countyCode":"65000","countyName":"新北市","townCode":"65000050","townName":"新莊區","level":"village","unassigned":false,"note":"","label":[121.41481356607969,25.021376393192746],"bounds":[121.41177,25.018942,121.418954,25.024194],"focusBounds":[121.41177,25.018942,121.418954,25.024194],"color":"#78a7e3"}},{"type":"Feature","id":"65000050051","geometry":{"type":"Polygon","coordinates":[[[121.452358,25.049251],[121.45252,25.048134],[121.452172,25.047233],[121.451663,25.046613],[121.452302,25.04542],[121.453241,25.043837],[121.454429,25.044082],[121.454195,25.044389],[121.453898,25.044736],[121.453797,25.04636],[121.452937,25.048184],[121.452713,25.048157],[121.452679,25.049263],[121.452358,25.049251]]]},"properties":{"code":"65000050051","name":"中華里","countyCode":"65000","countyName":"新北市","townCode":"65000050","townName":"新莊區","level":"village","unassigned":false,"note":"","label":[121.45288756408509,25.046179450164566],"bounds":[121.451663,25.043837,121.454429,25.049263],"focusBounds":[121.451663,25.043837,121.454429,25.049263],"color":"#dd8590"}},{"type":"Feature","id":"65000050052","geometry":{"type":"Polygon","coordinates":[[[121.452561,25.061177],[121.450808,25.061139],[121.45064,25.060885],[121.450216,25.060809],[121.450162,25.060284],[121.450415,25.059933],[121.450184,25.058956],[121.451297,25.053666],[121.451511,25.052375],[121.452036,25.050679],[121.452358,25.049251],[121.452679,25.049263],[121.452869,25.049268],[121.453068,25.050867],[121.4529,25.051864],[121.4523,25.05319],[121.452141,25.053561],[121.452075,25.054866],[121.452066,25.05879],[121.45187,25.059359],[121.452952,25.060058],[121.45312,25.060552],[121.45311,25.061018],[121.452561,25.061177]]]},"properties":{"code":"65000050052","name":"中隆里","countyCode":"65000","countyName":"新北市","townCode":"65000050","townName":"新莊區","level":"village","unassigned":false,"note":"","label":[121.45126402234874,25.057755174253714],"bounds":[121.450162,25.049251,121.45312,25.061177],"focusBounds":[121.450162,25.049251,121.45312,25.061177],"color":"#a8bf62"}},{"type":"Feature","id":"65000050053","geometry":{"type":"Polygon","coordinates":[[[121.448035,25.062632],[121.447659,25.062573],[121.447545,25.062366],[121.447779,25.061872],[121.447762,25.061247],[121.448112,25.060868],[121.448085,25.060528],[121.447419,25.060722],[121.447098,25.060618],[121.446942,25.060144],[121.447024,25.059443],[121.446833,25.059212],[121.446046,25.059658],[121.445838,25.05956],[121.445534,25.059013],[121.445264,25.058893],[121.444947,25.059274],[121.444555,25.059468],[121.444612,25.059743],[121.444353,25.059744],[121.444114,25.059513],[121.444408,25.059179],[121.444205,25.058933],[121.444419,25.058645],[121.44401,25.058288],[121.442703,25.058089],[121.439495,25.056786],[121.438777,25.055958],[121.438685,25.055503],[121.439592,25.053594],[121.43968,25.052936],[121.439445,25.052385],[121.441205,25.053893],[121.442227,25.054385],[121.444642,25.054357],[121.444701,25.052767],[121.448015,25.052784],[121.450038,25.052782],[121.450027,25.053005],[121.451174,25.053306],[121.451097,25.053616],[121.451297,25.053666],[121.450184,25.058956],[121.450415,25.059933],[121.450162,25.060284],[121.450216,25.060809],[121.449694,25.061057],[121.449023,25.061861],[121.448035,25.062632]]]},"properties":{"code":"65000050053","name":"中原里","countyCode":"65000","countyName":"新北市","townCode":"65000050","townName":"新莊區","level":"village","unassigned":false,"note":"","label":[121.44756285806855,25.056157739800486],"bounds":[121.438685,25.052385,121.451297,25.062632],"focusBounds":[121.438685,25.052385,121.451297,25.062632],"color":"#df9f6a"}},{"type":"Feature","id":"65000050054","geometry":{"type":"Polygon","coordinates":[[[121.447689,25.050465],[121.448519,25.050243],[121.448525,25.050056],[121.449094,25.050178],[121.449088,25.050283],[121.450092,25.050116],[121.452036,25.050679],[121.451511,25.052375],[121.451297,25.053666],[121.451097,25.053616],[121.451174,25.053306],[121.450027,25.053005],[121.450038,25.052782],[121.448015,25.052784],[121.448174,25.052103],[121.448561,25.051422],[121.447689,25.050465]]]},"properties":{"code":"65000050054","name":"中信里","countyCode":"65000","countyName":"新北市","townCode":"65000050","townName":"新莊區","level":"village","unassigned":false,"note":"","label":[121.44996886032126,25.051459449777497],"bounds":[121.447689,25.050056,121.452036,25.053666],"focusBounds":[121.447689,25.050056,121.452036,25.053666],"color":"#98b69b"}},{"type":"Feature","id":"65000050055","geometry":{"type":"Polygon","coordinates":[[[121.423713,25.021794],[121.424261,25.023069],[121.424464,25.023097],[121.424074,25.023376],[121.424321,25.023915],[121.424664,25.023913],[121.424442,25.024229],[121.424766,25.024091],[121.424967,25.024365],[121.424238,25.025614],[121.42143,25.019661],[121.422302,25.019262],[121.422539,25.019193],[121.423713,25.021794]]]},"properties":{"code":"65000050055","name":"四維里","countyCode":"65000","countyName":"新北市","townCode":"65000050","townName":"新莊區","level":"village","unassigned":false,"note":"","label":[121.42323608768852,25.022113399941198],"bounds":[121.42143,25.019193,121.424967,25.025614],"focusBounds":[121.42143,25.019193,121.424967,25.025614],"color":"#df9f6a"}},{"type":"Feature","id":"65000050056","geometry":{"type":"Polygon","coordinates":[[[121.430527,25.027702],[121.429478,25.027862],[121.428455,25.028292],[121.427163,25.02796],[121.426464,25.02805],[121.426926,25.026574],[121.428494,25.0271],[121.430527,25.027702]]]},"properties":{"code":"65000050056","name":"建福里","countyCode":"65000","countyName":"新北市","townCode":"65000050","townName":"新莊區","level":"village","unassigned":false,"note":"","label":[121.42802257165177,25.027561452574073],"bounds":[121.426464,25.026574,121.430527,25.028292],"focusBounds":[121.426464,25.026574,121.430527,25.028292],"color":"#c38cb8"}},{"type":"Feature","id":"65000050057","geometry":{"type":"Polygon","coordinates":[[[121.446484,25.049085],[121.446707,25.047887],[121.44612,25.047684],[121.446192,25.047361],[121.446361,25.047373],[121.446388,25.046932],[121.446126,25.046877],[121.446149,25.046712],[121.446196,25.046711],[121.447588,25.046957],[121.447533,25.047244],[121.450323,25.047839],[121.450178,25.04803],[121.450224,25.048621],[121.450219,25.048751],[121.449783,25.04874],[121.449776,25.048471],[121.44749,25.04773],[121.447365,25.049113],[121.446484,25.049085]]]},"properties":{"code":"65000050057","name":"中宏里","countyCode":"65000","countyName":"新北市","townCode":"65000050","townName":"新莊區","level":"village","unassigned":false,"note":"","label":[121.44712488498298,25.047416941424935],"bounds":[121.44612,25.046711,121.450323,25.049113],"focusBounds":[121.44612,25.046711,121.450323,25.049113],"color":"#58b99d"}},{"type":"Feature","id":"65000050058","geometry":{"type":"Polygon","coordinates":[[[121.447691,25.046413],[121.448609,25.046411],[121.448647,25.046262],[121.45117,25.046763],[121.451461,25.046985],[121.451225,25.048015],[121.450323,25.047839],[121.447533,25.047244],[121.447588,25.046957],[121.447691,25.046413]]]},"properties":{"code":"65000050058","name":"中全里","countyCode":"65000","countyName":"新北市","townCode":"65000050","townName":"新莊區","level":"village","unassigned":false,"note":"","label":[121.4495727176986,25.04706235506789],"bounds":[121.447533,25.046262,121.451461,25.048015],"focusBounds":[121.447533,25.046262,121.451461,25.048015],"color":"#efb44f"}},{"type":"Feature","id":"65000050059","geometry":{"type":"Polygon","coordinates":[[[121.442034,25.039135],[121.4428,25.039189],[121.442907,25.040208],[121.445471,25.040559],[121.445581,25.040818],[121.44528,25.041318],[121.444177,25.043189],[121.443339,25.044588],[121.441464,25.047602],[121.44017,25.047241],[121.439877,25.047039],[121.441103,25.045981],[121.441803,25.04498],[121.441905,25.041658],[121.442093,25.041595],[121.442034,25.039135]]]},"properties":{"code":"65000050059","name":"立泰里","countyCode":"65000","countyName":"新北市","townCode":"65000050","townName":"新莊區","level":"village","unassigned":false,"note":"","label":[121.44311541167728,25.042592129811545],"bounds":[121.439877,25.039135,121.445581,25.047602],"focusBounds":[121.439877,25.039135,121.445581,25.047602],"color":"#dd8590"}},{"type":"Feature","id":"65000050060","geometry":{"type":"Polygon","coordinates":[[[121.448079,25.038791],[121.44784,25.038733],[121.447785,25.038851],[121.446987,25.038498],[121.44635,25.038209],[121.445635,25.038091],[121.445752,25.036522],[121.446168,25.036528],[121.446324,25.034819],[121.448335,25.035246],[121.448438,25.035268],[121.448298,25.035879],[121.448171,25.036018],[121.447855,25.035975],[121.448325,25.036144],[121.44781,25.037013],[121.44802,25.037097],[121.447977,25.037717],[121.448173,25.037727],[121.448079,25.038791]]]},"properties":{"code":"65000050060","name":"全泰里","countyCode":"65000","countyName":"新北市","townCode":"65000050","townName":"新莊區","level":"village","unassigned":false,"note":"","label":[121.44680852298215,25.03731046193774],"bounds":[121.445635,25.034819,121.448438,25.038851],"focusBounds":[121.445635,25.034819,121.448438,25.038851],"color":"#78a7e3"}},{"type":"Feature","id":"65000050061","geometry":{"type":"Polygon","coordinates":[[[121.457786,25.046643],[121.458699,25.046608],[121.458694,25.046295],[121.45885,25.046312],[121.459064,25.047123],[121.459373,25.047138],[121.459375,25.046915],[121.459746,25.046932],[121.45974,25.047233],[121.459696,25.04946],[121.458254,25.049448],[121.458127,25.048212],[121.457549,25.047476],[121.457747,25.046893],[121.457786,25.046643]]]},"properties":{"code":"65000050061","name":"仁義里","countyCode":"65000","countyName":"新北市","townCode":"65000050","townName":"新莊區","level":"village","unassigned":false,"note":"","label":[121.45889767261869,25.04797293649928],"bounds":[121.457549,25.046295,121.459746,25.04946],"focusBounds":[121.457549,25.046295,121.459746,25.04946],"color":"#dd8590"}},{"type":"Feature","id":"65000050062","geometry":{"type":"Polygon","coordinates":[[[121.443339,25.044588],[121.444569,25.044735],[121.444565,25.044594],[121.446126,25.044642],[121.446113,25.044857],[121.446407,25.044875],[121.446196,25.046711],[121.446149,25.046712],[121.444814,25.046711],[121.444843,25.049013],[121.441453,25.049009],[121.442024,25.04773],[121.441464,25.047602],[121.443339,25.044588]]]},"properties":{"code":"65000050062","name":"立基里","countyCode":"65000","countyName":"新北市","townCode":"65000050","townName":"新莊區","level":"village","unassigned":false,"note":"","label":[121.44343609885445,25.047088453598036],"bounds":[121.441453,25.044588,121.446407,25.049013],"focusBounds":[121.441453,25.044588,121.446407,25.049013],"color":"#a49ad4"}},{"type":"Feature","id":"65000050063","geometry":{"type":"Polygon","coordinates":[[[121.458063,25.053718],[121.455594,25.053708],[121.455559,25.052276],[121.456751,25.05232],[121.457986,25.052365],[121.458063,25.053718]]]},"properties":{"code":"65000050063","name":"昌明里","countyCode":"65000","countyName":"新北市","townCode":"65000050","townName":"新莊區","level":"village","unassigned":false,"note":"","label":[121.45678881146233,25.053016772328785],"bounds":[121.455559,25.052276,121.458063,25.053718],"focusBounds":[121.455559,25.052276,121.458063,25.053718],"color":"#68bec9"}},{"type":"Feature","id":"65000050064","geometry":{"type":"Polygon","coordinates":[[[121.459705,25.057169],[121.459766,25.060496],[121.45312,25.060552],[121.452952,25.060058],[121.45187,25.059359],[121.452066,25.05879],[121.452075,25.054866],[121.452141,25.053561],[121.4523,25.05319],[121.454757,25.053136],[121.454566,25.054438],[121.458038,25.054456],[121.457976,25.056265],[121.459717,25.056281],[121.459705,25.057169]]]},"properties":{"code":"65000050064","name":"昌平里","countyCode":"65000","countyName":"新北市","townCode":"65000050","townName":"新莊區","level":"village","unassigned":false,"note":"","label":[121.45517015949687,25.057487876566448],"bounds":[121.45187,25.053136,121.459766,25.060552],"focusBounds":[121.45187,25.053136,121.459766,25.060552],"color":"#68bec9"}},{"type":"Feature","id":"65000050065","geometry":{"type":"Polygon","coordinates":[[[121.448079,25.038791],[121.448173,25.037727],[121.447977,25.037717],[121.44802,25.037097],[121.44781,25.037013],[121.448325,25.036144],[121.447855,25.035975],[121.448171,25.036018],[121.448298,25.035879],[121.448438,25.035268],[121.450116,25.035625],[121.449893,25.039225],[121.448079,25.038791]]]},"properties":{"code":"65000050065","name":"文聖里","countyCode":"65000","countyName":"新北市","townCode":"65000050","townName":"新莊區","level":"village","unassigned":false,"note":"","label":[121.44904393249286,25.037209452278503],"bounds":[121.44781,25.035268,121.450116,25.039225],"focusBounds":[121.44781,25.035268,121.450116,25.039225],"color":"#df9f6a"}},{"type":"Feature","id":"65000050066","geometry":{"type":"Polygon","coordinates":[[[121.41953,25.02282],[121.421676,25.022097],[121.421636,25.022618],[121.4218,25.023201],[121.421985,25.023247],[121.421792,25.02348],[121.422187,25.024474],[121.422449,25.024763],[121.422038,25.024954],[121.422181,25.025263],[121.423275,25.024931],[121.42364,25.025782],[121.42397,25.02604],[121.423413,25.026997],[121.421932,25.026105],[121.421277,25.025547],[121.420364,25.025841],[121.419703,25.02448],[121.41953,25.02282]]]},"properties":{"code":"65000050066","name":"萬安里","countyCode":"65000","countyName":"新北市","townCode":"65000050","townName":"新莊區","level":"village","unassigned":false,"note":"","label":[121.42090182011704,25.024315495300236],"bounds":[121.41953,25.022097,121.42397,25.026997],"focusBounds":[121.41953,25.022097,121.42397,25.026997],"color":"#c38cb8"}},{"type":"Feature","id":"65000050067","geometry":{"type":"Polygon","coordinates":[[[121.421676,25.022097],[121.41953,25.02282],[121.418954,25.020388],[121.418815,25.019329],[121.41943,25.019172],[121.420423,25.018668],[121.420887,25.018672],[121.421486,25.020049],[121.421009,25.020224],[121.421259,25.020715],[121.420663,25.020954],[121.421045,25.021018],[121.421186,25.021672],[121.420862,25.021774],[121.421062,25.022168],[121.421625,25.021969],[121.421676,25.022097]]]},"properties":{"code":"65000050067","name":"龍安里","countyCode":"65000","countyName":"新北市","townCode":"65000050","townName":"新莊區","level":"village","unassigned":false,"note":"","label":[121.41996498085572,25.02021496877186],"bounds":[121.418815,25.018668,121.421676,25.02282],"focusBounds":[121.418815,25.018668,121.421676,25.02282],"color":"#58b99d"}},{"type":"Feature","id":"65000050068","geometry":{"type":"Polygon","coordinates":[[[121.437681,25.027838],[121.438854,25.030176],[121.441071,25.033737],[121.433507,25.032366],[121.426165,25.030159],[121.423396,25.029295],[121.422625,25.02903],[121.423413,25.026997],[121.424727,25.027767],[121.426464,25.02805],[121.427163,25.02796],[121.428455,25.028292],[121.429478,25.027862],[121.430527,25.027702],[121.430707,25.027521],[121.431658,25.027494],[121.432233,25.027817],[121.433031,25.027574],[121.434462,25.027862],[121.437342,25.027709],[121.437681,25.027838]]]},"properties":{"code":"65000050068","name":"福營里","countyCode":"65000","countyName":"新北市","townCode":"65000050","townName":"新莊區","level":"village","unassigned":false,"note":"","label":[121.43331859039742,25.029970621168218],"bounds":[121.422625,25.026997,121.441071,25.033737],"focusBounds":[121.422625,25.026997,121.441071,25.033737],"color":"#58b99d"}},{"type":"Feature","id":"65000050069","geometry":{"type":"Polygon","coordinates":[[[121.426926,25.026574],[121.426464,25.02805],[121.424727,25.027767],[121.423413,25.026997],[121.42397,25.02604],[121.424238,25.025614],[121.424815,25.025988],[121.426926,25.026574]]]},"properties":{"code":"65000050069","name":"後德里","countyCode":"65000","countyName":"新北市","townCode":"65000050","townName":"新莊區","level":"village","unassigned":false,"note":"","label":[121.42517924863165,25.026964960474707],"bounds":[121.423413,25.025614,121.426926,25.02805],"focusBounds":[121.423413,25.025614,121.426926,25.02805],"color":"#78a7e3"}},{"type":"Feature","id":"65000050070","geometry":{"type":"Polygon","coordinates":[[[121.4302,25.024889],[121.431404,25.025068],[121.433388,25.024382],[121.43333,25.024142],[121.433577,25.024094],[121.433706,25.023817],[121.434054,25.023741],[121.434119,25.024014],[121.434415,25.023868],[121.434336,25.023393],[121.43469,25.023227],[121.434905,25.023626],[121.435526,25.023319],[121.437627,25.02717],[121.437681,25.027838],[121.437342,25.027709],[121.434462,25.027862],[121.433031,25.027574],[121.432233,25.027817],[121.431658,25.027494],[121.430707,25.027521],[121.430527,25.027702],[121.428494,25.0271],[121.428868,25.025737],[121.425456,25.023641],[121.426398,25.022058],[121.427028,25.02287],[121.4302,25.024889]]]},"properties":{"code":"65000050070","name":"建安里","countyCode":"65000","countyName":"新北市","townCode":"65000050","townName":"新莊區","level":"village","unassigned":false,"note":"","label":[121.43436748035255,25.025867006173474],"bounds":[121.425456,25.022058,121.437681,25.027862],"focusBounds":[121.425456,25.022058,121.437681,25.027862],"color":"#78a7e3"}},{"type":"Feature","id":"65000050071","geometry":{"type":"Polygon","coordinates":[[[121.425601,25.020722],[121.423713,25.021794],[121.422539,25.019193],[121.422302,25.019262],[121.42192,25.018414],[121.421644,25.018517],[121.421489,25.018257],[121.421771,25.018127],[121.421525,25.017653],[121.422532,25.01701],[121.42317,25.016791],[121.423834,25.016812],[121.424189,25.018261],[121.424409,25.018602],[121.42461,25.018565],[121.425601,25.020722]]]},"properties":{"code":"65000050071","name":"成德里","countyCode":"65000","countyName":"新北市","townCode":"65000050","townName":"新莊區","level":"village","unassigned":false,"note":"","label":[121.42360611433097,25.01918034940192],"bounds":[121.421489,25.016791,121.425601,25.021794],"focusBounds":[121.421489,25.016791,121.425601,25.021794],"color":"#dd8590"}},{"type":"Feature","id":"65000050072","geometry":{"type":"Polygon","coordinates":[[[121.452561,25.061177],[121.452546,25.061587],[121.453478,25.061717],[121.453497,25.062491],[121.453758,25.06292],[121.457123,25.062985],[121.46287,25.065474],[121.46274,25.066332],[121.462432,25.066947],[121.460033,25.068267],[121.458349,25.067265],[121.453519,25.065325],[121.453531,25.063014],[121.451944,25.062435],[121.45182,25.061814],[121.451125,25.061652],[121.450808,25.061139],[121.452561,25.061177]]]},"properties":{"code":"65000050072","name":"福興里","countyCode":"65000","countyName":"新北市","townCode":"65000050","townName":"新莊區","level":"village","unassigned":false,"note":"","label":[121.45759056691693,25.065073847894705],"bounds":[121.450808,25.061139,121.46287,25.068267],"focusBounds":[121.450808,25.061139,121.46287,25.068267],"color":"#68bec9"}},{"type":"Feature","id":"65000050073","geometry":{"type":"Polygon","coordinates":[[[121.458038,25.054456],[121.454566,25.054438],[121.454757,25.053136],[121.454808,25.052248],[121.455559,25.052276],[121.455594,25.053708],[121.458063,25.053718],[121.458038,25.054456]]]},"properties":{"code":"65000050073","name":"昌信里","countyCode":"65000","countyName":"新北市","townCode":"65000050","townName":"新莊區","level":"village","unassigned":false,"note":"","label":[121.45520672292056,25.053987708209476],"bounds":[121.454566,25.052248,121.458063,25.054456],"focusBounds":[121.454566,25.052248,121.458063,25.054456],"color":"#c38cb8"}},{"type":"Feature","id":"65000050074","geometry":{"type":"Polygon","coordinates":[[[121.453068,25.050867],[121.456662,25.05086],[121.456751,25.05232],[121.455559,25.052276],[121.454808,25.052248],[121.454757,25.053136],[121.4523,25.05319],[121.4529,25.051864],[121.453068,25.050867]]]},"properties":{"code":"65000050074","name":"昌隆里","countyCode":"65000","countyName":"新北市","townCode":"65000050","townName":"新莊區","level":"village","unassigned":false,"note":"","label":[121.4540541543516,25.051753926156994],"bounds":[121.4523,25.05086,121.456751,25.05319],"focusBounds":[121.4523,25.05086,121.456751,25.05319],"color":"#df9f6a"}},{"type":"Feature","id":"65000050075","geometry":{"type":"Polygon","coordinates":[[[121.447689,25.050465],[121.448561,25.051422],[121.448174,25.052103],[121.448015,25.052784],[121.444701,25.052767],[121.444844,25.049039],[121.446484,25.049085],[121.447365,25.049113],[121.447441,25.049871],[121.447689,25.050465]]]},"properties":{"code":"65000050075","name":"中平里","countyCode":"65000","countyName":"新北市","townCode":"65000050","townName":"新莊區","level":"village","unassigned":false,"note":"","label":[121.44633013732279,25.05114870943474],"bounds":[121.444701,25.049039,121.448561,25.052784],"focusBounds":[121.444701,25.049039,121.448561,25.052784],"color":"#c38cb8"}},{"type":"Feature","id":"65000050076","geometry":{"type":"Polygon","coordinates":[[[121.441453,25.049009],[121.444843,25.049013],[121.444814,25.046711],[121.446149,25.046712],[121.446126,25.046877],[121.446388,25.046932],[121.446361,25.047373],[121.446192,25.047361],[121.44612,25.047684],[121.446707,25.047887],[121.446484,25.049085],[121.444844,25.049039],[121.444701,25.052767],[121.444642,25.054357],[121.442227,25.054385],[121.441205,25.053893],[121.439445,25.052385],[121.439583,25.052264],[121.440316,25.052363],[121.440437,25.052265],[121.441134,25.050758],[121.44107,25.050597],[121.440675,25.050568],[121.441453,25.049009]]]},"properties":{"code":"65000050076","name":"立廷里","countyCode":"65000","countyName":"新北市","townCode":"65000050","townName":"新莊區","level":"village","unassigned":false,"note":"","label":[121.44293332751766,25.051198678983685],"bounds":[121.439445,25.046711,121.446707,25.054385],"focusBounds":[121.439445,25.046711,121.446707,25.054385],"color":"#98b69b"}},{"type":"Feature","id":"65000050077","geometry":{"type":"Polygon","coordinates":[[[121.449367,25.032233],[121.448195,25.031953],[121.447934,25.03167],[121.44813,25.030787],[121.448339,25.030826],[121.448025,25.030522],[121.446513,25.030472],[121.446543,25.029442],[121.446716,25.029032],[121.446899,25.029127],[121.446759,25.02796],[121.448749,25.027324],[121.452264,25.030939],[121.450637,25.032357],[121.450272,25.03249],[121.449367,25.032233]]]},"properties":{"code":"65000050077","name":"泰豐里","countyCode":"65000","countyName":"新北市","townCode":"65000050","townName":"新莊區","level":"village","unassigned":false,"note":"","label":[121.449133113765,25.029686535471896],"bounds":[121.446513,25.027324,121.452264,25.03249],"focusBounds":[121.446513,25.027324,121.452264,25.03249],"color":"#98b69b"}},{"type":"Feature","id":"65000050078","geometry":{"type":"Polygon","coordinates":[[[121.420607,25.028362],[121.420736,25.027975],[121.421049,25.028073],[121.421111,25.027915],[121.420879,25.027524],[121.421062,25.027319],[121.420415,25.026817],[121.420499,25.026444],[121.421457,25.026064],[121.421932,25.026105],[121.423413,25.026997],[121.422625,25.02903],[121.420607,25.028362]]]},"properties":{"code":"65000050078","name":"富民里","countyCode":"65000","countyName":"新北市","townCode":"65000050","townName":"新莊區","level":"village","unassigned":false,"note":"","label":[121.4220920966742,25.027442017280368],"bounds":[121.420415,25.026064,121.423413,25.02903],"focusBounds":[121.420415,25.026064,121.423413,25.02903],"color":"#efb44f"}},{"type":"Feature","id":"65000050079","geometry":{"type":"Polygon","coordinates":[[[121.41177,25.021921],[121.410456,25.021077],[121.41074,25.020875],[121.410706,25.019811],[121.411192,25.019734],[121.411027,25.019402],[121.411469,25.019297],[121.41211,25.019452],[121.4124,25.020307],[121.412836,25.020204],[121.413284,25.01974],[121.413312,25.019953],[121.412595,25.020947],[121.412419,25.02084],[121.41177,25.021921]]]},"properties":{"code":"65000050079","name":"龍福里","countyCode":"65000","countyName":"新北市","townCode":"65000050","townName":"新莊區","level":"village","unassigned":false,"note":"","label":[121.4115688711267,25.020491084956653],"bounds":[121.410456,25.019297,121.413312,25.021921],"focusBounds":[121.410456,25.019297,121.413312,25.021921],"color":"#efb44f"}},{"type":"Feature","id":"65000050080","geometry":{"type":"Polygon","coordinates":[[[121.412794,25.029636],[121.412211,25.028876],[121.412215,25.028517],[121.412996,25.027898],[121.413775,25.028183],[121.414846,25.029677],[121.413341,25.030006],[121.412794,25.029636]]]},"properties":{"code":"65000050080","name":"祥鳳里","countyCode":"65000","countyName":"新北市","townCode":"65000050","townName":"新莊區","level":"village","unassigned":false,"note":"","label":[121.41337557093969,25.029017688082433],"bounds":[121.412211,25.027898,121.414846,25.030006],"focusBounds":[121.412211,25.027898,121.414846,25.030006],"color":"#78a7e3"}},{"type":"Feature","id":"65000050081","geometry":{"type":"Polygon","coordinates":[[[121.426398,25.022058],[121.427123,25.021167],[121.428432,25.020938],[121.428984,25.021306],[121.429246,25.020857],[121.429492,25.020833],[121.42963,25.021643],[121.430301,25.021931],[121.430387,25.021708],[121.430834,25.021844],[121.430558,25.022889],[121.430119,25.022779],[121.4302,25.024889],[121.427028,25.02287],[121.426398,25.022058]]]},"properties":{"code":"65000050081","name":"民全里","countyCode":"65000","countyName":"新北市","townCode":"65000050","townName":"新莊區","level":"village","unassigned":false,"note":"","label":[121.42873654744302,25.02254913278504],"bounds":[121.426398,25.020833,121.430834,25.024889],"focusBounds":[121.426398,25.020833,121.430834,25.024889],"color":"#dd8590"}},{"type":"Feature","id":"65000050082","geometry":{"type":"Polygon","coordinates":[[[121.427218,25.019387],[121.427667,25.018986],[121.427659,25.018701],[121.427225,25.018529],[121.427383,25.018373],[121.42788,25.01834],[121.427896,25.018104],[121.42739,25.018366],[121.427101,25.018063],[121.427665,25.017615],[121.428152,25.017554],[121.428971,25.017516],[121.428958,25.017142],[121.429284,25.017264],[121.429395,25.01916],[121.427218,25.019387]]]},"properties":{"code":"65000050082","name":"民有里","countyCode":"65000","countyName":"新北市","townCode":"65000050","townName":"新莊區","level":"village","unassigned":false,"note":"","label":[121.42860894792516,25.018452853509768],"bounds":[121.427101,25.017142,121.429395,25.019387],"focusBounds":[121.427101,25.017142,121.429395,25.019387],"color":"#a8bf62"}},{"type":"Feature","id":"65000050083","geometry":{"type":"Polygon","coordinates":[[[121.427665,25.017615],[121.426501,25.017933],[121.426074,25.016267],[121.425943,25.014816],[121.428045,25.014724],[121.428152,25.017554],[121.427665,25.017615]]]},"properties":{"code":"65000050083","name":"光正里","countyCode":"65000","countyName":"新北市","townCode":"65000050","townName":"新莊區","level":"village","unassigned":false,"note":"","label":[121.42707976882966,25.01614440112185],"bounds":[121.425943,25.014724,121.428152,25.017933],"focusBounds":[121.425943,25.014724,121.428152,25.017933],"color":"#df9f6a"}},{"type":"Feature","id":"65000050084","geometry":{"type":"Polygon","coordinates":[[[121.425943,25.014816],[121.426025,25.013317],[121.426365,25.013228],[121.426402,25.013338],[121.426642,25.013324],[121.426888,25.013219],[121.426866,25.013094],[121.427837,25.01288],[121.427968,25.013154],[121.428045,25.014724],[121.425943,25.014816]]]},"properties":{"code":"65000050084","name":"光和里","countyCode":"65000","countyName":"新北市","townCode":"65000050","townName":"新莊區","level":"village","unassigned":false,"note":"","label":[121.4270542982173,25.013970092371636],"bounds":[121.425943,25.01288,121.428045,25.014816],"focusBounds":[121.425943,25.01288,121.428045,25.014816],"color":"#c38cb8"}}]}
