{"type":"FeatureCollection","features":[{"type":"Feature","id":"65000240001","geometry":{"type":"Polygon","coordinates":[[[121.720945,25.008732],[121.72116,25.00939],[121.720591,25.011103],[121.72029,25.011564],[121.719603,25.012101],[121.719123,25.013277],[121.718643,25.013823],[121.719029,25.014312],[121.718709,25.01467],[121.719349,25.015668],[121.719452,25.016119],[121.719273,25.017164],[121.718779,25.017587],[121.71861,25.017945],[121.719015,25.018517],[121.718948,25.018785],[121.718575,25.019711],[121.718188,25.019771],[121.718053,25.019578],[121.717861,25.019744],[121.717909,25.020175],[121.717752,25.020633],[121.717887,25.021055],[121.717312,25.021244],[121.717065,25.021599],[121.717215,25.021876],[121.717564,25.022066],[121.718248,25.022122],[121.719321,25.021631],[121.721657,25.022328],[121.721382,25.022649],[121.721346,25.023117],[121.720896,25.02349],[121.720658,25.024354],[121.720965,25.024676],[121.721126,25.025158],[121.718722,25.028268],[121.718401,25.028429],[121.717105,25.028276],[121.713952,25.028393],[121.713381,25.028641],[121.713399,25.029117],[121.714146,25.029827],[121.71435,25.030478],[121.713297,25.032337],[121.711998,25.033379],[121.711044,25.033498],[121.710335,25.033791],[121.709247,25.033796],[121.708303,25.03409],[121.707791,25.033506],[121.706975,25.033464],[121.706454,25.033094],[121.705285,25.032839],[121.704734,25.032475],[121.70393,25.032353],[121.703185,25.031983],[121.702962,25.031005],[121.703498,25.030052],[121.70317,25.02961],[121.704488,25.027516],[121.704422,25.026602],[121.703841,25.026422],[121.702297,25.025416],[121.702084,25.024769],[121.701509,25.024195],[121.70106,25.023264],[121.702596,25.021357],[121.704215,25.018321],[121.704895,25.017969],[121.706071,25.017746],[121.706838,25.017191],[121.706938,25.016888],[121.706577,25.015999],[121.706131,25.015369],[121.706176,25.014919],[121.707771,25.013156],[121.708507,25.012683],[121.709241,25.011859],[121.709677,25.011853],[121.710134,25.011608],[121.711915,25.009711],[121.713624,25.006022],[121.714494,25.006179],[121.715436,25.00664],[121.716583,25.006723],[121.717742,25.007387],[121.719638,25.007378],[121.720103,25.008051],[121.720945,25.008732]]]},"properties":{"code":"65000240001","name":"薯榔里","countyCode":"65000","countyName":"新北市","townCode":"65000240","townName":"平溪區","level":"village","unassigned":false,"note":"","label":[121.7106587332048,25.022352768845415],"bounds":[121.70106,25.006022,121.721657,25.03409],"focusBounds":[121.70106,25.006022,121.721657,25.03409],"color":"#a8bf62"}},{"type":"Feature","id":"65000240002","geometry":{"type":"Polygon","coordinates":[[[121.725272,25.034554],[121.724459,25.034809],[121.721334,25.034433],[121.719603,25.03448],[121.716271,25.035929],[121.715499,25.036056],[121.714635,25.035692],[121.714164,25.035214],[121.713384,25.034944],[121.713207,25.034724],[121.713113,25.033991],[121.712575,25.03349],[121.711998,25.033379],[121.713297,25.032337],[121.71435,25.030478],[121.714146,25.029827],[121.713399,25.029117],[121.713381,25.028641],[121.713952,25.028393],[121.717105,25.028276],[121.718401,25.028429],[121.718722,25.028268],[121.721126,25.025158],[121.720965,25.024676],[121.720658,25.024354],[121.720896,25.02349],[121.721346,25.023117],[121.721382,25.022649],[121.721657,25.022328],[121.722459,25.021992],[121.722704,25.02202],[121.723099,25.02234],[121.723344,25.023102],[121.72516,25.023507],[121.72579,25.023271],[121.726581,25.022594],[121.727183,25.022481],[121.727851,25.023074],[121.72841,25.024233],[121.727301,25.025238],[121.725235,25.026669],[121.724821,25.026791],[121.723805,25.02665],[121.722421,25.029116],[121.721278,25.030113],[121.721071,25.031666],[121.721118,25.032541],[121.723339,25.033454],[121.725272,25.034554]]]},"properties":{"code":"65000240002","name":"菁桐里","countyCode":"65000","countyName":"新北市","townCode":"65000240","townName":"平溪區","level":"village","unassigned":false,"note":"","label":[121.71756025829274,25.031848952928335],"bounds":[121.711998,25.021992,121.72841,25.036056],"focusBounds":[121.711998,25.021992,121.72841,25.036056],"color":"#68bec9"}},{"type":"Feature","id":"65000240003","geometry":{"type":"Polygon","coordinates":[[[121.721657,25.022328],[121.719321,25.021631],[121.718248,25.022122],[121.717564,25.022066],[121.717215,25.021876],[121.717065,25.021599],[121.717312,25.021244],[121.717887,25.021055],[121.717752,25.020633],[121.717909,25.020175],[121.717861,25.019744],[121.718053,25.019578],[121.718188,25.019771],[121.718575,25.019711],[121.718948,25.018785],[121.719015,25.018517],[121.71861,25.017945],[121.718779,25.017587],[121.719273,25.017164],[121.719452,25.016119],[121.719349,25.015668],[121.718709,25.01467],[121.719029,25.014312],[121.718643,25.013823],[121.719123,25.013277],[121.719603,25.012101],[121.72029,25.011564],[121.720591,25.011103],[121.72116,25.00939],[121.720945,25.008732],[121.721132,25.008828],[121.722134,25.00924],[121.723772,25.009569],[121.725973,25.010657],[121.725842,25.011696],[121.725249,25.013701],[121.725602,25.014868],[121.72676,25.016552],[121.726873,25.017898],[121.72787,25.018378],[121.728171,25.018877],[121.728576,25.01914],[121.72931,25.019394],[121.729814,25.020467],[121.731508,25.021672],[121.733079,25.023281],[121.73274,25.02393],[121.732392,25.02393],[121.731846,25.023319],[121.73067,25.022641],[121.729927,25.023215],[121.72987,25.023874],[121.729541,25.024391],[121.728891,25.024533],[121.72841,25.024233],[121.727851,25.023074],[121.727183,25.022481],[121.726581,25.022594],[121.72579,25.023271],[121.72516,25.023507],[121.723344,25.023102],[121.723099,25.02234],[121.722704,25.02202],[121.722459,25.021992],[121.721657,25.022328]]]},"properties":{"code":"65000240003","name":"白石里","countyCode":"65000","countyName":"新北市","townCode":"65000240","townName":"平溪區","level":"village","unassigned":false,"note":"","label":[121.7229998641138,25.0180205367145],"bounds":[121.717065,25.008732,121.733079,25.024533],"focusBounds":[121.717065,25.008732,121.733079,25.024533],"color":"#c38cb8"}},{"type":"Feature","id":"65000240004","geometry":{"type":"Polygon","coordinates":[[[121.750274,25.023464],[121.74706,25.023529],[121.745548,25.022861],[121.744628,25.023595],[121.743579,25.024156],[121.742351,25.025687],[121.741243,25.02521],[121.740452,25.025379],[121.740095,25.025238],[121.739389,25.024551],[121.738904,25.024674],[121.739027,25.025449],[121.738574,25.02544],[121.737945,25.025718],[121.737163,25.026791],[121.735851,25.026989],[121.735474,25.027215],[121.734383,25.028325],[121.734251,25.028974],[121.734439,25.029407],[121.733653,25.029558],[121.733126,25.029916],[121.733041,25.030753],[121.732919,25.030838],[121.730726,25.030518],[121.730284,25.03065],[121.728929,25.031779],[121.727983,25.031882],[121.72724,25.032343],[121.726459,25.033699],[121.725272,25.034554],[121.723339,25.033454],[121.721118,25.032541],[121.721071,25.031666],[121.721278,25.030113],[121.722421,25.029116],[121.723805,25.02665],[121.724821,25.026791],[121.725235,25.026669],[121.727301,25.025238],[121.72841,25.024233],[121.728891,25.024533],[121.729541,25.024391],[121.72987,25.023874],[121.729927,25.023215],[121.73067,25.022641],[121.731846,25.023319],[121.732392,25.02393],[121.73274,25.02393],[121.733079,25.023281],[121.731508,25.021672],[121.729814,25.020467],[121.72931,25.019394],[121.728576,25.01914],[121.728171,25.018877],[121.72787,25.018378],[121.726873,25.017898],[121.72676,25.016552],[121.725602,25.014868],[121.725249,25.013701],[121.725842,25.011696],[121.725973,25.010657],[121.730858,25.009296],[121.732693,25.009503],[121.734401,25.0102],[121.735277,25.010285],[121.737319,25.010887],[121.737535,25.011103],[121.736999,25.012186],[121.737065,25.012327],[121.739309,25.014322],[121.739446,25.016091],[121.739925,25.017042],[121.739526,25.018491],[121.739667,25.019488],[121.739958,25.019573],[121.743243,25.019328],[121.745285,25.019564],[121.746141,25.020392],[121.747661,25.020843],[121.750274,25.023464]]]},"properties":{"code":"65000240004","name":"石底里","countyCode":"65000","countyName":"新北市","townCode":"65000240","townName":"平溪區","level":"village","unassigned":false,"note":"","label":[121.73421693628332,25.01713239268982],"bounds":[121.721071,25.009296,121.750274,25.034554],"focusBounds":[121.721071,25.009296,121.750274,25.034554],"color":"#98b69b"}},{"type":"Feature","id":"65000240005","geometry":{"type":"Polygon","coordinates":[[[121.739027,25.025449],[121.739055,25.025878],[121.738264,25.027403],[121.73865,25.027478],[121.739243,25.026866],[121.73946,25.027111],[121.73873,25.028654],[121.737662,25.03208],[121.737036,25.033397],[121.736914,25.034404],[121.736585,25.034819],[121.735211,25.035844],[121.734839,25.036512],[121.733409,25.038112],[121.733098,25.038743],[121.732256,25.039402],[121.731399,25.041199],[121.730491,25.04199],[121.730322,25.042648],[121.730529,25.043316],[121.730214,25.044625],[121.728087,25.047834],[121.72803,25.048417],[121.726984,25.04941],[121.7266,25.049352],[121.724544,25.048318],[121.723358,25.048517],[121.722276,25.048197],[121.721437,25.047405],[121.720967,25.047201],[121.719808,25.045267],[121.718298,25.044051],[121.718178,25.043503],[121.717807,25.042957],[121.715976,25.041747],[121.716656,25.040306],[121.716641,25.039187],[121.71611,25.038507],[121.716112,25.037395],[121.715776,25.03625],[121.715499,25.036056],[121.716271,25.035929],[121.719603,25.03448],[121.721334,25.034433],[121.724459,25.034809],[121.725272,25.034554],[121.726459,25.033699],[121.72724,25.032343],[121.727983,25.031882],[121.728929,25.031779],[121.730284,25.03065],[121.730726,25.030518],[121.732919,25.030838],[121.733041,25.030753],[121.733126,25.029916],[121.733653,25.029558],[121.734439,25.029407],[121.734251,25.028974],[121.734383,25.028325],[121.735474,25.027215],[121.735851,25.026989],[121.737163,25.026791],[121.737945,25.025718],[121.738574,25.02544],[121.739027,25.025449]]]},"properties":{"code":"65000240005","name":"平溪里","countyCode":"65000","countyName":"新北市","townCode":"65000240","townName":"平溪區","level":"village","unassigned":false,"note":"","label":[121.72489731602678,25.04049459075999],"bounds":[121.715499,25.02544,121.73946,25.04941],"focusBounds":[121.715499,25.02544,121.73946,25.04941],"color":"#efb44f"}},{"type":"Feature","id":"65000240006","geometry":{"type":"Polygon","coordinates":[[[121.755809,25.023766],[121.755562,25.027967],[121.755416,25.028796],[121.755213,25.029097],[121.754884,25.029106],[121.754159,25.028598],[121.754141,25.028043],[121.753924,25.027798],[121.751336,25.026452],[121.750866,25.026481],[121.748983,25.027384],[121.748212,25.028278],[121.748372,25.028447],[121.750828,25.028429],[121.751176,25.02889],[121.751247,25.029737],[121.750618,25.033187],[121.749807,25.034157],[121.750132,25.035054],[121.74976,25.035825],[121.748461,25.037246],[121.747939,25.039326],[121.747068,25.040926],[121.74672,25.043166],[121.74617,25.044258],[121.746668,25.04549],[121.747647,25.046027],[121.748188,25.046516],[121.748852,25.048822],[121.748871,25.049433],[121.748438,25.050139],[121.748739,25.050939],[121.748729,25.051334],[121.747826,25.052633],[121.747612,25.053712],[121.746755,25.053602],[121.745913,25.052995],[121.743719,25.053126],[121.743358,25.052549],[121.742931,25.052488],[121.74224,25.052973],[121.741582,25.052789],[121.740939,25.053079],[121.739796,25.053058],[121.739132,25.053882],[121.738268,25.054222],[121.737839,25.054656],[121.737498,25.054764],[121.736129,25.05427],[121.734803,25.054156],[121.732813,25.053323],[121.732208,25.052725],[121.731711,25.053064],[121.730088,25.053348],[121.729333,25.052683],[121.728929,25.051826],[121.727942,25.051268],[121.727393,25.050664],[121.726986,25.049987],[121.727113,25.049579],[121.726984,25.04941],[121.72803,25.048417],[121.728087,25.047834],[121.730214,25.044625],[121.730529,25.043316],[121.730322,25.042648],[121.730491,25.04199],[121.731399,25.041199],[121.732256,25.039402],[121.733098,25.038743],[121.733409,25.038112],[121.734839,25.036512],[121.735211,25.035844],[121.736585,25.034819],[121.736914,25.034404],[121.737036,25.033397],[121.737662,25.03208],[121.73873,25.028654],[121.73946,25.027111],[121.739243,25.026866],[121.73865,25.027478],[121.738264,25.027403],[121.739055,25.025878],[121.739027,25.025449],[121.738904,25.024674],[121.739389,25.024551],[121.740095,25.025238],[121.740452,25.025379],[121.741243,25.02521],[121.742351,25.025687],[121.743579,25.024156],[121.744628,25.023595],[121.745548,25.022861],[121.74706,25.023529],[121.750274,25.023464],[121.750505,25.023713],[121.751026,25.023846],[121.753388,25.024203],[121.754762,25.024156],[121.755809,25.023766]]]},"properties":{"code":"65000240006","name":"嶺腳里","countyCode":"65000","countyName":"新北市","townCode":"65000240","townName":"平溪區","level":"village","unassigned":false,"note":"","label":[121.73973394833214,25.041631490755485],"bounds":[121.726984,25.022861,121.755809,25.054764],"focusBounds":[121.726984,25.022861,121.755809,25.054764],"color":"#58b99d"}},{"type":"Feature","id":"65000240007","geometry":{"type":"Polygon","coordinates":[[[121.759765,25.008836],[121.758964,25.009268],[121.758662,25.009663],[121.759043,25.011132],[121.758479,25.01292],[121.759039,25.014538],[121.758512,25.015705],[121.758808,25.016646],[121.75878,25.017917],[121.759236,25.0201],[121.759161,25.020985],[121.758295,25.022293],[121.757011,25.023196],[121.755809,25.023766],[121.754762,25.024156],[121.753388,25.024203],[121.751026,25.023846],[121.750505,25.023713],[121.750274,25.023464],[121.747661,25.020843],[121.746141,25.020392],[121.745285,25.019564],[121.743243,25.019328],[121.739958,25.019573],[121.739667,25.019488],[121.739526,25.018491],[121.739925,25.017042],[121.739446,25.016091],[121.739309,25.014322],[121.737065,25.012327],[121.736999,25.012186],[121.737535,25.011103],[121.737319,25.010887],[121.735277,25.010285],[121.734401,25.0102],[121.732693,25.009503],[121.730858,25.009296],[121.725973,25.010657],[121.723772,25.009569],[121.722134,25.00924],[121.721132,25.008828],[121.721755,25.00842],[121.722222,25.0076],[121.722633,25.00506],[121.722304,25.004509],[121.722299,25.003702],[121.721799,25.002108],[121.721776,25.001299],[121.72146,25.001088],[121.720502,25.000891],[121.720585,24.999879],[121.721404,24.998394],[121.722225,24.997902],[121.723097,24.997091],[121.7237,24.99617],[121.723842,24.995403],[121.724767,24.993319],[121.725083,24.992157],[121.725851,24.990899],[121.726581,24.99014],[121.726829,24.989279],[121.725895,24.988228],[121.725126,24.987658],[121.724647,24.986783],[121.724556,24.986288],[121.724841,24.984946],[121.724569,24.983683],[121.724115,24.982992],[121.723371,24.982454],[121.722037,24.982392],[121.721879,24.982282],[121.720953,24.981406],[121.720735,24.980264],[121.719336,24.980041],[121.718647,24.980107],[121.717273,24.979175],[121.717339,24.978147],[121.718297,24.976773],[121.718426,24.975743],[121.718183,24.974903],[121.721009,24.973995],[121.721716,24.974104],[121.723541,24.974946],[121.724346,24.975124],[121.72467,24.975121],[121.72534,24.97474],[121.726086,24.9747],[121.726975,24.974818],[121.727789,24.97514],[121.729165,24.975084],[121.730259,24.975401],[121.730888,24.975851],[121.733141,24.975965],[121.733723,24.976434],[121.735085,24.976088],[121.735643,24.975791],[121.736477,24.975724],[121.73675,24.976088],[121.737033,24.977476],[121.73765,24.977585],[121.737974,24.978125],[121.737962,24.978496],[121.738429,24.978911],[121.738823,24.97976],[121.739669,24.979085],[121.740671,24.979532],[121.741486,24.97928],[121.742352,24.979728],[121.742656,24.979507],[121.742723,24.978838],[121.743173,24.978075],[121.743592,24.976198],[121.7441,24.97514],[121.744932,24.975264],[121.746158,24.975217],[121.746992,24.974929],[121.748095,24.974171],[121.748406,24.974195],[121.749426,24.974712],[121.752192,24.977102],[121.752919,24.976737],[121.753795,24.976721],[121.754914,24.977034],[121.755761,24.977621],[121.75626,24.977728],[121.757214,24.977194],[121.758744,24.976905],[121.760397,24.978492],[121.761539,24.978609],[121.762274,24.978916],[121.763635,24.980583],[121.763918,24.980725],[121.764643,24.980615],[121.765039,24.98025],[121.767447,24.979572],[121.769248,24.979885],[121.769975,24.979568],[121.771372,24.979559],[121.772543,24.980986],[121.773126,24.981366],[121.773438,24.982024],[121.773511,24.982682],[121.7739,24.982952],[121.774646,24.983969],[121.775103,24.985364],[121.775587,24.985494],[121.776543,24.985271],[121.777123,24.984846],[121.776705,24.985283],[121.775793,24.985529],[121.775627,24.986607],[121.775455,24.986636],[121.775535,24.986835],[121.77508,24.987206],[121.774678,24.988231],[121.774336,24.988552],[121.773442,24.988651],[121.773096,24.989133],[121.771178,24.988928],[121.769681,24.989379],[121.769268,24.989933],[121.768736,24.990142],[121.76863,24.991119],[121.767701,24.992384],[121.766955,24.992868],[121.765671,24.993062],[121.764914,24.99337],[121.764601,24.993888],[121.764406,24.99527],[121.763708,24.99619],[121.762761,24.996695],[121.761655,24.997665],[121.761204,24.998357],[121.760579,24.998566],[121.759616,24.99938],[121.758956,24.999643],[121.759066,25.000323],[121.758932,25.0008],[121.758224,25.001609],[121.756692,25.004113],[121.756684,25.00449],[121.75754,25.006053],[121.757202,25.006374],[121.757028,25.006843],[121.759765,25.008836]]]},"properties":{"code":"65000240007","name":"東勢里","countyCode":"65000","countyName":"新北市","townCode":"65000240","townName":"平溪區","level":"village","unassigned":false,"note":"","label":[121.74432930875851,24.994593481407662],"bounds":[121.717273,24.973995,121.777123,25.024203],"focusBounds":[121.717273,24.973995,121.777123,25.024203],"color":"#efb44f"}},{"type":"Feature","id":"65000240008","geometry":{"type":"Polygon","coordinates":[[[121.747612,25.053712],[121.747826,25.052633],[121.748729,25.051334],[121.748739,25.050939],[121.748438,25.050139],[121.748871,25.049433],[121.748852,25.048822],[121.748188,25.046516],[121.747647,25.046027],[121.746668,25.04549],[121.74617,25.044258],[121.74672,25.043166],[121.747068,25.040926],[121.747939,25.039326],[121.748461,25.037246],[121.74976,25.035825],[121.750132,25.035054],[121.749807,25.034157],[121.750618,25.033187],[121.751247,25.029737],[121.751176,25.02889],[121.750828,25.028429],[121.748372,25.028447],[121.748212,25.028278],[121.748983,25.027384],[121.750866,25.026481],[121.751336,25.026452],[121.753924,25.027798],[121.754141,25.028043],[121.754159,25.028598],[121.754884,25.029106],[121.755213,25.029097],[121.755416,25.028796],[121.755562,25.027967],[121.755809,25.023766],[121.757011,25.023196],[121.758295,25.022293],[121.759161,25.020985],[121.759236,25.0201],[121.75878,25.017917],[121.758808,25.016646],[121.758512,25.015705],[121.759039,25.014538],[121.758479,25.01292],[121.759043,25.011132],[121.758662,25.009663],[121.758964,25.009268],[121.759765,25.008836],[121.761119,25.008214],[121.762281,25.007414],[121.763837,25.006992],[121.763358,25.008346],[121.763311,25.008948],[121.764116,25.010821],[121.765603,25.012571],[121.765575,25.01355],[121.765273,25.014576],[121.765433,25.015056],[121.766516,25.016251],[121.767316,25.016863],[121.768718,25.01754],[121.771099,25.01787],[121.771936,25.018632],[121.773386,25.01962],[121.772891,25.020345],[121.772995,25.021051],[121.772402,25.021314],[121.772139,25.021785],[121.771899,25.023187],[121.771145,25.024914],[121.769466,25.026857],[121.76909,25.027064],[121.767819,25.027328],[121.766064,25.028617],[121.763316,25.029492],[121.762808,25.029868],[121.762356,25.03048],[121.762013,25.031412],[121.76173,25.033492],[121.762606,25.03351],[121.765109,25.034489],[121.765673,25.034583],[121.766116,25.034423],[121.76684,25.033746],[121.767302,25.033825],[121.766869,25.03608],[121.766318,25.037915],[121.764158,25.042178],[121.763264,25.044822],[121.76334,25.045895],[121.763716,25.046761],[121.765487,25.048481],[121.762846,25.054195],[121.762506,25.056951],[121.762337,25.05698],[121.761704,25.057842],[121.760486,25.058013],[121.759787,25.058662],[121.759294,25.059449],[121.758557,25.059468],[121.757902,25.059016],[121.75688,25.059338],[121.755548,25.058247],[121.755311,25.058316],[121.754769,25.058047],[121.753955,25.058044],[121.751153,25.057258],[121.749255,25.055453],[121.748668,25.055349],[121.748183,25.055047],[121.747612,25.053712]]]},"properties":{"code":"65000240008","name":"望古里","countyCode":"65000","countyName":"新北市","townCode":"65000240","townName":"平溪區","level":"village","unassigned":false,"note":"","label":[121.75618878795669,25.04061810109328],"bounds":[121.74617,25.006992,121.773386,25.059468],"focusBounds":[121.74617,25.006992,121.773386,25.059468],"color":"#78a7e3"}},{"type":"Feature","id":"65000240009","geometry":{"type":"Polygon","coordinates":[[[121.771145,25.024914],[121.773978,25.026753],[121.774091,25.027158],[121.773451,25.027854],[121.77331,25.028269],[121.773771,25.030132],[121.773927,25.030424],[121.778251,25.034414],[121.778326,25.035054],[121.777324,25.035901],[121.77738,25.036287],[121.777879,25.037218],[121.778585,25.038065],[121.779503,25.038705],[121.780288,25.039012],[121.780958,25.039012],[121.781393,25.038779],[121.781387,25.038449],[121.781806,25.037836],[121.781833,25.0365],[121.783555,25.03439],[121.784534,25.032538],[121.785925,25.032419],[121.787026,25.032089],[121.78761,25.032409],[121.789149,25.03415],[121.789629,25.03447],[121.790636,25.034169],[121.791219,25.034254],[121.792047,25.034847],[121.792527,25.035543],[121.793129,25.03559],[121.794315,25.035374],[121.794889,25.035449],[121.795722,25.036569],[121.796889,25.036813],[121.79784,25.037576],[121.798235,25.037595],[121.798922,25.03734],[121.799957,25.037322],[121.801373,25.037632],[121.802023,25.037124],[121.802672,25.03702],[121.803378,25.036625],[121.804234,25.036409],[121.805345,25.037011],[121.80638,25.036992],[121.807283,25.037143],[121.808149,25.037547],[121.808889,25.037584],[121.809478,25.037732],[121.810325,25.039056],[121.81144,25.039719],[121.812425,25.040682],[121.813697,25.041275],[121.814601,25.041422],[121.81589,25.040929],[121.816191,25.041523],[121.816879,25.042114],[121.816773,25.042899],[121.815379,25.044492],[121.814786,25.045685],[121.814742,25.045845],[121.815186,25.046721],[121.815295,25.047958],[121.814823,25.049268],[121.814217,25.05001],[121.814108,25.050987],[121.813555,25.051809],[121.813598,25.052519],[121.81342,25.053403],[121.813524,25.054322],[121.81434,25.057253],[121.814237,25.058069],[121.813899,25.058376],[121.810897,25.057],[121.807824,25.054863],[121.806808,25.054797],[121.804907,25.055466],[121.804389,25.05539],[121.803674,25.055051],[121.802724,25.054346],[121.799821,25.051268],[121.798922,25.050619],[121.798235,25.050487],[121.796324,25.050741],[121.795148,25.051127],[121.793755,25.051937],[121.793191,25.051946],[121.791407,25.051522],[121.790805,25.051024],[121.789741,25.049725],[121.788283,25.04964],[121.787445,25.049038],[121.785789,25.048972],[121.785194,25.048666],[121.784791,25.047419],[121.7845,25.047043],[121.783794,25.047146],[121.78274,25.047796],[121.782363,25.047673],[121.782053,25.047306],[121.781827,25.046187],[121.781352,25.04517],[121.781625,25.044304],[121.781305,25.043655],[121.780834,25.043429],[121.779583,25.043326],[121.778453,25.042921],[121.776134,25.041124],[121.775282,25.039439],[121.774143,25.038272],[121.773578,25.037943],[121.772412,25.038103],[121.771856,25.038423],[121.771395,25.038987],[121.770991,25.038846],[121.770755,25.038216],[121.770496,25.036192],[121.77028,25.035872],[121.769499,25.034941],[121.767302,25.033825],[121.76684,25.033746],[121.766116,25.034423],[121.765673,25.034583],[121.765109,25.034489],[121.762606,25.03351],[121.76173,25.033492],[121.762013,25.031412],[121.762356,25.03048],[121.762808,25.029868],[121.763316,25.029492],[121.766064,25.028617],[121.767819,25.027328],[121.76909,25.027064],[121.769466,25.026857],[121.771145,25.024914]]]},"properties":{"code":"65000240009","name":"南山里","countyCode":"65000","countyName":"新北市","townCode":"65000240","townName":"平溪區","level":"village","unassigned":false,"note":"","label":[121.79085137824516,25.042631264817093],"bounds":[121.76173,25.024914,121.816879,25.058376],"focusBounds":[121.76173,25.024914,121.816879,25.058376],"color":"#dd8590"}},{"type":"Feature","id":"65000240010","geometry":{"type":"Polygon","coordinates":[[[121.771145,25.024914],[121.771899,25.023187],[121.772139,25.021785],[121.772402,25.021314],[121.772995,25.021051],[121.772891,25.020345],[121.773386,25.01962],[121.771936,25.018632],[121.771099,25.01787],[121.768718,25.01754],[121.767316,25.016863],[121.766516,25.016251],[121.765433,25.015056],[121.765273,25.014576],[121.765575,25.01355],[121.765603,25.012571],[121.764116,25.010821],[121.763311,25.008948],[121.763358,25.008346],[121.763837,25.006992],[121.762281,25.007414],[121.761119,25.008214],[121.759765,25.008836],[121.757028,25.006843],[121.757202,25.006374],[121.75754,25.006053],[121.756684,25.00449],[121.756692,25.004113],[121.758224,25.001609],[121.758932,25.0008],[121.759066,25.000323],[121.758956,24.999643],[121.759616,24.99938],[121.760579,24.998566],[121.761204,24.998357],[121.761655,24.997665],[121.762761,24.996695],[121.763708,24.99619],[121.764306,24.996278],[121.765019,24.997076],[121.767832,24.999082],[121.768592,24.999078],[121.768949,24.99976],[121.769454,24.99985],[121.76996,25.000224],[121.771156,25.000329],[121.772563,25.001698],[121.77472,25.002516],[121.774959,25.00324],[121.775603,25.003619],[121.777126,25.005758],[121.778052,25.006349],[121.779348,25.006444],[121.778762,25.007349],[121.778729,25.007944],[121.780176,25.010509],[121.780929,25.010923],[121.781993,25.011164],[121.782398,25.012235],[121.783797,25.013129],[121.784347,25.01369],[121.784215,25.014956],[121.78457,25.016418],[121.784531,25.017881],[121.786885,25.020469],[121.788298,25.021331],[121.78853,25.022388],[121.788867,25.022829],[121.789174,25.023024],[121.78981,25.022863],[121.791071,25.022865],[121.792773,25.023631],[121.793931,25.024602],[121.794644,25.025497],[121.795734,25.026309],[121.796001,25.026816],[121.796493,25.027027],[121.796993,25.027481],[121.797363,25.028262],[121.798041,25.028928],[121.798463,25.029009],[121.799001,25.029386],[121.799404,25.030096],[121.800682,25.030222],[121.80107,25.030484],[121.802045,25.030588],[121.802793,25.030943],[121.803808,25.030903],[121.804581,25.031596],[121.806558,25.031574],[121.80676,25.031648],[121.806886,25.032128],[121.807662,25.033098],[121.808181,25.034489],[121.8087,25.034941],[121.80865,25.036249],[121.808474,25.036901],[121.808889,25.037584],[121.808149,25.037547],[121.807283,25.037143],[121.80638,25.036992],[121.805345,25.037011],[121.804234,25.036409],[121.803378,25.036625],[121.802672,25.03702],[121.802023,25.037124],[121.801373,25.037632],[121.799957,25.037322],[121.798922,25.03734],[121.798235,25.037595],[121.79784,25.037576],[121.796889,25.036813],[121.795722,25.036569],[121.794889,25.035449],[121.794315,25.035374],[121.793129,25.03559],[121.792527,25.035543],[121.792047,25.034847],[121.791219,25.034254],[121.790636,25.034169],[121.789629,25.03447],[121.789149,25.03415],[121.78761,25.032409],[121.787026,25.032089],[121.785925,25.032419],[121.784534,25.032538],[121.783555,25.03439],[121.781833,25.0365],[121.781806,25.037836],[121.781387,25.038449],[121.781393,25.038779],[121.780958,25.039012],[121.780288,25.039012],[121.779503,25.038705],[121.778585,25.038065],[121.777879,25.037218],[121.77738,25.036287],[121.777324,25.035901],[121.778326,25.035054],[121.778251,25.034414],[121.773927,25.030424],[121.773771,25.030132],[121.77331,25.028269],[121.773451,25.027854],[121.774091,25.027158],[121.773978,25.026753],[121.771145,25.024914]]]},"properties":{"code":"65000240010","name":"平湖里","countyCode":"65000","countyName":"新北市","townCode":"65000240","townName":"平溪區","level":"village","unassigned":false,"note":"","label":[121.77991349219955,25.023268507672263],"bounds":[121.756684,24.99619,121.808889,25.039012],"focusBounds":[121.756684,24.99619,121.808889,25.039012],"color":"#a49ad4"}},{"type":"Feature","id":"65000240011","geometry":{"type":"Polygon","coordinates":[[[121.785194,25.048666],[121.783673,25.048818],[121.783761,25.050045],[121.78313,25.0506],[121.782782,25.051315],[121.782076,25.051231],[121.781305,25.051419],[121.780542,25.051297],[121.778298,25.049989],[121.777075,25.050327],[121.776877,25.050139],[121.776802,25.049198],[121.776642,25.049029],[121.775258,25.048473],[121.773282,25.048859],[121.771395,25.048963],[121.767847,25.048793],[121.765487,25.048481],[121.763716,25.046761],[121.76334,25.045895],[121.763264,25.044822],[121.764158,25.042178],[121.766318,25.037915],[121.766869,25.03608],[121.767302,25.033825],[121.769499,25.034941],[121.77028,25.035872],[121.770496,25.036192],[121.770755,25.038216],[121.770991,25.038846],[121.771395,25.038987],[121.771856,25.038423],[121.772412,25.038103],[121.773578,25.037943],[121.774143,25.038272],[121.775282,25.039439],[121.776134,25.041124],[121.778453,25.042921],[121.779583,25.043326],[121.780834,25.043429],[121.781305,25.043655],[121.781625,25.044304],[121.781352,25.04517],[121.781827,25.046187],[121.782053,25.047306],[121.782363,25.047673],[121.78274,25.047796],[121.783794,25.047146],[121.7845,25.047043],[121.784791,25.047419],[121.785194,25.048666]]]},"properties":{"code":"65000240011","name":"十分里","countyCode":"65000","countyName":"新北市","townCode":"65000240","townName":"平溪區","level":"village","unassigned":false,"note":"","label":[121.77155235189022,25.04387459870604],"bounds":[121.763264,25.033825,121.785194,25.051419],"focusBounds":[121.763264,25.033825,121.785194,25.051419],"color":"#a8bf62"}},{"type":"Feature","id":"65000240012","geometry":{"type":"Polygon","coordinates":[[[121.765487,25.048481],[121.767847,25.048793],[121.771395,25.048963],[121.773282,25.048859],[121.775258,25.048473],[121.776642,25.049029],[121.776802,25.049198],[121.776877,25.050139],[121.777075,25.050327],[121.778298,25.049989],[121.780542,25.051297],[121.781305,25.051419],[121.782076,25.051231],[121.782782,25.051315],[121.78313,25.0506],[121.783761,25.050045],[121.783673,25.048818],[121.785194,25.048666],[121.785789,25.048972],[121.787445,25.049038],[121.788283,25.04964],[121.789741,25.049725],[121.790805,25.051024],[121.791407,25.051522],[121.793191,25.051946],[121.793755,25.051937],[121.795148,25.051127],[121.796324,25.050741],[121.798235,25.050487],[121.798922,25.050619],[121.799821,25.051268],[121.802724,25.054346],[121.803674,25.055051],[121.804389,25.05539],[121.804907,25.055466],[121.806808,25.054797],[121.807824,25.054863],[121.810897,25.057],[121.813899,25.058376],[121.813052,25.059005],[121.81234,25.059302],[121.810075,25.059687],[121.808266,25.059081],[121.806776,25.058057],[121.805962,25.058396],[121.805008,25.060479],[121.804871,25.061491],[121.805089,25.062331],[121.804461,25.063407],[121.805012,25.064129],[121.80513,25.064622],[121.805622,25.065005],[121.805617,25.066407],[121.804666,25.067383],[121.803741,25.067587],[121.803226,25.068074],[121.802786,25.068918],[121.801796,25.070248],[121.800638,25.072623],[121.799466,25.07392],[121.799082,25.074712],[121.797893,25.075921],[121.796342,25.076577],[121.795723,25.077142],[121.794809,25.077376],[121.793799,25.077262],[121.789552,25.076058],[121.789275,25.075574],[121.788488,25.075515],[121.787595,25.074482],[121.786838,25.07431],[121.785633,25.073044],[121.784598,25.072522],[121.783196,25.072658],[121.781468,25.07195],[121.780925,25.071158],[121.779309,25.070959],[121.778143,25.071231],[121.775683,25.070058],[121.774506,25.068344],[121.773719,25.067688],[121.773402,25.067122],[121.773054,25.066836],[121.772192,25.063898],[121.771728,25.063206],[121.771529,25.063122],[121.770643,25.063444],[121.770008,25.063485],[121.76863,25.062679],[121.767977,25.062095],[121.767349,25.061824],[121.766675,25.060731],[121.765914,25.059987],[121.764813,25.059543],[121.764524,25.059062],[121.764687,25.058508],[121.764115,25.057517],[121.762506,25.056951],[121.762846,25.054195],[121.765487,25.048481]]]},"properties":{"code":"65000240012","name":"新寮里","countyCode":"65000","countyName":"新北市","townCode":"65000240","townName":"平溪區","level":"village","unassigned":false,"note":"","label":[121.78694665761654,25.06167665308702],"bounds":[121.762506,25.048473,121.813899,25.077376],"focusBounds":[121.762506,25.048473,121.813899,25.077376],"color":"#68bec9"}}]}
