{"type":"FeatureCollection","features":[{"type":"Feature","id":"65000060001","geometry":{"type":"Polygon","coordinates":[[[121.540541,24.974868],[121.541394,24.97497],[121.541555,24.975558],[121.541497,24.97643],[121.54181,24.977346],[121.541334,24.978122],[121.541707,24.978409],[121.541644,24.978589],[121.540769,24.97822],[121.540683,24.978456],[121.540522,24.978349],[121.540393,24.978504],[121.538744,24.977072],[121.538914,24.976911],[121.538522,24.976558],[121.53898,24.976151],[121.538625,24.975789],[121.540565,24.975215],[121.540541,24.974868]]]},"properties":{"code":"65000060001","name":"國豐里","countyCode":"65000","countyName":"新北市","townCode":"65000060","townName":"新店區","level":"village","unassigned":false,"note":"","label":[121.54023146147013,24.976650846345326],"bounds":[121.538522,24.974868,121.54181,24.978589],"focusBounds":[121.538522,24.974868,121.54181,24.978589],"color":"#df9f6a"}},{"type":"Feature","id":"65000060002","geometry":{"type":"Polygon","coordinates":[[[121.538522,24.976558],[121.538914,24.976911],[121.538744,24.977072],[121.540393,24.978504],[121.540522,24.978349],[121.540683,24.978456],[121.540769,24.97822],[121.541644,24.978589],[121.541707,24.978409],[121.541334,24.978122],[121.54181,24.977346],[121.542923,24.976396],[121.542713,24.977754],[121.542418,24.978891],[121.541925,24.980616],[121.540019,24.979775],[121.538141,24.978967],[121.538983,24.977889],[121.537908,24.977103],[121.538522,24.976558]]]},"properties":{"code":"65000060002","name":"明德里","countyCode":"65000","countyName":"新北市","townCode":"65000060","townName":"新店區","level":"village","unassigned":false,"note":"","label":[121.54103669261094,24.979278723194028],"bounds":[121.537908,24.976396,121.542923,24.980616],"focusBounds":[121.537908,24.976396,121.542923,24.980616],"color":"#c38cb8"}},{"type":"Feature","id":"65000060003","geometry":{"type":"Polygon","coordinates":[[[121.538366,24.981699],[121.535553,24.979058],[121.535034,24.978777],[121.534764,24.978969],[121.534699,24.978823],[121.535315,24.978544],[121.535897,24.978632],[121.537372,24.977189],[121.537149,24.976991],[121.537529,24.976703],[121.537908,24.977103],[121.538983,24.977889],[121.538141,24.978967],[121.540019,24.979775],[121.539844,24.979999],[121.539586,24.979827],[121.538602,24.980922],[121.53897,24.981132],[121.538366,24.981699]]]},"properties":{"code":"65000060003","name":"大豐里","countyCode":"65000","countyName":"新北市","townCode":"65000060","townName":"新店區","level":"village","unassigned":false,"note":"","label":[121.53713377819561,24.979103176803918],"bounds":[121.534699,24.976703,121.540019,24.981699],"focusBounds":[121.534699,24.976703,121.540019,24.981699],"color":"#98b69b"}},{"type":"Feature","id":"65000060004","geometry":{"type":"Polygon","coordinates":[[[121.538366,24.981699],[121.53897,24.981132],[121.538602,24.980922],[121.539586,24.979827],[121.539844,24.979999],[121.540019,24.979775],[121.541925,24.980616],[121.541442,24.982913],[121.54057,24.982913],[121.539055,24.982403],[121.538366,24.981699]]]},"properties":{"code":"65000060004","name":"大同里","countyCode":"65000","countyName":"新北市","townCode":"65000060","townName":"新店區","level":"village","unassigned":false,"note":"","label":[121.54029383075614,24.981358182695118],"bounds":[121.538366,24.979775,121.541925,24.982913],"focusBounds":[121.538366,24.979775,121.541925,24.982913],"color":"#58b99d"}},{"type":"Feature","id":"65000060005","geometry":{"type":"Polygon","coordinates":[[[121.54057,24.982913],[121.533837,24.982701],[121.534041,24.978836],[121.534464,24.979184],[121.534764,24.978969],[121.535034,24.978777],[121.535553,24.979058],[121.538366,24.981699],[121.539055,24.982403],[121.54057,24.982913]]]},"properties":{"code":"65000060005","name":"江陵里","countyCode":"65000","countyName":"新北市","townCode":"65000060","townName":"新店區","level":"village","unassigned":false,"note":"","label":[121.5356648576049,24.98126684174802],"bounds":[121.533837,24.978777,121.54057,24.982913],"focusBounds":[121.533837,24.978777,121.54057,24.982913],"color":"#efb44f"}},{"type":"Feature","id":"65000060006","geometry":{"type":"Polygon","coordinates":[[[121.546224,24.975517],[121.547164,24.976129],[121.545076,24.979036],[121.545773,24.979429],[121.546146,24.978851],[121.546999,24.979371],[121.546449,24.979811],[121.54795,24.980618],[121.548378,24.980595],[121.548848,24.980339],[121.54911,24.980666],[121.550313,24.980829],[121.550527,24.981775],[121.549997,24.982449],[121.550153,24.982639],[121.549909,24.984418],[121.549035,24.983761],[121.547112,24.983276],[121.545814,24.983382],[121.544801,24.983828],[121.544815,24.983514],[121.545087,24.98329],[121.545961,24.983074],[121.545671,24.982772],[121.54545,24.982872],[121.544849,24.982379],[121.54476,24.981831],[121.544395,24.981406],[121.544785,24.980933],[121.542418,24.978891],[121.542713,24.977754],[121.543537,24.977702],[121.54398,24.977492],[121.546224,24.975517]]]},"properties":{"code":"65000060006","name":"寶興里","countyCode":"65000","countyName":"新北市","townCode":"65000060","townName":"新店區","level":"village","unassigned":false,"note":"","label":[121.54651018018089,24.981584478163544],"bounds":[121.542418,24.975517,121.550527,24.984418],"focusBounds":[121.542418,24.975517,121.550527,24.984418],"color":"#78a7e3"}},{"type":"Feature","id":"65000060007","geometry":{"type":"Polygon","coordinates":[[[121.54478,24.983845],[121.544489,24.983774],[121.544269,24.983928],[121.543068,24.983782],[121.543266,24.983474],[121.542995,24.983407],[121.543066,24.983228],[121.541855,24.983127],[121.541643,24.984692],[121.541047,24.984616],[121.540839,24.985338],[121.540659,24.985263],[121.541442,24.982913],[121.541925,24.980616],[121.542418,24.978891],[121.544785,24.980933],[121.544395,24.981406],[121.54476,24.981831],[121.544849,24.982379],[121.54545,24.982872],[121.545671,24.982772],[121.545961,24.983074],[121.545087,24.98329],[121.544815,24.983514],[121.544801,24.983828],[121.54478,24.983845]]]},"properties":{"code":"65000060007","name":"寶安里","countyCode":"65000","countyName":"新北市","townCode":"65000060","townName":"新店區","level":"village","unassigned":false,"note":"","label":[121.54310448790297,24.981820048884707],"bounds":[121.540659,24.978891,121.545961,24.985338],"focusBounds":[121.540659,24.978891,121.545961,24.985338],"color":"#dd8590"}},{"type":"Feature","id":"65000060008","geometry":{"type":"Polygon","coordinates":[[[121.540659,24.985263],[121.540839,24.985338],[121.541047,24.984616],[121.541643,24.984692],[121.541855,24.983127],[121.543066,24.983228],[121.542995,24.983407],[121.543266,24.983474],[121.543068,24.983782],[121.544269,24.983928],[121.544489,24.983774],[121.54478,24.983845],[121.544253,24.984636],[121.544164,24.985052],[121.544812,24.987027],[121.544604,24.987655],[121.54407,24.988243],[121.54226,24.988047],[121.542192,24.988038],[121.539822,24.987741],[121.54006,24.986727],[121.540659,24.985263]]]},"properties":{"code":"65000060008","name":"信義里","countyCode":"65000","countyName":"新北市","townCode":"65000060","townName":"新店區","level":"village","unassigned":false,"note":"","label":[121.5425755622313,24.986204186476932],"bounds":[121.539822,24.983127,121.544812,24.988243],"focusBounds":[121.539822,24.983127,121.544812,24.988243],"color":"#a49ad4"}},{"type":"Feature","id":"65000060009","geometry":{"type":"Polygon","coordinates":[[[121.536997,24.991084],[121.534073,24.990712],[121.534035,24.991115],[121.533426,24.992132],[121.531699,24.990506],[121.53031,24.989164],[121.537361,24.986878],[121.54006,24.986727],[121.539822,24.987741],[121.539809,24.98774],[121.538195,24.987993],[121.536903,24.988652],[121.536589,24.989722],[121.536997,24.991084]]]},"properties":{"code":"65000060009","name":"忠孝里","countyCode":"65000","countyName":"新北市","townCode":"65000060","townName":"新店區","level":"village","unassigned":false,"note":"","label":[121.53498173458861,24.989238708954694],"bounds":[121.53031,24.986727,121.54006,24.992132],"focusBounds":[121.53031,24.986727,121.54006,24.992132],"color":"#df9f6a"}},{"type":"Feature","id":"65000060010","geometry":{"type":"Polygon","coordinates":[[[121.536997,24.991084],[121.537084,24.992205],[121.536616,24.993438],[121.535848,24.994611],[121.535288,24.995104],[121.535068,24.995089],[121.534299,24.993217],[121.533426,24.992132],[121.534035,24.991115],[121.534073,24.990712],[121.536997,24.991084]]]},"properties":{"code":"65000060010","name":"大鵬里","countyCode":"65000","countyName":"新北市","townCode":"65000060","townName":"新店區","level":"village","unassigned":false,"note":"","label":[121.53541044658178,24.99231203368545],"bounds":[121.533426,24.990712,121.537084,24.995104],"focusBounds":[121.533426,24.990712,121.537084,24.995104],"color":"#68bec9"}},{"type":"Feature","id":"65000060011","geometry":{"type":"Polygon","coordinates":[[[121.535844,24.958775],[121.534533,24.959312],[121.532619,24.960366],[121.530724,24.960938],[121.530258,24.960432],[121.529819,24.960201],[121.52903,24.956968],[121.528596,24.956115],[121.528478,24.954531],[121.528103,24.953672],[121.527558,24.952424],[121.529828,24.951327],[121.529557,24.951021],[121.530443,24.950538],[121.531008,24.951229],[121.532051,24.950254],[121.535031,24.948815],[121.536996,24.95166],[121.536386,24.952127],[121.53591,24.953043],[121.535818,24.957615],[121.535844,24.958775]]]},"properties":{"code":"65000060011","name":"太平里","countyCode":"65000","countyName":"新北市","townCode":"65000060","townName":"新店區","level":"village","unassigned":false,"note":"","label":[121.53234513895055,24.95474060976069],"bounds":[121.527558,24.948815,121.536996,24.960938],"focusBounds":[121.527558,24.948815,121.536996,24.960938],"color":"#df9f6a"}},{"type":"Feature","id":"65000060012","geometry":{"type":"Polygon","coordinates":[[[121.531515,24.968104],[121.528736,24.97024],[121.527762,24.970753],[121.525766,24.969456],[121.525064,24.968814],[121.524765,24.968276],[121.524721,24.967406],[121.525751,24.967011],[121.525236,24.966062],[121.524639,24.965785],[121.524556,24.964136],[121.526486,24.963966],[121.526259,24.963063],[121.524878,24.960729],[121.524837,24.959648],[121.526768,24.960598],[121.527533,24.961275],[121.529819,24.960201],[121.530258,24.960432],[121.530724,24.960938],[121.532619,24.960366],[121.534533,24.959312],[121.535844,24.958775],[121.535667,24.96101],[121.535452,24.961954],[121.533935,24.96547],[121.532817,24.966909],[121.531515,24.968104]]]},"properties":{"code":"65000060012","name":"頂城里","countyCode":"65000","countyName":"新北市","townCode":"65000060","townName":"新店區","level":"village","unassigned":false,"note":"","label":[121.52984519675103,24.96480138954975],"bounds":[121.524556,24.958775,121.535844,24.970753],"focusBounds":[121.524556,24.958775,121.535844,24.970753],"color":"#98b69b"}},{"type":"Feature","id":"65000060013","geometry":{"type":"Polygon","coordinates":[[[121.524721,24.967406],[121.521921,24.968212],[121.522271,24.96897],[121.521868,24.972112],[121.520246,24.971747],[121.519396,24.971752],[121.517307,24.965582],[121.516944,24.964522],[121.517184,24.963835],[121.516986,24.963164],[121.516657,24.962799],[121.516567,24.960423],[121.517646,24.959594],[121.516506,24.958785],[121.516375,24.955324],[121.513038,24.955168],[121.51175,24.951335],[121.512394,24.947658],[121.51594,24.943819],[121.515975,24.944723],[121.517758,24.946063],[121.519217,24.945713],[121.523895,24.947969],[121.523895,24.949149],[121.52514,24.949935],[121.524294,24.952256],[121.528103,24.953672],[121.528478,24.954531],[121.528596,24.956115],[121.52903,24.956968],[121.529819,24.960201],[121.527533,24.961275],[121.526768,24.960598],[121.524837,24.959648],[121.524878,24.960729],[121.526259,24.963063],[121.526486,24.963966],[121.524556,24.964136],[121.524639,24.965785],[121.525236,24.966062],[121.525751,24.967011],[121.524721,24.967406]]]},"properties":{"code":"65000060013","name":"下城里","countyCode":"65000","countyName":"新北市","townCode":"65000060","townName":"新店區","level":"village","unassigned":false,"note":"","label":[121.5212322300675,24.95604169986458],"bounds":[121.51175,24.943819,121.529819,24.972112],"focusBounds":[121.51175,24.943819,121.529819,24.972112],"color":"#58b99d"}},{"type":"Feature","id":"65000060014","geometry":{"type":"Polygon","coordinates":[[[121.519396,24.971752],[121.516383,24.971961],[121.514274,24.970823],[121.509294,24.972279],[121.508424,24.973016],[121.507738,24.97335],[121.50721,24.973894],[121.505876,24.974392],[121.505571,24.973769],[121.504691,24.973311],[121.504074,24.973217],[121.504259,24.972678],[121.503535,24.971766],[121.502845,24.971341],[121.502703,24.970629],[121.502111,24.969962],[121.501737,24.969811],[121.500981,24.970112],[121.50337,24.965438],[121.507176,24.960849],[121.507418,24.960849],[121.508009,24.961216],[121.509819,24.96245],[121.511438,24.964192],[121.514306,24.965098],[121.515526,24.966205],[121.517307,24.965582],[121.519396,24.971752]]]},"properties":{"code":"65000060014","name":"柴埕里","countyCode":"65000","countyName":"新北市","townCode":"65000060","townName":"新店區","level":"village","unassigned":false,"note":"","label":[121.50790866709491,24.96762876812797],"bounds":[121.500981,24.960849,121.519396,24.974392],"focusBounds":[121.500981,24.960849,121.519396,24.974392],"color":"#efb44f"}},{"type":"Feature","id":"65000060015","geometry":{"type":"Polygon","coordinates":[[[121.522003,24.984618],[121.519534,24.986864],[121.519156,24.986905],[121.51775,24.98658],[121.517003,24.986204],[121.516609,24.985756],[121.517512,24.984969],[121.517722,24.984551],[121.518014,24.981865],[121.517981,24.980795],[121.518253,24.980329],[121.518433,24.980134],[121.518809,24.98056],[121.519085,24.980611],[121.521342,24.980417],[121.521199,24.981501],[121.521276,24.983321],[121.521502,24.984059],[121.522003,24.984618]]]},"properties":{"code":"65000060015","name":"永安里","countyCode":"65000","countyName":"新北市","townCode":"65000060","townName":"新店區","level":"village","unassigned":false,"note":"","label":[121.51948226257399,24.98372322963278],"bounds":[121.516609,24.980134,121.522003,24.986905],"focusBounds":[121.516609,24.980134,121.522003,24.986905],"color":"#efb44f"}},{"type":"Feature","id":"65000060016","geometry":{"type":"Polygon","coordinates":[[[121.517307,24.965582],[121.515526,24.966205],[121.514306,24.965098],[121.511438,24.964192],[121.511432,24.963521],[121.511546,24.963563],[121.511866,24.962782],[121.511179,24.962304],[121.511876,24.960947],[121.511943,24.960545],[121.511077,24.959893],[121.511213,24.959723],[121.510576,24.959433],[121.510903,24.958631],[121.509111,24.95796],[121.509347,24.957561],[121.509454,24.95688],[121.509283,24.95651],[121.509701,24.95583],[121.510316,24.955911],[121.509933,24.95507],[121.509092,24.95422],[121.507701,24.952015],[121.508703,24.949117],[121.50807,24.94781],[121.511182,24.943069],[121.51215,24.941868],[121.513097,24.940595],[121.514463,24.940304],[121.515529,24.940471],[121.515829,24.94087],[121.51594,24.943819],[121.512394,24.947658],[121.51175,24.951335],[121.513038,24.955168],[121.516375,24.955324],[121.516506,24.958785],[121.517646,24.959594],[121.516567,24.960423],[121.516657,24.962799],[121.516986,24.963164],[121.517184,24.963835],[121.516944,24.964522],[121.517307,24.965582]]]},"properties":{"code":"65000060016","name":"公崙里","countyCode":"65000","countyName":"新北市","townCode":"65000060","townName":"新店區","level":"village","unassigned":false,"note":"","label":[121.51309332777859,24.957682513678105],"bounds":[121.507701,24.940304,121.517646,24.966205],"focusBounds":[121.507701,24.940304,121.517646,24.966205],"color":"#78a7e3"}},{"type":"Feature","id":"65000060017","geometry":{"type":"Polygon","coordinates":[[[121.500981,24.970112],[121.500023,24.970203],[121.499498,24.97069],[121.498625,24.970573],[121.497815,24.970765],[121.497585,24.97035],[121.49698,24.970065],[121.496282,24.96974],[121.495837,24.969205],[121.495337,24.969099],[121.495004,24.96881],[121.493909,24.968908],[121.492516,24.968152],[121.491681,24.967335],[121.490621,24.967338],[121.490135,24.967201],[121.488718,24.966259],[121.488157,24.96469],[121.489315,24.964598],[121.49018,24.962326],[121.490863,24.959694],[121.492898,24.956683],[121.493769,24.95651],[121.493362,24.954875],[121.493493,24.954469],[121.494461,24.953998],[121.494652,24.953478],[121.494452,24.953256],[121.494019,24.951757],[121.493416,24.95161],[121.494073,24.951194],[121.494282,24.950893],[121.49474,24.951224],[121.495104,24.951097],[121.495266,24.951191],[121.496622,24.949249],[121.497173,24.94846],[121.497656,24.948468],[121.498264,24.951932],[121.49938,24.95234],[121.498913,24.953348],[121.499569,24.953559],[121.500633,24.952062],[121.500925,24.951895],[121.5009,24.951714],[121.501553,24.950858],[121.501953,24.950791],[121.502744,24.951008],[121.503036,24.951791],[121.503398,24.952245],[121.503929,24.952527],[121.503988,24.952367],[121.503221,24.951468],[121.504127,24.949892],[121.503944,24.945578],[121.505393,24.945744],[121.505837,24.945147],[121.506204,24.945153],[121.5066,24.944946],[121.50685,24.943821],[121.508041,24.942013],[121.508157,24.941564],[121.508066,24.940822],[121.507416,24.93978],[121.509095,24.940538],[121.509766,24.941267],[121.511119,24.94146],[121.51215,24.941868],[121.511182,24.943069],[121.50807,24.94781],[121.508703,24.949117],[121.507701,24.952015],[121.509092,24.95422],[121.509933,24.95507],[121.510316,24.955911],[121.509701,24.95583],[121.509283,24.95651],[121.509454,24.95688],[121.509347,24.957561],[121.509111,24.95796],[121.510903,24.958631],[121.510576,24.959433],[121.511213,24.959723],[121.511077,24.959893],[121.509943,24.959386],[121.509663,24.960173],[121.509992,24.960386],[121.509754,24.960699],[121.509164,24.960994],[121.508009,24.961216],[121.507418,24.960849],[121.507176,24.960849],[121.50337,24.965438],[121.500981,24.970112]]]},"properties":{"code":"65000060017","name":"德安里","countyCode":"65000","countyName":"新北市","townCode":"65000060","townName":"新店區","level":"village","unassigned":false,"note":"","label":[121.49945248846336,24.959921692575385],"bounds":[121.488157,24.93978,121.51215,24.970765],"focusBounds":[121.488157,24.93978,121.51215,24.970765],"color":"#dd8590"}},{"type":"Feature","id":"65000060018","geometry":{"type":"Polygon","coordinates":[[[121.494073,24.951194],[121.493416,24.95161],[121.494019,24.951757],[121.494452,24.953256],[121.494652,24.953478],[121.494461,24.953998],[121.493493,24.954469],[121.493362,24.954875],[121.493769,24.95651],[121.492898,24.956683],[121.490863,24.959694],[121.49018,24.962326],[121.489315,24.964598],[121.488157,24.96469],[121.487903,24.96401],[121.488254,24.962794],[121.487459,24.962674],[121.48737,24.961932],[121.489184,24.957912],[121.482333,24.955661],[121.4848,24.951561],[121.485474,24.951655],[121.485817,24.95148],[121.484859,24.951223],[121.485225,24.950326],[121.485174,24.949725],[121.485524,24.949337],[121.484767,24.948927],[121.483951,24.948977],[121.483618,24.948694],[121.482435,24.948811],[121.482502,24.948328],[121.482352,24.947703],[121.482593,24.947162],[121.482593,24.945904],[121.482302,24.945046],[121.48251,24.94458],[121.482697,24.941199],[121.479945,24.938434],[121.479179,24.938517],[121.478554,24.938226],[121.477721,24.937051],[121.477255,24.935585],[121.47723,24.932696],[121.476739,24.931188],[121.477143,24.929136],[121.4779,24.928946],[121.478265,24.928592],[121.480223,24.928825],[121.481669,24.928482],[121.482703,24.928503],[121.484675,24.927963],[121.485096,24.927035],[121.485767,24.926263],[121.485833,24.925546],[121.485698,24.925078],[121.485224,24.924481],[121.485535,24.924191],[121.485983,24.922972],[121.486708,24.922247],[121.487981,24.922427],[121.488174,24.92233],[121.48947,24.920507],[121.489755,24.91953],[121.490086,24.919],[121.492059,24.917079],[121.491795,24.916691],[121.491761,24.915858],[121.492604,24.916263],[121.493695,24.917079],[121.493911,24.917762],[121.493853,24.919836],[121.494411,24.92046],[121.496301,24.921859],[121.496609,24.922301],[121.496601,24.922992],[121.496368,24.923658],[121.495535,24.923675],[121.49511,24.923208],[121.494178,24.922959],[121.494061,24.923075],[121.494727,24.923633],[121.494186,24.923592],[121.493844,24.923333],[121.493836,24.92355],[121.493311,24.923483],[121.493986,24.924233],[121.494352,24.92669],[121.495427,24.927531],[121.495502,24.928663],[121.496026,24.929155],[121.49571,24.930429],[121.495876,24.931187],[121.495352,24.931662],[121.495368,24.931961],[121.496235,24.93172],[121.496568,24.932578],[121.497234,24.932902],[121.49775,24.932961],[121.498808,24.932411],[121.499374,24.931487],[121.499607,24.93147],[121.500457,24.932186],[121.50059,24.932611],[121.501565,24.932844],[121.501956,24.933552],[121.501631,24.934085],[121.501689,24.935301],[121.502739,24.936483],[121.502476,24.937211],[121.502418,24.938132],[121.50129,24.939039],[121.500603,24.94115],[121.501756,24.94153],[121.501848,24.942313],[121.4988,24.943304],[121.499138,24.944234],[121.498587,24.945032],[121.498109,24.945218],[121.497725,24.945328],[121.497467,24.945195],[121.497031,24.944542],[121.495604,24.944729],[121.495386,24.944362],[121.495151,24.944679],[121.494743,24.94479],[121.494442,24.945067],[121.494799,24.946024],[121.492973,24.946107],[121.492679,24.946957],[121.493209,24.948252],[121.493296,24.949585],[121.494023,24.950663],[121.493653,24.950608],[121.493447,24.950927],[121.494073,24.951194]]]},"properties":{"code":"65000060018","name":"雙城里","countyCode":"65000","countyName":"新北市","townCode":"65000060","townName":"新店區","level":"village","unassigned":false,"note":"","label":[121.48977082652985,24.93790713485324],"bounds":[121.476739,24.915858,121.502739,24.96469],"focusBounds":[121.476739,24.915858,121.502739,24.96469],"color":"#a49ad4"}},{"type":"Feature","id":"65000060019","geometry":{"type":"Polygon","coordinates":[[[121.477143,24.929136],[121.476739,24.931188],[121.47723,24.932696],[121.477255,24.935585],[121.477721,24.937051],[121.478554,24.938226],[121.479179,24.938517],[121.479945,24.938434],[121.482697,24.941199],[121.48251,24.94458],[121.482302,24.945046],[121.482593,24.945904],[121.482593,24.947162],[121.482352,24.947703],[121.482502,24.948328],[121.482435,24.948811],[121.483618,24.948694],[121.483951,24.948977],[121.484767,24.948927],[121.485524,24.949337],[121.485174,24.949725],[121.485225,24.950326],[121.484859,24.951223],[121.485817,24.95148],[121.485474,24.951655],[121.4848,24.951561],[121.482333,24.955661],[121.480037,24.955684],[121.479645,24.956042],[121.47885,24.955696],[121.478533,24.955699],[121.476576,24.952494],[121.473576,24.952345],[121.47078,24.955112],[121.470251,24.955079],[121.470111,24.954679],[121.469832,24.954526],[121.467813,24.954399],[121.466874,24.953007],[121.467194,24.952301],[121.466924,24.951553],[121.465446,24.950679],[121.463561,24.949221],[121.461726,24.947455],[121.460704,24.94767],[121.459456,24.94773],[121.458747,24.947274],[121.457734,24.946152],[121.457499,24.946095],[121.457406,24.945331],[121.458423,24.943113],[121.45839,24.941994],[121.458721,24.939445],[121.459936,24.938638],[121.460885,24.937595],[121.460429,24.93622],[121.459725,24.935442],[121.46019,24.935033],[121.459842,24.934477],[121.4599,24.934258],[121.460599,24.933951],[121.461206,24.933929],[121.461456,24.933702],[121.461825,24.933959],[121.462058,24.93395],[121.462519,24.933672],[121.463069,24.933624],[121.463563,24.933266],[121.464165,24.933183],[121.466103,24.931966],[121.467088,24.931984],[121.467357,24.931492],[121.468387,24.93077],[121.469187,24.930725],[121.470114,24.9312],[121.470894,24.931125],[121.471482,24.930694],[121.473394,24.930841],[121.474447,24.930007],[121.476301,24.929104],[121.477143,24.929136]]]},"properties":{"code":"65000060019","name":"日興里","countyCode":"65000","countyName":"新北市","townCode":"65000060","townName":"新店區","level":"village","unassigned":false,"note":"","label":[121.4702899250947,24.942320386192687],"bounds":[121.457406,24.929104,121.485817,24.956042],"focusBounds":[121.457406,24.929104,121.485817,24.956042],"color":"#a8bf62"}},{"type":"Feature","id":"65000060020","geometry":{"type":"Polygon","coordinates":[[[121.496622,24.949249],[121.495266,24.951191],[121.495104,24.951097],[121.49474,24.951224],[121.494282,24.950893],[121.494073,24.951194],[121.493447,24.950927],[121.493653,24.950608],[121.494023,24.950663],[121.493296,24.949585],[121.493209,24.948252],[121.492679,24.946957],[121.492973,24.946107],[121.494799,24.946024],[121.494442,24.945067],[121.494743,24.94479],[121.495151,24.944679],[121.495386,24.944362],[121.495604,24.944729],[121.495952,24.94536],[121.495946,24.945709],[121.495455,24.946832],[121.495836,24.948079],[121.49632,24.948989],[121.496622,24.949249]]]},"properties":{"code":"65000060020","name":"玫瑰里","countyCode":"65000","countyName":"新北市","townCode":"65000060","townName":"新店區","level":"village","unassigned":false,"note":"","label":[121.49449460957655,24.9480941393283],"bounds":[121.492679,24.944362,121.496622,24.951224],"focusBounds":[121.492679,24.944362,121.496622,24.951224],"color":"#68bec9"}},{"type":"Feature","id":"65000060021","geometry":{"type":"Polygon","coordinates":[[[121.492225,24.903786],[121.496279,24.904148],[121.499734,24.904693],[121.500716,24.90414],[121.500452,24.903233],[121.501909,24.901301],[121.502659,24.900959],[121.505457,24.900151],[121.507156,24.898927],[121.508963,24.898719],[121.510021,24.900243],[121.510587,24.900818],[121.511162,24.901018],[121.512253,24.901117],[121.512936,24.901617],[121.513018,24.903345],[121.512308,24.903555],[121.512842,24.904733],[121.512453,24.905506],[121.512411,24.905906],[121.512711,24.909437],[121.512636,24.911036],[121.513119,24.913243],[121.514385,24.914301],[121.514276,24.914817],[121.514418,24.915075],[121.515118,24.914859],[121.516492,24.915001],[121.517807,24.915658],[121.520439,24.917491],[121.521147,24.91774],[121.522946,24.91789],[121.52412,24.918557],[121.524803,24.918507],[121.526494,24.918831],[121.528251,24.917874],[121.529092,24.917782],[121.529967,24.91814],[121.531432,24.918348],[121.534007,24.919818],[121.533191,24.923651],[121.53237,24.92553],[121.531415,24.927051],[121.530324,24.929224],[121.530282,24.930524],[121.530648,24.932622],[121.531248,24.934046],[121.530607,24.934821],[121.530015,24.936053],[121.529341,24.93697],[121.528833,24.937602],[121.527767,24.938427],[121.524785,24.942674],[121.52451,24.943699],[121.524519,24.944706],[121.525651,24.945448],[121.529058,24.946539],[121.530698,24.946705],[121.533538,24.946655],[121.534119,24.947496],[121.533604,24.947516],[121.532753,24.947874],[121.530382,24.948015],[121.52844,24.947874],[121.527877,24.947617],[121.527116,24.949339],[121.527344,24.949651],[121.527286,24.95014],[121.527772,24.950337],[121.528919,24.950302],[121.529557,24.951021],[121.529828,24.951327],[121.527558,24.952424],[121.52587,24.948735],[121.524433,24.946565],[121.520321,24.94469],[121.51958,24.944593],[121.518532,24.940988],[121.518713,24.940806],[121.518484,24.939683],[121.519122,24.939055],[121.520226,24.938998],[121.520445,24.938855],[121.520769,24.937913],[121.520721,24.937447],[121.518989,24.936875],[121.518446,24.936086],[121.51797,24.935933],[121.517066,24.936219],[121.516495,24.936209],[121.515772,24.935867],[121.515239,24.935267],[121.515105,24.934886],[121.515239,24.934401],[121.516019,24.933449],[121.51739,24.932811],[121.518465,24.932631],[121.519293,24.932307],[121.519512,24.93204],[121.51955,24.931431],[121.51856,24.930765],[121.517542,24.930394],[121.515467,24.929947],[121.51443,24.92988],[121.510311,24.930242],[121.510537,24.929528],[121.511079,24.92929],[121.511241,24.928995],[121.510347,24.928281],[121.509604,24.928443],[121.509328,24.928357],[121.508748,24.927757],[121.508586,24.927205],[121.508881,24.926815],[121.509461,24.926511],[121.509585,24.926073],[121.509491,24.925903],[121.512394,24.925127],[121.512136,24.923142],[121.510447,24.923192],[121.508648,24.923776],[121.506083,24.923893],[121.506435,24.92337],[121.507996,24.922275],[121.510328,24.921371],[121.511165,24.920809],[121.511293,24.920482],[121.510876,24.920419],[121.510755,24.920179],[121.509531,24.920209],[121.507578,24.91801],[121.50672,24.91371],[121.504607,24.910855],[121.502885,24.910511],[121.502578,24.910082],[121.501926,24.909893],[121.501257,24.910092],[121.500962,24.909797],[121.499927,24.910649],[121.499127,24.91033],[121.498278,24.910778],[121.496546,24.910578],[121.495746,24.911301],[121.49428,24.911415],[121.493361,24.913217],[121.492041,24.912323],[121.49077,24.912377],[121.490415,24.911622],[121.489599,24.911338],[121.49018,24.91009],[121.489981,24.90931],[121.489403,24.908596],[121.489405,24.908234],[121.490258,24.906908],[121.490892,24.904988],[121.492225,24.903786]]]},"properties":{"code":"65000060021","name":"塗潭里","countyCode":"65000","countyName":"新北市","townCode":"65000060","townName":"新店區","level":"village","unassigned":false,"note":"","label":[121.51933152226813,24.92400176142049],"bounds":[121.489403,24.898719,121.534119,24.952424],"focusBounds":[121.489403,24.898719,121.534119,24.952424],"color":"#98b69b"}},{"type":"Feature","id":"65000060022","geometry":{"type":"Polygon","coordinates":[[[121.549089,24.958983],[121.549447,24.958684],[121.549464,24.958392],[121.548856,24.957459],[121.548482,24.956355],[121.546801,24.955596],[121.54699,24.955149],[121.547488,24.954249],[121.548078,24.95386],[121.548527,24.95386],[121.549415,24.95303],[121.550717,24.95402],[121.551353,24.953565],[121.551514,24.953646],[121.551629,24.953155],[121.550376,24.952613],[121.551097,24.952285],[121.55149,24.952697],[121.553185,24.951471],[121.5537,24.95151],[121.553918,24.951383],[121.554969,24.951753],[121.556952,24.953527],[121.55671,24.953765],[121.556973,24.954451],[121.557756,24.954609],[121.558059,24.955796],[121.561248,24.960435],[121.56174,24.960651],[121.562956,24.960435],[121.56348,24.960576],[121.563747,24.960801],[121.564347,24.961959],[121.564866,24.964198],[121.564244,24.964681],[121.563594,24.964623],[121.563073,24.96479],[121.561219,24.96471],[121.560378,24.965609],[121.559907,24.966611],[121.558114,24.965451],[121.557913,24.96464],[121.557644,24.964438],[121.556903,24.964729],[121.554909,24.964656],[121.554529,24.964837],[121.555127,24.963386],[121.555668,24.96312],[121.555966,24.962774],[121.556024,24.961714],[121.555466,24.961901],[121.554353,24.961459],[121.553458,24.960562],[121.55196,24.959577],[121.551406,24.958785],[121.550923,24.958724],[121.549993,24.959905],[121.549671,24.95901],[121.549089,24.958983]]]},"properties":{"code":"65000060022","name":"美潭里","countyCode":"65000","countyName":"新北市","townCode":"65000060","townName":"新店區","level":"village","unassigned":false,"note":"","label":[121.55534277084642,24.957790946979664],"bounds":[121.546801,24.951383,121.564866,24.966611],"focusBounds":[121.546801,24.951383,121.564866,24.966611],"color":"#c38cb8"}},{"type":"Feature","id":"65000060023","geometry":{"type":"Polygon","coordinates":[[[121.564866,24.964198],[121.564347,24.961959],[121.563747,24.960801],[121.56348,24.960576],[121.562956,24.960435],[121.56174,24.960651],[121.561248,24.960435],[121.558059,24.955796],[121.557756,24.954609],[121.556973,24.954451],[121.55671,24.953765],[121.556952,24.953527],[121.554969,24.951753],[121.553918,24.951383],[121.554098,24.950842],[121.555026,24.951119],[121.55679,24.950718],[121.560191,24.951557],[121.560607,24.950991],[121.561623,24.950208],[121.561906,24.9498],[121.562364,24.948776],[121.562413,24.947897],[121.563444,24.947196],[121.563319,24.946315],[121.563562,24.945912],[121.563744,24.945879],[121.564547,24.946286],[121.565029,24.945858],[121.565739,24.945802],[121.565813,24.945305],[121.566346,24.944391],[121.567004,24.944479],[121.567252,24.944092],[121.568008,24.943917],[121.568237,24.943552],[121.569116,24.944547],[121.569158,24.944052],[121.569418,24.944505],[121.569622,24.944297],[121.570748,24.946433],[121.57187,24.946444],[121.572076,24.946647],[121.572269,24.947481],[121.572613,24.947785],[121.573407,24.947994],[121.573812,24.948306],[121.573785,24.947841],[121.573951,24.94775],[121.574543,24.948245],[121.574169,24.948485],[121.573555,24.949427],[121.572042,24.949206],[121.570386,24.948314],[121.570018,24.94846],[121.569965,24.949616],[121.5702,24.951226],[121.570507,24.951654],[121.571335,24.952304],[121.571871,24.952611],[121.573513,24.953082],[121.57519,24.952846],[121.576218,24.953353],[121.581561,24.953396],[121.582828,24.954688],[121.583399,24.955559],[121.584306,24.955637],[121.584898,24.95633],[121.586148,24.956808],[121.588125,24.957408],[121.590159,24.957515],[121.592851,24.95805],[121.594025,24.957797],[121.594457,24.957872],[121.594778,24.958336],[121.596355,24.959185],[121.596741,24.960092],[121.596804,24.960639],[121.596121,24.961178],[121.59527,24.961305],[121.594879,24.961531],[121.593396,24.964211],[121.592538,24.96415],[121.591973,24.963939],[121.591069,24.964614],[121.590017,24.963867],[121.589237,24.963761],[121.588748,24.963376],[121.588433,24.963408],[121.58801,24.963689],[121.586299,24.963436],[121.585674,24.963212],[121.585118,24.964162],[121.584724,24.964469],[121.582201,24.964765],[121.581117,24.965126],[121.580517,24.965403],[121.579226,24.966357],[121.57865,24.966581],[121.577367,24.96648],[121.575526,24.966874],[121.574557,24.966843],[121.574676,24.966059],[121.574346,24.965285],[121.572722,24.964009],[121.572073,24.964013],[121.571394,24.964318],[121.570391,24.964443],[121.568844,24.964082],[121.567119,24.964118],[121.566346,24.963962],[121.56576,24.964353],[121.565174,24.964091],[121.564866,24.964198]]]},"properties":{"code":"65000060023","name":"員潭里","countyCode":"65000","countyName":"新北市","townCode":"65000060","townName":"新店區","level":"village","unassigned":false,"note":"","label":[121.5775017471034,24.959927018952833],"bounds":[121.553918,24.943552,121.596804,24.966874],"focusBounds":[121.553918,24.943552,121.596804,24.966874],"color":"#98b69b"}},{"type":"Feature","id":"65000060024","geometry":{"type":"Polygon","coordinates":[[[121.552232,24.94444],[121.553047,24.943797],[121.553666,24.942764],[121.554239,24.942694],[121.555559,24.942912],[121.557131,24.942533],[121.55844,24.943396],[121.561066,24.943393],[121.562856,24.943774],[121.563535,24.943279],[121.563748,24.942919],[121.565015,24.939805],[121.566262,24.938198],[121.566635,24.937045],[121.569042,24.936518],[121.571163,24.936611],[121.571976,24.936004],[121.57341,24.934584],[121.576077,24.935011],[121.57653,24.934931],[121.577237,24.934518],[121.577797,24.933804],[121.577723,24.932517],[121.578476,24.931418],[121.573086,24.927748],[121.573466,24.923651],[121.577368,24.916484],[121.586861,24.92616],[121.587809,24.924918],[121.590261,24.924972],[121.590807,24.92539],[121.591331,24.926193],[121.592424,24.926867],[121.592745,24.927006],[121.594289,24.927085],[121.594145,24.927407],[121.594518,24.927766],[121.594665,24.928277],[121.595035,24.928769],[121.595558,24.931157],[121.596059,24.932404],[121.596483,24.932806],[121.596405,24.934791],[121.596876,24.9359],[121.597754,24.937576],[121.598513,24.938322],[121.599417,24.938634],[121.599879,24.939135],[121.599428,24.941293],[121.598628,24.941914],[121.59804,24.943039],[121.597924,24.943716],[121.598002,24.944755],[121.599639,24.944934],[121.600179,24.945141],[121.600674,24.945666],[121.601174,24.947067],[121.604463,24.947031],[121.605098,24.946799],[121.605866,24.946244],[121.606251,24.946212],[121.606642,24.946354],[121.607047,24.947116],[121.606795,24.947822],[121.606481,24.949802],[121.608226,24.951406],[121.608494,24.95216],[121.608162,24.952971],[121.60817,24.953676],[121.607706,24.956344],[121.608145,24.956634],[121.609161,24.956397],[121.610169,24.956663],[121.610567,24.95923],[121.609231,24.964016],[121.608475,24.963191],[121.60817,24.96304],[121.607168,24.963111],[121.605061,24.962951],[121.60436,24.962446],[121.603399,24.962267],[121.602873,24.961701],[121.601561,24.960966],[121.600882,24.960912],[121.599959,24.961265],[121.599116,24.961069],[121.598434,24.961257],[121.597554,24.960548],[121.597077,24.960503],[121.596804,24.960639],[121.596741,24.960092],[121.596355,24.959185],[121.594778,24.958336],[121.594457,24.957872],[121.594025,24.957797],[121.592851,24.95805],[121.590159,24.957515],[121.588125,24.957408],[121.586148,24.956808],[121.584898,24.95633],[121.584306,24.955637],[121.583399,24.955559],[121.582828,24.954688],[121.581561,24.953396],[121.576218,24.953353],[121.57519,24.952846],[121.573513,24.953082],[121.571871,24.952611],[121.571335,24.952304],[121.570507,24.951654],[121.5702,24.951226],[121.569965,24.949616],[121.570018,24.94846],[121.570386,24.948314],[121.572042,24.949206],[121.573555,24.949427],[121.574169,24.948485],[121.574543,24.948245],[121.573951,24.94775],[121.573785,24.947841],[121.573812,24.948306],[121.573407,24.947994],[121.572613,24.947785],[121.572269,24.947481],[121.572076,24.946647],[121.57187,24.946444],[121.570748,24.946433],[121.569622,24.944297],[121.569418,24.944505],[121.569158,24.944052],[121.569116,24.944547],[121.568237,24.943552],[121.568008,24.943917],[121.567252,24.944092],[121.567004,24.944479],[121.566346,24.944391],[121.565813,24.945305],[121.565739,24.945802],[121.565029,24.945858],[121.564547,24.946286],[121.563744,24.945879],[121.563562,24.945912],[121.563319,24.946315],[121.563444,24.947196],[121.562413,24.947897],[121.562357,24.946165],[121.557884,24.946335],[121.554837,24.946062],[121.552232,24.94444]]]},"properties":{"code":"65000060024","name":"雙坑里","countyCode":"65000","countyName":"新北市","townCode":"65000060","townName":"新店區","level":"village","unassigned":false,"note":"","label":[121.5858218221714,24.942218119063806],"bounds":[121.552232,24.916484,121.610567,24.964016],"focusBounds":[121.552232,24.916484,121.610567,24.964016],"color":"#58b99d"}},{"type":"Feature","id":"65000060025","geometry":{"type":"Polygon","coordinates":[[[121.552232,24.94444],[121.5516,24.944913],[121.550373,24.94499],[121.54971,24.945416],[121.548655,24.94541],[121.547802,24.945918],[121.547469,24.945872],[121.547022,24.945344],[121.546147,24.945405],[121.546045,24.947021],[121.546265,24.949867],[121.546125,24.950081],[121.545846,24.949779],[121.545514,24.949896],[121.543955,24.949633],[121.544797,24.947927],[121.545154,24.946624],[121.545285,24.945143],[121.544827,24.943359],[121.544095,24.941604],[121.542578,24.939641],[121.541073,24.938249],[121.540621,24.937993],[121.540121,24.937791],[121.538016,24.937499],[121.537189,24.93757],[121.536285,24.937951],[121.536268,24.93233],[121.542237,24.934288],[121.542815,24.933346],[121.542837,24.93235],[121.543158,24.93129],[121.54303,24.930005],[121.543608,24.929887],[121.544432,24.929273],[121.544913,24.9297],[121.547606,24.929544],[121.548679,24.929126],[121.549318,24.928096],[121.550311,24.927799],[121.552024,24.926075],[121.552655,24.925771],[121.555237,24.920374],[121.556859,24.920745],[121.559,24.918588],[121.562948,24.920767],[121.563364,24.922698],[121.563984,24.922135],[121.564691,24.92207],[121.565398,24.922359],[121.565826,24.921878],[121.566222,24.921717],[121.567122,24.921674],[121.568171,24.921042],[121.568717,24.920989],[121.569081,24.921171],[121.56967,24.922188],[121.569734,24.922584],[121.570462,24.922895],[121.570666,24.92343],[121.571105,24.923891],[121.573466,24.923651],[121.573086,24.927748],[121.578476,24.931418],[121.577723,24.932517],[121.577797,24.933804],[121.577237,24.934518],[121.57653,24.934931],[121.576077,24.935011],[121.57341,24.934584],[121.571976,24.936004],[121.571163,24.936611],[121.569042,24.936518],[121.566635,24.937045],[121.566262,24.938198],[121.565015,24.939805],[121.563748,24.942919],[121.563535,24.943279],[121.562856,24.943774],[121.561066,24.943393],[121.55844,24.943396],[121.557131,24.942533],[121.555559,24.942912],[121.554239,24.942694],[121.553666,24.942764],[121.553047,24.943797],[121.552232,24.94444]]]},"properties":{"code":"65000060025","name":"粗坑里","countyCode":"65000","countyName":"新北市","townCode":"65000060","townName":"新店區","level":"village","unassigned":false,"note":"","label":[121.55798242138742,24.93327239545889],"bounds":[121.536268,24.918588,121.578476,24.950081],"focusBounds":[121.536268,24.918588,121.578476,24.950081],"color":"#efb44f"}},{"type":"Feature","id":"65000060026","geometry":{"type":"Polygon","coordinates":[[[121.573466,24.923651],[121.571105,24.923891],[121.570666,24.92343],[121.570462,24.922895],[121.569734,24.922584],[121.56967,24.922188],[121.569081,24.921171],[121.568717,24.920989],[121.568171,24.921042],[121.567122,24.921674],[121.566222,24.921717],[121.565826,24.921878],[121.565398,24.922359],[121.564691,24.92207],[121.563984,24.922135],[121.563364,24.922698],[121.562948,24.920767],[121.559,24.918588],[121.556859,24.920745],[121.555237,24.920374],[121.552655,24.925771],[121.552024,24.926075],[121.550311,24.927799],[121.549318,24.928096],[121.548679,24.929126],[121.547606,24.929544],[121.544913,24.9297],[121.544432,24.929273],[121.543608,24.929887],[121.54303,24.930005],[121.543158,24.93129],[121.542837,24.93235],[121.542815,24.933346],[121.542237,24.934288],[121.536268,24.93233],[121.536255,24.927898],[121.533828,24.927809],[121.53237,24.92553],[121.533191,24.923651],[121.534007,24.919818],[121.53381,24.917089],[121.533905,24.915721],[121.534536,24.915162],[121.536035,24.914638],[121.536635,24.914746],[121.537379,24.915245],[121.542114,24.91932],[121.542709,24.919552],[121.543471,24.919213],[121.54472,24.918261],[121.545445,24.917452],[121.546832,24.91336],[121.547334,24.912348],[121.549336,24.909659],[121.551971,24.907631],[121.55259,24.907209],[121.555695,24.905828],[121.558538,24.904228],[121.560686,24.90358],[121.562964,24.903312],[121.565153,24.903306],[121.566524,24.903728],[121.568948,24.905259],[121.570271,24.906409],[121.570881,24.907117],[121.571177,24.908157],[121.571775,24.908641],[121.573335,24.909018],[121.575429,24.908957],[121.576648,24.90872],[121.578087,24.908733],[121.578951,24.908958],[121.580679,24.90957],[121.584502,24.911413],[121.587228,24.913406],[121.589376,24.914475],[121.590264,24.91456],[121.591715,24.91441],[121.59294,24.913983],[121.594202,24.913097],[121.595234,24.911064],[121.596578,24.910247],[121.597256,24.910191],[121.598318,24.910325],[121.598555,24.910536],[121.597375,24.911409],[121.596988,24.912126],[121.596863,24.913642],[121.596642,24.914327],[121.596926,24.915417],[121.596614,24.916537],[121.596799,24.917455],[121.596494,24.918161],[121.596401,24.918885],[121.595729,24.919871],[121.595872,24.921043],[121.595832,24.921988],[121.595582,24.922606],[121.595607,24.923859],[121.595299,24.924518],[121.594897,24.924882],[121.594677,24.926662],[121.594289,24.927085],[121.592745,24.927006],[121.592424,24.926867],[121.591331,24.926193],[121.590807,24.92539],[121.590261,24.924972],[121.587809,24.924918],[121.586861,24.92616],[121.577368,24.916484],[121.573466,24.923651]]]},"properties":{"code":"65000060026","name":"屈尺里","countyCode":"65000","countyName":"新北市","townCode":"65000060","townName":"新店區","level":"village","unassigned":false,"note":"","label":[121.56371860936088,24.91133879319981],"bounds":[121.53237,24.903306,121.598555,24.934288],"focusBounds":[121.53237,24.903306,121.598555,24.934288],"color":"#78a7e3"}},{"type":"Feature","id":"65000060027","geometry":{"type":"Polygon","coordinates":[[[121.547334,24.912348],[121.546099,24.911698],[121.545275,24.911648],[121.545233,24.911882],[121.5455,24.91224],[121.545575,24.912714],[121.54505,24.913048],[121.544259,24.913081],[121.542735,24.91174],[121.541044,24.910541],[121.540669,24.910074],[121.540603,24.9087],[121.540886,24.907359],[121.541844,24.906077],[121.54261,24.90571],[121.543393,24.905952],[121.547024,24.909042],[121.547648,24.909233],[121.547965,24.909108],[121.548714,24.907326],[121.549281,24.903803],[121.548331,24.903145],[121.547415,24.902729],[121.544234,24.901321],[121.543459,24.901272],[121.542993,24.90098],[121.542668,24.900106],[121.541311,24.897815],[121.540907,24.896501],[121.540718,24.893391],[121.541921,24.892376],[121.542666,24.891322],[121.543733,24.890307],[121.546727,24.888321],[121.547272,24.888375],[121.548035,24.888721],[121.548919,24.889525],[121.549422,24.890253],[121.55058,24.891079],[121.552563,24.891483],[121.554348,24.891667],[121.555199,24.891595],[121.556092,24.891316],[121.557028,24.890708],[121.558163,24.890838],[121.559021,24.890629],[121.559713,24.890105],[121.560769,24.889626],[121.561344,24.888933],[121.562788,24.887808],[121.563861,24.887184],[121.564149,24.886794],[121.564582,24.883892],[121.564252,24.882081],[121.56482,24.880373],[121.564368,24.878605],[121.56441,24.877704],[121.564562,24.877134],[121.565431,24.877144],[121.566492,24.87694],[121.566919,24.877026],[121.567773,24.877542],[121.568269,24.877583],[121.568954,24.877412],[121.570031,24.876567],[121.570219,24.876555],[121.570561,24.876875],[121.570918,24.876998],[121.571356,24.876888],[121.57217,24.875895],[121.572972,24.875315],[121.573384,24.874787],[121.575776,24.875082],[121.576345,24.876326],[121.576748,24.877865],[121.577403,24.878244],[121.577956,24.879353],[121.577874,24.88011],[121.576949,24.881834],[121.577365,24.882598],[121.577919,24.883221],[121.577295,24.88364],[121.57697,24.884072],[121.57638,24.886004],[121.576636,24.887778],[121.577463,24.888698],[121.577813,24.890045],[121.578243,24.890819],[121.578285,24.892462],[121.578047,24.892939],[121.578824,24.894863],[121.57886,24.895419],[121.578645,24.896291],[121.578261,24.8969],[121.576678,24.898169],[121.57622,24.898729],[121.574708,24.899169],[121.573411,24.899744],[121.572282,24.899924],[121.571662,24.900176],[121.570012,24.901404],[121.569182,24.901645],[121.56856,24.902776],[121.568028,24.90325],[121.567454,24.903468],[121.567048,24.903376],[121.56636,24.903499],[121.566524,24.903728],[121.565153,24.903306],[121.562964,24.903312],[121.560686,24.90358],[121.558538,24.904228],[121.555695,24.905828],[121.55259,24.907209],[121.551971,24.907631],[121.549336,24.909659],[121.547334,24.912348]]]},"properties":{"code":"65000060027","name":"龜山里","countyCode":"65000","countyName":"新北市","townCode":"65000060","townName":"新店區","level":"village","unassigned":false,"note":"","label":[121.56399628824205,24.896024496445495],"bounds":[121.540603,24.874787,121.57886,24.913081],"focusBounds":[121.540603,24.874787,121.57886,24.913081],"color":"#dd8590"}},{"type":"Feature","id":"65000060028","geometry":{"type":"Polygon","coordinates":[[[121.534007,24.919818],[121.531432,24.918348],[121.529967,24.91814],[121.529092,24.917782],[121.528251,24.917874],[121.526494,24.918831],[121.524803,24.918507],[121.52412,24.918557],[121.522946,24.91789],[121.521147,24.91774],[121.520439,24.917491],[121.517807,24.915658],[121.516492,24.915001],[121.515118,24.914859],[121.514418,24.915075],[121.514276,24.914817],[121.514385,24.914301],[121.513119,24.913243],[121.512636,24.911036],[121.512711,24.909437],[121.512411,24.905906],[121.512453,24.905506],[121.512842,24.904733],[121.512308,24.903555],[121.513018,24.903345],[121.512936,24.901617],[121.512253,24.901117],[121.511162,24.901018],[121.510587,24.900818],[121.510021,24.900243],[121.508963,24.898719],[121.507156,24.898927],[121.505457,24.900151],[121.502659,24.900959],[121.501909,24.901301],[121.500452,24.903233],[121.500716,24.90414],[121.499734,24.904693],[121.496279,24.904148],[121.492225,24.903786],[121.4925,24.903435],[121.490859,24.902487],[121.490589,24.902072],[121.490656,24.901709],[121.489695,24.901206],[121.488339,24.901213],[121.487638,24.900574],[121.486629,24.900497],[121.48638,24.900342],[121.485715,24.899223],[121.486325,24.898215],[121.485332,24.898123],[121.484224,24.897111],[121.482943,24.895378],[121.482458,24.893508],[121.481746,24.89303],[121.480413,24.890735],[121.479946,24.890357],[121.478874,24.889955],[121.478089,24.888882],[121.477663,24.887977],[121.476356,24.886653],[121.475358,24.886171],[121.475482,24.884734],[121.474923,24.882827],[121.474955,24.881969],[121.474233,24.881449],[121.473409,24.880104],[121.472829,24.879482],[121.472198,24.878315],[121.471778,24.877068],[121.472611,24.876265],[121.473757,24.876009],[121.474556,24.875546],[121.475236,24.874187],[121.476301,24.873597],[121.477108,24.872848],[121.477653,24.871159],[121.479246,24.870216],[121.479111,24.86904],[121.477896,24.86691],[121.477687,24.866353],[121.477671,24.865649],[121.478114,24.865087],[121.478699,24.864732],[121.478794,24.863801],[121.480381,24.861753],[121.483143,24.861822],[121.485404,24.862961],[121.486609,24.862376],[121.488357,24.862194],[121.491588,24.864913],[121.492856,24.866601],[121.493544,24.867267],[121.494115,24.867567],[121.494874,24.868466],[121.497973,24.870106],[121.499199,24.87032],[121.50188,24.872915],[121.504108,24.87364],[121.504795,24.874264],[121.50629,24.875149],[121.50709,24.876246],[121.507583,24.876661],[121.508209,24.876894],[121.508851,24.877526],[121.512431,24.879051],[121.514367,24.879442],[121.516994,24.880648],[121.517794,24.880859],[121.520713,24.883281],[121.52372,24.883774],[121.525451,24.883754],[121.526293,24.8836],[121.527363,24.884291],[121.529389,24.885073],[121.530429,24.886156],[121.53251,24.887603],[121.532926,24.888049],[121.534077,24.889547],[121.534846,24.891153],[121.535323,24.891798],[121.535929,24.892127],[121.536916,24.892184],[121.537103,24.892516],[121.537729,24.893007],[121.539219,24.893651],[121.539864,24.89379],[121.540718,24.893391],[121.540907,24.896501],[121.541311,24.897815],[121.542668,24.900106],[121.542993,24.90098],[121.543459,24.901272],[121.544234,24.901321],[121.547415,24.902729],[121.548331,24.903145],[121.549281,24.903803],[121.548714,24.907326],[121.547965,24.909108],[121.547648,24.909233],[121.547024,24.909042],[121.543393,24.905952],[121.54261,24.90571],[121.541844,24.906077],[121.540886,24.907359],[121.540603,24.9087],[121.540669,24.910074],[121.541044,24.910541],[121.542735,24.91174],[121.544259,24.913081],[121.54505,24.913048],[121.545575,24.912714],[121.5455,24.91224],[121.545233,24.911882],[121.545275,24.911648],[121.546099,24.911698],[121.547334,24.912348],[121.546832,24.91336],[121.545445,24.917452],[121.54472,24.918261],[121.543471,24.919213],[121.542709,24.919552],[121.542114,24.91932],[121.537379,24.915245],[121.536635,24.914746],[121.536035,24.914638],[121.534536,24.915162],[121.533905,24.915721],[121.53381,24.917089],[121.534007,24.919818]]]},"properties":{"code":"65000060028","name":"廣興里","countyCode":"65000","countyName":"新北市","townCode":"65000060","townName":"新店區","level":"village","unassigned":false,"note":"","label":[121.49674218447456,24.88683788804726],"bounds":[121.471778,24.861753,121.549281,24.919818],"focusBounds":[121.471778,24.861753,121.549281,24.919818],"color":"#a49ad4"}},{"type":"Feature","id":"65000060029","geometry":{"type":"Polygon","coordinates":[[[121.542992,24.951312],[121.540871,24.951847],[121.539775,24.951749],[121.538301,24.951455],[121.536996,24.95166],[121.535031,24.948815],[121.534119,24.947496],[121.533538,24.946655],[121.530698,24.946705],[121.529058,24.946539],[121.525651,24.945448],[121.524519,24.944706],[121.52451,24.943699],[121.524785,24.942674],[121.527767,24.938427],[121.528833,24.937602],[121.529341,24.93697],[121.530015,24.936053],[121.530607,24.934821],[121.531248,24.934046],[121.530648,24.932622],[121.530282,24.930524],[121.530324,24.929224],[121.531415,24.927051],[121.53237,24.92553],[121.533828,24.927809],[121.536255,24.927898],[121.536268,24.93233],[121.536285,24.937951],[121.537189,24.93757],[121.538016,24.937499],[121.540121,24.937791],[121.540621,24.937993],[121.541073,24.938249],[121.542578,24.939641],[121.544095,24.941604],[121.544827,24.943359],[121.545285,24.945143],[121.545154,24.946624],[121.544797,24.947927],[121.543955,24.949633],[121.543386,24.951051],[121.542992,24.951312]]]},"properties":{"code":"65000060029","name":"直潭里","countyCode":"65000","countyName":"新北市","townCode":"65000060","townName":"新店區","level":"village","unassigned":false,"note":"","label":[121.53812114468917,24.943081846875195],"bounds":[121.52451,24.92553,121.545285,24.951847],"focusBounds":[121.52451,24.92553,121.545285,24.951847],"color":"#a8bf62"}},{"type":"Feature","id":"65000060030","geometry":{"type":"Polygon","coordinates":[[[121.553918,24.951383],[121.5537,24.95151],[121.553185,24.951471],[121.55149,24.952697],[121.551097,24.952285],[121.550376,24.952613],[121.551629,24.953155],[121.551514,24.953646],[121.551353,24.953565],[121.550717,24.95402],[121.549415,24.95303],[121.548527,24.95386],[121.548078,24.95386],[121.547488,24.954249],[121.54699,24.955149],[121.546125,24.955105],[121.545575,24.955721],[121.545428,24.953408],[121.543272,24.953291],[121.543369,24.951383],[121.542992,24.951312],[121.543386,24.951051],[121.543955,24.949633],[121.545514,24.949896],[121.545846,24.949779],[121.546125,24.950081],[121.546265,24.949867],[121.546045,24.947021],[121.546147,24.945405],[121.547022,24.945344],[121.547469,24.945872],[121.547802,24.945918],[121.548655,24.94541],[121.54971,24.945416],[121.550373,24.94499],[121.5516,24.944913],[121.552232,24.94444],[121.554837,24.946062],[121.557884,24.946335],[121.562357,24.946165],[121.562413,24.947897],[121.562364,24.948776],[121.561906,24.9498],[121.561623,24.950208],[121.560607,24.950991],[121.560191,24.951557],[121.55679,24.950718],[121.555026,24.951119],[121.554098,24.950842],[121.553918,24.951383]]]},"properties":{"code":"65000060030","name":"青潭里","countyCode":"65000","countyName":"新北市","townCode":"65000060","townName":"新店區","level":"village","unassigned":false,"note":"","label":[121.55072349728836,24.948711528848534],"bounds":[121.542992,24.94444,121.562413,24.955721],"focusBounds":[121.542992,24.94444,121.562413,24.955721],"color":"#68bec9"}},{"type":"Feature","id":"65000060031","geometry":{"type":"Polygon","coordinates":[[[121.537862,24.956106],[121.537585,24.956104],[121.537601,24.956601],[121.537432,24.956634],[121.537425,24.956919],[121.537156,24.956911],[121.53715,24.95758],[121.535818,24.957615],[121.53591,24.953043],[121.536386,24.952127],[121.536996,24.95166],[121.538301,24.951455],[121.539775,24.951749],[121.539367,24.952496],[121.538508,24.952374],[121.538342,24.952683],[121.538484,24.953456],[121.538047,24.953612],[121.537693,24.95429],[121.538014,24.954731],[121.537663,24.954877],[121.537862,24.956106]]]},"properties":{"code":"65000060031","name":"新店里","countyCode":"65000","countyName":"新北市","townCode":"65000060","townName":"新店區","level":"village","unassigned":false,"note":"","label":[121.53696903985981,24.9533739068461],"bounds":[121.535818,24.951455,121.539775,24.957615],"focusBounds":[121.535818,24.951455,121.539775,24.957615],"color":"#58b99d"}},{"type":"Feature","id":"65000060032","geometry":{"type":"Polygon","coordinates":[[[121.535818,24.957615],[121.53715,24.95758],[121.537156,24.956911],[121.537425,24.956919],[121.537432,24.956634],[121.537601,24.956601],[121.537585,24.956104],[121.537862,24.956106],[121.537949,24.956235],[121.538115,24.95569],[121.538513,24.955824],[121.538123,24.957881],[121.538023,24.959019],[121.539137,24.961758],[121.539201,24.961914],[121.537177,24.961396],[121.535667,24.96101],[121.535844,24.958775],[121.535818,24.957615]]]},"properties":{"code":"65000060032","name":"張南里","countyCode":"65000","countyName":"新北市","townCode":"65000060","townName":"新店區","level":"village","unassigned":false,"note":"","label":[121.53699588022745,24.959708210506893],"bounds":[121.535667,24.95569,121.539201,24.961914],"focusBounds":[121.535667,24.95569,121.539201,24.961914],"color":"#c38cb8"}},{"type":"Feature","id":"65000060033","geometry":{"type":"Polygon","coordinates":[[[121.545575,24.955721],[121.545508,24.956104],[121.544825,24.95687],[121.541582,24.95554],[121.540797,24.954382],[121.540359,24.954203],[121.540068,24.954168],[121.539861,24.954589],[121.538513,24.955824],[121.538115,24.95569],[121.537949,24.956235],[121.537862,24.956106],[121.537663,24.954877],[121.538014,24.954731],[121.537693,24.95429],[121.538047,24.953612],[121.538484,24.953456],[121.538342,24.952683],[121.538508,24.952374],[121.539367,24.952496],[121.539775,24.951749],[121.540871,24.951847],[121.542992,24.951312],[121.543369,24.951383],[121.543272,24.953291],[121.545428,24.953408],[121.545575,24.955721]]]},"properties":{"code":"65000060033","name":"國校里","countyCode":"65000","countyName":"新北市","townCode":"65000060","townName":"新店區","level":"village","unassigned":false,"note":"","label":[121.54181859905377,24.9532629763732],"bounds":[121.537663,24.951312,121.545575,24.95687],"focusBounds":[121.537663,24.951312,121.545575,24.95687],"color":"#98b69b"}},{"type":"Feature","id":"65000060034","geometry":{"type":"Polygon","coordinates":[[[121.544825,24.95687],[121.546949,24.957742],[121.546653,24.9583],[121.54605,24.958145],[121.545117,24.959993],[121.545469,24.960429],[121.543987,24.961416],[121.541967,24.959731],[121.540235,24.958812],[121.538931,24.958491],[121.538835,24.957881],[121.538123,24.957881],[121.538513,24.955824],[121.539861,24.954589],[121.540068,24.954168],[121.540359,24.954203],[121.540797,24.954382],[121.541582,24.95554],[121.544825,24.95687]]]},"properties":{"code":"65000060034","name":"文中里","countyCode":"65000","countyName":"新北市","townCode":"65000060","townName":"新店區","level":"village","unassigned":false,"note":"","label":[121.5421533289678,24.957830219153387],"bounds":[121.538123,24.954168,121.546949,24.961416],"focusBounds":[121.538123,24.954168,121.546949,24.961416],"color":"#58b99d"}},{"type":"Feature","id":"65000060035","geometry":{"type":"Polygon","coordinates":[[[121.539137,24.961758],[121.538023,24.959019],[121.538123,24.957881],[121.538835,24.957881],[121.538931,24.958491],[121.540235,24.958812],[121.541967,24.959731],[121.543987,24.961416],[121.541212,24.962344],[121.540439,24.961067],[121.539316,24.961367],[121.539453,24.961667],[121.539137,24.961758]]]},"properties":{"code":"65000060035","name":"廣明里","countyCode":"65000","countyName":"新北市","townCode":"65000060","townName":"新店區","level":"village","unassigned":false,"note":"","label":[121.53981295483757,24.959970885622525],"bounds":[121.538023,24.957881,121.543987,24.962344],"focusBounds":[121.538023,24.957881,121.543987,24.962344],"color":"#efb44f"}},{"type":"Feature","id":"65000060036","geometry":{"type":"Polygon","coordinates":[[[121.541212,24.962344],[121.541865,24.963421],[121.542183,24.963268],[121.542478,24.963514],[121.541967,24.96359],[121.541582,24.963836],[121.541059,24.964873],[121.540738,24.965151],[121.540704,24.965566],[121.539201,24.961914],[121.539137,24.961758],[121.539453,24.961667],[121.539316,24.961367],[121.540439,24.961067],[121.541212,24.962344]]]},"properties":{"code":"65000060036","name":"文明里","countyCode":"65000","countyName":"新北市","townCode":"65000060","townName":"新店區","level":"village","unassigned":false,"note":"","label":[121.54057263002196,24.962963730145397],"bounds":[121.539137,24.961067,121.542478,24.965566],"focusBounds":[121.539137,24.961067,121.542478,24.965566],"color":"#78a7e3"}},{"type":"Feature","id":"65000060037","geometry":{"type":"Polygon","coordinates":[[[121.549089,24.958983],[121.54804,24.960224],[121.547707,24.962081],[121.546259,24.962784],[121.546066,24.963247],[121.545733,24.963497],[121.545874,24.96428],[121.546166,24.964782],[121.545983,24.965021],[121.545691,24.964721],[121.545376,24.964671],[121.544556,24.965065],[121.544872,24.965381],[121.54485,24.965546],[121.544484,24.965771],[121.54421,24.965601],[121.543251,24.966037],[121.542581,24.966915],[121.542799,24.967273],[121.541584,24.967834],[121.541121,24.966577],[121.540704,24.965566],[121.540738,24.965151],[121.541059,24.964873],[121.541582,24.963836],[121.541967,24.96359],[121.542478,24.963514],[121.542183,24.963268],[121.541865,24.963421],[121.541212,24.962344],[121.543987,24.961416],[121.545469,24.960429],[121.545117,24.959993],[121.54605,24.958145],[121.546653,24.9583],[121.546949,24.957742],[121.544825,24.95687],[121.545508,24.956104],[121.545575,24.955721],[121.546125,24.955105],[121.54699,24.955149],[121.546801,24.955596],[121.548482,24.956355],[121.548856,24.957459],[121.549464,24.958392],[121.549447,24.958684],[121.549089,24.958983]]]},"properties":{"code":"65000060037","name":"中興里","countyCode":"65000","countyName":"新北市","townCode":"65000060","townName":"新店區","level":"village","unassigned":false,"note":"","label":[121.54409221720124,24.96310203320806],"bounds":[121.540704,24.955105,121.549464,24.967834],"focusBounds":[121.540704,24.955105,121.549464,24.967834],"color":"#dd8590"}},{"type":"Feature","id":"65000060038","geometry":{"type":"Polygon","coordinates":[[[121.539072,24.968098],[121.538697,24.966657],[121.539044,24.965916],[121.539109,24.965148],[121.539366,24.964739],[121.539087,24.964632],[121.538798,24.965012],[121.538505,24.966336],[121.537129,24.96683],[121.537011,24.964238],[121.537177,24.961396],[121.539201,24.961914],[121.540704,24.965566],[121.541121,24.966577],[121.540717,24.966937],[121.540524,24.966803],[121.540101,24.96726],[121.539871,24.967102],[121.539072,24.968098]]]},"properties":{"code":"65000060038","name":"新生里","countyCode":"65000","countyName":"新北市","townCode":"65000060","townName":"新店區","level":"village","unassigned":false,"note":"","label":[121.5384037732529,24.963480781704433],"bounds":[121.537011,24.961396,121.541121,24.968098],"focusBounds":[121.537011,24.961396,121.541121,24.968098],"color":"#a49ad4"}},{"type":"Feature","id":"65000060039","geometry":{"type":"Polygon","coordinates":[[[121.539072,24.968098],[121.539871,24.967102],[121.540101,24.96726],[121.540524,24.966803],[121.540717,24.966937],[121.541121,24.966577],[121.541584,24.967834],[121.542591,24.970883],[121.539309,24.968751],[121.539072,24.968098]]]},"properties":{"code":"65000060039","name":"新德里","countyCode":"65000","countyName":"新北市","townCode":"65000060","townName":"新店區","level":"village","unassigned":false,"note":"","label":[121.5406440573671,24.968332427952056],"bounds":[121.539072,24.966577,121.542591,24.970883],"focusBounds":[121.539072,24.966577,121.542591,24.970883],"color":"#a8bf62"}},{"type":"Feature","id":"65000060040","geometry":{"type":"Polygon","coordinates":[[[121.547561,24.97178],[121.548296,24.97358],[121.547453,24.973938],[121.547181,24.974833],[121.546224,24.975517],[121.542934,24.973284],[121.54292,24.972658],[121.542591,24.970883],[121.545895,24.969291],[121.547561,24.97178]]]},"properties":{"code":"65000060040","name":"張北里","countyCode":"65000","countyName":"新北市","townCode":"65000060","townName":"新店區","level":"village","unassigned":false,"note":"","label":[121.54545231375884,24.972411867288688],"bounds":[121.542591,24.969291,121.548296,24.975517],"focusBounds":[121.542591,24.969291,121.548296,24.975517],"color":"#68bec9"}},{"type":"Feature","id":"65000060041","geometry":{"type":"Polygon","coordinates":[[[121.541584,24.967834],[121.542799,24.967273],[121.542581,24.966915],[121.543251,24.966037],[121.54421,24.965601],[121.544484,24.965771],[121.54485,24.965546],[121.544872,24.965381],[121.544556,24.965065],[121.545376,24.964671],[121.545691,24.964721],[121.545983,24.965021],[121.546166,24.964782],[121.546284,24.964664],[121.546834,24.965233],[121.547768,24.96579],[121.548715,24.9679],[121.550443,24.967078],[121.551537,24.967963],[121.551031,24.9689],[121.549999,24.970011],[121.548518,24.970011],[121.548539,24.971149],[121.547561,24.97178],[121.545895,24.969291],[121.542591,24.970883],[121.541584,24.967834]]]},"properties":{"code":"65000060041","name":"五峯里","countyCode":"65000","countyName":"新北市","townCode":"65000060","townName":"新店區","level":"village","unassigned":false,"note":"","label":[121.54614119419958,24.967236713163867],"bounds":[121.541584,24.964664,121.551537,24.97178],"focusBounds":[121.541584,24.964664,121.551537,24.97178],"color":"#df9f6a"}},{"type":"Feature","id":"65000060042","geometry":{"type":"Polygon","coordinates":[[[121.546224,24.975517],[121.54398,24.977492],[121.543537,24.977702],[121.542713,24.977754],[121.542923,24.976396],[121.542934,24.973284],[121.546224,24.975517]]]},"properties":{"code":"65000060042","name":"新安里","countyCode":"65000","countyName":"新北市","townCode":"65000060","townName":"新店區","level":"village","unassigned":false,"note":"","label":[121.54415403567626,24.975645470461686],"bounds":[121.542713,24.973284,121.546224,24.977754],"focusBounds":[121.542713,24.973284,121.546224,24.977754],"color":"#58b99d"}},{"type":"Feature","id":"65000060043","geometry":{"type":"Polygon","coordinates":[[[121.542923,24.976396],[121.54181,24.977346],[121.541497,24.97643],[121.541555,24.975558],[121.541394,24.97497],[121.541174,24.974613],[121.542428,24.972658],[121.54292,24.972658],[121.542934,24.973284],[121.542923,24.976396]]]},"properties":{"code":"65000060043","name":"忠誠里","countyCode":"65000","countyName":"新北市","townCode":"65000060","townName":"新店區","level":"village","unassigned":false,"note":"","label":[121.5421513601461,24.974820514963685],"bounds":[121.541174,24.972658,121.542934,24.977346],"focusBounds":[121.541174,24.972658,121.542934,24.977346],"color":"#98b69b"}},{"type":"Feature","id":"65000060044","geometry":{"type":"Polygon","coordinates":[[[121.539646,24.973065],[121.537459,24.97444],[121.53562,24.971824],[121.536093,24.971539],[121.537754,24.97054],[121.538218,24.970555],[121.539309,24.968751],[121.542591,24.970883],[121.539646,24.973065]]]},"properties":{"code":"65000060044","name":"中正里","countyCode":"65000","countyName":"新北市","townCode":"65000060","townName":"新店區","level":"village","unassigned":false,"note":"","label":[121.538891965715,24.971806236186765],"bounds":[121.53562,24.968751,121.542591,24.97444],"focusBounds":[121.53562,24.968751,121.542591,24.97444],"color":"#58b99d"}},{"type":"Feature","id":"65000060045","geometry":{"type":"Polygon","coordinates":[[[121.539309,24.968751],[121.538218,24.970555],[121.537754,24.97054],[121.536093,24.971539],[121.535123,24.970167],[121.534729,24.9704],[121.534419,24.969969],[121.533138,24.970738],[121.531515,24.968104],[121.532817,24.966909],[121.533935,24.96547],[121.535452,24.961954],[121.535667,24.96101],[121.537177,24.961396],[121.537011,24.964238],[121.537129,24.96683],[121.538505,24.966336],[121.538798,24.965012],[121.539087,24.964632],[121.539366,24.964739],[121.539109,24.965148],[121.539044,24.965916],[121.538697,24.966657],[121.539072,24.968098],[121.539309,24.968751]]]},"properties":{"code":"65000060045","name":"中華里","countyCode":"65000","countyName":"新北市","townCode":"65000060","townName":"新店區","level":"village","unassigned":false,"note":"","label":[121.53506308889702,24.967599326309333],"bounds":[121.531515,24.96101,121.539366,24.971539],"focusBounds":[121.531515,24.96101,121.539366,24.971539],"color":"#efb44f"}},{"type":"Feature","id":"65000060046","geometry":{"type":"Polygon","coordinates":[[[121.540541,24.974868],[121.540401,24.974312],[121.539646,24.973065],[121.542591,24.970883],[121.54292,24.972658],[121.542428,24.972658],[121.541174,24.974613],[121.541394,24.97497],[121.540541,24.974868]]]},"properties":{"code":"65000060046","name":"仁愛里","countyCode":"65000","countyName":"新北市","townCode":"65000060","townName":"新店區","level":"village","unassigned":false,"note":"","label":[121.54117063250074,24.97299285167869],"bounds":[121.539646,24.970883,121.54292,24.97497],"focusBounds":[121.539646,24.970883,121.54292,24.97497],"color":"#78a7e3"}},{"type":"Feature","id":"65000060047","geometry":{"type":"Polygon","coordinates":[[[121.537459,24.97444],[121.535594,24.975747],[121.534614,24.974547],[121.533926,24.973705],[121.53398,24.973134],[121.534709,24.972386],[121.53562,24.971824],[121.537459,24.97444]]]},"properties":{"code":"65000060047","name":"百忍里","countyCode":"65000","countyName":"新北市","townCode":"65000060","townName":"新店區","level":"village","unassigned":false,"note":"","label":[121.53555483142411,24.97378210746728],"bounds":[121.533926,24.971824,121.537459,24.975747],"focusBounds":[121.533926,24.971824,121.537459,24.975747],"color":"#dd8590"}},{"type":"Feature","id":"65000060048","geometry":{"type":"Polygon","coordinates":[[[121.537908,24.977103],[121.537529,24.976703],[121.537149,24.976991],[121.537372,24.977189],[121.535897,24.978632],[121.535315,24.978544],[121.534699,24.978823],[121.534764,24.978969],[121.534464,24.979184],[121.534041,24.978836],[121.534603,24.977186],[121.535594,24.975747],[121.537459,24.97444],[121.538625,24.975789],[121.53898,24.976151],[121.538522,24.976558],[121.537908,24.977103]]]},"properties":{"code":"65000060048","name":"百和里","countyCode":"65000","countyName":"新北市","townCode":"65000060","townName":"新店區","level":"village","unassigned":false,"note":"","label":[121.53614959680836,24.97675862615429],"bounds":[121.534041,24.97444,121.53898,24.979184],"focusBounds":[121.534041,24.97444,121.53898,24.979184],"color":"#a49ad4"}},{"type":"Feature","id":"65000060049","geometry":{"type":"Polygon","coordinates":[[[121.535594,24.975747],[121.534603,24.977186],[121.534041,24.978836],[121.533485,24.978707],[121.53206,24.976261],[121.534614,24.974547],[121.535594,24.975747]]]},"properties":{"code":"65000060049","name":"福德里","countyCode":"65000","countyName":"新北市","townCode":"65000060","townName":"新店區","level":"village","unassigned":false,"note":"","label":[121.53373674218369,24.976468877647278],"bounds":[121.53206,24.974547,121.535594,24.978836],"focusBounds":[121.53206,24.974547,121.535594,24.978836],"color":"#a8bf62"}},{"type":"Feature","id":"65000060050","geometry":{"type":"Polygon","coordinates":[[[121.53562,24.971824],[121.534709,24.972386],[121.53398,24.973134],[121.533388,24.973034],[121.533439,24.972664],[121.532693,24.971857],[121.532816,24.971801],[121.532725,24.971664],[121.532301,24.971878],[121.532103,24.971475],[121.53327,24.97095],[121.533138,24.970738],[121.534419,24.969969],[121.534729,24.9704],[121.535123,24.970167],[121.536093,24.971539],[121.53562,24.971824]]]},"properties":{"code":"65000060050","name":"百福里","countyCode":"65000","countyName":"新北市","townCode":"65000060","townName":"新店區","level":"village","unassigned":false,"note":"","label":[121.53420827198173,24.971406642332028],"bounds":[121.532103,24.969969,121.536093,24.973134],"focusBounds":[121.532103,24.969969,121.536093,24.973134],"color":"#68bec9"}},{"type":"Feature","id":"65000060051","geometry":{"type":"Polygon","coordinates":[[[121.534614,24.974547],[121.53206,24.976261],[121.531306,24.975098],[121.528939,24.971716],[121.527762,24.970753],[121.528736,24.97024],[121.531515,24.968104],[121.533138,24.970738],[121.53327,24.97095],[121.532103,24.971475],[121.532301,24.971878],[121.532725,24.971664],[121.532816,24.971801],[121.532693,24.971857],[121.533439,24.972664],[121.533388,24.973034],[121.53398,24.973134],[121.533926,24.973705],[121.534614,24.974547]]]},"properties":{"code":"65000060051","name":"福民里","countyCode":"65000","countyName":"新北市","townCode":"65000060","townName":"新店區","level":"village","unassigned":false,"note":"","label":[121.53050952522555,24.971106789960828],"bounds":[121.527762,24.968104,121.534614,24.976261],"focusBounds":[121.527762,24.968104,121.534614,24.976261],"color":"#df9f6a"}},{"type":"Feature","id":"65000060052","geometry":{"type":"Polygon","coordinates":[[[121.523718,24.974285],[121.525408,24.975895],[121.524821,24.97622],[121.525112,24.976524],[121.524721,24.976732],[121.525041,24.977189],[121.525848,24.976753],[121.525912,24.976853],[121.525926,24.97706],[121.524577,24.977878],[121.525199,24.978677],[121.526724,24.977458],[121.526777,24.977788],[121.527275,24.977527],[121.527436,24.977661],[121.531306,24.975098],[121.53206,24.976261],[121.533485,24.978707],[121.534041,24.978836],[121.53374,24.980099],[121.532281,24.983048],[121.530342,24.984643],[121.527807,24.98702],[121.527411,24.987015],[121.526209,24.985817],[121.523544,24.983875],[121.522787,24.984373],[121.522526,24.985123],[121.522003,24.984618],[121.521502,24.984059],[121.521276,24.983321],[121.521199,24.981501],[121.521342,24.980417],[121.522401,24.975874],[121.52274,24.975237],[121.523718,24.974285]],[[121.526535,24.982781],[121.52986,24.980505],[121.529496,24.980067],[121.527092,24.981837],[121.525859,24.980447],[121.52499,24.981011],[121.526535,24.982781]]]},"properties":{"code":"65000060052","name":"中山里","countyCode":"65000","countyName":"新北市","townCode":"65000060","townName":"新店區","level":"village","unassigned":false,"note":"","label":[121.5276553466632,24.98451609290065],"bounds":[121.521199,24.974285,121.534041,24.98702],"focusBounds":[121.521199,24.974285,121.534041,24.98702],"color":"#c38cb8"}},{"type":"Feature","id":"65000060053","geometry":{"type":"Polygon","coordinates":[[[121.526535,24.982781],[121.52499,24.981011],[121.525859,24.980447],[121.527092,24.981837],[121.529496,24.980067],[121.52986,24.980505],[121.526535,24.982781]]]},"properties":{"code":"65000060053","name":"和平里","countyCode":"65000","countyName":"新北市","townCode":"65000060","townName":"新店區","level":"village","unassigned":false,"note":"","label":[121.52652300130097,24.98198140182022],"bounds":[121.52499,24.980067,121.52986,24.982781],"focusBounds":[121.52499,24.980067,121.52986,24.982781],"color":"#98b69b"}},{"type":"Feature","id":"65000060054","geometry":{"type":"Polygon","coordinates":[[[121.531306,24.975098],[121.527436,24.977661],[121.527275,24.977527],[121.526777,24.977788],[121.526724,24.977458],[121.525199,24.978677],[121.524577,24.977878],[121.525926,24.97706],[121.525912,24.976853],[121.525848,24.976753],[121.525041,24.977189],[121.524721,24.976732],[121.525112,24.976524],[121.524821,24.97622],[121.525408,24.975895],[121.523718,24.974285],[121.524625,24.972566],[121.526154,24.971852],[121.526927,24.971067],[121.527762,24.970753],[121.528939,24.971716],[121.531306,24.975098]]]},"properties":{"code":"65000060054","name":"中央里","countyCode":"65000","countyName":"新北市","townCode":"65000060","townName":"新店區","level":"village","unassigned":false,"note":"","label":[121.5273452422745,24.97424776527828],"bounds":[121.523718,24.970753,121.531306,24.978677],"focusBounds":[121.523718,24.970753,121.531306,24.978677],"color":"#58b99d"}},{"type":"Feature","id":"65000060055","geometry":{"type":"Polygon","coordinates":[[[121.502744,24.951008],[121.502467,24.950242],[121.501374,24.949633],[121.501188,24.948619],[121.501436,24.94645],[121.501638,24.946204],[121.501492,24.94584],[121.501692,24.945713],[121.50153,24.945433],[121.501697,24.945146],[121.501563,24.945074],[121.501618,24.944482],[121.501826,24.943977],[121.501672,24.943901],[121.501848,24.942313],[121.502322,24.94275],[121.502159,24.943018],[121.502566,24.943874],[121.503151,24.943765],[121.503913,24.944921],[121.503944,24.945578],[121.504127,24.949892],[121.503221,24.951468],[121.503988,24.952367],[121.503929,24.952527],[121.503398,24.952245],[121.503036,24.951791],[121.502744,24.951008]]]},"properties":{"code":"65000060055","name":"明城里","countyCode":"65000","countyName":"新北市","townCode":"65000060","townName":"新店區","level":"village","unassigned":false,"note":"","label":[121.5027000254406,24.947367293225327],"bounds":[121.501188,24.942313,121.504127,24.952527],"focusBounds":[121.501188,24.942313,121.504127,24.952527],"color":"#efb44f"}},{"type":"Feature","id":"65000060056","geometry":{"type":"Polygon","coordinates":[[[121.518253,24.980329],[121.517237,24.97933],[121.515896,24.980963],[121.513983,24.981505],[121.513426,24.981015],[121.512625,24.979907],[121.51184,24.979571],[121.511265,24.979255],[121.510907,24.978094],[121.510279,24.97785],[121.509005,24.976511],[121.507627,24.975979],[121.507109,24.97593],[121.506551,24.97525],[121.505936,24.975015],[121.505876,24.974392],[121.50721,24.973894],[121.507738,24.97335],[121.508424,24.973016],[121.509294,24.972279],[121.514274,24.970823],[121.516383,24.971961],[121.519396,24.971752],[121.520246,24.971747],[121.521868,24.972112],[121.522271,24.96897],[121.521921,24.968212],[121.524721,24.967406],[121.524765,24.968276],[121.525064,24.968814],[121.525766,24.969456],[121.527762,24.970753],[121.526927,24.971067],[121.526154,24.971852],[121.524625,24.972566],[121.523718,24.974285],[121.52274,24.975237],[121.522401,24.975874],[121.521342,24.980417],[121.519085,24.980611],[121.518809,24.98056],[121.518433,24.980134],[121.518253,24.980329]]]},"properties":{"code":"65000060056","name":"安和里","countyCode":"65000","countyName":"新北市","townCode":"65000060","townName":"新店區","level":"village","unassigned":false,"note":"","label":[121.51479210111185,24.975691550483056],"bounds":[121.505876,24.967406,121.527762,24.981505],"focusBounds":[121.505876,24.967406,121.527762,24.981505],"color":"#78a7e3"}},{"type":"Feature","id":"65000060057","geometry":{"type":"Polygon","coordinates":[[[121.495604,24.944729],[121.497031,24.944542],[121.497467,24.945195],[121.497725,24.945328],[121.498109,24.945218],[121.499837,24.945204],[121.498768,24.946903],[121.498439,24.947711],[121.498248,24.947498],[121.498028,24.947719],[121.498696,24.948432],[121.498436,24.948629],[121.498562,24.948809],[121.498272,24.949042],[121.497656,24.948468],[121.497173,24.94846],[121.496622,24.949249],[121.49632,24.948989],[121.495836,24.948079],[121.495455,24.946832],[121.495946,24.945709],[121.495952,24.94536],[121.495604,24.944729]]]},"properties":{"code":"65000060057","name":"吉祥里","countyCode":"65000","countyName":"新北市","townCode":"65000060","townName":"新店區","level":"village","unassigned":false,"note":"","label":[121.49713351766823,24.946605645161686],"bounds":[121.495455,24.944542,121.499837,24.949249],"focusBounds":[121.495455,24.944542,121.499837,24.949249],"color":"#a8bf62"}},{"type":"Feature","id":"65000060058","geometry":{"type":"Polygon","coordinates":[[[121.549909,24.984418],[121.550153,24.982639],[121.549997,24.982449],[121.550527,24.981775],[121.550313,24.980829],[121.54911,24.980666],[121.548848,24.980339],[121.548378,24.980595],[121.54795,24.980618],[121.546449,24.979811],[121.546999,24.979371],[121.546146,24.978851],[121.545773,24.979429],[121.545076,24.979036],[121.547164,24.976129],[121.546224,24.975517],[121.547181,24.974833],[121.547453,24.973938],[121.548296,24.97358],[121.547561,24.97178],[121.548539,24.971149],[121.548518,24.970011],[121.549999,24.970011],[121.551031,24.9689],[121.552306,24.968647],[121.553,24.968108],[121.553986,24.965688],[121.554529,24.964837],[121.554909,24.964656],[121.556903,24.964729],[121.557644,24.964438],[121.557913,24.96464],[121.558114,24.965451],[121.559907,24.966611],[121.55955,24.966752],[121.558544,24.968328],[121.557557,24.972133],[121.556594,24.973047],[121.556124,24.973298],[121.555998,24.974201],[121.555212,24.976469],[121.554233,24.976816],[121.553811,24.97718],[121.55318,24.979032],[121.553129,24.97972],[121.553087,24.981087],[121.553587,24.983251],[121.553913,24.984363],[121.553896,24.984965],[121.552832,24.986371],[121.552369,24.986964],[121.551679,24.987358],[121.550849,24.987226],[121.550688,24.986923],[121.551011,24.986393],[121.551001,24.985703],[121.550788,24.985263],[121.549909,24.984418]]]},"properties":{"code":"65000060058","name":"寶福里","countyCode":"65000","countyName":"新北市","townCode":"65000060","townName":"新店區","level":"village","unassigned":false,"note":"","label":[121.55231422496614,24.97343626042844],"bounds":[121.545076,24.964438,121.559907,24.987358],"focusBounds":[121.545076,24.964438,121.559907,24.987358],"color":"#a49ad4"}},{"type":"Feature","id":"65000060059","geometry":{"type":"Polygon","coordinates":[[[121.501848,24.942313],[121.501672,24.943901],[121.501826,24.943977],[121.501618,24.944482],[121.501563,24.945074],[121.501697,24.945146],[121.50153,24.945433],[121.501692,24.945713],[121.501492,24.94584],[121.501638,24.946204],[121.501436,24.94645],[121.501188,24.948619],[121.501374,24.949633],[121.502467,24.950242],[121.502744,24.951008],[121.501953,24.950791],[121.501553,24.950858],[121.5009,24.951714],[121.500925,24.951895],[121.500633,24.952062],[121.499569,24.953559],[121.498913,24.953348],[121.49938,24.95234],[121.498264,24.951932],[121.497656,24.948468],[121.498272,24.949042],[121.498562,24.948809],[121.498436,24.948629],[121.498696,24.948432],[121.498028,24.947719],[121.498248,24.947498],[121.498439,24.947711],[121.498768,24.946903],[121.499837,24.945204],[121.498109,24.945218],[121.498587,24.945032],[121.499138,24.944234],[121.4988,24.943304],[121.501848,24.942313]]]},"properties":{"code":"65000060059","name":"小城里","countyCode":"65000","countyName":"新北市","townCode":"65000060","townName":"新店區","level":"village","unassigned":false,"note":"","label":[121.49978628492006,24.95031004574881],"bounds":[121.497656,24.942313,121.502744,24.953559],"focusBounds":[121.497656,24.942313,121.502744,24.953559],"color":"#68bec9"}},{"type":"Feature","id":"65000060060","geometry":{"type":"Polygon","coordinates":[[[121.488157,24.96469],[121.488718,24.966259],[121.485719,24.964786],[121.484756,24.964865],[121.484278,24.964728],[121.48242,24.963341],[121.481867,24.96335],[121.481249,24.963947],[121.479802,24.963924],[121.479701,24.963585],[121.479257,24.963273],[121.477757,24.962869],[121.477445,24.962349],[121.476825,24.962226],[121.474709,24.96093],[121.473774,24.96074],[121.473469,24.960108],[121.471883,24.958981],[121.471838,24.958313],[121.472092,24.957628],[121.472015,24.957041],[121.472201,24.956149],[121.47181,24.955826],[121.471394,24.955157],[121.47078,24.955112],[121.473576,24.952345],[121.476576,24.952494],[121.478533,24.955699],[121.47885,24.955696],[121.479645,24.956042],[121.480037,24.955684],[121.482333,24.955661],[121.489184,24.957912],[121.48737,24.961932],[121.487459,24.962674],[121.488254,24.962794],[121.487903,24.96401],[121.488157,24.96469]]]},"properties":{"code":"65000060060","name":"香坡里","countyCode":"65000","countyName":"新北市","townCode":"65000060","townName":"新店區","level":"village","unassigned":false,"note":"","label":[121.48073772520958,24.95980805472528],"bounds":[121.47078,24.952345,121.489184,24.966259],"focusBounds":[121.47078,24.952345,121.489184,24.966259],"color":"#68bec9"}},{"type":"Feature","id":"65000060061","geometry":{"type":"Polygon","coordinates":[[[121.540541,24.974868],[121.540565,24.975215],[121.538625,24.975789],[121.537459,24.97444],[121.539646,24.973065],[121.540401,24.974312],[121.540541,24.974868]]]},"properties":{"code":"65000060061","name":"建國里","countyCode":"65000","countyName":"新北市","townCode":"65000060","townName":"新店區","level":"village","unassigned":false,"note":"","label":[121.53918487451766,24.974559482413596],"bounds":[121.537459,24.973065,121.540565,24.975789],"focusBounds":[121.537459,24.973065,121.540565,24.975789],"color":"#c38cb8"}},{"type":"Feature","id":"65000060062","geometry":{"type":"Polygon","coordinates":[[[121.54006,24.986727],[121.537361,24.986878],[121.53031,24.989164],[121.527807,24.98702],[121.530342,24.984643],[121.532281,24.983048],[121.53374,24.980099],[121.534041,24.978836],[121.533837,24.982701],[121.54057,24.982913],[121.541442,24.982913],[121.540659,24.985263],[121.54006,24.986727]]]},"properties":{"code":"65000060062","name":"復興里","countyCode":"65000","countyName":"新北市","townCode":"65000060","townName":"新店區","level":"village","unassigned":false,"note":"","label":[121.53446794129354,24.985268589691778],"bounds":[121.527807,24.978836,121.541442,24.989164],"focusBounds":[121.527807,24.978836,121.541442,24.989164],"color":"#98b69b"}},{"type":"Feature","id":"65000060063","geometry":{"type":"Polygon","coordinates":[[[121.529557,24.951021],[121.528919,24.950302],[121.527772,24.950337],[121.527286,24.95014],[121.527344,24.949651],[121.527116,24.949339],[121.527877,24.947617],[121.52844,24.947874],[121.530382,24.948015],[121.532753,24.947874],[121.533604,24.947516],[121.534119,24.947496],[121.535031,24.948815],[121.532051,24.950254],[121.531008,24.951229],[121.530443,24.950538],[121.529557,24.951021]]]},"properties":{"code":"65000060063","name":"美城里","countyCode":"65000","countyName":"新北市","townCode":"65000060","townName":"新店區","level":"village","unassigned":false,"note":"","label":[121.5304498801508,24.949278780963773],"bounds":[121.527116,24.947496,121.535031,24.951229],"focusBounds":[121.527116,24.947496,121.535031,24.951229],"color":"#58b99d"}},{"type":"Feature","id":"65000060064","geometry":{"type":"Polygon","coordinates":[[[121.508009,24.961216],[121.509164,24.960994],[121.509754,24.960699],[121.509992,24.960386],[121.509663,24.960173],[121.509943,24.959386],[121.511077,24.959893],[121.511943,24.960545],[121.511876,24.960947],[121.511179,24.962304],[121.511866,24.962782],[121.511546,24.963563],[121.511432,24.963521],[121.511438,24.964192],[121.509819,24.96245],[121.508009,24.961216]]]},"properties":{"code":"65000060064","name":"安昌里","countyCode":"65000","countyName":"新北市","townCode":"65000060","townName":"新店區","level":"village","unassigned":false,"note":"","label":[121.51044699161233,24.96145798466771],"bounds":[121.508009,24.959386,121.511943,24.964192],"focusBounds":[121.508009,24.959386,121.511943,24.964192],"color":"#58b99d"}},{"type":"Feature","id":"65000060065","geometry":{"type":"Polygon","coordinates":[[[121.546166,24.964782],[121.545874,24.96428],[121.545733,24.963497],[121.546066,24.963247],[121.546259,24.962784],[121.547707,24.962081],[121.54804,24.960224],[121.549089,24.958983],[121.549671,24.95901],[121.549993,24.959905],[121.550923,24.958724],[121.551406,24.958785],[121.55196,24.959577],[121.553458,24.960562],[121.554353,24.961459],[121.555466,24.961901],[121.556024,24.961714],[121.555966,24.962774],[121.555668,24.96312],[121.555127,24.963386],[121.554529,24.964837],[121.553986,24.965688],[121.553,24.968108],[121.552306,24.968647],[121.551031,24.9689],[121.551537,24.967963],[121.550443,24.967078],[121.548715,24.9679],[121.547768,24.96579],[121.546834,24.965233],[121.546284,24.964664],[121.546166,24.964782]]]},"properties":{"code":"65000060065","name":"長春里","countyCode":"65000","countyName":"新北市","townCode":"65000060","townName":"新店區","level":"village","unassigned":false,"note":"","label":[121.55093042677902,24.963566203428726],"bounds":[121.545733,24.958724,121.556024,24.9689],"focusBounds":[121.545733,24.958724,121.556024,24.9689],"color":"#efb44f"}},{"type":"Feature","id":"65000060066","geometry":{"type":"Polygon","coordinates":[[[121.522526,24.985123],[121.522689,24.986147],[121.523453,24.987914],[121.522153,24.988343],[121.521625,24.98834],[121.519794,24.988083],[121.51882,24.988305],[121.51793,24.987653],[121.517239,24.987928],[121.516665,24.987345],[121.515901,24.987121],[121.515384,24.986505],[121.515377,24.986496],[121.516609,24.985756],[121.517003,24.986204],[121.51775,24.98658],[121.519156,24.986905],[121.519534,24.986864],[121.522003,24.984618],[121.522526,24.985123]]]},"properties":{"code":"65000060066","name":"新和里","countyCode":"65000","countyName":"新北市","townCode":"65000060","townName":"新店區","level":"village","unassigned":false,"note":"","label":[121.52149957480512,24.9868826553963],"bounds":[121.515377,24.984618,121.523453,24.988343],"focusBounds":[121.515377,24.984618,121.523453,24.988343],"color":"#78a7e3"}},{"type":"Feature","id":"65000060067","geometry":{"type":"Polygon","coordinates":[[[121.516609,24.985756],[121.515377,24.986496],[121.514855,24.985777],[121.514782,24.984927],[121.514679,24.984385],[121.51401,24.983695],[121.513829,24.983172],[121.513909,24.982629],[121.514488,24.981798],[121.513983,24.981505],[121.515896,24.980963],[121.517237,24.97933],[121.518253,24.980329],[121.517981,24.980795],[121.518014,24.981865],[121.517722,24.984551],[121.517512,24.984969],[121.516609,24.985756]]]},"properties":{"code":"65000060067","name":"永平里","countyCode":"65000","countyName":"新北市","townCode":"65000060","townName":"新店區","level":"village","unassigned":false,"note":"","label":[121.51599511993057,24.982977856860085],"bounds":[121.513829,24.97933,121.518253,24.986496],"focusBounds":[121.513829,24.97933,121.518253,24.986496],"color":"#a49ad4"}},{"type":"Feature","id":"65000060068","geometry":{"type":"Polygon","coordinates":[[[121.507416,24.93978],[121.508066,24.940822],[121.508157,24.941564],[121.508041,24.942013],[121.50685,24.943821],[121.5066,24.944946],[121.506204,24.945153],[121.505837,24.945147],[121.505393,24.945744],[121.503944,24.945578],[121.503913,24.944921],[121.503151,24.943765],[121.502566,24.943874],[121.502159,24.943018],[121.502322,24.94275],[121.501848,24.942313],[121.501756,24.94153],[121.500603,24.94115],[121.50129,24.939039],[121.502418,24.938132],[121.502476,24.937211],[121.503698,24.93792],[121.504733,24.937896],[121.506325,24.939005],[121.506716,24.939512],[121.507416,24.93978]]]},"properties":{"code":"65000060068","name":"達觀里","countyCode":"65000","countyName":"新北市","townCode":"65000060","townName":"新店區","level":"village","unassigned":false,"note":"","label":[121.50457527094801,24.941343502603587],"bounds":[121.500603,24.937211,121.508157,24.945744],"focusBounds":[121.500603,24.937211,121.508157,24.945744],"color":"#68bec9"}},{"type":"Feature","id":"65000060069","geometry":{"type":"Polygon","coordinates":[[[121.527558,24.952424],[121.528103,24.953672],[121.524294,24.952256],[121.52514,24.949935],[121.523895,24.949149],[121.523895,24.947969],[121.519217,24.945713],[121.517758,24.946063],[121.515975,24.944723],[121.51594,24.943819],[121.515829,24.94087],[121.515529,24.940471],[121.514463,24.940304],[121.513097,24.940595],[121.51215,24.941868],[121.511119,24.94146],[121.509766,24.941267],[121.509095,24.940538],[121.507416,24.93978],[121.506716,24.939512],[121.506325,24.939005],[121.504733,24.937896],[121.503698,24.93792],[121.502476,24.937211],[121.502739,24.936483],[121.501689,24.935301],[121.501631,24.934085],[121.501956,24.933552],[121.501565,24.932844],[121.50059,24.932611],[121.500457,24.932186],[121.499607,24.93147],[121.499374,24.931487],[121.498808,24.932411],[121.49775,24.932961],[121.497234,24.932902],[121.496568,24.932578],[121.496235,24.93172],[121.495368,24.931961],[121.495352,24.931662],[121.495876,24.931187],[121.49571,24.930429],[121.496026,24.929155],[121.495502,24.928663],[121.495427,24.927531],[121.494352,24.92669],[121.493986,24.924233],[121.493311,24.923483],[121.493836,24.92355],[121.493844,24.923333],[121.494186,24.923592],[121.494727,24.923633],[121.494061,24.923075],[121.494178,24.922959],[121.49511,24.923208],[121.495535,24.923675],[121.496368,24.923658],[121.496601,24.922992],[121.496609,24.922301],[121.496301,24.921859],[121.494411,24.92046],[121.493853,24.919836],[121.493911,24.917762],[121.493695,24.917079],[121.492604,24.916263],[121.491761,24.915858],[121.491709,24.914997],[121.490892,24.914045],[121.490964,24.912881],[121.49077,24.912377],[121.492041,24.912323],[121.493361,24.913217],[121.49428,24.911415],[121.495746,24.911301],[121.496546,24.910578],[121.498278,24.910778],[121.499127,24.91033],[121.499927,24.910649],[121.500962,24.909797],[121.501257,24.910092],[121.501926,24.909893],[121.502578,24.910082],[121.502885,24.910511],[121.504607,24.910855],[121.50672,24.91371],[121.507578,24.91801],[121.509531,24.920209],[121.510755,24.920179],[121.510876,24.920419],[121.511293,24.920482],[121.511165,24.920809],[121.510328,24.921371],[121.507996,24.922275],[121.506435,24.92337],[121.506083,24.923893],[121.508648,24.923776],[121.510447,24.923192],[121.512136,24.923142],[121.512394,24.925127],[121.509491,24.925903],[121.509585,24.926073],[121.509461,24.926511],[121.508881,24.926815],[121.508586,24.927205],[121.508748,24.927757],[121.509328,24.928357],[121.509604,24.928443],[121.510347,24.928281],[121.511241,24.928995],[121.511079,24.92929],[121.510537,24.929528],[121.510311,24.930242],[121.51443,24.92988],[121.515467,24.929947],[121.517542,24.930394],[121.51856,24.930765],[121.51955,24.931431],[121.519512,24.93204],[121.519293,24.932307],[121.518465,24.932631],[121.51739,24.932811],[121.516019,24.933449],[121.515239,24.934401],[121.515105,24.934886],[121.515239,24.935267],[121.515772,24.935867],[121.516495,24.936209],[121.517066,24.936219],[121.51797,24.935933],[121.518446,24.936086],[121.518989,24.936875],[121.520721,24.937447],[121.520769,24.937913],[121.520445,24.938855],[121.520226,24.938998],[121.519122,24.939055],[121.518484,24.939683],[121.518713,24.940806],[121.518532,24.940988],[121.51958,24.944593],[121.520321,24.94469],[121.524433,24.946565],[121.52587,24.948735],[121.527558,24.952424]]]},"properties":{"code":"65000060069","name":"華城里","countyCode":"65000","countyName":"新北市","townCode":"65000060","townName":"新店區","level":"village","unassigned":false,"note":"","label":[121.50135068405687,24.92651947693647],"bounds":[121.49077,24.909797,121.528103,24.953672],"focusBounds":[121.49077,24.909797,121.528103,24.953672],"color":"#a8bf62"}}]}
