{"type":"FeatureCollection","features":[{"type":"Feature","id":"66000260001","geometry":{"type":"Polygon","coordinates":[[[120.73215,24.081387],[120.731731,24.081377],[120.730772,24.081764],[120.730077,24.081603],[120.729684,24.081796],[120.728882,24.0817],[120.728751,24.081647],[120.728706,24.080667],[120.728542,24.080367],[120.726917,24.07848],[120.725824,24.078786],[120.724354,24.078918],[120.723267,24.079266],[120.72321,24.078825],[120.723976,24.077659],[120.72386,24.076923],[120.724135,24.076725],[120.723489,24.076383],[120.723392,24.076184],[120.723473,24.074999],[120.72271,24.074657],[120.721596,24.073756],[120.721697,24.072167],[120.722677,24.071596],[120.722814,24.071379],[120.722678,24.070966],[120.720979,24.069383],[120.719942,24.068932],[120.717697,24.067262],[120.719704,24.066013],[120.721356,24.063871],[120.722277,24.063205],[120.723775,24.062745],[120.724504,24.062376],[120.725958,24.06125],[120.727469,24.060666],[120.72796,24.060104],[120.728899,24.059682],[120.728798,24.058503],[120.728989,24.058041],[120.729329,24.057854],[120.731247,24.057485],[120.731643,24.056849],[120.731739,24.056312],[120.731649,24.054644],[120.73266,24.052995],[120.733366,24.052951],[120.733924,24.052528],[120.7345,24.050308],[120.734844,24.04969],[120.735294,24.049303],[120.735933,24.048981],[120.736681,24.048831],[120.737511,24.048857],[120.73881,24.049164],[120.739455,24.04891],[120.740571,24.048127],[120.741871,24.048027],[120.742647,24.047568],[120.743002,24.046544],[120.743234,24.046271],[120.746092,24.04484],[120.747718,24.043852],[120.750439,24.042757],[120.751082,24.042359],[120.752682,24.043323],[120.753184,24.043486],[120.754313,24.043513],[120.75521,24.043252],[120.755693,24.04284],[120.757788,24.042444],[120.759231,24.041625],[120.760155,24.041549],[120.761328,24.04193],[120.763056,24.042053],[120.76364,24.042417],[120.764754,24.042667],[120.766154,24.042768],[120.766879,24.042677],[120.768542,24.043165],[120.769029,24.042978],[120.770077,24.041941],[120.771156,24.041577],[120.774689,24.039447],[120.776428,24.039075],[120.776898,24.038866],[120.777437,24.03835],[120.777954,24.038145],[120.780142,24.038354],[120.781149,24.037903],[120.783887,24.038305],[120.784778,24.038286],[120.789061,24.036127],[120.78985,24.035913],[120.791178,24.034906],[120.791694,24.035262],[120.792148,24.035959],[120.792819,24.036444],[120.793262,24.037033],[120.794322,24.03764],[120.794452,24.038278],[120.795303,24.039546],[120.795782,24.039988],[120.796556,24.040311],[120.793559,24.043159],[120.792193,24.04343],[120.792171,24.043971],[120.792708,24.044896],[120.792743,24.045843],[120.792284,24.046488],[120.790457,24.047058],[120.789867,24.047442],[120.789433,24.048016],[120.788809,24.049],[120.788672,24.049503],[120.789123,24.050698],[120.789204,24.051536],[120.788144,24.052674],[120.786933,24.052698],[120.784824,24.053038],[120.784938,24.053689],[120.784575,24.055522],[120.783295,24.056228],[120.782652,24.0563],[120.782074,24.056567],[120.781863,24.056835],[120.781746,24.058042],[120.780478,24.058882],[120.779717,24.059768],[120.777987,24.061015],[120.773599,24.062677],[120.772569,24.062881],[120.772093,24.063607],[120.771379,24.064064],[120.769714,24.064113],[120.767545,24.064551],[120.766905,24.065129],[120.766181,24.066506],[120.764144,24.067778],[120.763952,24.068283],[120.763902,24.069198],[120.763161,24.069968],[120.762102,24.070626],[120.761789,24.071401],[120.760794,24.071927],[120.759916,24.071989],[120.759599,24.072217],[120.759057,24.073238],[120.756718,24.074348],[120.756277,24.075147],[120.755596,24.075208],[120.755029,24.074863],[120.754021,24.07489],[120.753222,24.075276],[120.75296,24.075675],[120.752112,24.076324],[120.750828,24.076321],[120.750255,24.076859],[120.749574,24.077119],[120.747661,24.077383],[120.746322,24.077347],[120.744798,24.079077],[120.743756,24.078786],[120.743101,24.078438],[120.740915,24.07837],[120.739784,24.078692],[120.738897,24.078687],[120.73753,24.079339],[120.736742,24.080078],[120.736401,24.080201],[120.734847,24.080169],[120.733363,24.080884],[120.732782,24.081339],[120.73215,24.081387]]]},"properties":{"code":"66000260001","name":"桐林里","countyCode":"66000","countyName":"臺中市","townCode":"66000260","townName":"霧峰區","level":"village","unassigned":false,"note":"","label":[120.75180171972548,24.059533897642304],"bounds":[120.717697,24.034906,120.796556,24.081796],"focusBounds":[120.717697,24.034906,120.796556,24.081796],"color":"#dd8590"}},{"type":"Feature","id":"66000260002","geometry":{"type":"Polygon","coordinates":[[[120.709113,24.081715],[120.708129,24.081897],[120.707442,24.081832],[120.705629,24.081348],[120.704559,24.081213],[120.700542,24.079546],[120.698983,24.07851],[120.697958,24.077786],[120.695666,24.077236],[120.694695,24.076182],[120.6936,24.074639],[120.695025,24.075304],[120.695692,24.075036],[120.696594,24.074122],[120.696986,24.074123],[120.697513,24.074787],[120.698081,24.07468],[120.698768,24.073891],[120.698983,24.073892],[120.698962,24.074612],[120.700959,24.074236],[120.701761,24.074581],[120.702584,24.074529],[120.70306,24.074782],[120.703295,24.07474],[120.703905,24.074046],[120.704916,24.073384],[120.705548,24.073261],[120.706085,24.072824],[120.70655,24.072636],[120.707497,24.072683],[120.708324,24.072018],[120.70836,24.070998],[120.708122,24.070183],[120.707383,24.068798],[120.706816,24.068275],[120.705496,24.067844],[120.708051,24.067487],[120.709205,24.067776],[120.710184,24.067832],[120.711476,24.067638],[120.712873,24.067273],[120.713441,24.066789],[120.713833,24.066683],[120.714655,24.06708],[120.714929,24.066954],[120.715321,24.066397],[120.716066,24.06622],[120.716868,24.06649],[120.717697,24.067262],[120.719942,24.068932],[120.720979,24.069383],[120.722678,24.070966],[120.722814,24.071379],[120.722677,24.071596],[120.721697,24.072167],[120.721596,24.073756],[120.72271,24.074657],[120.723473,24.074999],[120.723392,24.076184],[120.723489,24.076383],[120.724135,24.076725],[120.72386,24.076923],[120.723976,24.077659],[120.72321,24.078825],[120.723267,24.079266],[120.722211,24.080023],[120.720982,24.080533],[120.720437,24.080586],[120.719047,24.080251],[120.715537,24.081092],[120.711328,24.081045],[120.709113,24.081715]]]},"properties":{"code":"66000260002","name":"吉峰里","countyCode":"66000","countyName":"臺中市","townCode":"66000260","townName":"霧峰區","level":"village","unassigned":false,"note":"","label":[120.71446909724922,24.074035062153126],"bounds":[120.6936,24.06622,120.724135,24.081897],"focusBounds":[120.6936,24.06622,120.724135,24.081897],"color":"#a49ad4"}},{"type":"Feature","id":"66000260003","geometry":{"type":"Polygon","coordinates":[[[120.705496,24.067844],[120.706816,24.068275],[120.707383,24.068798],[120.708122,24.070183],[120.70836,24.070998],[120.708324,24.072018],[120.707497,24.072683],[120.70655,24.072636],[120.706085,24.072824],[120.705548,24.073261],[120.704916,24.073384],[120.703905,24.074046],[120.703295,24.07474],[120.70306,24.074782],[120.702584,24.074529],[120.701761,24.074581],[120.700959,24.074236],[120.698962,24.074612],[120.698983,24.073892],[120.698768,24.073891],[120.698081,24.07468],[120.697513,24.074787],[120.696986,24.074123],[120.696594,24.074122],[120.695692,24.075036],[120.695025,24.075304],[120.6936,24.074639],[120.693026,24.073838],[120.692816,24.073567],[120.693726,24.072938],[120.695049,24.072408],[120.698246,24.06826],[120.699152,24.067601],[120.702704,24.066773],[120.703459,24.066214],[120.703663,24.065896],[120.70411,24.066216],[120.704659,24.066925],[120.704963,24.067617],[120.705496,24.067844]]]},"properties":{"code":"66000260003","name":"甲寅里","countyCode":"66000","countyName":"臺中市","townCode":"66000260","townName":"霧峰區","level":"village","unassigned":false,"note":"","label":[120.70210210385528,24.070736164518674],"bounds":[120.692816,24.065896,120.70836,24.075304],"focusBounds":[120.692816,24.065896,120.70836,24.075304],"color":"#a8bf62"}},{"type":"Feature","id":"66000260004","geometry":{"type":"Polygon","coordinates":[[[120.703663,24.065896],[120.703459,24.066214],[120.702704,24.066773],[120.699152,24.067601],[120.698246,24.06826],[120.695049,24.072408],[120.693726,24.072938],[120.692816,24.073567],[120.691171,24.072295],[120.692388,24.071572],[120.693509,24.070235],[120.693886,24.069636],[120.694505,24.067783],[120.695105,24.067823],[120.696022,24.067525],[120.697232,24.066547],[120.70016,24.066],[120.702258,24.065819],[120.70342,24.065205],[120.703745,24.065635],[120.703663,24.065896]]]},"properties":{"code":"66000260004","name":"本鄉里","countyCode":"66000","countyName":"臺中市","townCode":"66000260","townName":"霧峰區","level":"village","unassigned":false,"note":"","label":[120.69558601878758,24.06940284507344],"bounds":[120.691171,24.065205,120.703745,24.073567],"focusBounds":[120.691171,24.065205,120.703745,24.073567],"color":"#68bec9"}},{"type":"Feature","id":"66000260005","geometry":{"type":"Polygon","coordinates":[[[120.694598,24.066043],[120.695941,24.06578],[120.697821,24.064664],[120.698709,24.064469],[120.700295,24.064113],[120.700402,24.064913],[120.70242,24.064749],[120.70342,24.065205],[120.702258,24.065819],[120.70016,24.066],[120.697232,24.066547],[120.696022,24.067525],[120.695105,24.067823],[120.694505,24.067783],[120.694598,24.066043]]]},"properties":{"code":"66000260005","name":"中正里","countyCode":"66000","countyName":"臺中市","townCode":"66000260","townName":"霧峰區","level":"village","unassigned":false,"note":"","label":[120.69833141311199,24.06544684341831],"bounds":[120.694505,24.064113,120.70342,24.067823],"focusBounds":[120.694505,24.064113,120.70342,24.067823],"color":"#df9f6a"}},{"type":"Feature","id":"66000260006","geometry":{"type":"Polygon","coordinates":[[[120.717697,24.067262],[120.716868,24.06649],[120.716066,24.06622],[120.715321,24.066397],[120.714929,24.066954],[120.714655,24.06708],[120.713833,24.066683],[120.713441,24.066789],[120.712873,24.067273],[120.711476,24.067638],[120.710184,24.067832],[120.709205,24.067776],[120.708051,24.067487],[120.705496,24.067844],[120.704963,24.067617],[120.704659,24.066925],[120.70411,24.066216],[120.703663,24.065896],[120.703745,24.065635],[120.70342,24.065205],[120.70242,24.064749],[120.700402,24.064913],[120.700295,24.064113],[120.698709,24.064469],[120.698724,24.063629],[120.69888,24.063424],[120.699728,24.063347],[120.700021,24.063663],[120.701535,24.063709],[120.702994,24.063827],[120.704049,24.063434],[120.705484,24.063643],[120.705932,24.063978],[120.706727,24.064137],[120.707004,24.063914],[120.707197,24.06279],[120.707456,24.062759],[120.708337,24.063188],[120.708751,24.063649],[120.709188,24.064715],[120.709386,24.064885],[120.709656,24.064863],[120.709756,24.064278],[120.710247,24.063952],[120.710885,24.064276],[120.711215,24.064696],[120.711916,24.063978],[120.711561,24.06348],[120.711623,24.063077],[120.71182,24.062874],[120.712262,24.062626],[120.713379,24.062753],[120.71374,24.062622],[120.713888,24.062286],[120.713941,24.060654],[120.714678,24.060012],[120.715378,24.05961],[120.716287,24.059397],[120.717428,24.059343],[120.720231,24.058163],[120.72163,24.058109],[120.721888,24.057974],[120.722024,24.057378],[120.721731,24.056714],[120.721945,24.055412],[120.721899,24.053915],[120.720921,24.052229],[120.721084,24.050476],[120.721749,24.050881],[120.72213,24.0509],[120.723055,24.050588],[120.724299,24.050958],[120.724881,24.051512],[120.725301,24.052251],[120.725782,24.052638],[120.726405,24.052842],[120.728674,24.053049],[120.729196,24.052901],[120.7301,24.053088],[120.732079,24.053121],[120.73266,24.052995],[120.731649,24.054644],[120.731739,24.056312],[120.731643,24.056849],[120.731247,24.057485],[120.729329,24.057854],[120.728989,24.058041],[120.728798,24.058503],[120.728899,24.059682],[120.72796,24.060104],[120.727469,24.060666],[120.725958,24.06125],[120.724504,24.062376],[120.723775,24.062745],[120.722277,24.063205],[120.721356,24.063871],[120.719704,24.066013],[120.717697,24.067262]]]},"properties":{"code":"66000260006","name":"錦榮里","countyCode":"66000","countyName":"臺中市","townCode":"66000260","townName":"霧峰區","level":"village","unassigned":false,"note":"","label":[120.71764908769552,24.063233302202804],"bounds":[120.698709,24.050476,120.73266,24.067844],"focusBounds":[120.698709,24.050476,120.73266,24.067844],"color":"#c38cb8"}},{"type":"Feature","id":"66000260007","geometry":{"type":"Polygon","coordinates":[[[120.701535,24.063709],[120.701533,24.061978],[120.70216,24.060957],[120.701966,24.060615],[120.700502,24.059888],[120.699943,24.059431],[120.699984,24.058571],[120.699389,24.057915],[120.699841,24.057038],[120.700258,24.054817],[120.700779,24.053627],[120.700665,24.052403],[120.701138,24.051989],[120.702549,24.052251],[120.702637,24.051418],[120.702344,24.050641],[120.701475,24.049883],[120.700779,24.048006],[120.7004,24.047386],[120.70034,24.0467],[120.700991,24.046442],[120.703394,24.047076],[120.704106,24.047078],[120.704352,24.046889],[120.704611,24.045898],[120.705185,24.045333],[120.707284,24.044492],[120.707554,24.044482],[120.708253,24.044887],[120.708717,24.045622],[120.709193,24.046848],[120.711352,24.046864],[120.713099,24.047093],[120.714204,24.046409],[120.716886,24.045748],[120.718456,24.046078],[120.719941,24.045595],[120.721057,24.045744],[120.721376,24.046049],[120.721117,24.046555],[120.721005,24.047473],[120.721084,24.050476],[120.720921,24.052229],[120.721899,24.053915],[120.721945,24.055412],[120.721731,24.056714],[120.722024,24.057378],[120.721888,24.057974],[120.72163,24.058109],[120.720231,24.058163],[120.717428,24.059343],[120.716287,24.059397],[120.715378,24.05961],[120.714678,24.060012],[120.713941,24.060654],[120.713888,24.062286],[120.71374,24.062622],[120.713379,24.062753],[120.712262,24.062626],[120.71182,24.062874],[120.711623,24.063077],[120.711561,24.06348],[120.711916,24.063978],[120.711215,24.064696],[120.710885,24.064276],[120.710247,24.063952],[120.709756,24.064278],[120.709656,24.064863],[120.709386,24.064885],[120.709188,24.064715],[120.708751,24.063649],[120.708337,24.063188],[120.707456,24.062759],[120.707197,24.06279],[120.707004,24.063914],[120.706727,24.064137],[120.705932,24.063978],[120.705484,24.063643],[120.704049,24.063434],[120.702994,24.063827],[120.701535,24.063709]]]},"properties":{"code":"66000260007","name":"萊園里","countyCode":"66000","countyName":"臺中市","townCode":"66000260","townName":"霧峰區","level":"village","unassigned":false,"note":"","label":[120.71043308359556,24.05415836486784],"bounds":[120.699389,24.044482,120.722024,24.064885],"focusBounds":[120.699389,24.044482,120.722024,24.064885],"color":"#98b69b"}},{"type":"Feature","id":"66000260008","geometry":{"type":"Polygon","coordinates":[[[120.698709,24.064469],[120.697821,24.064664],[120.695941,24.06578],[120.694598,24.066043],[120.694768,24.064951],[120.694676,24.063944],[120.694249,24.063359],[120.694054,24.062496],[120.693192,24.061701],[120.692585,24.060755],[120.692243,24.060095],[120.692703,24.059105],[120.693441,24.058342],[120.693697,24.05776],[120.693673,24.057101],[120.693168,24.055665],[120.693361,24.054546],[120.695135,24.053431],[120.695817,24.053684],[120.696355,24.053497],[120.696592,24.05246],[120.697499,24.052324],[120.697722,24.052435],[120.698003,24.053382],[120.699184,24.052977],[120.700467,24.05164],[120.700817,24.050996],[120.70138,24.050865],[120.701138,24.051989],[120.700665,24.052403],[120.700779,24.053627],[120.700258,24.054817],[120.699841,24.057038],[120.699389,24.057915],[120.699984,24.058571],[120.699943,24.059431],[120.700502,24.059888],[120.701966,24.060615],[120.70216,24.060957],[120.701533,24.061978],[120.701535,24.063709],[120.700021,24.063663],[120.699728,24.063347],[120.69888,24.063424],[120.698724,24.063629],[120.698709,24.064469]]]},"properties":{"code":"66000260008","name":"本堂里","countyCode":"66000","countyName":"臺中市","townCode":"66000260","townName":"霧峰區","level":"village","unassigned":false,"note":"","label":[120.696593331736,24.059827571222648],"bounds":[120.692243,24.050865,120.70216,24.066043],"focusBounds":[120.692243,24.050865,120.70216,24.066043],"color":"#58b99d"}},{"type":"Feature","id":"66000260009","geometry":{"type":"Polygon","coordinates":[[[120.701138,24.051989],[120.70138,24.050865],[120.700817,24.050996],[120.700467,24.05164],[120.699184,24.052977],[120.698003,24.053382],[120.697722,24.052435],[120.697499,24.052324],[120.696592,24.05246],[120.696355,24.053497],[120.695817,24.053684],[120.695135,24.053431],[120.693361,24.054546],[120.693764,24.050827],[120.693466,24.050529],[120.690867,24.049204],[120.690363,24.048686],[120.690038,24.048027],[120.690033,24.047369],[120.691063,24.044856],[120.692011,24.04376],[120.6946,24.042492],[120.695612,24.042483],[120.6964,24.042207],[120.6969,24.041727],[120.698437,24.041464],[120.700254,24.042014],[120.702046,24.041506],[120.703203,24.041899],[120.704813,24.042195],[120.706265,24.042134],[120.707702,24.041798],[120.707982,24.041664],[120.708062,24.041456],[120.708279,24.039733],[120.708679,24.039098],[120.709053,24.038781],[120.710623,24.038662],[120.711064,24.038211],[120.711171,24.037795],[120.711491,24.037441],[120.712424,24.037064],[120.713128,24.037396],[120.713433,24.037959],[120.712817,24.039827],[120.712722,24.040561],[120.712868,24.040781],[120.713479,24.041039],[120.714025,24.041003],[120.714531,24.04087],[120.715064,24.040492],[120.715547,24.040605],[120.7163,24.041484],[120.71771,24.041487],[120.71839,24.041158],[120.719834,24.039315],[120.720303,24.039026],[120.721113,24.037301],[120.723642,24.036837],[120.72589,24.035884],[120.726044,24.035624],[120.726123,24.034557],[120.726483,24.033853],[120.727406,24.033277],[120.728111,24.033138],[120.729776,24.033238],[120.731323,24.032703],[120.732029,24.032973],[120.733058,24.033773],[120.733733,24.034665],[120.734226,24.035863],[120.735032,24.036774],[120.735628,24.037165],[120.737487,24.036862],[120.738852,24.036224],[120.73963,24.036251],[120.740448,24.036663],[120.740982,24.037406],[120.741233,24.038056],[120.742526,24.038466],[120.743132,24.03844],[120.745862,24.037498],[120.747902,24.037965],[120.748921,24.038468],[120.749224,24.038478],[120.749555,24.038363],[120.750257,24.037412],[120.75052,24.037301],[120.751914,24.037183],[120.752156,24.03735],[120.753007,24.037382],[120.753596,24.037254],[120.755653,24.036251],[120.756755,24.035347],[120.75942,24.034282],[120.761995,24.033593],[120.762943,24.033488],[120.765734,24.033732],[120.766266,24.033644],[120.767587,24.032719],[120.770451,24.031624],[120.771527,24.031027],[120.772513,24.030794],[120.774101,24.030947],[120.776572,24.030881],[120.778462,24.030507],[120.779576,24.03045],[120.78345,24.029609],[120.78514,24.029399],[120.786522,24.029463],[120.787045,24.029693],[120.787554,24.030342],[120.788889,24.030642],[120.78947,24.031228],[120.789956,24.031166],[120.790486,24.030687],[120.791255,24.030598],[120.791601,24.030742],[120.791817,24.031214],[120.791741,24.031783],[120.792922,24.032482],[120.792323,24.032805],[120.791524,24.033538],[120.791694,24.035262],[120.791178,24.034906],[120.78985,24.035913],[120.789061,24.036127],[120.784778,24.038286],[120.783887,24.038305],[120.781149,24.037903],[120.780142,24.038354],[120.777954,24.038145],[120.777437,24.03835],[120.776898,24.038866],[120.776428,24.039075],[120.774689,24.039447],[120.771156,24.041577],[120.770077,24.041941],[120.769029,24.042978],[120.768542,24.043165],[120.766879,24.042677],[120.766154,24.042768],[120.764754,24.042667],[120.76364,24.042417],[120.763056,24.042053],[120.761328,24.04193],[120.760155,24.041549],[120.759231,24.041625],[120.757788,24.042444],[120.755693,24.04284],[120.75521,24.043252],[120.754313,24.043513],[120.753184,24.043486],[120.752682,24.043323],[120.751082,24.042359],[120.750439,24.042757],[120.747718,24.043852],[120.746092,24.04484],[120.743234,24.046271],[120.743002,24.046544],[120.742647,24.047568],[120.741871,24.048027],[120.740571,24.048127],[120.739455,24.04891],[120.73881,24.049164],[120.737511,24.048857],[120.736681,24.048831],[120.735933,24.048981],[120.735294,24.049303],[120.734844,24.04969],[120.7345,24.050308],[120.733924,24.052528],[120.733366,24.052951],[120.73266,24.052995],[120.732079,24.053121],[120.7301,24.053088],[120.729196,24.052901],[120.728674,24.053049],[120.726405,24.052842],[120.725782,24.052638],[120.725301,24.052251],[120.724881,24.051512],[120.724299,24.050958],[120.723055,24.050588],[120.72213,24.0509],[120.721749,24.050881],[120.721084,24.050476],[120.721005,24.047473],[120.721117,24.046555],[120.721376,24.046049],[120.721057,24.045744],[120.719941,24.045595],[120.718456,24.046078],[120.716886,24.045748],[120.714204,24.046409],[120.713099,24.047093],[120.711352,24.046864],[120.709193,24.046848],[120.708717,24.045622],[120.708253,24.044887],[120.707554,24.044482],[120.707284,24.044492],[120.705185,24.045333],[120.704611,24.045898],[120.704352,24.046889],[120.704106,24.047078],[120.703394,24.047076],[120.700991,24.046442],[120.70034,24.0467],[120.7004,24.047386],[120.700779,24.048006],[120.701475,24.049883],[120.702344,24.050641],[120.702637,24.051418],[120.702549,24.052251],[120.701138,24.051989]]]},"properties":{"code":"66000260009","name":"坑口里","countyCode":"66000","countyName":"臺中市","townCode":"66000260","townName":"霧峰區","level":"village","unassigned":false,"note":"","label":[120.7304916910468,24.043042560285237],"bounds":[120.690033,24.029399,120.792922,24.054546],"focusBounds":[120.690033,24.029399,120.792922,24.054546],"color":"#efb44f"}},{"type":"Feature","id":"66000260010","geometry":{"type":"Polygon","coordinates":[[[120.691171,24.072295],[120.689043,24.071322],[120.687068,24.070715],[120.685189,24.070298],[120.683285,24.070322],[120.68181,24.070822],[120.681048,24.07131],[120.679835,24.072404],[120.678946,24.073587],[120.677322,24.072798],[120.676655,24.072126],[120.676489,24.071647],[120.676448,24.071186],[120.677319,24.068516],[120.677271,24.06796],[120.676864,24.067194],[120.676817,24.066241],[120.676262,24.065579],[120.677298,24.063644],[120.677449,24.062317],[120.677257,24.060405],[120.679816,24.060491],[120.68007,24.060625],[120.680117,24.061627],[120.680244,24.061811],[120.680799,24.061929],[120.680854,24.062372],[120.68014,24.063571],[120.680197,24.063779],[120.680745,24.063936],[120.689359,24.062245],[120.689564,24.062117],[120.689538,24.061164],[120.689738,24.060916],[120.692585,24.060755],[120.693192,24.061701],[120.694054,24.062496],[120.694249,24.063359],[120.694676,24.063944],[120.694768,24.064951],[120.694598,24.066043],[120.694505,24.067783],[120.693886,24.069636],[120.693509,24.070235],[120.692388,24.071572],[120.691171,24.072295]]]},"properties":{"code":"66000260010","name":"北柳里","countyCode":"66000","countyName":"臺中市","townCode":"66000260","townName":"霧峰區","level":"village","unassigned":false,"note":"","label":[120.68547518520808,24.066684592762506],"bounds":[120.676262,24.060405,120.694768,24.073587],"focusBounds":[120.676262,24.060405,120.694768,24.073587],"color":"#78a7e3"}},{"type":"Feature","id":"66000260011","geometry":{"type":"Polygon","coordinates":[[[120.692585,24.060755],[120.689738,24.060916],[120.689538,24.061164],[120.689564,24.062117],[120.689359,24.062245],[120.680745,24.063936],[120.680197,24.063779],[120.68014,24.063571],[120.680854,24.062372],[120.680799,24.061929],[120.680244,24.061811],[120.680117,24.061627],[120.68007,24.060625],[120.679816,24.060491],[120.677257,24.060405],[120.676855,24.058539],[120.676315,24.057563],[120.675737,24.056925],[120.675207,24.055881],[120.675274,24.05534],[120.675864,24.054684],[120.676257,24.054473],[120.677337,24.054339],[120.678882,24.053674],[120.679163,24.052294],[120.679737,24.051936],[120.680197,24.051111],[120.680399,24.049287],[120.680579,24.049078],[120.683423,24.048756],[120.684026,24.048394],[120.684133,24.048071],[120.683967,24.047012],[120.684715,24.045583],[120.686074,24.044172],[120.687421,24.04322],[120.687899,24.043251],[120.688474,24.04357],[120.69101,24.043293],[120.691164,24.043176],[120.69123,24.042293],[120.691665,24.042272],[120.691807,24.042431],[120.692011,24.04376],[120.691063,24.044856],[120.690033,24.047369],[120.690038,24.048027],[120.690363,24.048686],[120.690867,24.049204],[120.693466,24.050529],[120.693764,24.050827],[120.693361,24.054546],[120.693168,24.055665],[120.693673,24.057101],[120.693697,24.05776],[120.693441,24.058342],[120.692703,24.059105],[120.692243,24.060095],[120.692585,24.060755]]]},"properties":{"code":"66000260011","name":"南柳里","countyCode":"66000","countyName":"臺中市","townCode":"66000260","townName":"霧峰區","level":"village","unassigned":false,"note":"","label":[120.68580164813851,24.05496436741167],"bounds":[120.675207,24.042272,120.693764,24.063936],"focusBounds":[120.675207,24.042272,120.693764,24.063936],"color":"#dd8590"}},{"type":"Feature","id":"66000260012","geometry":{"type":"Polygon","coordinates":[[[120.67233,24.080806],[120.671875,24.081132],[120.666815,24.080915],[120.665591,24.081283],[120.664286,24.082055],[120.664607,24.081513],[120.665488,24.080605],[120.666219,24.079896],[120.667398,24.079133],[120.668089,24.078299],[120.669261,24.076659],[120.669607,24.075632],[120.670003,24.075125],[120.669762,24.073838],[120.669377,24.073298],[120.66994,24.072768],[120.67039,24.07202],[120.670857,24.07166],[120.671449,24.070106],[120.671559,24.068747],[120.671972,24.068491],[120.672431,24.06783],[120.671875,24.065429],[120.670955,24.065177],[120.664655,24.065556],[120.66231,24.065429],[120.660907,24.065205],[120.657781,24.065297],[120.656457,24.064858],[120.655833,24.064432],[120.656514,24.063764],[120.65695,24.064009],[120.65848,24.063273],[120.658934,24.063548],[120.659814,24.062808],[120.660208,24.061077],[120.659398,24.060912],[120.659431,24.060628],[120.660332,24.06037],[120.662073,24.059106],[120.662598,24.05782],[120.662504,24.057655],[120.662249,24.057771],[120.661855,24.057644],[120.661823,24.057343],[120.66078,24.056904],[120.660403,24.056412],[120.660923,24.055184],[120.660996,24.053877],[120.660845,24.053525],[120.66262,24.05335],[120.663451,24.053415],[120.663929,24.053974],[120.665062,24.05446],[120.665033,24.055825],[120.665298,24.055932],[120.665106,24.056284],[120.665842,24.056423],[120.666172,24.056683],[120.666212,24.057343],[120.666326,24.057591],[120.666616,24.057716],[120.669079,24.057306],[120.669565,24.057474],[120.669996,24.058168],[120.670062,24.058674],[120.669465,24.059975],[120.669463,24.060614],[120.669687,24.061016],[120.670447,24.06135],[120.671636,24.061284],[120.67211,24.061037],[120.672992,24.060407],[120.67409,24.059007],[120.674451,24.058794],[120.675391,24.058487],[120.676855,24.058539],[120.677257,24.060405],[120.677449,24.062317],[120.677298,24.063644],[120.676262,24.065579],[120.676817,24.066241],[120.676864,24.067194],[120.677271,24.06796],[120.677319,24.068516],[120.676448,24.071186],[120.676489,24.071647],[120.676655,24.072126],[120.677322,24.072798],[120.678946,24.073587],[120.676538,24.077789],[120.675613,24.07844],[120.674238,24.07884],[120.67233,24.080806]]]},"properties":{"code":"66000260012","name":"四德里","countyCode":"66000","countyName":"臺中市","townCode":"66000260","townName":"霧峰區","level":"village","unassigned":false,"note":"","label":[120.67377266704415,24.074618528480293],"bounds":[120.655833,24.05335,120.678946,24.082055],"focusBounds":[120.655833,24.05335,120.678946,24.082055],"color":"#a49ad4"}},{"type":"Feature","id":"66000260013","geometry":{"type":"Polygon","coordinates":[[[120.648459,24.092227],[120.648212,24.092315],[120.64786,24.091258],[120.64782,24.090417],[120.648184,24.089878],[120.647784,24.088975],[120.647957,24.088682],[120.648221,24.086887],[120.649404,24.086387],[120.649707,24.0851],[120.6511,24.083777],[120.652123,24.082194],[120.651794,24.081836],[120.652128,24.08143],[120.652604,24.081267],[120.651387,24.080444],[120.650503,24.078986],[120.65039,24.076916],[120.650843,24.075853],[120.650731,24.074574],[120.65045,24.073644],[120.650527,24.073176],[120.651013,24.072424],[120.652181,24.071292],[120.652692,24.070063],[120.653122,24.068694],[120.65296,24.066751],[120.65317,24.066318],[120.653581,24.065746],[120.654521,24.065537],[120.65536,24.06506],[120.655833,24.064432],[120.656457,24.064858],[120.657781,24.065297],[120.660907,24.065205],[120.66231,24.065429],[120.664655,24.065556],[120.670955,24.065177],[120.671875,24.065429],[120.672431,24.06783],[120.671972,24.068491],[120.671559,24.068747],[120.671449,24.070106],[120.670857,24.07166],[120.67039,24.07202],[120.66994,24.072768],[120.669377,24.073298],[120.669762,24.073838],[120.670003,24.075125],[120.669607,24.075632],[120.669261,24.076659],[120.668089,24.078299],[120.667398,24.079133],[120.666219,24.079896],[120.665488,24.080605],[120.664607,24.081513],[120.664286,24.082055],[120.663671,24.082298],[120.663348,24.082284],[120.661476,24.081431],[120.66093,24.08148],[120.659809,24.081994],[120.658123,24.083132],[120.655824,24.08507],[120.655938,24.086053],[120.656369,24.086277],[120.657234,24.086179],[120.657917,24.08703],[120.655145,24.088025],[120.653273,24.088192],[120.653049,24.088286],[120.652535,24.089036],[120.650959,24.090671],[120.649068,24.091629],[120.648459,24.092227]]]},"properties":{"code":"66000260013","name":"五福里","countyCode":"66000","countyName":"臺中市","townCode":"66000260","townName":"霧峰區","level":"village","unassigned":false,"note":"","label":[120.66029275299613,24.073497422495414],"bounds":[120.647784,24.064432,120.672431,24.092315],"focusBounds":[120.647784,24.064432,120.672431,24.092315],"color":"#68bec9"}},{"type":"Feature","id":"66000260014","geometry":{"type":"Polygon","coordinates":[[[120.697969,24.035449],[120.697213,24.035829],[120.695647,24.036183],[120.693591,24.036287],[120.693314,24.036203],[120.6932,24.035936],[120.693431,24.034993],[120.693454,24.033923],[120.69364,24.033499],[120.694573,24.032566],[120.694709,24.031605],[120.695236,24.030726],[120.696402,24.030143],[120.696538,24.029076],[120.696083,24.027416],[120.696162,24.027023],[120.696405,24.025866],[120.695929,24.024497],[120.696095,24.023915],[120.695491,24.022909],[120.695289,24.022279],[120.695382,24.02136],[120.696675,24.019778],[120.697579,24.018028],[120.69737,24.017172],[120.697473,24.016674],[120.6982,24.014921],[120.698373,24.013445],[120.698761,24.012848],[120.699818,24.011954],[120.701616,24.011558],[120.702479,24.010844],[120.70311,24.010563],[120.702994,24.010007],[120.704501,24.010191],[120.70465,24.009884],[120.704395,24.007877],[120.703642,24.005648],[120.706383,24.005191],[120.708497,24.005906],[120.719242,24.009659],[120.72292,24.009621],[120.731731,24.009003],[120.733128,24.008392],[120.74365,24.002169],[120.745929,23.99856],[120.747603,23.999148],[120.748234,23.999912],[120.748742,24.00101],[120.749559,24.001468],[120.7501,24.002163],[120.751035,24.002826],[120.751849,24.002833],[120.752761,24.002594],[120.753141,24.002339],[120.754208,24.002638],[120.754501,24.003398],[120.755896,24.003531],[120.756213,24.00396],[120.75618,24.004516],[120.757531,24.004872],[120.757906,24.006065],[120.758661,24.005981],[120.759817,24.006473],[120.760731,24.006176],[120.762675,24.006257],[120.764486,24.007095],[120.765606,24.007976],[120.766704,24.008326],[120.767362,24.00897],[120.767777,24.009151],[120.770562,24.009074],[120.770943,24.009506],[120.770979,24.009768],[120.770448,24.01039],[120.770413,24.010725],[120.771146,24.011497],[120.770914,24.012197],[120.771383,24.012714],[120.771112,24.013473],[120.771255,24.014201],[120.771438,24.014417],[120.772353,24.014747],[120.772457,24.015066],[120.773388,24.015811],[120.774779,24.017722],[120.775202,24.018552],[120.776501,24.019381],[120.777745,24.019398],[120.779527,24.02011],[120.779761,24.020264],[120.77981,24.021193],[120.781371,24.022188],[120.781866,24.02273],[120.780675,24.023645],[120.778776,24.024652],[120.776385,24.024705],[120.775274,24.0254],[120.768935,24.026763],[120.767791,24.0272],[120.767001,24.027198],[120.765861,24.026786],[120.765246,24.026936],[120.763252,24.026773],[120.762907,24.026975],[120.7623,24.027907],[120.761587,24.028344],[120.759656,24.027968],[120.757974,24.027157],[120.756963,24.027034],[120.755733,24.026964],[120.75479,24.027412],[120.75371,24.027642],[120.753302,24.027522],[120.752573,24.026909],[120.751203,24.027083],[120.749793,24.028503],[120.748999,24.029854],[120.748449,24.030241],[120.74813,24.030074],[120.747678,24.028881],[120.746847,24.027356],[120.746666,24.027272],[120.74582,24.027686],[120.743918,24.02734],[120.742813,24.028112],[120.742372,24.028233],[120.73977,24.027242],[120.738075,24.026149],[120.736413,24.024442],[120.735659,24.024506],[120.733544,24.024193],[120.731661,24.024643],[120.731338,24.024855],[120.729981,24.026821],[120.728952,24.027862],[120.727558,24.027954],[120.726267,24.027823],[120.724749,24.028053],[120.723696,24.028539],[120.721653,24.027806],[120.721035,24.027832],[120.718915,24.028659],[120.717483,24.028794],[120.716662,24.029047],[120.714897,24.029039],[120.711988,24.028736],[120.70956,24.028797],[120.709361,24.028862],[120.709256,24.029275],[120.709951,24.031504],[120.710046,24.03196],[120.709918,24.032104],[120.709521,24.032203],[120.708586,24.031935],[120.707571,24.032764],[120.706037,24.032508],[120.704335,24.032536],[120.704104,24.032734],[120.703225,24.032875],[120.70341,24.03483],[120.703235,24.035347],[120.702881,24.035472],[120.69977,24.035439],[120.699156,24.035553],[120.697969,24.035449]]]},"properties":{"code":"66000260014","name":"萬豐里","countyCode":"66000","countyName":"臺中市","townCode":"66000260","townName":"霧峰區","level":"village","unassigned":false,"note":"","label":[120.74960225746094,24.015175462044347],"bounds":[120.6932,23.99856,120.781866,24.036287],"focusBounds":[120.6932,23.99856,120.781866,24.036287],"color":"#68bec9"}},{"type":"Feature","id":"66000260015","geometry":{"type":"Polygon","coordinates":[[[120.696162,24.027023],[120.69533,24.026949],[120.694759,24.027282],[120.694404,24.027318],[120.689842,24.027444],[120.688872,24.028584],[120.686029,24.029274],[120.685797,24.029257],[120.685368,24.028171],[120.683768,24.029617],[120.683473,24.029616],[120.681954,24.028753],[120.68167,24.028782],[120.68138,24.029002],[120.680823,24.029915],[120.679776,24.030173],[120.679455,24.029269],[120.679499,24.028558],[120.680087,24.027072],[120.681055,24.02548],[120.681312,24.022853],[120.681817,24.021263],[120.681825,24.020737],[120.681636,24.020389],[120.681339,24.020257],[120.680208,24.020293],[120.679888,24.020159],[120.679348,24.019535],[120.678466,24.018012],[120.676409,24.015499],[120.678646,24.014031],[120.678833,24.014194],[120.685996,24.010472],[120.691084,24.008455],[120.694883,24.007118],[120.69753,24.006781],[120.703642,24.005648],[120.704395,24.007877],[120.70465,24.009884],[120.704501,24.010191],[120.702994,24.010007],[120.70311,24.010563],[120.702479,24.010844],[120.701616,24.011558],[120.699818,24.011954],[120.698761,24.012848],[120.698373,24.013445],[120.6982,24.014921],[120.697473,24.016674],[120.69737,24.017172],[120.697579,24.018028],[120.696675,24.019778],[120.695382,24.02136],[120.695289,24.022279],[120.695491,24.022909],[120.696095,24.023915],[120.695929,24.024497],[120.696405,24.025866],[120.696162,24.027023]]]},"properties":{"code":"66000260015","name":"舊正里","countyCode":"66000","countyName":"臺中市","townCode":"66000260","townName":"霧峰區","level":"village","unassigned":false,"note":"","label":[120.68892107356143,24.017636145147343],"bounds":[120.676409,24.005648,120.70465,24.030173],"focusBounds":[120.676409,24.005648,120.70465,24.030173],"color":"#df9f6a"}},{"type":"Feature","id":"66000260016","geometry":{"type":"Polygon","coordinates":[[[120.786522,24.029463],[120.78514,24.029399],[120.78345,24.029609],[120.779576,24.03045],[120.778462,24.030507],[120.776572,24.030881],[120.774101,24.030947],[120.772513,24.030794],[120.771527,24.031027],[120.770451,24.031624],[120.767587,24.032719],[120.766266,24.033644],[120.765734,24.033732],[120.762943,24.033488],[120.761995,24.033593],[120.75942,24.034282],[120.756755,24.035347],[120.755653,24.036251],[120.753596,24.037254],[120.753007,24.037382],[120.752156,24.03735],[120.751914,24.037183],[120.75052,24.037301],[120.750257,24.037412],[120.749555,24.038363],[120.749224,24.038478],[120.748921,24.038468],[120.747902,24.037965],[120.745862,24.037498],[120.743132,24.03844],[120.742526,24.038466],[120.741233,24.038056],[120.740982,24.037406],[120.740448,24.036663],[120.73963,24.036251],[120.738852,24.036224],[120.737487,24.036862],[120.735628,24.037165],[120.735032,24.036774],[120.734226,24.035863],[120.733733,24.034665],[120.733058,24.033773],[120.732029,24.032973],[120.731323,24.032703],[120.729776,24.033238],[120.728111,24.033138],[120.727406,24.033277],[120.726483,24.033853],[120.726123,24.034557],[120.726044,24.035624],[120.72589,24.035884],[120.723642,24.036837],[120.721113,24.037301],[120.720303,24.039026],[120.719834,24.039315],[120.71839,24.041158],[120.71771,24.041487],[120.7163,24.041484],[120.715547,24.040605],[120.715064,24.040492],[120.714531,24.04087],[120.714025,24.041003],[120.713479,24.041039],[120.712868,24.040781],[120.712722,24.040561],[120.712817,24.039827],[120.713433,24.037959],[120.713128,24.037396],[120.712424,24.037064],[120.711491,24.037441],[120.711171,24.037795],[120.711064,24.038211],[120.710623,24.038662],[120.709053,24.038781],[120.708679,24.039098],[120.708279,24.039733],[120.708062,24.041456],[120.707982,24.041664],[120.707702,24.041798],[120.706265,24.042134],[120.704813,24.042195],[120.703203,24.041899],[120.702046,24.041506],[120.700254,24.042014],[120.698437,24.041464],[120.698565,24.040762],[120.697969,24.035449],[120.699156,24.035553],[120.69977,24.035439],[120.702881,24.035472],[120.703235,24.035347],[120.70341,24.03483],[120.703225,24.032875],[120.704104,24.032734],[120.704335,24.032536],[120.706037,24.032508],[120.707571,24.032764],[120.708586,24.031935],[120.709521,24.032203],[120.709918,24.032104],[120.710046,24.03196],[120.709951,24.031504],[120.709256,24.029275],[120.709361,24.028862],[120.70956,24.028797],[120.711988,24.028736],[120.714897,24.029039],[120.716662,24.029047],[120.717483,24.028794],[120.718915,24.028659],[120.721035,24.027832],[120.721653,24.027806],[120.723696,24.028539],[120.724749,24.028053],[120.726267,24.027823],[120.727558,24.027954],[120.728952,24.027862],[120.729981,24.026821],[120.731338,24.024855],[120.731661,24.024643],[120.733544,24.024193],[120.735659,24.024506],[120.736413,24.024442],[120.738075,24.026149],[120.73977,24.027242],[120.742372,24.028233],[120.742813,24.028112],[120.743918,24.02734],[120.74582,24.027686],[120.746666,24.027272],[120.746847,24.027356],[120.747678,24.028881],[120.74813,24.030074],[120.748449,24.030241],[120.748999,24.029854],[120.749793,24.028503],[120.751203,24.027083],[120.752573,24.026909],[120.753302,24.027522],[120.75371,24.027642],[120.75479,24.027412],[120.755733,24.026964],[120.756963,24.027034],[120.757974,24.027157],[120.759656,24.027968],[120.761587,24.028344],[120.7623,24.027907],[120.762907,24.026975],[120.763252,24.026773],[120.765246,24.026936],[120.765861,24.026786],[120.767001,24.027198],[120.767791,24.0272],[120.768935,24.026763],[120.775274,24.0254],[120.776385,24.024705],[120.778776,24.024652],[120.780675,24.023645],[120.781866,24.02273],[120.782013,24.022992],[120.782574,24.023269],[120.782923,24.023674],[120.782925,24.024557],[120.783125,24.024777],[120.784222,24.024103],[120.784646,24.024079],[120.784657,24.024919],[120.785018,24.025625],[120.784957,24.026879],[120.784713,24.027513],[120.785466,24.027636],[120.785877,24.027944],[120.785965,24.028196],[120.785483,24.02867],[120.786062,24.029248],[120.786522,24.029463]]]},"properties":{"code":"66000260016","name":"峰谷里","countyCode":"66000","countyName":"臺中市","townCode":"66000260","townName":"霧峰區","level":"village","unassigned":false,"note":"","label":[120.73778412060815,24.031286499581583],"bounds":[120.697969,24.02273,120.786522,24.042195],"focusBounds":[120.697969,24.02273,120.786522,24.042195],"color":"#c38cb8"}},{"type":"Feature","id":"66000260017","geometry":{"type":"Polygon","coordinates":[[[120.692011,24.04376],[120.691807,24.042431],[120.691665,24.042272],[120.69123,24.042293],[120.691164,24.043176],[120.69101,24.043293],[120.688474,24.04357],[120.687899,24.043251],[120.687421,24.04322],[120.686074,24.044172],[120.684715,24.045583],[120.682883,24.045202],[120.680823,24.045073],[120.679816,24.044778],[120.679592,24.044572],[120.679643,24.044229],[120.680489,24.043007],[120.680649,24.042398],[120.680404,24.041325],[120.680618,24.040412],[120.680363,24.039899],[120.680574,24.038721],[120.680744,24.038468],[120.681065,24.038358],[120.681221,24.037024],[120.68094,24.036742],[120.679858,24.036195],[120.679466,24.035684],[120.679445,24.034806],[120.679597,24.034208],[120.67952,24.033238],[120.679127,24.032645],[120.678984,24.031878],[120.678535,24.031854],[120.677776,24.032074],[120.67827,24.031212],[120.679147,24.030444],[120.679776,24.030173],[120.680823,24.029915],[120.68138,24.029002],[120.68167,24.028782],[120.681954,24.028753],[120.683473,24.029616],[120.683768,24.029617],[120.685368,24.028171],[120.685797,24.029257],[120.686029,24.029274],[120.688872,24.028584],[120.689842,24.027444],[120.694404,24.027318],[120.694759,24.027282],[120.69533,24.026949],[120.696162,24.027023],[120.696083,24.027416],[120.696538,24.029076],[120.696402,24.030143],[120.695236,24.030726],[120.694709,24.031605],[120.694573,24.032566],[120.69364,24.033499],[120.693454,24.033923],[120.693431,24.034993],[120.6932,24.035936],[120.693314,24.036203],[120.693591,24.036287],[120.695647,24.036183],[120.697213,24.035829],[120.697969,24.035449],[120.698565,24.040762],[120.698437,24.041464],[120.6969,24.041727],[120.6964,24.042207],[120.695612,24.042483],[120.6946,24.042492],[120.692011,24.04376]]]},"properties":{"code":"66000260017","name":"六股里","countyCode":"66000","countyName":"臺中市","townCode":"66000260","townName":"霧峰區","level":"village","unassigned":false,"note":"","label":[120.68712815593305,24.036217298331792],"bounds":[120.677776,24.026949,120.698565,24.045583],"focusBounds":[120.677776,24.026949,120.698565,24.045583],"color":"#98b69b"}},{"type":"Feature","id":"66000260018","geometry":{"type":"Polygon","coordinates":[[[120.676855,24.058539],[120.675391,24.058487],[120.674451,24.058794],[120.67409,24.059007],[120.672992,24.060407],[120.67211,24.061037],[120.671636,24.061284],[120.670447,24.06135],[120.669687,24.061016],[120.669463,24.060614],[120.669465,24.059975],[120.670062,24.058674],[120.669996,24.058168],[120.669565,24.057474],[120.669079,24.057306],[120.666616,24.057716],[120.666326,24.057591],[120.666212,24.057343],[120.666172,24.056683],[120.665842,24.056423],[120.665106,24.056284],[120.665298,24.055932],[120.666099,24.054453],[120.66824,24.05257],[120.669775,24.048768],[120.670657,24.044874],[120.670151,24.044721],[120.670076,24.044577],[120.66984,24.043287],[120.669888,24.042529],[120.670685,24.039652],[120.672785,24.03784],[120.674365,24.036834],[120.674828,24.035605],[120.675769,24.033993],[120.677017,24.032293],[120.677776,24.032074],[120.678535,24.031854],[120.678984,24.031878],[120.679127,24.032645],[120.67952,24.033238],[120.679597,24.034208],[120.679445,24.034806],[120.679466,24.035684],[120.679858,24.036195],[120.68094,24.036742],[120.681221,24.037024],[120.681065,24.038358],[120.680744,24.038468],[120.680574,24.038721],[120.680363,24.039899],[120.680618,24.040412],[120.680404,24.041325],[120.680649,24.042398],[120.680489,24.043007],[120.679643,24.044229],[120.679592,24.044572],[120.679816,24.044778],[120.680823,24.045073],[120.682883,24.045202],[120.684715,24.045583],[120.683967,24.047012],[120.684133,24.048071],[120.684026,24.048394],[120.683423,24.048756],[120.680579,24.049078],[120.680399,24.049287],[120.680197,24.051111],[120.679737,24.051936],[120.679163,24.052294],[120.678882,24.053674],[120.677337,24.054339],[120.676257,24.054473],[120.675864,24.054684],[120.675274,24.05534],[120.675207,24.055881],[120.675737,24.056925],[120.676315,24.057563],[120.676855,24.058539]]]},"properties":{"code":"66000260018","name":"丁台里","countyCode":"66000","countyName":"臺中市","townCode":"66000260","townName":"霧峰區","level":"village","unassigned":false,"note":"","label":[120.6750333589911,24.0487107300777],"bounds":[120.665106,24.031854,120.684715,24.06135],"focusBounds":[120.665106,24.031854,120.684715,24.06135],"color":"#58b99d"}},{"type":"Feature","id":"66000260019","geometry":{"type":"Polygon","coordinates":[[[120.677017,24.032293],[120.675769,24.033993],[120.674828,24.035605],[120.674365,24.036834],[120.672785,24.03784],[120.670685,24.039652],[120.669888,24.042529],[120.66984,24.043287],[120.670076,24.044577],[120.670151,24.044721],[120.670657,24.044874],[120.669775,24.048768],[120.66824,24.05257],[120.666099,24.054453],[120.665298,24.055932],[120.665033,24.055825],[120.665062,24.05446],[120.663929,24.053974],[120.663451,24.053415],[120.66262,24.05335],[120.660845,24.053525],[120.660001,24.052613],[120.659973,24.051035],[120.660835,24.049249],[120.660677,24.048312],[120.66081,24.047965],[120.660772,24.046904],[120.661835,24.045921],[120.662086,24.045461],[120.661666,24.045439],[120.661113,24.045649],[120.659644,24.046743],[120.659096,24.046586],[120.65836,24.045917],[120.658721,24.044399],[120.658308,24.043482],[120.65873,24.041916],[120.658532,24.041753],[120.657685,24.041724],[120.658709,24.039567],[120.657372,24.039431],[120.655027,24.040575],[120.654411,24.040467],[120.652989,24.039775],[120.65139,24.041758],[120.650484,24.040991],[120.649614,24.039833],[120.649762,24.038494],[120.650666,24.036477],[120.652698,24.033802],[120.653139,24.034144],[120.65398,24.034374],[120.655673,24.034032],[120.656008,24.034724],[120.656818,24.035306],[120.657293,24.035216],[120.658036,24.034654],[120.658254,24.034654],[120.66094,24.035554],[120.664073,24.036985],[120.665721,24.037224],[120.668811,24.036332],[120.673008,24.034276],[120.675456,24.032755],[120.677017,24.032293]]]},"properties":{"code":"66000260019","name":"北勢里","countyCode":"66000","countyName":"臺中市","townCode":"66000260","townName":"霧峰區","level":"village","unassigned":false,"note":"","label":[120.66545823588875,24.04267388363691],"bounds":[120.649614,24.032293,120.677017,24.055932],"focusBounds":[120.649614,24.032293,120.677017,24.055932],"color":"#efb44f"}},{"type":"Feature","id":"66000260020","geometry":{"type":"Polygon","coordinates":[[[120.677017,24.032293],[120.675456,24.032755],[120.673008,24.034276],[120.668811,24.036332],[120.665721,24.037224],[120.664073,24.036985],[120.66094,24.035554],[120.658254,24.034654],[120.658036,24.034654],[120.657293,24.035216],[120.656818,24.035306],[120.656008,24.034724],[120.655673,24.034032],[120.65398,24.034374],[120.653139,24.034144],[120.652698,24.033802],[120.655717,24.030684],[120.658144,24.02824],[120.659382,24.027365],[120.660914,24.025891],[120.663493,24.024966],[120.664562,24.023928],[120.664782,24.023287],[120.676409,24.015499],[120.678466,24.018012],[120.679348,24.019535],[120.679888,24.020159],[120.680208,24.020293],[120.681339,24.020257],[120.681636,24.020389],[120.681825,24.020737],[120.681817,24.021263],[120.681312,24.022853],[120.681055,24.02548],[120.680087,24.027072],[120.679499,24.028558],[120.679455,24.029269],[120.679776,24.030173],[120.679147,24.030444],[120.67827,24.031212],[120.677776,24.032074],[120.677017,24.032293]]]},"properties":{"code":"66000260020","name":"南勢里","countyCode":"66000","countyName":"臺中市","townCode":"66000260","townName":"霧峰區","level":"village","unassigned":false,"note":"","label":[120.6703970657041,24.027540252742746],"bounds":[120.652698,24.015499,120.681825,24.037224],"focusBounds":[120.652698,24.015499,120.681825,24.037224],"color":"#78a7e3"}}]}
