{"type":"FeatureCollection","features":[{"type":"Feature","id":"66000100001","geometry":{"type":"Polygon","coordinates":[[[120.827188,24.259984],[120.82364,24.261599],[120.823039,24.261659],[120.819454,24.260894],[120.820397,24.258559],[120.820743,24.257144],[120.822349,24.257674],[120.827226,24.257833],[120.829458,24.258468],[120.829373,24.258721],[120.828036,24.260195],[120.827188,24.259984]]]},"properties":{"code":"66000100001","name":"北興里","countyCode":"66000","countyName":"臺中市","townCode":"66000100","townName":"東勢區","level":"village","unassigned":false,"note":"","label":[120.82333584506809,24.259667786764275],"bounds":[120.819454,24.257144,120.829458,24.261659],"focusBounds":[120.819454,24.257144,120.829458,24.261659],"color":"#df9f6a"}},{"type":"Feature","id":"66000100002","geometry":{"type":"Polygon","coordinates":[[[120.829458,24.258468],[120.827226,24.257833],[120.822349,24.257674],[120.820743,24.257144],[120.821464,24.254894],[120.82552,24.256764],[120.826631,24.256808],[120.826754,24.25709],[120.82717,24.25723],[120.827544,24.256937],[120.828017,24.25694],[120.829734,24.257565],[120.829458,24.258468]]]},"properties":{"code":"66000100002","name":"中寧里","countyCode":"66000","countyName":"臺中市","townCode":"66000100","townName":"東勢區","level":"village","unassigned":false,"note":"","label":[120.82252804752046,24.25653226104891],"bounds":[120.820743,24.254894,120.829734,24.258468],"focusBounds":[120.820743,24.254894,120.829734,24.258468],"color":"#c38cb8"}},{"type":"Feature","id":"66000100003","geometry":{"type":"Polygon","coordinates":[[[120.829734,24.257565],[120.828017,24.25694],[120.827544,24.256937],[120.82717,24.25723],[120.826754,24.25709],[120.826631,24.256808],[120.82552,24.256764],[120.821464,24.254894],[120.821847,24.253811],[120.823086,24.254499],[120.825121,24.255251],[120.826448,24.254997],[120.828823,24.255666],[120.830281,24.255839],[120.829734,24.257565]]]},"properties":{"code":"66000100003","name":"東安里","countyCode":"66000","countyName":"臺中市","townCode":"66000100","townName":"東勢區","level":"village","unassigned":false,"note":"","label":[120.82622078924344,24.255916030482894],"bounds":[120.821464,24.253811,120.830281,24.257565],"focusBounds":[120.821464,24.253811,120.830281,24.257565],"color":"#98b69b"}},{"type":"Feature","id":"66000100004","geometry":{"type":"Polygon","coordinates":[[[120.830281,24.255839],[120.828823,24.255666],[120.826448,24.254997],[120.825121,24.255251],[120.823086,24.254499],[120.821847,24.253811],[120.822106,24.252654],[120.823413,24.252549],[120.824907,24.25237],[120.827156,24.25235],[120.828187,24.252521],[120.828347,24.252413],[120.828854,24.253303],[120.830875,24.253744],[120.830281,24.255839]]]},"properties":{"code":"66000100004","name":"南平里","countyCode":"66000","countyName":"臺中市","townCode":"66000100","townName":"東勢區","level":"village","unassigned":false,"note":"","label":[120.82648117784791,24.253681319527583],"bounds":[120.821847,24.25235,120.830875,24.255839],"focusBounds":[120.821847,24.25235,120.830875,24.255839],"color":"#efb44f"}},{"type":"Feature","id":"66000100005","geometry":{"type":"Polygon","coordinates":[[[120.830875,24.253744],[120.828854,24.253303],[120.828347,24.252413],[120.828187,24.252521],[120.827156,24.25235],[120.824907,24.25237],[120.823413,24.252549],[120.824781,24.250508],[120.825541,24.248764],[120.825932,24.248426],[120.82801,24.24936],[120.828649,24.249186],[120.82917,24.249217],[120.831309,24.247196],[120.832996,24.248561],[120.831715,24.249075],[120.831405,24.250486],[120.831525,24.251259],[120.830875,24.253744]]]},"properties":{"code":"66000100005","name":"延平里","countyCode":"66000","countyName":"臺中市","townCode":"66000100","townName":"東勢區","level":"village","unassigned":false,"note":"","label":[120.82890760152874,24.250822435493056],"bounds":[120.823413,24.247196,120.832996,24.253744],"focusBounds":[120.823413,24.247196,120.832996,24.253744],"color":"#78a7e3"}},{"type":"Feature","id":"66000100006","geometry":{"type":"Polygon","coordinates":[[[120.836715,24.256628],[120.832036,24.255785],[120.830281,24.255839],[120.830875,24.253744],[120.831525,24.251259],[120.831942,24.252426],[120.832834,24.253351],[120.835794,24.254831],[120.836632,24.255801],[120.836823,24.256313],[120.836715,24.256628]]]},"properties":{"code":"66000100006","name":"上新里","countyCode":"66000","countyName":"臺中市","townCode":"66000100","townName":"東勢區","level":"village","unassigned":false,"note":"","label":[120.83314460333503,24.254745367581812],"bounds":[120.830281,24.251259,120.836823,24.256628],"focusBounds":[120.830281,24.251259,120.836823,24.256628],"color":"#a49ad4"}},{"type":"Feature","id":"66000100007","geometry":{"type":"Polygon","coordinates":[[[120.832966,24.262879],[120.832248,24.262308],[120.830129,24.261482],[120.828036,24.260195],[120.829373,24.258721],[120.829458,24.258468],[120.829734,24.257565],[120.830281,24.255839],[120.832036,24.255785],[120.836715,24.256628],[120.836416,24.256893],[120.835206,24.257301],[120.834434,24.257787],[120.834166,24.258155],[120.834018,24.258592],[120.835186,24.259411],[120.835475,24.260512],[120.835161,24.261538],[120.834118,24.262222],[120.833684,24.262221],[120.832966,24.262879]]]},"properties":{"code":"66000100007","name":"廣興里","countyCode":"66000","countyName":"臺中市","townCode":"66000100","townName":"東勢區","level":"village","unassigned":false,"note":"","label":[120.8318312799574,24.259560169305132],"bounds":[120.828036,24.255785,120.836715,24.262879],"focusBounds":[120.828036,24.255785,120.836715,24.262879],"color":"#dd8590"}},{"type":"Feature","id":"66000100008","geometry":{"type":"Polygon","coordinates":[[[120.845107,24.265893],[120.842992,24.266426],[120.842047,24.266488],[120.840501,24.266139],[120.838387,24.265491],[120.835261,24.263993],[120.834103,24.263595],[120.832966,24.262879],[120.833684,24.262221],[120.834118,24.262222],[120.835161,24.261538],[120.835475,24.260512],[120.835186,24.259411],[120.834018,24.258592],[120.834166,24.258155],[120.834434,24.257787],[120.835206,24.257301],[120.836416,24.256893],[120.836715,24.256628],[120.836823,24.256313],[120.836632,24.255801],[120.835794,24.254831],[120.832834,24.253351],[120.831942,24.252426],[120.831525,24.251259],[120.831405,24.250486],[120.831715,24.249075],[120.832996,24.248561],[120.835862,24.248507],[120.83864,24.248695],[120.839876,24.248969],[120.841344,24.249368],[120.842256,24.24985],[120.841472,24.250377],[120.840759,24.251178],[120.840737,24.251713],[120.841537,24.253212],[120.841602,24.253668],[120.841449,24.254084],[120.839741,24.25615],[120.839691,24.25694],[120.840096,24.258319],[120.840782,24.259203],[120.843685,24.261095],[120.844105,24.26182],[120.844319,24.263962],[120.845107,24.265893]]]},"properties":{"code":"66000100008","name":"泰昌里","countyCode":"66000","countyName":"臺中市","townCode":"66000100","townName":"東勢區","level":"village","unassigned":false,"note":"","label":[120.83936346804067,24.262305311300825],"bounds":[120.831405,24.248507,120.845107,24.266488],"focusBounds":[120.831405,24.248507,120.845107,24.266488],"color":"#a8bf62"}},{"type":"Feature","id":"66000100009","geometry":{"type":"Polygon","coordinates":[[[120.853994,24.252026],[120.854985,24.252084],[120.856034,24.252493],[120.857187,24.252711],[120.859101,24.252713],[120.859914,24.252856],[120.862756,24.253753],[120.864198,24.254018],[120.865431,24.253947],[120.86787,24.253251],[120.869705,24.253422],[120.871015,24.253855],[120.872264,24.254025],[120.874728,24.25374],[120.877136,24.253817],[120.878225,24.253459],[120.87948,24.252422],[120.879998,24.252799],[120.880125,24.253341],[120.879278,24.256022],[120.879242,24.256929],[120.878911,24.257341],[120.878678,24.257557],[120.878985,24.258317],[120.880018,24.258342],[120.880915,24.258805],[120.881107,24.259067],[120.88114,24.259694],[120.880034,24.259533],[120.879937,24.260157],[120.879457,24.260254],[120.880283,24.260757],[120.880501,24.261259],[120.880386,24.261506],[120.879605,24.261932],[120.878447,24.264077],[120.878655,24.264996],[120.878424,24.266183],[120.879836,24.268205],[120.880241,24.269097],[120.880359,24.269878],[120.881129,24.27128],[120.881798,24.272041],[120.882376,24.272092],[120.883024,24.272638],[120.883786,24.272968],[120.884551,24.273972],[120.884548,24.275519],[120.884481,24.276204],[120.885222,24.277313],[120.885395,24.278225],[120.885199,24.278879],[120.8847,24.279714],[120.883877,24.279892],[120.883118,24.27983],[120.882534,24.279175],[120.879717,24.279035],[120.877247,24.279726],[120.87558,24.279987],[120.873947,24.280489],[120.873363,24.280504],[120.872968,24.280204],[120.873037,24.279529],[120.873381,24.278931],[120.874637,24.278474],[120.874792,24.277923],[120.874174,24.276444],[120.874743,24.274483],[120.874125,24.273412],[120.873524,24.273333],[120.870704,24.273599],[120.867134,24.274594],[120.864968,24.274795],[120.859881,24.274932],[120.857638,24.274217],[120.856178,24.273364],[120.854306,24.271866],[120.853842,24.271662],[120.853499,24.271567],[120.852088,24.272306],[120.851263,24.2724],[120.850318,24.272004],[120.84958,24.271453],[120.847874,24.270607],[120.846621,24.269064],[120.846415,24.268197],[120.847637,24.266954],[120.847605,24.26592],[120.845107,24.265893],[120.844319,24.263962],[120.844105,24.26182],[120.843685,24.261095],[120.840782,24.259203],[120.840096,24.258319],[120.839691,24.25694],[120.839741,24.25615],[120.841449,24.254084],[120.841602,24.253668],[120.841537,24.253212],[120.840737,24.251713],[120.840759,24.251178],[120.841472,24.250377],[120.842256,24.24985],[120.844047,24.250014],[120.846933,24.251315],[120.847917,24.251485],[120.848988,24.251466],[120.850451,24.251023],[120.851421,24.251096],[120.85205,24.251216],[120.853098,24.251793],[120.853994,24.252026]]]},"properties":{"code":"66000100009","name":"中嵙里","countyCode":"66000","countyName":"臺中市","townCode":"66000100","townName":"東勢區","level":"village","unassigned":false,"note":"","label":[120.8628534840494,24.264311158951482],"bounds":[120.839691,24.24985,120.885395,24.280504],"focusBounds":[120.839691,24.24985,120.885395,24.280504],"color":"#68bec9"}},{"type":"Feature","id":"66000100010","geometry":{"type":"Polygon","coordinates":[[[120.842256,24.24985],[120.841344,24.249368],[120.839876,24.248969],[120.841555,24.248425],[120.843089,24.248415],[120.841451,24.245912],[120.841281,24.245404],[120.84141,24.245032],[120.843328,24.244447],[120.843372,24.244077],[120.842842,24.241927],[120.842996,24.237693],[120.843488,24.236483],[120.843554,24.234881],[120.843857,24.233915],[120.84507,24.232833],[120.845991,24.232459],[120.848977,24.232015],[120.84992,24.232007],[120.850895,24.234845],[120.851129,24.237103],[120.851464,24.238494],[120.851563,24.24125],[120.851709,24.241808],[120.852073,24.242262],[120.853591,24.243414],[120.854686,24.244059],[120.856881,24.244858],[120.857216,24.245179],[120.857449,24.245822],[120.857273,24.246664],[120.85679,24.247654],[120.856424,24.247988],[120.854832,24.248375],[120.853837,24.249523],[120.853748,24.250471],[120.853994,24.252026],[120.853098,24.251793],[120.85205,24.251216],[120.851421,24.251096],[120.850451,24.251023],[120.848988,24.251466],[120.847917,24.251485],[120.846933,24.251315],[120.844047,24.250014],[120.842256,24.24985]]]},"properties":{"code":"66000100010","name":"福隆里","countyCode":"66000","countyName":"臺中市","townCode":"66000100","townName":"東勢區","level":"village","unassigned":false,"note":"","label":[120.84829022920638,24.24579178852647],"bounds":[120.839876,24.232007,120.857449,24.252026],"focusBounds":[120.839876,24.232007,120.857449,24.252026],"color":"#58b99d"}},{"type":"Feature","id":"66000100011","geometry":{"type":"Polygon","coordinates":[[[120.865078,24.201554],[120.865688,24.200721],[120.866627,24.200372],[120.870156,24.200662],[120.873193,24.201444],[120.876355,24.201785],[120.878231,24.201664],[120.880799,24.201204],[120.880739,24.201758],[120.881716,24.202407],[120.88223,24.20298],[120.882373,24.203015],[120.882769,24.20271],[120.885192,24.203083],[120.885821,24.203653],[120.886229,24.204339],[120.886436,24.204421],[120.887263,24.204425],[120.889191,24.204065],[120.892062,24.203248],[120.892328,24.203605],[120.892434,24.204674],[120.894299,24.20546],[120.894556,24.206199],[120.894837,24.20653],[120.895291,24.20659],[120.897071,24.205913],[120.897268,24.205949],[120.897387,24.206409],[120.897963,24.206965],[120.897722,24.207641],[120.897737,24.208141],[120.897291,24.208936],[120.897215,24.20936],[120.897435,24.210699],[120.896934,24.2111],[120.895665,24.21145],[120.895345,24.211834],[120.89531,24.212137],[120.895659,24.212711],[120.895548,24.213176],[120.896565,24.213908],[120.897323,24.215048],[120.897702,24.216562],[120.897767,24.217439],[120.897541,24.217761],[120.897567,24.218748],[120.89734,24.219141],[120.897143,24.220833],[120.896912,24.221394],[120.897162,24.221521],[120.897794,24.221453],[120.898471,24.221086],[120.898492,24.221587],[120.897282,24.222627],[120.895892,24.223137],[120.895116,24.223734],[120.893778,24.223756],[120.89304,24.224213],[120.892511,24.224281],[120.89012,24.223963],[120.889172,24.224281],[120.887223,24.225399],[120.887117,24.22577],[120.887212,24.22792],[120.887636,24.228556],[120.888032,24.22992],[120.885737,24.231548],[120.884269,24.232177],[120.883173,24.233997],[120.882226,24.234187],[120.88171,24.234827],[120.881046,24.235288],[120.880207,24.238153],[120.879477,24.238343],[120.879349,24.238493],[120.880115,24.239006],[120.880241,24.240609],[120.879375,24.243416],[120.87952,24.243589],[120.881202,24.244199],[120.881524,24.246517],[120.881994,24.247592],[120.880536,24.248344],[120.879908,24.248847],[120.878802,24.249115],[120.879363,24.250343],[120.879079,24.252126],[120.87948,24.252422],[120.878225,24.253459],[120.877136,24.253817],[120.874728,24.25374],[120.872264,24.254025],[120.871015,24.253855],[120.869705,24.253422],[120.86787,24.253251],[120.865431,24.253947],[120.864198,24.254018],[120.862756,24.253753],[120.859914,24.252856],[120.859101,24.252713],[120.857187,24.252711],[120.856034,24.252493],[120.854985,24.252084],[120.853994,24.252026],[120.853748,24.250471],[120.853837,24.249523],[120.854832,24.248375],[120.856424,24.247988],[120.85679,24.247654],[120.857273,24.246664],[120.857449,24.245822],[120.857216,24.245179],[120.856881,24.244858],[120.854686,24.244059],[120.853591,24.243414],[120.852073,24.242262],[120.851709,24.241808],[120.851563,24.24125],[120.851464,24.238494],[120.851129,24.237103],[120.850895,24.234845],[120.84992,24.232007],[120.848977,24.232015],[120.848801,24.22943],[120.848922,24.228353],[120.84921,24.227609],[120.85005,24.227169],[120.851727,24.226776],[120.852109,24.2267],[120.85343,24.22443],[120.857142,24.22163],[120.85788,24.220791],[120.858485,24.219746],[120.858538,24.216254],[120.860777,24.213193],[120.86313,24.211967],[120.864002,24.211314],[120.864427,24.210659],[120.864629,24.209472],[120.864609,24.207897],[120.864097,24.205487],[120.865078,24.201554]]]},"properties":{"code":"66000100011","name":"隆興里","countyCode":"66000","countyName":"臺中市","townCode":"66000100","townName":"東勢區","level":"village","unassigned":false,"note":"","label":[120.87207433143547,24.224737981867577],"bounds":[120.848801,24.200372,120.898492,24.254025],"focusBounds":[120.848801,24.200372,120.898492,24.254025],"color":"#df9f6a"}},{"type":"Feature","id":"66000100012","geometry":{"type":"Polygon","coordinates":[[[120.832996,24.248561],[120.831309,24.247196],[120.82917,24.249217],[120.828649,24.249186],[120.82801,24.24936],[120.825932,24.248426],[120.825541,24.248764],[120.824781,24.250508],[120.823413,24.252549],[120.822106,24.252654],[120.822694,24.249597],[120.822573,24.248393],[120.823073,24.247737],[120.824005,24.245439],[120.824211,24.243983],[120.824833,24.243582],[120.825217,24.243134],[120.827141,24.239542],[120.82934,24.236967],[120.830303,24.234611],[120.831328,24.233423],[120.832032,24.233209],[120.832501,24.233365],[120.833842,24.235046],[120.834927,24.23614],[120.83563,24.23659],[120.836388,24.236846],[120.837518,24.236847],[120.841718,24.236384],[120.842294,24.236071],[120.843554,24.234881],[120.843488,24.236483],[120.842996,24.237693],[120.842842,24.241927],[120.843372,24.244077],[120.843328,24.244447],[120.84141,24.245032],[120.841281,24.245404],[120.841451,24.245912],[120.843089,24.248415],[120.841555,24.248425],[120.839876,24.248969],[120.83864,24.248695],[120.835862,24.248507],[120.832996,24.248561]]]},"properties":{"code":"66000100012","name":"新盛里","countyCode":"66000","countyName":"臺中市","townCode":"66000100","townName":"東勢區","level":"village","unassigned":false,"note":"","label":[120.83434343296632,24.24253117636892],"bounds":[120.822106,24.233209,120.843554,24.252654],"focusBounds":[120.822106,24.233209,120.843554,24.252654],"color":"#c38cb8"}},{"type":"Feature","id":"66000100013","geometry":{"type":"Polygon","coordinates":[[[120.843554,24.234881],[120.842294,24.236071],[120.841718,24.236384],[120.837518,24.236847],[120.836388,24.236846],[120.83563,24.23659],[120.834927,24.23614],[120.833842,24.235046],[120.832501,24.233365],[120.832032,24.233209],[120.831328,24.233423],[120.830303,24.234611],[120.82934,24.236967],[120.827141,24.239542],[120.825217,24.243134],[120.824833,24.243582],[120.824211,24.243983],[120.824308,24.242941],[120.824148,24.242314],[120.823856,24.240265],[120.824171,24.237515],[120.82548,24.230475],[120.82641,24.226507],[120.826634,24.225845],[120.826845,24.225133],[120.82757,24.223811],[120.828263,24.224069],[120.830108,24.223983],[120.831187,24.223456],[120.832026,24.222909],[120.832698,24.222253],[120.833658,24.220563],[120.833994,24.220365],[120.835096,24.220366],[120.837803,24.220744],[120.838306,24.220986],[120.838064,24.222719],[120.838014,24.224717],[120.840168,24.226254],[120.84152,24.226919],[120.845953,24.227034],[120.84636,24.226793],[120.84792,24.22517],[120.84859,24.22517],[120.850507,24.225831],[120.851727,24.226776],[120.85005,24.227169],[120.84921,24.227609],[120.848922,24.228353],[120.848801,24.22943],[120.848977,24.232015],[120.845991,24.232459],[120.84507,24.232833],[120.843857,24.233915],[120.843554,24.234881]]]},"properties":{"code":"66000100013","name":"詒福里","countyCode":"66000","countyName":"臺中市","townCode":"66000100","townName":"東勢區","level":"village","unassigned":false,"note":"","label":[120.83649708562956,24.229970587883777],"bounds":[120.823856,24.220365,120.851727,24.243983],"focusBounds":[120.823856,24.220365,120.851727,24.243983],"color":"#98b69b"}},{"type":"Feature","id":"66000100014","geometry":{"type":"Polygon","coordinates":[[[120.851727,24.226776],[120.850507,24.225831],[120.84859,24.22517],[120.84792,24.22517],[120.84636,24.226793],[120.845953,24.227034],[120.84152,24.226919],[120.840168,24.226254],[120.838014,24.224717],[120.838064,24.222719],[120.838306,24.220986],[120.837822,24.218814],[120.837679,24.217087],[120.837779,24.21443],[120.838119,24.213055],[120.838555,24.212038],[120.839169,24.211154],[120.841249,24.210758],[120.842437,24.210803],[120.845386,24.210596],[120.849485,24.211207],[120.850765,24.211019],[120.851199,24.211103],[120.852844,24.211944],[120.854146,24.2123],[120.856555,24.213289],[120.857767,24.213373],[120.860777,24.213193],[120.858538,24.216254],[120.858485,24.219746],[120.85788,24.220791],[120.857142,24.22163],[120.85343,24.22443],[120.852109,24.2267],[120.851727,24.226776]]]},"properties":{"code":"66000100014","name":"上城里","countyCode":"66000","countyName":"臺中市","townCode":"66000100","townName":"東勢區","level":"village","unassigned":false,"note":"","label":[120.84771690166454,24.218161946089072],"bounds":[120.837679,24.210596,120.860777,24.227034],"focusBounds":[120.837679,24.210596,120.860777,24.227034],"color":"#58b99d"}},{"type":"Feature","id":"66000100015","geometry":{"type":"Polygon","coordinates":[[[120.838306,24.220986],[120.837803,24.220744],[120.835096,24.220366],[120.833994,24.220365],[120.833658,24.220563],[120.832698,24.222253],[120.832026,24.222909],[120.831187,24.223456],[120.830108,24.223983],[120.828263,24.224069],[120.82757,24.223811],[120.828207,24.221037],[120.828584,24.218347],[120.830217,24.213242],[120.83044,24.20997],[120.837661,24.210651],[120.839169,24.211154],[120.838555,24.212038],[120.838119,24.213055],[120.837779,24.21443],[120.837679,24.217087],[120.837822,24.218814],[120.838306,24.220986]]]},"properties":{"code":"66000100015","name":"下城里","countyCode":"66000","countyName":"臺中市","townCode":"66000100","townName":"東勢區","level":"village","unassigned":false,"note":"","label":[120.83327510959059,24.21640013655759],"bounds":[120.82757,24.20997,120.839169,24.224069],"focusBounds":[120.82757,24.20997,120.839169,24.224069],"color":"#efb44f"}},{"type":"Feature","id":"66000100016","geometry":{"type":"Polygon","coordinates":[[[120.839169,24.211154],[120.837661,24.210651],[120.83044,24.20997],[120.830933,24.204067],[120.831405,24.201543],[120.831884,24.200292],[120.832084,24.199261],[120.831955,24.193802],[120.831666,24.191881],[120.834539,24.191785],[120.836096,24.19192],[120.837094,24.192278],[120.838139,24.192947],[120.838966,24.193216],[120.840621,24.193128],[120.842423,24.192595],[120.843542,24.192485],[120.844369,24.192597],[120.845367,24.193022],[120.847301,24.194254],[120.849807,24.195239],[120.850901,24.196066],[120.851581,24.196846],[120.85231,24.198074],[120.853014,24.199569],[120.853426,24.201473],[120.853742,24.201807],[120.857756,24.202703],[120.858875,24.202794],[120.860482,24.20255],[120.863038,24.201771],[120.865078,24.201554],[120.864097,24.205487],[120.864609,24.207897],[120.864629,24.209472],[120.864427,24.210659],[120.864002,24.211314],[120.86313,24.211967],[120.860777,24.213193],[120.857767,24.213373],[120.856555,24.213289],[120.854146,24.2123],[120.852844,24.211944],[120.851199,24.211103],[120.850765,24.211019],[120.849485,24.211207],[120.845386,24.210596],[120.842437,24.210803],[120.841249,24.210758],[120.839169,24.211154]]]},"properties":{"code":"66000100016","name":"慶東里","countyCode":"66000","countyName":"臺中市","townCode":"66000100","townName":"東勢區","level":"village","unassigned":false,"note":"","label":[120.84277615995467,24.201669536580045],"bounds":[120.83044,24.191785,120.865078,24.213373],"focusBounds":[120.83044,24.191785,120.865078,24.213373],"color":"#78a7e3"}},{"type":"Feature","id":"66000100017","geometry":{"type":"Polygon","coordinates":[[[120.865078,24.201554],[120.863038,24.201771],[120.860482,24.20255],[120.858875,24.202794],[120.857756,24.202703],[120.853742,24.201807],[120.853426,24.201473],[120.853014,24.199569],[120.85231,24.198074],[120.851581,24.196846],[120.850901,24.196066],[120.849807,24.195239],[120.847301,24.194254],[120.845367,24.193022],[120.844369,24.192597],[120.843542,24.192485],[120.842423,24.192595],[120.840621,24.193128],[120.838966,24.193216],[120.838139,24.192947],[120.837094,24.192278],[120.836096,24.19192],[120.834539,24.191785],[120.831666,24.191881],[120.831148,24.189771],[120.831924,24.188334],[120.832198,24.184835],[120.832614,24.183773],[120.835103,24.179696],[120.835582,24.178112],[120.835257,24.175234],[120.83619,24.173498],[120.837303,24.17084],[120.838035,24.169658],[120.84279,24.16355],[120.845611,24.161197],[120.846366,24.160807],[120.84987,24.159622],[120.850825,24.159473],[120.85172,24.159573],[120.853404,24.159432],[120.855958,24.158919],[120.858289,24.158691],[120.859094,24.15896],[120.860538,24.159927],[120.860954,24.160371],[120.861739,24.161503],[120.862502,24.161998],[120.865545,24.163411],[120.867632,24.164134],[120.868554,24.164302],[120.868304,24.165961],[120.868058,24.166456],[120.868542,24.167268],[120.868183,24.168173],[120.868448,24.168762],[120.867871,24.17003],[120.867838,24.171024],[120.867407,24.171655],[120.867353,24.17204],[120.866441,24.172929],[120.865722,24.174036],[120.865735,24.1745],[120.865389,24.175253],[120.865379,24.17566],[120.865844,24.176306],[120.86704,24.177442],[120.867075,24.178966],[120.867381,24.179674],[120.869147,24.180737],[120.870749,24.180432],[120.872259,24.18228],[120.873397,24.18296],[120.874498,24.184054],[120.874888,24.184751],[120.875427,24.184757],[120.876535,24.187256],[120.877187,24.187842],[120.877629,24.188534],[120.877755,24.189474],[120.878294,24.190248],[120.87868,24.191298],[120.879191,24.191641],[120.879738,24.192502],[120.879672,24.193898],[120.880155,24.194527],[120.880832,24.196227],[120.881617,24.197182],[120.881656,24.198688],[120.881081,24.199899],[120.881053,24.200643],[120.880799,24.201204],[120.878231,24.201664],[120.876355,24.201785],[120.873193,24.201444],[120.870156,24.200662],[120.866627,24.200372],[120.865688,24.200721],[120.865078,24.201554]]]},"properties":{"code":"66000100017","name":"慶福里","countyCode":"66000","countyName":"臺中市","townCode":"66000100","townName":"東勢區","level":"village","unassigned":false,"note":"","label":[120.85118095600278,24.179393115554824],"bounds":[120.831148,24.158691,120.881656,24.202794],"focusBounds":[120.831148,24.158691,120.881656,24.202794],"color":"#dd8590"}},{"type":"Feature","id":"66000100018","geometry":{"type":"Polygon","coordinates":[[[120.905876,24.292608],[120.904535,24.292227],[120.902509,24.292194],[120.899835,24.292755],[120.895372,24.29332],[120.891582,24.29408],[120.884835,24.294385],[120.881625,24.294881],[120.878765,24.295037],[120.876117,24.295004],[120.874904,24.294894],[120.871752,24.29427],[120.866843,24.293073],[120.859629,24.290237],[120.858029,24.289359],[120.857229,24.289109],[120.854819,24.288801],[120.850197,24.288518],[120.849683,24.286453],[120.849749,24.284561],[120.84963,24.283703],[120.849212,24.28236],[120.846899,24.281452],[120.845023,24.280992],[120.844386,24.280443],[120.842806,24.277344],[120.842387,24.276886],[120.84153,24.276374],[120.840253,24.274581],[120.839437,24.276329],[120.839064,24.276277],[120.838013,24.275292],[120.833286,24.272433],[120.827017,24.267998],[120.826047,24.267552],[120.824449,24.267311],[120.824886,24.266565],[120.825512,24.266064],[120.825917,24.26524],[120.826912,24.26161],[120.827188,24.259984],[120.828036,24.260195],[120.830129,24.261482],[120.832248,24.262308],[120.832966,24.262879],[120.834103,24.263595],[120.835261,24.263993],[120.838387,24.265491],[120.840501,24.266139],[120.842047,24.266488],[120.842992,24.266426],[120.845107,24.265893],[120.847605,24.26592],[120.847637,24.266954],[120.846415,24.268197],[120.846621,24.269064],[120.847874,24.270607],[120.84958,24.271453],[120.850318,24.272004],[120.851263,24.2724],[120.852088,24.272306],[120.853499,24.271567],[120.853842,24.271662],[120.854306,24.271866],[120.856178,24.273364],[120.857638,24.274217],[120.859881,24.274932],[120.864968,24.274795],[120.867134,24.274594],[120.870704,24.273599],[120.873524,24.273333],[120.874125,24.273412],[120.874743,24.274483],[120.874174,24.276444],[120.874792,24.277923],[120.874637,24.278474],[120.873381,24.278931],[120.873037,24.279529],[120.872968,24.280204],[120.873363,24.280504],[120.873947,24.280489],[120.87558,24.279987],[120.877247,24.279726],[120.879717,24.279035],[120.882534,24.279175],[120.883118,24.27983],[120.883877,24.279892],[120.8847,24.279714],[120.885199,24.278879],[120.885395,24.278225],[120.885222,24.277313],[120.884481,24.276204],[120.884548,24.275519],[120.885135,24.276207],[120.886703,24.276335],[120.888344,24.276787],[120.888451,24.276978],[120.888245,24.27775],[120.888186,24.279116],[120.888918,24.279623],[120.891044,24.28016],[120.8916,24.281143],[120.892108,24.281518],[120.892735,24.281647],[120.89348,24.282219],[120.895619,24.284488],[120.896696,24.284032],[120.897981,24.284635],[120.898827,24.285604],[120.898881,24.288247],[120.899095,24.288665],[120.899902,24.289091],[120.901016,24.289227],[120.901813,24.28997],[120.902824,24.290571],[120.905187,24.291432],[120.905907,24.291992],[120.905876,24.292608]]]},"properties":{"code":"66000100018","name":"東新里","countyCode":"66000","countyName":"臺中市","townCode":"66000100","townName":"東勢區","level":"village","unassigned":false,"note":"","label":[120.86518967938821,24.283598451770402],"bounds":[120.824449,24.259984,120.905907,24.295037],"focusBounds":[120.824449,24.259984,120.905907,24.295037],"color":"#a49ad4"}},{"type":"Feature","id":"66000100019","geometry":{"type":"Polygon","coordinates":[[[120.827188,24.259984],[120.826912,24.26161],[120.825917,24.26524],[120.825512,24.266064],[120.824886,24.266565],[120.824449,24.267311],[120.823865,24.267263],[120.819912,24.265304],[120.818354,24.263898],[120.818823,24.262868],[120.819454,24.260894],[120.823039,24.261659],[120.82364,24.261599],[120.827188,24.259984]]]},"properties":{"code":"66000100019","name":"粵寧里","countyCode":"66000","countyName":"臺中市","townCode":"66000100","townName":"東勢區","level":"village","unassigned":false,"note":"","label":[120.82338287793024,24.264123667958618],"bounds":[120.818354,24.259984,120.827188,24.267311],"focusBounds":[120.818354,24.259984,120.827188,24.267311],"color":"#a8bf62"}},{"type":"Feature","id":"66000100020","geometry":{"type":"Polygon","coordinates":[[[120.832468,24.291378],[120.831804,24.292379],[120.83065,24.293194],[120.829448,24.293652],[120.828738,24.294242],[120.828162,24.295045],[120.826226,24.296101],[120.824924,24.29724],[120.824044,24.295894],[120.823667,24.294302],[120.824341,24.293091],[120.825246,24.292553],[120.826488,24.29213],[120.826635,24.291938],[120.826425,24.291631],[120.825101,24.291051],[120.824975,24.290819],[120.825186,24.290462],[120.826532,24.289942],[120.827502,24.288537],[120.827692,24.287788],[120.827524,24.287266],[120.827104,24.287228],[120.825989,24.287592],[120.82559,24.287341],[120.823574,24.284953],[120.823216,24.284873],[120.822333,24.285181],[120.821197,24.2852],[120.820434,24.28494],[120.819678,24.284323],[120.818635,24.283132],[120.819448,24.282634],[120.821461,24.280974],[120.822249,24.279411],[120.819037,24.276677],[120.813128,24.272606],[120.814066,24.269577],[120.81444,24.268836],[120.816478,24.266601],[120.818354,24.263898],[120.819912,24.265304],[120.823865,24.267263],[120.824449,24.267311],[120.826047,24.267552],[120.827017,24.267998],[120.833286,24.272433],[120.838013,24.275292],[120.839064,24.276277],[120.839437,24.276329],[120.840253,24.274581],[120.84153,24.276374],[120.842387,24.276886],[120.842806,24.277344],[120.844386,24.280443],[120.845023,24.280992],[120.846899,24.281452],[120.849212,24.28236],[120.84963,24.283703],[120.849749,24.284561],[120.849683,24.286453],[120.850197,24.288518],[120.846955,24.288617],[120.845508,24.288847],[120.844158,24.288787],[120.841491,24.289213],[120.837711,24.289335],[120.833565,24.290472],[120.832468,24.291378]]]},"properties":{"code":"66000100020","name":"下新里","countyCode":"66000","countyName":"臺中市","townCode":"66000100","townName":"東勢區","level":"village","unassigned":false,"note":"","label":[120.83090708907164,24.280196458458406],"bounds":[120.813128,24.263898,120.850197,24.29724],"focusBounds":[120.813128,24.263898,120.850197,24.29724],"color":"#68bec9"}},{"type":"Feature","id":"66000100021","geometry":{"type":"Polygon","coordinates":[[[120.818635,24.283132],[120.817044,24.283585],[120.815233,24.283852],[120.814715,24.28411],[120.814102,24.285467],[120.813796,24.285801],[120.81162,24.286498],[120.81136,24.287048],[120.811054,24.287112],[120.809573,24.287121],[120.808797,24.286894],[120.80747,24.286138],[120.807047,24.286083],[120.806564,24.286621],[120.804388,24.286888],[120.804141,24.287211],[120.804093,24.28775],[120.801471,24.287692],[120.79945,24.287205],[120.798616,24.286848],[120.797418,24.286049],[120.796807,24.285434],[120.795186,24.284419],[120.792271,24.284275],[120.791437,24.283735],[120.790723,24.282559],[120.792605,24.281995],[120.794141,24.281315],[120.794609,24.281156],[120.798101,24.280846],[120.800809,24.280699],[120.801899,24.280846],[120.80397,24.28056],[120.805612,24.280584],[120.807632,24.280222],[120.809178,24.27978],[120.810734,24.278421],[120.811435,24.276421],[120.81221,24.275134],[120.812899,24.273521],[120.813128,24.272606],[120.819037,24.276677],[120.822249,24.279411],[120.821461,24.280974],[120.819448,24.282634],[120.818635,24.283132]]]},"properties":{"code":"66000100021","name":"興隆里","countyCode":"66000","countyName":"臺中市","townCode":"66000100","townName":"東勢區","level":"village","unassigned":false,"note":"","label":[120.80950032087573,24.28329914591466],"bounds":[120.790723,24.272606,120.822249,24.28775],"focusBounds":[120.790723,24.272606,120.822249,24.28775],"color":"#df9f6a"}},{"type":"Feature","id":"66000100022","geometry":{"type":"Polygon","coordinates":[[[120.823247,24.299097],[120.819682,24.303608],[120.818607,24.305879],[120.817405,24.307557],[120.814287,24.3056],[120.812985,24.304075],[120.811522,24.303005],[120.808053,24.303125],[120.806671,24.302751],[120.806183,24.302452],[120.805913,24.302104],[120.805886,24.301757],[120.806185,24.300863],[120.806132,24.300319],[120.805753,24.299946],[120.804697,24.299423],[120.804101,24.298926],[120.801682,24.295431],[120.801391,24.294862],[120.801365,24.29439],[120.801827,24.293124],[120.801314,24.292232],[120.800146,24.29121],[120.797356,24.290014],[120.796545,24.287194],[120.796807,24.285434],[120.797418,24.286049],[120.798616,24.286848],[120.79945,24.287205],[120.801471,24.287692],[120.804093,24.28775],[120.804141,24.287211],[120.804388,24.286888],[120.806564,24.286621],[120.807047,24.286083],[120.80747,24.286138],[120.808797,24.286894],[120.809573,24.287121],[120.811054,24.287112],[120.81136,24.287048],[120.81162,24.286498],[120.813796,24.285801],[120.814102,24.285467],[120.814715,24.28411],[120.815233,24.283852],[120.817044,24.283585],[120.818635,24.283132],[120.819678,24.284323],[120.820434,24.28494],[120.821197,24.2852],[120.822333,24.285181],[120.823216,24.284873],[120.823574,24.284953],[120.82559,24.287341],[120.825989,24.287592],[120.827104,24.287228],[120.827524,24.287266],[120.827692,24.287788],[120.827502,24.288537],[120.826532,24.289942],[120.825186,24.290462],[120.824975,24.290819],[120.825101,24.291051],[120.826425,24.291631],[120.826635,24.291938],[120.826488,24.29213],[120.825246,24.292553],[120.824341,24.293091],[120.823667,24.294302],[120.824044,24.295894],[120.824924,24.29724],[120.823247,24.299097]]]},"properties":{"code":"66000100022","name":"茂興里","countyCode":"66000","countyName":"臺中市","townCode":"66000100","townName":"東勢區","level":"village","unassigned":false,"note":"","label":[120.81478638602712,24.294994127303248],"bounds":[120.796545,24.283132,120.827692,24.307557],"focusBounds":[120.796545,24.283132,120.827692,24.307557],"color":"#c38cb8"}},{"type":"Feature","id":"66000100023","geometry":{"type":"Polygon","coordinates":[[[120.78237,24.296903],[120.782201,24.295889],[120.78184,24.295146],[120.781309,24.294335],[120.779884,24.293162],[120.778864,24.291289],[120.778653,24.290372],[120.778278,24.28597],[120.777368,24.283931],[120.779854,24.28362],[120.782793,24.283669],[120.784019,24.283429],[120.78571,24.283618],[120.787816,24.283238],[120.789309,24.28278],[120.790723,24.282559],[120.791437,24.283735],[120.792271,24.284275],[120.795186,24.284419],[120.796807,24.285434],[120.796545,24.287194],[120.797356,24.290014],[120.800146,24.29121],[120.801314,24.292232],[120.801827,24.293124],[120.801365,24.29439],[120.801391,24.294862],[120.801682,24.295431],[120.797896,24.294489],[120.796429,24.293417],[120.794847,24.29304],[120.794703,24.292847],[120.795559,24.295424],[120.795353,24.296295],[120.795557,24.29686],[120.795149,24.298051],[120.794519,24.298074],[120.787472,24.296126],[120.786707,24.296334],[120.786056,24.296793],[120.785511,24.296984],[120.78237,24.296903]]]},"properties":{"code":"66000100023","name":"泰興里","countyCode":"66000","countyName":"臺中市","townCode":"66000100","townName":"東勢區","level":"village","unassigned":false,"note":"","label":[120.78865541962593,24.289716723233518],"bounds":[120.777368,24.282559,120.801827,24.298074],"focusBounds":[120.777368,24.282559,120.801827,24.298074],"color":"#98b69b"}},{"type":"Feature","id":"66000100024","geometry":{"type":"Polygon","coordinates":[[[120.78237,24.296903],[120.780835,24.297486],[120.779684,24.298148],[120.779087,24.298244],[120.775423,24.298297],[120.773676,24.298762],[120.772546,24.298898],[120.767435,24.298678],[120.767491,24.298331],[120.766832,24.295764],[120.766158,24.294475],[120.76606,24.292968],[120.764304,24.291903],[120.764166,24.291148],[120.763773,24.290804],[120.761243,24.290188],[120.760266,24.290329],[120.75958,24.290039],[120.758405,24.2907],[120.758139,24.290707],[120.756977,24.289121],[120.755606,24.288926],[120.755156,24.289146],[120.754922,24.289093],[120.754277,24.288372],[120.752375,24.28726],[120.751723,24.287148],[120.750889,24.287524],[120.749797,24.287593],[120.748823,24.287254],[120.748131,24.286151],[120.748069,24.284775],[120.748686,24.283223],[120.748251,24.280649],[120.752381,24.279797],[120.756056,24.279532],[120.759367,24.280263],[120.760419,24.280669],[120.762578,24.2811],[120.765202,24.281301],[120.769431,24.281318],[120.77208,24.282996],[120.774192,24.284087],[120.775775,24.284235],[120.777368,24.283931],[120.778278,24.28597],[120.778653,24.290372],[120.778864,24.291289],[120.779884,24.293162],[120.781309,24.294335],[120.78184,24.295146],[120.782201,24.295889],[120.78237,24.296903]]]},"properties":{"code":"66000100024","name":"埤頭里","countyCode":"66000","countyName":"臺中市","townCode":"66000100","townName":"東勢區","level":"village","unassigned":false,"note":"","label":[120.76763537936938,24.286880288506964],"bounds":[120.748069,24.279532,120.78237,24.298898],"focusBounds":[120.748069,24.279532,120.78237,24.298898],"color":"#58b99d"}},{"type":"Feature","id":"66000100025","geometry":{"type":"Polygon","coordinates":[[[120.777702,24.320608],[120.774777,24.321064],[120.772744,24.321899],[120.768208,24.324678],[120.767053,24.325573],[120.76652,24.325715],[120.765666,24.325493],[120.764494,24.325729],[120.762249,24.324924],[120.760009,24.323719],[120.759537,24.323252],[120.759365,24.322297],[120.758747,24.32194],[120.759104,24.321656],[120.759285,24.321136],[120.75879,24.319188],[120.758567,24.318722],[120.758744,24.318301],[120.760915,24.317294],[120.761326,24.316386],[120.763498,24.314317],[120.763758,24.313579],[120.76344,24.31273],[120.76353,24.312522],[120.763978,24.312297],[120.76452,24.31126],[120.76487,24.309967],[120.764533,24.309219],[120.764718,24.308451],[120.764611,24.307952],[120.764688,24.306488],[120.764483,24.305997],[120.76326,24.305148],[120.762906,24.304608],[120.76285,24.304247],[120.76308,24.303807],[120.763005,24.303153],[120.763806,24.300994],[120.764504,24.300229],[120.764515,24.299865],[120.765201,24.299172],[120.765573,24.299069],[120.76657,24.299427],[120.767296,24.298943],[120.767435,24.298678],[120.772546,24.298898],[120.773676,24.298762],[120.775423,24.298297],[120.779087,24.298244],[120.779684,24.298148],[120.780835,24.297486],[120.78237,24.296903],[120.785511,24.296984],[120.786056,24.296793],[120.786707,24.296334],[120.787472,24.296126],[120.794519,24.298074],[120.795149,24.298051],[120.795557,24.29686],[120.795353,24.296295],[120.795559,24.295424],[120.794703,24.292847],[120.794847,24.29304],[120.796429,24.293417],[120.797896,24.294489],[120.801682,24.295431],[120.804101,24.298926],[120.804697,24.299423],[120.805753,24.299946],[120.806132,24.300319],[120.806185,24.300863],[120.805886,24.301757],[120.805913,24.302104],[120.806183,24.302452],[120.806671,24.302751],[120.808053,24.303125],[120.811522,24.303005],[120.812985,24.304075],[120.814287,24.3056],[120.817405,24.307557],[120.815304,24.308721],[120.812751,24.310958],[120.811471,24.311781],[120.809803,24.312743],[120.809442,24.31327],[120.808393,24.314113],[120.807453,24.315148],[120.805951,24.315887],[120.803766,24.316144],[120.799074,24.316173],[120.796838,24.316417],[120.796003,24.316378],[120.792459,24.317526],[120.791771,24.317606],[120.791322,24.317387],[120.790034,24.317741],[120.789815,24.317994],[120.789155,24.317883],[120.787843,24.318359],[120.787555,24.318234],[120.786936,24.318396],[120.786469,24.318117],[120.783827,24.318352],[120.783182,24.318573],[120.78238,24.319177],[120.780046,24.31995],[120.778402,24.320108],[120.777702,24.320608]]]},"properties":{"code":"66000100025","name":"明正里","countyCode":"66000","countyName":"臺中市","townCode":"66000100","townName":"東勢區","level":"village","unassigned":false,"note":"","label":[120.78469916025392,24.307618906038655],"bounds":[120.758567,24.292847,120.817405,24.325729],"focusBounds":[120.758567,24.292847,120.817405,24.325729],"color":"#efb44f"}}]}
