{"type":"FeatureCollection","features":[{"type":"Feature","id":"66000170001","geometry":{"type":"Polygon","coordinates":[[[120.70797,24.214325],[120.707353,24.213955],[120.707548,24.213263],[120.706565,24.213099],[120.70603,24.213322],[120.705243,24.213265],[120.70358,24.212745],[120.703575,24.212273],[120.7023,24.212352],[120.702243,24.211628],[120.704322,24.211588],[120.704215,24.209938],[120.7034,24.209907],[120.703254,24.208207],[120.701693,24.207267],[120.703981,24.207171],[120.703938,24.20654],[120.704494,24.20651],[120.705108,24.207128],[120.705304,24.207146],[120.707307,24.207016],[120.710606,24.206309],[120.710896,24.206294],[120.711073,24.206613],[120.711344,24.20638],[120.711797,24.206352],[120.712553,24.20561],[120.715724,24.204597],[120.715956,24.205566],[120.715308,24.206725],[120.715327,24.207304],[120.715397,24.208653],[120.716129,24.209651],[120.716238,24.213232],[120.70797,24.214325]]]},"properties":{"code":"66000170001","name":"潭陽里","countyCode":"66000","countyName":"臺中市","townCode":"66000170","townName":"潭子區","level":"village","unassigned":false,"note":"","label":[120.71000960259707,24.210245927178516],"bounds":[120.701693,24.204597,120.716238,24.214325],"focusBounds":[120.701693,24.204597,120.716238,24.214325],"color":"#68bec9"}},{"type":"Feature","id":"66000170002","geometry":{"type":"Polygon","coordinates":[[[120.707423,24.22406],[120.707539,24.22455],[120.704001,24.224985],[120.703927,24.22486],[120.703348,24.224754],[120.703275,24.224171],[120.702728,24.224014],[120.702801,24.223432],[120.702689,24.223279],[120.702369,24.223634],[120.701615,24.223751],[120.70138,24.223632],[120.701518,24.222778],[120.700928,24.222391],[120.700761,24.221397],[120.70053,24.221269],[120.700199,24.220271],[120.698811,24.220294],[120.698569,24.220072],[120.698056,24.218905],[120.698098,24.218504],[120.697848,24.218141],[120.697728,24.2166],[120.703533,24.215877],[120.703052,24.215131],[120.70285,24.214014],[120.703493,24.213868],[120.703648,24.213636],[120.70358,24.212745],[120.705243,24.213265],[120.70603,24.213322],[120.706616,24.220255],[120.707423,24.22406]]]},"properties":{"code":"66000170002","name":"潭秀里","countyCode":"66000","countyName":"臺中市","townCode":"66000170","townName":"潭子區","level":"village","unassigned":false,"note":"","label":[120.70329862369474,24.219241515725145],"bounds":[120.697728,24.212745,120.707539,24.224985],"focusBounds":[120.697728,24.212745,120.707539,24.224985],"color":"#df9f6a"}},{"type":"Feature","id":"66000170003","geometry":{"type":"Polygon","coordinates":[[[120.710717,24.223671],[120.707423,24.22406],[120.706616,24.220255],[120.70603,24.213322],[120.706565,24.213099],[120.707548,24.213263],[120.707353,24.213955],[120.70797,24.214325],[120.708233,24.214916],[120.708141,24.216822],[120.708674,24.21744],[120.708472,24.217713],[120.708054,24.217809],[120.707706,24.217588],[120.707893,24.218509],[120.708457,24.218968],[120.708234,24.219426],[120.708401,24.219809],[120.708721,24.219984],[120.709091,24.219947],[120.709641,24.220492],[120.709249,24.220858],[120.70952,24.221197],[120.709566,24.222144],[120.709261,24.222308],[120.709267,24.222562],[120.709651,24.222826],[120.709706,24.22329],[120.710601,24.223525],[120.710717,24.223671]]]},"properties":{"code":"66000170003","name":"潭北里","countyCode":"66000","countyName":"臺中市","townCode":"66000170","townName":"潭子區","level":"village","unassigned":false,"note":"","label":[120.70806375390707,24.220996432672692],"bounds":[120.70603,24.213099,120.710717,24.22406],"focusBounds":[120.70603,24.213099,120.710717,24.22406],"color":"#c38cb8"}},{"type":"Feature","id":"66000170004","geometry":{"type":"Polygon","coordinates":[[[120.715724,24.204597],[120.712553,24.20561],[120.711797,24.206352],[120.711344,24.20638],[120.711073,24.206613],[120.710896,24.206294],[120.710606,24.206309],[120.707307,24.207016],[120.705304,24.207146],[120.705108,24.207128],[120.704494,24.20651],[120.703938,24.20654],[120.703981,24.207171],[120.701693,24.207267],[120.701596,24.207197],[120.701719,24.206647],[120.701218,24.20608],[120.700483,24.20463],[120.699424,24.204758],[120.698987,24.204623],[120.69844,24.204895],[120.698186,24.204691],[120.697818,24.204684],[120.69787,24.204353],[120.699405,24.202317],[120.699652,24.202271],[120.700819,24.20139],[120.701917,24.20065],[120.702037,24.200405],[120.703442,24.200668],[120.703896,24.200702],[120.705016,24.201241],[120.704489,24.196871],[120.705012,24.19716],[120.705036,24.197503],[120.705526,24.197711],[120.7056,24.198101],[120.70734,24.199397],[120.707582,24.198505],[120.70757,24.197263],[120.708408,24.197112],[120.708552,24.196908],[120.708222,24.195866],[120.708903,24.194776],[120.709805,24.19365],[120.710021,24.193587],[120.710203,24.193133],[120.710495,24.193052],[120.710812,24.193153],[120.713063,24.19498],[120.713513,24.195918],[120.713502,24.19673],[120.711844,24.200648],[120.711819,24.20159],[120.713671,24.202423],[120.714237,24.202831],[120.715476,24.204106],[120.715724,24.204597]]]},"properties":{"code":"66000170004","name":"福仁里","countyCode":"66000","countyName":"臺中市","townCode":"66000170","townName":"潭子區","level":"village","unassigned":false,"note":"","label":[120.70823228606001,24.202794445332845],"bounds":[120.697818,24.193052,120.715724,24.207267],"focusBounds":[120.697818,24.193052,120.715724,24.207267],"color":"#98b69b"}},{"type":"Feature","id":"66000170005","geometry":{"type":"Polygon","coordinates":[[[120.703442,24.200668],[120.702037,24.200405],[120.701917,24.20065],[120.700819,24.20139],[120.700545,24.200896],[120.696612,24.199306],[120.696094,24.198705],[120.695875,24.198627],[120.695253,24.19877],[120.694725,24.198587],[120.694689,24.198455],[120.694057,24.198351],[120.693974,24.198183],[120.694136,24.198057],[120.69373,24.197868],[120.693757,24.197621],[120.694383,24.19713],[120.694298,24.196907],[120.694756,24.195858],[120.694776,24.195319],[120.695129,24.19517],[120.695129,24.194664],[120.694845,24.194411],[120.694917,24.194078],[120.695171,24.193979],[120.697945,24.194627],[120.70027,24.194363],[120.702485,24.194426],[120.702537,24.195943],[120.703442,24.200668]]]},"properties":{"code":"66000170005","name":"頭家里","countyCode":"66000","countyName":"臺中市","townCode":"66000170","townName":"潭子區","level":"village","unassigned":false,"note":"","label":[120.69908310964603,24.19740156317699],"bounds":[120.69373,24.193979,120.703442,24.20139],"focusBounds":[120.69373,24.193979,120.703442,24.20139],"color":"#78a7e3"}},{"type":"Feature","id":"66000170006","geometry":{"type":"Polygon","coordinates":[[[120.70358,24.212745],[120.703648,24.213636],[120.703493,24.213868],[120.70285,24.214014],[120.703052,24.215131],[120.703533,24.215877],[120.697728,24.2166],[120.697719,24.216176],[120.697396,24.215466],[120.696952,24.215405],[120.696465,24.214776],[120.696339,24.213981],[120.696785,24.213586],[120.696589,24.213452],[120.696205,24.213467],[120.695975,24.213077],[120.696031,24.212922],[120.696546,24.212727],[120.696998,24.212696],[120.697161,24.21244],[120.696588,24.212271],[120.696679,24.211821],[120.696061,24.21174],[120.696145,24.211148],[120.69518,24.210474],[120.69599,24.208898],[120.696029,24.208712],[120.695767,24.208256],[120.691897,24.20631],[120.691019,24.206178],[120.690495,24.204223],[120.692055,24.204062],[120.692478,24.204177],[120.692634,24.204016],[120.693803,24.203875],[120.694378,24.204172],[120.694827,24.204113],[120.694981,24.203856],[120.694865,24.203734],[120.696268,24.203138],[120.696923,24.203067],[120.697238,24.20075],[120.697373,24.200697],[120.697456,24.200223],[120.697301,24.199838],[120.696612,24.199306],[120.700545,24.200896],[120.700819,24.20139],[120.699652,24.202271],[120.699405,24.202317],[120.69787,24.204353],[120.697818,24.204684],[120.698186,24.204691],[120.69844,24.204895],[120.698987,24.204623],[120.699424,24.204758],[120.700483,24.20463],[120.701218,24.20608],[120.701719,24.206647],[120.701596,24.207197],[120.701693,24.207267],[120.703254,24.208207],[120.7034,24.209907],[120.704215,24.209938],[120.704322,24.211588],[120.702243,24.211628],[120.7023,24.212352],[120.703575,24.212273],[120.70358,24.212745]]]},"properties":{"code":"66000170006","name":"甘蔗里","countyCode":"66000","countyName":"臺中市","townCode":"66000170","townName":"潭子區","level":"village","unassigned":false,"note":"","label":[120.69917946376701,24.209607876410672],"bounds":[120.690495,24.199306,120.704322,24.2166],"focusBounds":[120.690495,24.199306,120.704322,24.2166],"color":"#efb44f"}},{"type":"Feature","id":"66000170007","geometry":{"type":"Polygon","coordinates":[[[120.686454,24.220363],[120.684778,24.2202],[120.682981,24.219544],[120.682333,24.218703],[120.68195,24.218667],[120.681225,24.218213],[120.678629,24.217278],[120.678587,24.217124],[120.677394,24.212777],[120.676602,24.211204],[120.675249,24.210064],[120.674135,24.208546],[120.672486,24.208484],[120.671154,24.208757],[120.670528,24.207263],[120.670787,24.20719],[120.670724,24.206838],[120.669833,24.203684],[120.671638,24.203647],[120.673454,24.203982],[120.674129,24.204389],[120.674721,24.202881],[120.675856,24.203098],[120.678514,24.203281],[120.679616,24.203786],[120.679866,24.203706],[120.679864,24.203496],[120.680036,24.203396],[120.680477,24.203314],[120.681802,24.203544],[120.684265,24.204694],[120.685942,24.205148],[120.688175,24.205773],[120.690941,24.206259],[120.691019,24.206178],[120.691897,24.20631],[120.695767,24.208256],[120.696029,24.208712],[120.69599,24.208898],[120.69518,24.210474],[120.696145,24.211148],[120.696061,24.21174],[120.696679,24.211821],[120.696588,24.212271],[120.697161,24.21244],[120.696998,24.212696],[120.696546,24.212727],[120.696031,24.212922],[120.695975,24.213077],[120.696205,24.213467],[120.696589,24.213452],[120.696785,24.213586],[120.696339,24.213981],[120.696465,24.214776],[120.696952,24.215405],[120.697396,24.215466],[120.697719,24.216176],[120.697728,24.2166],[120.697848,24.218141],[120.698098,24.218504],[120.698056,24.218905],[120.698569,24.220072],[120.697323,24.220023],[120.695238,24.219656],[120.686434,24.219563],[120.686454,24.220363]]]},"properties":{"code":"66000170007","name":"東寶里","countyCode":"66000","countyName":"臺中市","townCode":"66000170","townName":"潭子區","level":"village","unassigned":false,"note":"","label":[120.68491282256181,24.211720158199732],"bounds":[120.669833,24.202881,120.698569,24.220363],"focusBounds":[120.669833,24.202881,120.698569,24.220363],"color":"#78a7e3"}},{"type":"Feature","id":"66000170008","geometry":{"type":"Polygon","coordinates":[[[120.686454,24.220363],[120.686679,24.222054],[120.687935,24.227027],[120.688471,24.227723],[120.689986,24.229092],[120.689803,24.229259],[120.689726,24.23023],[120.690273,24.230508],[120.69053,24.232884],[120.69164,24.23514],[120.69055,24.235551],[120.689604,24.235746],[120.68871,24.23569],[120.68796,24.234987],[120.686621,24.234668],[120.685661,24.234167],[120.685275,24.232754],[120.685455,24.232385],[120.685257,24.23181],[120.684247,24.231938],[120.684152,24.231653],[120.681372,24.232095],[120.680862,24.231374],[120.680315,24.230151],[120.678657,24.230203],[120.678286,24.230128],[120.677901,24.229813],[120.677656,24.229198],[120.677971,24.226945],[120.677742,24.225759],[120.676661,24.223907],[120.675997,24.223545],[120.674794,24.223289],[120.674108,24.222639],[120.67385,24.222042],[120.673085,24.218555],[120.673175,24.218438],[120.674561,24.218467],[120.67459,24.217805],[120.674964,24.217732],[120.678523,24.217603],[120.678663,24.217496],[120.678587,24.217124],[120.678629,24.217278],[120.681225,24.218213],[120.68195,24.218667],[120.682333,24.218703],[120.682981,24.219544],[120.684778,24.2202],[120.686454,24.220363]]]},"properties":{"code":"66000170008","name":"大富里","countyCode":"66000","countyName":"臺中市","townCode":"66000170","townName":"潭子區","level":"village","unassigned":false,"note":"","label":[120.68263539720063,24.225914523864446],"bounds":[120.673085,24.217124,120.69164,24.235746],"focusBounds":[120.673085,24.217124,120.69164,24.235746],"color":"#dd8590"}},{"type":"Feature","id":"66000170009","geometry":{"type":"Polygon","coordinates":[[[120.689986,24.229092],[120.688471,24.227723],[120.687935,24.227027],[120.686679,24.222054],[120.686454,24.220363],[120.686434,24.219563],[120.695238,24.219656],[120.697323,24.220023],[120.698569,24.220072],[120.698811,24.220294],[120.700199,24.220271],[120.70053,24.221269],[120.700761,24.221397],[120.700928,24.222391],[120.701518,24.222778],[120.70138,24.223632],[120.70134,24.224234],[120.698805,24.22446],[120.698515,24.224037],[120.698264,24.224007],[120.698257,24.225623],[120.696968,24.225719],[120.697072,24.227647],[120.696153,24.227821],[120.696482,24.230074],[120.697033,24.230161],[120.697225,24.230838],[120.696961,24.231173],[120.697052,24.231558],[120.694991,24.231173],[120.693005,24.231142],[120.692857,24.229624],[120.69271,24.22945],[120.691401,24.228894],[120.689986,24.229092]]]},"properties":{"code":"66000170009","name":"大豐里","countyCode":"66000","countyName":"臺中市","townCode":"66000170","townName":"潭子區","level":"village","unassigned":false,"note":"","label":[120.69276089281297,24.224138912685294],"bounds":[120.686434,24.219563,120.701518,24.231558],"focusBounds":[120.686434,24.219563,120.701518,24.231558],"color":"#a49ad4"}},{"type":"Feature","id":"66000170010","geometry":{"type":"Polygon","coordinates":[[[120.707562,24.236335],[120.707294,24.236333],[120.706892,24.23599],[120.706152,24.234832],[120.705195,24.231859],[120.704404,24.23087],[120.704184,24.229827],[120.703751,24.229149],[120.703618,24.22864],[120.703038,24.228239],[120.702319,24.227067],[120.701552,24.227],[120.70134,24.224234],[120.70138,24.223632],[120.701615,24.223751],[120.702369,24.223634],[120.702689,24.223279],[120.702801,24.223432],[120.702728,24.224014],[120.703275,24.224171],[120.703348,24.224754],[120.703927,24.22486],[120.704001,24.224985],[120.707539,24.22455],[120.707423,24.22406],[120.710717,24.223671],[120.710496,24.224161],[120.711179,24.224458],[120.711701,24.224387],[120.712233,24.224783],[120.712355,24.225477],[120.712918,24.22583],[120.712825,24.226387],[120.71331,24.226819],[120.713609,24.227526],[120.714228,24.227936],[120.714312,24.228404],[120.71414,24.229622],[120.713931,24.230131],[120.713971,24.230641],[120.715092,24.231528],[120.714854,24.231556],[120.714724,24.231991],[120.714475,24.232042],[120.713953,24.231553],[120.713642,24.231487],[120.713541,24.231025],[120.713053,24.231205],[120.712364,24.231227],[120.711866,24.230927],[120.711834,24.232],[120.712254,24.232093],[120.712338,24.233134],[120.711761,24.233147],[120.711632,24.233366],[120.711923,24.233686],[120.711896,24.234751],[120.712488,24.235547],[120.711547,24.235382],[120.711845,24.236804],[120.711465,24.236148],[120.711136,24.236188],[120.709674,24.236354],[120.709576,24.236146],[120.707562,24.236335]]]},"properties":{"code":"66000170010","name":"栗林里","countyCode":"66000","countyName":"臺中市","townCode":"66000170","townName":"潭子區","level":"village","unassigned":false,"note":"","label":[120.70826038980056,24.228864914241584],"bounds":[120.70134,24.223279,120.715092,24.236804],"focusBounds":[120.70134,24.223279,120.715092,24.236804],"color":"#a8bf62"}},{"type":"Feature","id":"66000170011","geometry":{"type":"Polygon","coordinates":[[[120.71414,24.229622],[120.714312,24.228404],[120.714228,24.227936],[120.713609,24.227526],[120.71331,24.226819],[120.712825,24.226387],[120.712918,24.22583],[120.712355,24.225477],[120.712233,24.224783],[120.711701,24.224387],[120.711179,24.224458],[120.710496,24.224161],[120.710717,24.223671],[120.710601,24.223525],[120.709706,24.22329],[120.709651,24.222826],[120.709267,24.222562],[120.709261,24.222308],[120.709566,24.222144],[120.70952,24.221197],[120.709249,24.220858],[120.709641,24.220492],[120.709091,24.219947],[120.708721,24.219984],[120.708401,24.219809],[120.708234,24.219426],[120.708457,24.218968],[120.707893,24.218509],[120.707706,24.217588],[120.708054,24.217809],[120.708472,24.217713],[120.708674,24.21744],[120.708141,24.216822],[120.708233,24.214916],[120.70797,24.214325],[120.716238,24.213232],[120.716278,24.213733],[120.71728,24.215391],[120.717688,24.216372],[120.718294,24.21909],[120.719496,24.220295],[120.721187,24.221203],[120.72191,24.222088],[120.7225,24.223277],[120.722442,24.223959],[120.722132,24.224512],[120.721313,24.225148],[120.720812,24.225789],[120.720811,24.228466],[120.720613,24.228893],[120.719872,24.229671],[120.719715,24.229548],[120.719152,24.229298],[120.715622,24.230344],[120.714556,24.230309],[120.714341,24.229764],[120.71414,24.229622]]]},"properties":{"code":"66000170011","name":"嘉仁里","countyCode":"66000","countyName":"臺中市","townCode":"66000170","townName":"潭子區","level":"village","unassigned":false,"note":"","label":[120.71428502798669,24.22087245569318],"bounds":[120.707706,24.213232,120.7225,24.230344],"focusBounds":[120.707706,24.213232,120.7225,24.230344],"color":"#df9f6a"}},{"type":"Feature","id":"66000170012","geometry":{"type":"Polygon","coordinates":[[[120.715956,24.205566],[120.716716,24.205621],[120.717499,24.205319],[120.718479,24.205766],[120.718946,24.205835],[120.719248,24.205737],[120.719895,24.205153],[120.720727,24.205128],[120.72151,24.204649],[120.722034,24.204499],[120.723238,24.204593],[120.723933,24.205035],[120.724399,24.205141],[120.725755,24.204986],[120.726657,24.205253],[120.727987,24.204391],[120.728273,24.204628],[120.728536,24.205688],[120.72832,24.20624],[120.728406,24.206425],[120.728944,24.206347],[120.729533,24.205815],[120.730012,24.205967],[120.729771,24.207166],[120.7304,24.208067],[120.73085,24.209544],[120.731566,24.209871],[120.732782,24.209399],[120.734722,24.20977],[120.735295,24.210245],[120.735949,24.211113],[120.736695,24.211333],[120.739583,24.211189],[120.741399,24.209723],[120.741792,24.209548],[120.742556,24.20982],[120.743588,24.210654],[120.743941,24.210612],[120.745589,24.209527],[120.746401,24.209808],[120.747222,24.210572],[120.748064,24.210826],[120.747951,24.211025],[120.749319,24.212779],[120.749496,24.213248],[120.749431,24.213839],[120.750057,24.214302],[120.750615,24.215171],[120.751729,24.215473],[120.752085,24.21665],[120.753668,24.219273],[120.753263,24.220284],[120.752068,24.221433],[120.748158,24.222248],[120.74682,24.222654],[120.746301,24.222687],[120.744965,24.222412],[120.744594,24.222208],[120.744111,24.222207],[120.743024,24.223433],[120.742486,24.224326],[120.742108,24.224741],[120.741342,24.22462],[120.739523,24.224636],[120.738798,24.224977],[120.737803,24.224842],[120.737076,24.224108],[120.73673,24.223255],[120.734319,24.22124],[120.733378,24.219872],[120.732632,24.219372],[120.731787,24.219247],[120.72837,24.219216],[120.727897,24.21943],[120.727219,24.219274],[120.726818,24.2196],[120.72653,24.220636],[120.725532,24.220956],[120.725048,24.221481],[120.724205,24.221739],[120.722989,24.221589],[120.722099,24.221802],[120.72191,24.222088],[120.721187,24.221203],[120.719496,24.220295],[120.718294,24.21909],[120.717688,24.216372],[120.71728,24.215391],[120.716278,24.213733],[120.716238,24.213232],[120.716129,24.209651],[120.715397,24.208653],[120.715327,24.207304],[120.715308,24.206725],[120.715956,24.205566]]]},"properties":{"code":"66000170012","name":"新田里","countyCode":"66000","countyName":"臺中市","townCode":"66000170","townName":"潭子區","level":"village","unassigned":false,"note":"","label":[120.72479460655903,24.212455519965353],"bounds":[120.715308,24.204391,120.753668,24.224977],"focusBounds":[120.715308,24.204391,120.753668,24.224977],"color":"#58b99d"}},{"type":"Feature","id":"66000170013","geometry":{"type":"Polygon","coordinates":[[[120.748064,24.210826],[120.747222,24.210572],[120.746401,24.209808],[120.745589,24.209527],[120.743941,24.210612],[120.743588,24.210654],[120.742556,24.20982],[120.741792,24.209548],[120.741399,24.209723],[120.739583,24.211189],[120.736695,24.211333],[120.735949,24.211113],[120.735295,24.210245],[120.734722,24.20977],[120.732782,24.209399],[120.731566,24.209871],[120.73085,24.209544],[120.7304,24.208067],[120.729771,24.207166],[120.730012,24.205967],[120.729533,24.205815],[120.728944,24.206347],[120.728406,24.206425],[120.72832,24.20624],[120.728536,24.205688],[120.728273,24.204628],[120.727987,24.204391],[120.726657,24.205253],[120.725755,24.204986],[120.724399,24.205141],[120.723933,24.205035],[120.723238,24.204593],[120.722034,24.204499],[120.72151,24.204649],[120.720727,24.205128],[120.719895,24.205153],[120.719248,24.205737],[120.718946,24.205835],[120.718479,24.205766],[120.717499,24.205319],[120.716716,24.205621],[120.715956,24.205566],[120.715724,24.204597],[120.715476,24.204106],[120.714237,24.202831],[120.713671,24.202423],[120.711819,24.20159],[120.711844,24.200648],[120.713502,24.19673],[120.713513,24.195918],[120.713063,24.19498],[120.710812,24.193153],[120.710495,24.193052],[120.710303,24.192284],[120.711951,24.190639],[120.712255,24.189764],[120.710934,24.187929],[120.712285,24.187048],[120.712181,24.186835],[120.712506,24.186582],[120.712897,24.18611],[120.713235,24.185858],[120.713385,24.185902],[120.713686,24.18659],[120.713291,24.187547],[120.713353,24.187816],[120.714617,24.187711],[120.71484,24.189334],[120.714738,24.190114],[120.717292,24.190401],[120.717812,24.190673],[120.717864,24.191273],[120.718759,24.191319],[120.720015,24.191316],[120.720241,24.190434],[120.720771,24.190444],[120.720816,24.190188],[120.720993,24.190127],[120.72334,24.19009],[120.72352,24.190389],[120.723906,24.190616],[120.724413,24.191975],[120.725996,24.191802],[120.727178,24.191923],[120.729054,24.191555],[120.729316,24.191851],[120.729899,24.19331],[120.730225,24.1936],[120.730816,24.194611],[120.731801,24.195027],[120.732553,24.195002],[120.733668,24.19419],[120.734511,24.194156],[120.735519,24.194086],[120.735962,24.194669],[120.736852,24.195148],[120.737538,24.196162],[120.737651,24.19649],[120.737348,24.197258],[120.737398,24.19844],[120.737206,24.199482],[120.737978,24.200209],[120.738009,24.200933],[120.738471,24.20194],[120.738935,24.202113],[120.741173,24.20226],[120.74303,24.203302],[120.743415,24.203367],[120.745765,24.203025],[120.74612,24.203403],[120.74638,24.204074],[120.74726,24.204166],[120.747712,24.204431],[120.749658,24.204437],[120.750346,24.20478],[120.75103,24.2061],[120.750202,24.206853],[120.750348,24.208972],[120.749757,24.209233],[120.749033,24.21005],[120.748064,24.210826]]]},"properties":{"code":"66000170013","name":"聚興里","countyCode":"66000","countyName":"臺中市","townCode":"66000170","townName":"潭子區","level":"village","unassigned":false,"note":"","label":[120.7254188640318,24.198444605212014],"bounds":[120.710303,24.185858,120.75103,24.211333],"focusBounds":[120.710303,24.185858,120.75103,24.211333],"color":"#c38cb8"}},{"type":"Feature","id":"66000170014","geometry":{"type":"Polygon","coordinates":[[[120.705012,24.19716],[120.704489,24.196871],[120.705016,24.201241],[120.703896,24.200702],[120.703442,24.200668],[120.702537,24.195943],[120.702485,24.194426],[120.702504,24.192061],[120.702472,24.187038],[120.702475,24.187037],[120.704088,24.187091],[120.70406,24.18779],[120.703303,24.187946],[120.703379,24.188571],[120.703558,24.188715],[120.704481,24.188727],[120.704866,24.189029],[120.704228,24.189658],[120.705096,24.190398],[120.705314,24.19138],[120.705307,24.192127],[120.704561,24.192213],[120.704427,24.192523],[120.705,24.193336],[120.70535,24.194413],[120.705294,24.194916],[120.704842,24.194873],[120.704838,24.19518],[120.70551,24.195898],[120.70564,24.196273],[120.705012,24.19716]]]},"properties":{"code":"66000170014","name":"頭家東里","countyCode":"66000","countyName":"臺中市","townCode":"66000170","townName":"潭子區","level":"village","unassigned":false,"note":"","label":[120.70381444242825,24.19398347804618],"bounds":[120.702472,24.187037,120.70564,24.201241],"focusBounds":[120.702472,24.187037,120.70564,24.201241],"color":"#58b99d"}},{"type":"Feature","id":"66000170015","geometry":{"type":"Polygon","coordinates":[[[120.702504,24.192061],[120.699441,24.192159],[120.699493,24.191032],[120.6993,24.189701],[120.699039,24.189158],[120.698611,24.188843],[120.698049,24.188671],[120.697888,24.188316],[120.69847,24.188152],[120.701007,24.187372],[120.701107,24.187127],[120.702472,24.187038],[120.702504,24.192061]]]},"properties":{"code":"66000170015","name":"家興里","countyCode":"66000","countyName":"臺中市","townCode":"66000170","townName":"潭子區","level":"village","unassigned":false,"note":"","label":[120.70086410173279,24.1896329814697],"bounds":[120.697888,24.187038,120.702504,24.192159],"focusBounds":[120.697888,24.187038,120.702504,24.192159],"color":"#efb44f"}},{"type":"Feature","id":"66000170016","geometry":{"type":"Polygon","coordinates":[[[120.702485,24.194426],[120.70027,24.194363],[120.697945,24.194627],[120.695171,24.193979],[120.694917,24.194078],[120.694967,24.193796],[120.693941,24.192911],[120.695224,24.192111],[120.696435,24.192014],[120.6969,24.192012],[120.697531,24.1916],[120.698728,24.191446],[120.699441,24.192159],[120.702504,24.192061],[120.702485,24.194426]]]},"properties":{"code":"66000170016","name":"家福里","countyCode":"66000","countyName":"臺中市","townCode":"66000170","townName":"潭子區","level":"village","unassigned":false,"note":"","label":[120.6981600111133,24.19306111421133],"bounds":[120.693941,24.191446,120.702504,24.194627],"focusBounds":[120.693941,24.191446,120.702504,24.194627],"color":"#dd8590"}}]}
