{"type":"FeatureCollection","features":[{"type":"Feature","id":"66000180001","geometry":{"type":"Polygon","coordinates":[[[120.645272,24.225553],[120.64811,24.219616],[120.648562,24.220099],[120.648816,24.221366],[120.649946,24.2216],[120.649726,24.222965],[120.650984,24.222947],[120.652104,24.223217],[120.65277,24.223152],[120.653598,24.223923],[120.653472,24.225297],[120.651789,24.227985],[120.650492,24.227329],[120.645272,24.225553]]]},"properties":{"code":"66000180001","name":"大雅里","countyCode":"66000","countyName":"臺中市","townCode":"66000180","townName":"大雅區","level":"village","unassigned":false,"note":"","label":[120.64979467125423,24.225028122837614],"bounds":[120.645272,24.219616,120.653598,24.227985],"focusBounds":[120.645272,24.219616,120.653598,24.227985],"color":"#dd8590"}},{"type":"Feature","id":"66000180002","geometry":{"type":"Polygon","coordinates":[[[120.66942,24.245619],[120.668956,24.24485],[120.662789,24.247487],[120.662049,24.247377],[120.659994,24.248207],[120.653048,24.251311],[120.652769,24.251056],[120.651932,24.250254],[120.651022,24.248937],[120.648161,24.246898],[120.647982,24.246713],[120.648083,24.246362],[120.647656,24.246608],[120.647345,24.246419],[120.646465,24.245398],[120.64579,24.245067],[120.645638,24.244216],[120.644061,24.243155],[120.643359,24.241356],[120.643651,24.240293],[120.643565,24.239837],[120.64253,24.23814],[120.641509,24.237004],[120.641911,24.236892],[120.641902,24.236048],[120.641157,24.23511],[120.638309,24.232224],[120.640858,24.230119],[120.643085,24.22792],[120.644279,24.22644],[120.644814,24.226493],[120.64546,24.22708],[120.646455,24.228985],[120.647145,24.22953],[120.64758,24.231353],[120.648463,24.231169],[120.648605,24.230906],[120.648954,24.230745],[120.650332,24.23051],[120.650334,24.230338],[120.651657,24.230042],[120.65216,24.229675],[120.652691,24.228907],[120.654193,24.229629],[120.654367,24.229346],[120.655937,24.22861],[120.655938,24.229681],[120.656698,24.231605],[120.658054,24.232846],[120.658914,24.233958],[120.659516,24.234948],[120.659651,24.235726],[120.661007,24.236757],[120.660732,24.237376],[120.659946,24.237725],[120.659689,24.23841],[120.660006,24.239506],[120.660486,24.240385],[120.661397,24.241023],[120.663439,24.241027],[120.664013,24.241254],[120.664204,24.241606],[120.66524,24.241784],[120.665452,24.24191],[120.665697,24.242691],[120.665915,24.242918],[120.667791,24.244],[120.668274,24.243993],[120.668954,24.244533],[120.66942,24.245619]]]},"properties":{"code":"66000180002","name":"員林里","countyCode":"66000","countyName":"臺中市","townCode":"66000180","townName":"大雅區","level":"village","unassigned":false,"note":"","label":[120.65212539058693,24.239362511827636],"bounds":[120.638309,24.22644,120.66942,24.251311],"focusBounds":[120.638309,24.22644,120.66942,24.251311],"color":"#dd8590"}},{"type":"Feature","id":"66000180003","geometry":{"type":"Polygon","coordinates":[[[120.644061,24.243155],[120.641899,24.243493],[120.640573,24.24403],[120.639228,24.244305],[120.639951,24.245864],[120.641977,24.248303],[120.641277,24.248568],[120.640549,24.249688],[120.639605,24.250391],[120.637973,24.252061],[120.637064,24.255572],[120.636372,24.257305],[120.635567,24.258769],[120.635189,24.259129],[120.633162,24.259266],[120.631211,24.258019],[120.626232,24.254058],[120.625109,24.25268],[120.624259,24.251241],[120.62362,24.248283],[120.623524,24.245896],[120.624245,24.245136],[120.624261,24.244581],[120.623106,24.242853],[120.622535,24.24164],[120.623637,24.239852],[120.622825,24.239158],[120.622926,24.239229],[120.623132,24.237771],[120.625351,24.236479],[120.625978,24.235695],[120.626504,24.235184],[120.62697,24.234368],[120.628224,24.233601],[120.62949,24.233354],[120.630056,24.232988],[120.632374,24.2323],[120.634838,24.231089],[120.635743,24.230941],[120.636481,24.231052],[120.638047,24.231925],[120.638309,24.232224],[120.641157,24.23511],[120.641902,24.236048],[120.641911,24.236892],[120.641509,24.237004],[120.64253,24.23814],[120.643565,24.239837],[120.643651,24.240293],[120.643359,24.241356],[120.644061,24.243155]]]},"properties":{"code":"66000180003","name":"六寶里","countyCode":"66000","countyName":"臺中市","townCode":"66000180","townName":"大雅區","level":"village","unassigned":false,"note":"","label":[120.63171701455974,24.244188402780935],"bounds":[120.622535,24.230941,120.644061,24.259266],"focusBounds":[120.622535,24.230941,120.644061,24.259266],"color":"#a49ad4"}},{"type":"Feature","id":"66000180004","geometry":{"type":"Polygon","coordinates":[[[120.625978,24.235695],[120.623125,24.227575],[120.622281,24.226118],[120.621831,24.224094],[120.621532,24.223474],[120.619936,24.221646],[120.620386,24.219996],[120.620735,24.219378],[120.621419,24.21907],[120.621884,24.219021],[120.622513,24.219249],[120.623537,24.219077],[120.624841,24.216822],[120.626665,24.217066],[120.627614,24.216379],[120.628184,24.215446],[120.628157,24.215236],[120.62786,24.215026],[120.627972,24.214496],[120.62766,24.213476],[120.628975,24.213355],[120.630103,24.213031],[120.630542,24.213128],[120.630678,24.213293],[120.630834,24.214628],[120.631107,24.215141],[120.633398,24.216812],[120.634368,24.217356],[120.635889,24.219325],[120.636699,24.219642],[120.639878,24.220231],[120.640812,24.219163],[120.640524,24.220727],[120.640627,24.221152],[120.641237,24.221864],[120.641833,24.222068],[120.642625,24.22267],[120.641852,24.224353],[120.641735,24.22626],[120.642449,24.227456],[120.643085,24.22792],[120.640858,24.230119],[120.638309,24.232224],[120.638047,24.231925],[120.636481,24.231052],[120.635743,24.230941],[120.634838,24.231089],[120.632374,24.2323],[120.630056,24.232988],[120.62949,24.233354],[120.628224,24.233601],[120.62697,24.234368],[120.626504,24.235184],[120.625978,24.235695]]]},"properties":{"code":"66000180004","name":"秀山里","countyCode":"66000","countyName":"臺中市","townCode":"66000180","townName":"大雅區","level":"village","unassigned":false,"note":"","label":[120.63043128031255,24.22460699190959],"bounds":[120.619936,24.213031,120.643085,24.235695],"focusBounds":[120.619936,24.213031,120.643085,24.235695],"color":"#a8bf62"}},{"type":"Feature","id":"66000180005","geometry":{"type":"Polygon","coordinates":[[[120.625978,24.235695],[120.625351,24.236479],[120.623132,24.237771],[120.622926,24.239229],[120.622825,24.239158],[120.619556,24.236954],[120.617101,24.235587],[120.616014,24.236027],[120.615355,24.23603],[120.614009,24.236536],[120.613116,24.236702],[120.610938,24.237835],[120.61054,24.238186],[120.610329,24.238084],[120.610224,24.237741],[120.608303,24.238284],[120.605804,24.239226],[120.605345,24.238334],[120.604968,24.237929],[120.604656,24.236894],[120.603453,24.234167],[120.603209,24.233007],[120.603258,24.232324],[120.603298,24.231998],[120.602864,24.230676],[120.602705,24.229477],[120.602293,24.22835],[120.600974,24.226161],[120.600375,24.225449],[120.599837,24.224393],[120.599512,24.222544],[120.599736,24.22217],[120.601242,24.22189],[120.602044,24.221925],[120.603481,24.222932],[120.60391,24.223],[120.606017,24.222671],[120.606583,24.222464],[120.607823,24.222383],[120.610296,24.221679],[120.611702,24.220872],[120.613335,24.220725],[120.61445,24.219691],[120.615199,24.219434],[120.615443,24.220087],[120.615698,24.220238],[120.616108,24.220297],[120.616847,24.220023],[120.61753,24.220401],[120.618105,24.220169],[120.618387,24.220211],[120.619936,24.221646],[120.621532,24.223474],[120.621831,24.224094],[120.622281,24.226118],[120.623125,24.227575],[120.625978,24.235695]]]},"properties":{"code":"66000180005","name":"忠義里","countyCode":"66000","countyName":"臺中市","townCode":"66000180","townName":"大雅區","level":"village","unassigned":false,"note":"","label":[120.61326525020992,24.228702737090323],"bounds":[120.599512,24.219434,120.625978,24.239229],"focusBounds":[120.599512,24.219434,120.625978,24.239229],"color":"#68bec9"}},{"type":"Feature","id":"66000180006","geometry":{"type":"Polygon","coordinates":[[[120.619936,24.221646],[120.618387,24.220211],[120.618105,24.220169],[120.61753,24.220401],[120.616847,24.220023],[120.616108,24.220297],[120.615698,24.220238],[120.615443,24.220087],[120.615199,24.219434],[120.61445,24.219691],[120.613335,24.220725],[120.611702,24.220872],[120.610296,24.221679],[120.607823,24.222383],[120.606583,24.222464],[120.606017,24.222671],[120.60391,24.223],[120.603481,24.222932],[120.602044,24.221925],[120.601242,24.22189],[120.599736,24.22217],[120.599512,24.222544],[120.599557,24.221404],[120.598894,24.220085],[120.59755,24.216427],[120.597,24.215596],[120.596331,24.214164],[120.597699,24.214001],[120.598517,24.214438],[120.600575,24.214803],[120.60098,24.214715],[120.600741,24.213369],[120.60289,24.212498],[120.605364,24.212105],[120.605681,24.211883],[120.606061,24.211904],[120.608126,24.211298],[120.609743,24.211374],[120.611274,24.210558],[120.613202,24.210536],[120.614441,24.209944],[120.616049,24.209637],[120.617578,24.209155],[120.620373,24.208686],[120.621076,24.208809],[120.624071,24.207405],[120.624294,24.207632],[120.624549,24.207585],[120.625293,24.207232],[120.635577,24.203891],[120.635711,24.203806],[120.635676,24.202293],[120.636367,24.201903],[120.63694,24.201816],[120.637629,24.203541],[120.63805,24.203591],[120.638912,24.203389],[120.639035,24.204373],[120.641527,24.20321],[120.642132,24.204011],[120.642431,24.205011],[120.644454,24.204071],[120.645354,24.203938],[120.646002,24.204225],[120.646847,24.205368],[120.647285,24.206237],[120.647639,24.206492],[120.64426,24.209392],[120.64299,24.210129],[120.642987,24.211166],[120.644049,24.213203],[120.642901,24.212788],[120.642008,24.21271],[120.641608,24.212384],[120.639268,24.212697],[120.639912,24.216465],[120.640894,24.218543],[120.642888,24.21851],[120.642973,24.219887],[120.640812,24.219163],[120.639878,24.220231],[120.636699,24.219642],[120.635889,24.219325],[120.634368,24.217356],[120.633398,24.216812],[120.631107,24.215141],[120.630834,24.214628],[120.630678,24.213293],[120.630542,24.213128],[120.630103,24.213031],[120.628975,24.213355],[120.62766,24.213476],[120.627972,24.214496],[120.62786,24.215026],[120.628157,24.215236],[120.628184,24.215446],[120.627614,24.216379],[120.626665,24.217066],[120.624841,24.216822],[120.623537,24.219077],[120.622513,24.219249],[120.621884,24.219021],[120.621419,24.21907],[120.620735,24.219378],[120.620386,24.219996],[120.619936,24.221646]]]},"properties":{"code":"66000180006","name":"橫山里","countyCode":"66000","countyName":"臺中市","townCode":"66000180","townName":"大雅區","level":"village","unassigned":false,"note":"","label":[120.61801198696752,24.21464435320447],"bounds":[120.596331,24.201816,120.647639,24.223],"focusBounds":[120.596331,24.201816,120.647639,24.223],"color":"#df9f6a"}},{"type":"Feature","id":"66000180007","geometry":{"type":"Polygon","coordinates":[[[120.655685,24.218928],[120.65521,24.217999],[120.654908,24.215791],[120.654439,24.214539],[120.654013,24.212385],[120.654386,24.210152],[120.65414,24.208964],[120.654472,24.208464],[120.655517,24.208015],[120.65644,24.208668],[120.657676,24.208506],[120.659053,24.207365],[120.659639,24.207174],[120.662423,24.207068],[120.66474,24.207153],[120.665026,24.208131],[120.666014,24.210207],[120.66765,24.212209],[120.66824,24.21328],[120.668445,24.214886],[120.668374,24.215358],[120.668692,24.215955],[120.667608,24.215711],[120.668817,24.220365],[120.668875,24.221225],[120.666319,24.221301],[120.660647,24.221785],[120.659883,24.21929],[120.659528,24.218923],[120.657276,24.219017],[120.655685,24.218928]]]},"properties":{"code":"66000180007","name":"三和里","countyCode":"66000","countyName":"臺中市","townCode":"66000180","townName":"大雅區","level":"village","unassigned":false,"note":"","label":[120.66135868212106,24.213567189187422],"bounds":[120.654013,24.207068,120.668875,24.221785],"focusBounds":[120.654013,24.207068,120.668875,24.221785],"color":"#c38cb8"}},{"type":"Feature","id":"66000180008","geometry":{"type":"Polygon","coordinates":[[[120.682412,24.239711],[120.68185,24.239379],[120.680996,24.238323],[120.679402,24.238177],[120.679143,24.238072],[120.67893,24.237713],[120.678557,24.237622],[120.678381,24.237378],[120.67825,24.236573],[120.677585,24.236117],[120.677256,24.235037],[120.676774,24.234231],[120.675868,24.233178],[120.675274,24.232419],[120.674364,24.231907],[120.673291,24.230893],[120.671425,24.228164],[120.670811,24.226949],[120.66973,24.223411],[120.668875,24.221225],[120.668817,24.220365],[120.667608,24.215711],[120.668692,24.215955],[120.668374,24.215358],[120.668445,24.214886],[120.66824,24.21328],[120.66765,24.212209],[120.666014,24.210207],[120.665026,24.208131],[120.66474,24.207153],[120.664622,24.204658],[120.665056,24.20362],[120.665041,24.20328],[120.664523,24.202326],[120.664466,24.201574],[120.666382,24.202161],[120.667602,24.202268],[120.668704,24.203218],[120.669833,24.203684],[120.670724,24.206838],[120.670787,24.20719],[120.670528,24.207263],[120.671154,24.208757],[120.672486,24.208484],[120.674135,24.208546],[120.675249,24.210064],[120.676602,24.211204],[120.677394,24.212777],[120.678587,24.217124],[120.678663,24.217496],[120.678523,24.217603],[120.674964,24.217732],[120.67459,24.217805],[120.674561,24.218467],[120.673175,24.218438],[120.673085,24.218555],[120.67385,24.222042],[120.674108,24.222639],[120.674794,24.223289],[120.675997,24.223545],[120.676661,24.223907],[120.677742,24.225759],[120.677971,24.226945],[120.677656,24.229198],[120.677901,24.229813],[120.678286,24.230128],[120.678657,24.230203],[120.680315,24.230151],[120.680862,24.231374],[120.681372,24.232095],[120.682744,24.234006],[120.681835,24.234118],[120.680855,24.23365],[120.680466,24.236032],[120.681112,24.237822],[120.682412,24.239711]]]},"properties":{"code":"66000180008","name":"西寶里","countyCode":"66000","countyName":"臺中市","townCode":"66000180","townName":"大雅區","level":"village","unassigned":false,"note":"","label":[120.673468627151,24.21394189029961],"bounds":[120.664466,24.201574,120.682744,24.239711],"focusBounds":[120.664466,24.201574,120.682744,24.239711],"color":"#efb44f"}},{"type":"Feature","id":"66000180009","geometry":{"type":"Polygon","coordinates":[[[120.66942,24.245619],[120.668954,24.244533],[120.668274,24.243993],[120.667791,24.244],[120.665915,24.242918],[120.665697,24.242691],[120.665452,24.24191],[120.66524,24.241784],[120.664204,24.241606],[120.664013,24.241254],[120.663439,24.241027],[120.661397,24.241023],[120.660486,24.240385],[120.660006,24.239506],[120.659689,24.23841],[120.659946,24.237725],[120.660732,24.237376],[120.661007,24.236757],[120.659651,24.235726],[120.659516,24.234948],[120.658914,24.233958],[120.66217,24.232615],[120.663443,24.233185],[120.665874,24.234886],[120.669382,24.233401],[120.670565,24.23434],[120.670924,24.234357],[120.670998,24.2346],[120.67138,24.234864],[120.672479,24.235552],[120.673431,24.235947],[120.674104,24.236823],[120.674447,24.23679],[120.674562,24.23695],[120.674353,24.2375],[120.674757,24.237748],[120.674575,24.238162],[120.674919,24.238592],[120.674699,24.239072],[120.675279,24.239729],[120.675938,24.239603],[120.676019,24.239729],[120.675876,24.239919],[120.676095,24.240157],[120.675793,24.240519],[120.675737,24.240853],[120.675546,24.240862],[120.674565,24.24188],[120.675202,24.243059],[120.66942,24.245619]]]},"properties":{"code":"66000180009","name":"上楓里","countyCode":"66000","countyName":"臺中市","townCode":"66000180","townName":"大雅區","level":"village","unassigned":false,"note":"","label":[120.66896191414729,24.238674484098695],"bounds":[120.658914,24.232615,120.676095,24.245619],"focusBounds":[120.658914,24.232615,120.676095,24.245619],"color":"#58b99d"}},{"type":"Feature","id":"66000180010","geometry":{"type":"Polygon","coordinates":[[[120.65511,24.224244],[120.653598,24.223923],[120.65277,24.223152],[120.652104,24.223217],[120.650984,24.222947],[120.649726,24.222965],[120.649946,24.2216],[120.648816,24.221366],[120.648562,24.220099],[120.648809,24.218754],[120.651234,24.219156],[120.655614,24.219052],[120.655685,24.218928],[120.657276,24.219017],[120.659528,24.218923],[120.659883,24.21929],[120.660647,24.221785],[120.662232,24.229589],[120.66183,24.229789],[120.661663,24.229388],[120.661088,24.229253],[120.660843,24.229006],[120.660459,24.228991],[120.659939,24.228519],[120.659286,24.228827],[120.659202,24.228581],[120.659341,24.228405],[120.659405,24.227322],[120.6587,24.227243],[120.658455,24.226933],[120.65838,24.226321],[120.658043,24.225891],[120.658027,24.225127],[120.657778,24.224722],[120.657124,24.224541],[120.655857,24.224647],[120.65511,24.224244]]]},"properties":{"code":"66000180010","name":"二和里","countyCode":"66000","countyName":"臺中市","townCode":"66000180","townName":"大雅區","level":"village","unassigned":false,"note":"","label":[120.6566971575628,24.221780560209975],"bounds":[120.648562,24.218754,120.662232,24.229789],"focusBounds":[120.648562,24.218754,120.662232,24.229789],"color":"#efb44f"}},{"type":"Feature","id":"66000180011","geometry":{"type":"Polygon","coordinates":[[[120.655685,24.218928],[120.655614,24.219052],[120.651234,24.219156],[120.648809,24.218754],[120.648562,24.220099],[120.64811,24.219616],[120.647849,24.219249],[120.647759,24.218772],[120.647953,24.218045],[120.6479,24.217376],[120.646364,24.215491],[120.645545,24.214988],[120.644737,24.213865],[120.644049,24.213203],[120.642987,24.211166],[120.64299,24.210129],[120.64426,24.209392],[120.647639,24.206492],[120.648735,24.207208],[120.649493,24.207923],[120.651165,24.209584],[120.651602,24.209809],[120.65404,24.209424],[120.654024,24.208868],[120.654472,24.208464],[120.65414,24.208964],[120.654386,24.210152],[120.654013,24.212385],[120.654439,24.214539],[120.654908,24.215791],[120.65521,24.217999],[120.655685,24.218928]]]},"properties":{"code":"66000180011","name":"四德里","countyCode":"66000","countyName":"臺中市","townCode":"66000180","townName":"大雅區","level":"village","unassigned":false,"note":"","label":[120.64999351128021,24.213396522744706],"bounds":[120.642987,24.206492,120.655685,24.220099],"focusBounds":[120.642987,24.206492,120.655685,24.220099],"color":"#78a7e3"}},{"type":"Feature","id":"66000180012","geometry":{"type":"Polygon","coordinates":[[[120.655937,24.22861],[120.654367,24.229346],[120.654193,24.229629],[120.652691,24.228907],[120.65216,24.229675],[120.651657,24.230042],[120.650334,24.230338],[120.650332,24.23051],[120.648954,24.230745],[120.648605,24.230906],[120.648463,24.231169],[120.64758,24.231353],[120.647145,24.22953],[120.646455,24.228985],[120.64546,24.22708],[120.644814,24.226493],[120.645272,24.225553],[120.650492,24.227329],[120.651789,24.227985],[120.653472,24.225297],[120.653598,24.223923],[120.65511,24.224244],[120.654979,24.225665],[120.655277,24.226677],[120.655804,24.227356],[120.655937,24.22861]]]},"properties":{"code":"66000180012","name":"上雅里","countyCode":"66000","countyName":"臺中市","townCode":"66000180","townName":"大雅區","level":"village","unassigned":false,"note":"","label":[120.64917569127893,24.228794412369048],"bounds":[120.644814,24.223923,120.655937,24.231353],"focusBounds":[120.644814,24.223923,120.655937,24.231353],"color":"#a8bf62"}},{"type":"Feature","id":"66000180013","geometry":{"type":"Polygon","coordinates":[[[120.643085,24.22792],[120.642449,24.227456],[120.641735,24.22626],[120.641852,24.224353],[120.642625,24.22267],[120.641833,24.222068],[120.641237,24.221864],[120.640627,24.221152],[120.640524,24.220727],[120.640812,24.219163],[120.642973,24.219887],[120.642888,24.21851],[120.640894,24.218543],[120.639912,24.216465],[120.639268,24.212697],[120.641608,24.212384],[120.642008,24.21271],[120.642901,24.212788],[120.644049,24.213203],[120.644737,24.213865],[120.645545,24.214988],[120.646364,24.215491],[120.6479,24.217376],[120.647953,24.218045],[120.647759,24.218772],[120.647849,24.219249],[120.64811,24.219616],[120.645272,24.225553],[120.644814,24.226493],[120.644279,24.22644],[120.643085,24.22792]]]},"properties":{"code":"66000180013","name":"文雅里","countyCode":"66000","countyName":"臺中市","townCode":"66000180","townName":"大雅區","level":"village","unassigned":false,"note":"","label":[120.64258806541918,24.215637835246504],"bounds":[120.639268,24.212384,120.64811,24.22792],"focusBounds":[120.639268,24.212384,120.64811,24.22792],"color":"#a49ad4"}},{"type":"Feature","id":"66000180014","geometry":{"type":"Polygon","coordinates":[[[120.674447,24.23679],[120.674104,24.236823],[120.673431,24.235947],[120.672479,24.235552],[120.67138,24.234864],[120.670998,24.2346],[120.670924,24.234357],[120.670565,24.23434],[120.669382,24.233401],[120.665874,24.234886],[120.663443,24.233185],[120.66217,24.232615],[120.665538,24.231116],[120.664823,24.230553],[120.664562,24.230881],[120.663983,24.230735],[120.663305,24.230988],[120.662562,24.230288],[120.662629,24.230022],[120.662232,24.229589],[120.660647,24.221785],[120.666319,24.221301],[120.668875,24.221225],[120.66973,24.223411],[120.670811,24.226949],[120.671425,24.228164],[120.673291,24.230893],[120.674364,24.231907],[120.675274,24.232419],[120.675868,24.233178],[120.67504,24.233371],[120.67474,24.233078],[120.674527,24.233413],[120.674541,24.234032],[120.674257,24.234534],[120.674503,24.23471],[120.674709,24.234616],[120.674731,24.235087],[120.674559,24.235507],[120.674569,24.236024],[120.67428,24.236336],[120.674261,24.236598],[120.674447,24.23679]]]},"properties":{"code":"66000180014","name":"大楓里","countyCode":"66000","countyName":"臺中市","townCode":"66000180","townName":"大雅區","level":"village","unassigned":false,"note":"","label":[120.66662122537285,24.226893460220907],"bounds":[120.660647,24.221225,120.675868,24.236823],"focusBounds":[120.660647,24.221225,120.675868,24.236823],"color":"#68bec9"}},{"type":"Feature","id":"66000180015","geometry":{"type":"Polygon","coordinates":[[[120.66217,24.232615],[120.658914,24.233958],[120.658054,24.232846],[120.656698,24.231605],[120.655938,24.229681],[120.655937,24.22861],[120.655804,24.227356],[120.655277,24.226677],[120.654979,24.225665],[120.65511,24.224244],[120.655857,24.224647],[120.657124,24.224541],[120.657778,24.224722],[120.658027,24.225127],[120.658043,24.225891],[120.65838,24.226321],[120.658455,24.226933],[120.6587,24.227243],[120.659405,24.227322],[120.659341,24.228405],[120.659202,24.228581],[120.659286,24.228827],[120.659939,24.228519],[120.660459,24.228991],[120.660843,24.229006],[120.661088,24.229253],[120.661663,24.229388],[120.66183,24.229789],[120.662232,24.229589],[120.662629,24.230022],[120.662562,24.230288],[120.663305,24.230988],[120.663983,24.230735],[120.664562,24.230881],[120.664823,24.230553],[120.665538,24.231116],[120.66217,24.232615]]]},"properties":{"code":"66000180015","name":"雅楓里","countyCode":"66000","countyName":"臺中市","townCode":"66000180","townName":"大雅區","level":"village","unassigned":false,"note":"","label":[120.65973422069969,24.231117499627167],"bounds":[120.654979,24.224244,120.665538,24.233958],"focusBounds":[120.654979,24.224244,120.665538,24.233958],"color":"#df9f6a"}}]}
