{"type":"FeatureCollection","features":[{"type":"Feature","id":"66000050001","geometry":{"type":"Polygon","coordinates":[[[120.679625,24.152195],[120.679298,24.153498],[120.678108,24.153088],[120.677981,24.153277],[120.677903,24.155731],[120.67693,24.155729],[120.677302,24.154655],[120.677309,24.15128],[120.67523,24.149282],[120.675152,24.149361],[120.674932,24.149105],[120.676053,24.148144],[120.67675,24.148787],[120.677029,24.148614],[120.677109,24.148693],[120.677495,24.148351],[120.67713,24.147966],[120.678427,24.14746],[120.678549,24.14783],[120.677802,24.149834],[120.678054,24.149918],[120.678188,24.150172],[120.678457,24.15094],[120.678337,24.151219],[120.679701,24.151879],[120.679625,24.152195]]]},"properties":{"code":"66000050001","name":"光大里","countyCode":"66000","countyName":"臺中市","townCode":"66000050","townName":"北區","level":"village","unassigned":false,"note":"","label":[120.6783250198604,24.15218791792548],"bounds":[120.674932,24.14746,120.679701,24.155731],"focusBounds":[120.674932,24.14746,120.679701,24.155731],"color":"#98b69b"}},{"type":"Feature","id":"66000050002","geometry":{"type":"Polygon","coordinates":[[[120.67693,24.155729],[120.675278,24.155739],[120.674738,24.154052],[120.673236,24.15401],[120.673156,24.152193],[120.673399,24.152178],[120.67368,24.151896],[120.673782,24.151497],[120.674653,24.151496],[120.675321,24.151307],[120.675291,24.151182],[120.674936,24.151179],[120.674973,24.150899],[120.675339,24.150576],[120.675211,24.150013],[120.67495,24.149721],[120.675152,24.149361],[120.67523,24.149282],[120.677309,24.15128],[120.677302,24.154655],[120.67693,24.155729]]]},"properties":{"code":"66000050002","name":"文莊里","countyCode":"66000","countyName":"臺中市","townCode":"66000050","townName":"北區","level":"village","unassigned":false,"note":"","label":[120.67575158642721,24.152878070679325],"bounds":[120.673156,24.149282,120.677309,24.155739],"focusBounds":[120.673156,24.149282,120.677309,24.155739],"color":"#efb44f"}},{"type":"Feature","id":"66000050003","geometry":{"type":"Polygon","coordinates":[[[120.677903,24.155731],[120.677981,24.153277],[120.678108,24.153088],[120.679298,24.153498],[120.679625,24.152195],[120.686211,24.154737],[120.685211,24.157017],[120.685078,24.157257],[120.681543,24.155726],[120.677903,24.155731]]]},"properties":{"code":"66000050003","name":"五常里","countyCode":"66000","countyName":"臺中市","townCode":"66000050","townName":"北區","level":"village","unassigned":false,"note":"","label":[120.68186133119468,24.15446099170942],"bounds":[120.677903,24.152195,120.686211,24.157257],"focusBounds":[120.677903,24.152195,120.686211,24.157257],"color":"#efb44f"}},{"type":"Feature","id":"66000050004","geometry":{"type":"Polygon","coordinates":[[[120.686691,24.147839],[120.686426,24.147241],[120.683854,24.148154],[120.684518,24.149765],[120.684165,24.149879],[120.683055,24.147292],[120.683002,24.147169],[120.682568,24.147322],[120.681941,24.146647],[120.681855,24.146245],[120.68195,24.146158],[120.682199,24.145939],[120.681653,24.144885],[120.681793,24.144539],[120.682298,24.14413],[120.683638,24.14296],[120.684331,24.142312],[120.685306,24.143235],[120.685651,24.143273],[120.685772,24.143272],[120.686483,24.145771],[120.688637,24.146462],[120.689148,24.146582],[120.690126,24.146479],[120.690399,24.146531],[120.69055,24.146731],[120.690623,24.147345],[120.688647,24.146751],[120.689022,24.147395],[120.688168,24.14756],[120.688046,24.147736],[120.686691,24.147839]]]},"properties":{"code":"66000050004","name":"新興里","countyCode":"66000","countyName":"臺中市","townCode":"66000050","townName":"北區","level":"village","unassigned":false,"note":"","label":[120.68423655391487,24.145412913338703],"bounds":[120.681653,24.142312,120.690623,24.149879],"focusBounds":[120.681653,24.142312,120.690623,24.149879],"color":"#78a7e3"}},{"type":"Feature","id":"66000050005","geometry":{"type":"Polygon","coordinates":[[[120.687356,24.155721],[120.686211,24.154737],[120.684165,24.149879],[120.684518,24.149765],[120.683854,24.148154],[120.686426,24.147241],[120.686691,24.147839],[120.68916,24.153637],[120.687168,24.15436],[120.687668,24.1556],[120.687356,24.155721]]]},"properties":{"code":"66000050005","name":"新北里","countyCode":"66000","countyName":"臺中市","townCode":"66000050","townName":"北區","level":"village","unassigned":false,"note":"","label":[120.68646124290544,24.15125691927296],"bounds":[120.683854,24.147241,120.68916,24.155721],"focusBounds":[120.683854,24.147241,120.68916,24.155721],"color":"#dd8590"}},{"type":"Feature","id":"66000050006","geometry":{"type":"Polygon","coordinates":[[[120.686691,24.147839],[120.688046,24.147736],[120.688168,24.14756],[120.689022,24.147395],[120.688647,24.146751],[120.690623,24.147345],[120.690243,24.148266],[120.690988,24.148774],[120.691378,24.149763],[120.691163,24.150042],[120.69062,24.150267],[120.690948,24.151098],[120.69056,24.151987],[120.691652,24.151745],[120.691688,24.151915],[120.691991,24.152642],[120.692642,24.152662],[120.692805,24.153845],[120.692932,24.154482],[120.691341,24.155081],[120.691252,24.154846],[120.68989,24.15546],[120.68969,24.154911],[120.687668,24.1556],[120.687168,24.15436],[120.68916,24.153637],[120.686691,24.147839]]]},"properties":{"code":"66000050006","name":"樂英里","countyCode":"66000","countyName":"臺中市","townCode":"66000050","townName":"北區","level":"village","unassigned":false,"note":"","label":[120.68949446287124,24.150991588106592],"bounds":[120.686691,24.146751,120.692932,24.1556],"focusBounds":[120.686691,24.146751,120.692932,24.1556],"color":"#a49ad4"}},{"type":"Feature","id":"66000050007","geometry":{"type":"Polygon","coordinates":[[[120.698656,24.155422],[120.695229,24.155479],[120.695322,24.154827],[120.695081,24.15454],[120.694407,24.154604],[120.694418,24.153939],[120.692805,24.153845],[120.692642,24.152662],[120.694583,24.152462],[120.698134,24.151497],[120.698656,24.155422]]]},"properties":{"code":"66000050007","name":"錦村里","countyCode":"66000","countyName":"臺中市","townCode":"66000050","townName":"北區","level":"village","unassigned":false,"note":"","label":[120.69652091523379,24.153696289568234],"bounds":[120.692642,24.151497,120.698656,24.155479],"focusBounds":[120.692642,24.151497,120.698656,24.155479],"color":"#a8bf62"}},{"type":"Feature","id":"66000050008","geometry":{"type":"Polygon","coordinates":[[[120.703905,24.159368],[120.699355,24.160396],[120.698656,24.155422],[120.698134,24.151497],[120.698669,24.151346],[120.699189,24.151557],[120.699742,24.15143],[120.70076,24.153984],[120.701422,24.154695],[120.702628,24.156685],[120.703122,24.157272],[120.703828,24.15773],[120.703905,24.159368]]]},"properties":{"code":"66000050008","name":"建成里","countyCode":"66000","countyName":"臺中市","townCode":"66000050","townName":"北區","level":"village","unassigned":false,"note":"","label":[120.70055404472824,24.156533866025427],"bounds":[120.698134,24.151346,120.703905,24.160396],"focusBounds":[120.698134,24.151346,120.703905,24.160396],"color":"#68bec9"}},{"type":"Feature","id":"66000050009","geometry":{"type":"Polygon","coordinates":[[[120.695229,24.155479],[120.695226,24.155943],[120.695771,24.156707],[120.695957,24.156711],[120.695955,24.157966],[120.6961,24.157969],[120.696376,24.158703],[120.696755,24.158697],[120.696878,24.158837],[120.697336,24.159781],[120.697391,24.160735],[120.694158,24.161309],[120.694417,24.160334],[120.694396,24.155467],[120.695229,24.155479]]]},"properties":{"code":"66000050009","name":"錦洲里","countyCode":"66000","countyName":"臺中市","townCode":"66000050","townName":"北區","level":"village","unassigned":false,"note":"","label":[120.69566225535272,24.15972196865479],"bounds":[120.694158,24.155467,120.697391,24.161309],"focusBounds":[120.694158,24.155467,120.697391,24.161309],"color":"#df9f6a"}},{"type":"Feature","id":"66000050010","geometry":{"type":"Polygon","coordinates":[[[120.691384,24.159172],[120.687356,24.155721],[120.687668,24.1556],[120.68969,24.154911],[120.68989,24.15546],[120.691252,24.154846],[120.691341,24.155081],[120.692932,24.154482],[120.692805,24.153845],[120.694418,24.153939],[120.694407,24.154604],[120.695081,24.15454],[120.695322,24.154827],[120.695229,24.155479],[120.694396,24.155467],[120.693529,24.155468],[120.69357,24.155826],[120.692481,24.156034],[120.692357,24.155726],[120.690272,24.15641],[120.691384,24.159172]]]},"properties":{"code":"66000050010","name":"金華里","countyCode":"66000","countyName":"臺中市","townCode":"66000050","townName":"北區","level":"village","unassigned":false,"note":"","label":[120.68951679707287,24.15627102677294],"bounds":[120.687356,24.153845,120.695322,24.159172],"focusBounds":[120.687356,24.153845,120.695322,24.159172],"color":"#c38cb8"}},{"type":"Feature","id":"66000050011","geometry":{"type":"Polygon","coordinates":[[[120.692312,24.161405],[120.692285,24.161655],[120.688625,24.162287],[120.688264,24.160851],[120.687582,24.161108],[120.686441,24.161058],[120.686096,24.15971],[120.685613,24.159054],[120.685613,24.157361],[120.685211,24.157017],[120.686211,24.154737],[120.687356,24.155721],[120.691384,24.159172],[120.692312,24.161405]]]},"properties":{"code":"66000050011","name":"金龍里","countyCode":"66000","countyName":"臺中市","townCode":"66000050","townName":"北區","level":"village","unassigned":false,"note":"","label":[120.68842014107355,24.159051983827187],"bounds":[120.685211,24.154737,120.692312,24.162287],"focusBounds":[120.685211,24.154737,120.692312,24.162287],"color":"#98b69b"}},{"type":"Feature","id":"66000050012","geometry":{"type":"Polygon","coordinates":[[[120.685211,24.157017],[120.685613,24.157361],[120.685613,24.159054],[120.680955,24.159134],[120.680832,24.159136],[120.680747,24.158393],[120.679886,24.157384],[120.676411,24.157341],[120.676471,24.157147],[120.675721,24.157158],[120.675278,24.155739],[120.67693,24.155729],[120.677903,24.155731],[120.681543,24.155726],[120.685078,24.157257],[120.685211,24.157017]]]},"properties":{"code":"66000050012","name":"邱厝里","countyCode":"66000","countyName":"臺中市","townCode":"66000050","townName":"北區","level":"village","unassigned":false,"note":"","label":[120.68195866117554,24.157511585652777],"bounds":[120.675278,24.155726,120.685613,24.159136],"focusBounds":[120.675278,24.155726,120.685613,24.159136],"color":"#58b99d"}},{"type":"Feature","id":"66000050013","geometry":{"type":"Polygon","coordinates":[[[120.688386,24.162733],[120.6852,24.162755],[120.685074,24.162621],[120.684971,24.162703],[120.681902,24.162281],[120.68097,24.162397],[120.680955,24.159134],[120.685613,24.159054],[120.686096,24.15971],[120.686441,24.161058],[120.687582,24.161108],[120.688264,24.160851],[120.688625,24.162287],[120.688386,24.162733]]]},"properties":{"code":"66000050013","name":"建興里","countyCode":"66000","countyName":"臺中市","townCode":"66000050","townName":"北區","level":"village","unassigned":false,"note":"","label":[120.68437851356651,24.16084819625632],"bounds":[120.680955,24.159054,120.688625,24.162755],"focusBounds":[120.680955,24.159054,120.688625,24.162755],"color":"#efb44f"}},{"type":"Feature","id":"66000050014","geometry":{"type":"Polygon","coordinates":[[[120.682677,24.167039],[120.682387,24.165221],[120.682379,24.164483],[120.68167,24.164497],[120.681661,24.163939],[120.681502,24.163962],[120.681393,24.163099],[120.680968,24.163107],[120.68097,24.162397],[120.681902,24.162281],[120.684971,24.162703],[120.685074,24.162621],[120.685136,24.166945],[120.684995,24.166979],[120.68506,24.168422],[120.682944,24.168546],[120.682677,24.167039]]]},"properties":{"code":"66000050014","name":"頂厝里","countyCode":"66000","countyName":"臺中市","townCode":"66000050","townName":"北區","level":"village","unassigned":false,"note":"","label":[120.68373814803648,24.1650400546838],"bounds":[120.680968,24.162281,120.685136,24.168546],"focusBounds":[120.680968,24.162281,120.685136,24.168546],"color":"#78a7e3"}},{"type":"Feature","id":"66000050015","geometry":{"type":"Polygon","coordinates":[[[120.673901,24.16502],[120.6755,24.165349],[120.682387,24.165221],[120.682677,24.167039],[120.679918,24.167137],[120.676655,24.167026],[120.673255,24.166931],[120.673901,24.16502]]]},"properties":{"code":"66000050015","name":"賴厝里","countyCode":"66000","countyName":"臺中市","townCode":"66000050","townName":"北區","level":"village","unassigned":false,"note":"","label":[120.67809311518916,24.166187757846284],"bounds":[120.673255,24.16502,120.682677,24.167137],"focusBounds":[120.673255,24.16502,120.682677,24.167137],"color":"#dd8590"}},{"type":"Feature","id":"66000050016","geometry":{"type":"Polygon","coordinates":[[[120.674608,24.1629],[120.675786,24.159223],[120.680832,24.159136],[120.680955,24.159134],[120.68097,24.162397],[120.680968,24.163107],[120.675821,24.163187],[120.674608,24.1629]]]},"properties":{"code":"66000050016","name":"賴村里","countyCode":"66000","countyName":"臺中市","townCode":"66000050","townName":"北區","level":"village","unassigned":false,"note":"","label":[120.67807209983656,24.16116764831745],"bounds":[120.674608,24.159134,120.68097,24.163187],"focusBounds":[120.674608,24.159134,120.68097,24.163187],"color":"#a49ad4"}},{"type":"Feature","id":"66000050017","geometry":{"type":"Polygon","coordinates":[[[120.672067,24.159222],[120.672074,24.157385],[120.674362,24.157368],[120.674379,24.157176],[120.675721,24.157158],[120.676471,24.157147],[120.676411,24.157341],[120.679886,24.157384],[120.680747,24.158393],[120.680832,24.159136],[120.675786,24.159223],[120.672067,24.159222]]]},"properties":{"code":"66000050017","name":"育德里","countyCode":"66000","countyName":"臺中市","townCode":"66000050","townName":"北區","level":"village","unassigned":false,"note":"","label":[120.67571934707479,24.158190162398697],"bounds":[120.672067,24.157147,120.680832,24.159223],"focusBounds":[120.672067,24.157147,120.680832,24.159223],"color":"#a8bf62"}},{"type":"Feature","id":"66000050018","geometry":{"type":"Polygon","coordinates":[[[120.672067,24.159222],[120.666254,24.159227],[120.665337,24.159102],[120.664501,24.158583],[120.663885,24.157639],[120.666129,24.15597],[120.664063,24.154762],[120.663966,24.154641],[120.665837,24.153687],[120.666346,24.153762],[120.669172,24.15358],[120.669777,24.153774],[120.669823,24.154065],[120.670201,24.15417],[120.670496,24.154006],[120.670503,24.155738],[120.67206,24.1572],[120.672074,24.157385],[120.672067,24.159222]]]},"properties":{"code":"66000050018","name":"淡溝里","countyCode":"66000","countyName":"臺中市","townCode":"66000050","townName":"北區","level":"village","unassigned":false,"note":"","label":[120.66839516199794,24.156895505975324],"bounds":[120.663885,24.15358,120.672074,24.159227],"focusBounds":[120.663885,24.15358,120.672074,24.159227],"color":"#68bec9"}},{"type":"Feature","id":"66000050019","geometry":{"type":"Polygon","coordinates":[[[120.672074,24.157385],[120.67206,24.1572],[120.670503,24.155738],[120.670496,24.154006],[120.671099,24.15409],[120.671414,24.154357],[120.671835,24.154307],[120.67194,24.153894],[120.671561,24.153207],[120.672866,24.152221],[120.673156,24.152193],[120.673236,24.15401],[120.674738,24.154052],[120.675278,24.155739],[120.675721,24.157158],[120.674379,24.157176],[120.674362,24.157368],[120.672074,24.157385]]]},"properties":{"code":"66000050019","name":"中達里","countyCode":"66000","countyName":"臺中市","townCode":"66000050","townName":"北區","level":"village","unassigned":false,"note":"","label":[120.67303389355884,24.155687164078458],"bounds":[120.670496,24.152193,120.675721,24.157385],"focusBounds":[120.670496,24.152193,120.675721,24.157385],"color":"#df9f6a"}},{"type":"Feature","id":"66000050020","geometry":{"type":"Polygon","coordinates":[[[120.692312,24.161405],[120.691384,24.159172],[120.690272,24.15641],[120.692357,24.155726],[120.692481,24.156034],[120.69357,24.155826],[120.693529,24.155468],[120.694396,24.155467],[120.694417,24.160334],[120.694158,24.161309],[120.692924,24.16154],[120.692786,24.161315],[120.692312,24.161405]]]},"properties":{"code":"66000050020","name":"錦祥里","countyCode":"66000","countyName":"臺中市","townCode":"66000050","townName":"北區","level":"village","unassigned":false,"note":"","label":[120.69275277489629,24.15817780103322],"bounds":[120.690272,24.155467,120.694417,24.16154],"focusBounds":[120.690272,24.155467,120.694417,24.16154],"color":"#58b99d"}},{"type":"Feature","id":"66000050021","geometry":{"type":"Polygon","coordinates":[[[120.670524,24.162877],[120.665624,24.162853],[120.665016,24.162626],[120.662916,24.161327],[120.66336,24.160608],[120.66366,24.16045],[120.664177,24.160433],[120.664634,24.160156],[120.664796,24.15994],[120.664785,24.159449],[120.665337,24.159102],[120.666254,24.159227],[120.672067,24.159222],[120.675786,24.159223],[120.674608,24.1629],[120.670524,24.162877]]]},"properties":{"code":"66000050021","name":"健行里","countyCode":"66000","countyName":"臺中市","townCode":"66000050","townName":"北區","level":"village","unassigned":false,"note":"","label":[120.66964484616679,24.16104842863288],"bounds":[120.662916,24.159102,120.675786,24.1629],"focusBounds":[120.662916,24.159102,120.675786,24.1629],"color":"#58b99d"}},{"type":"Feature","id":"66000050022","geometry":{"type":"Polygon","coordinates":[[[120.670524,24.162877],[120.670517,24.166861],[120.66558,24.166803],[120.664644,24.164721],[120.663367,24.163146],[120.662544,24.162081],[120.662916,24.161327],[120.665016,24.162626],[120.665624,24.162853],[120.670524,24.162877]]]},"properties":{"code":"66000050022","name":"明德里","countyCode":"66000","countyName":"臺中市","townCode":"66000050","townName":"北區","level":"village","unassigned":false,"note":"","label":[120.66717817568932,24.164841468068147],"bounds":[120.662544,24.161327,120.670524,24.166861],"focusBounds":[120.662544,24.161327,120.670524,24.166861],"color":"#efb44f"}},{"type":"Feature","id":"66000050023","geometry":{"type":"Polygon","coordinates":[[[120.673255,24.166931],[120.672229,24.170084],[120.668257,24.170035],[120.668257,24.16978],[120.666517,24.169769],[120.66558,24.166803],[120.670517,24.166861],[120.673255,24.166931]]]},"properties":{"code":"66000050023","name":"長青里","countyCode":"66000","countyName":"臺中市","townCode":"66000050","townName":"北區","level":"village","unassigned":false,"note":"","label":[120.66945254404735,24.168449292580085],"bounds":[120.66558,24.166803,120.673255,24.170084],"focusBounds":[120.66558,24.166803,120.673255,24.170084],"color":"#78a7e3"}},{"type":"Feature","id":"66000050024","geometry":{"type":"Polygon","coordinates":[[[120.672229,24.170084],[120.673255,24.166931],[120.676655,24.167026],[120.67687,24.169911],[120.675043,24.169984],[120.672229,24.170084]]]},"properties":{"code":"66000050024","name":"賴明里","countyCode":"66000","countyName":"臺中市","townCode":"66000050","townName":"北區","level":"village","unassigned":false,"note":"","label":[120.67471369570877,24.168483586315936],"bounds":[120.672229,24.166931,120.67687,24.170084],"focusBounds":[120.672229,24.166931,120.67687,24.170084],"color":"#a49ad4"}},{"type":"Feature","id":"66000050025","geometry":{"type":"Polygon","coordinates":[[[120.675047,24.17372],[120.675162,24.171494],[120.675043,24.169984],[120.67687,24.169911],[120.679252,24.169818],[120.679248,24.171],[120.679596,24.172887],[120.675047,24.17372]]]},"properties":{"code":"66000050025","name":"賴興里","countyCode":"66000","countyName":"臺中市","townCode":"66000050","townName":"北區","level":"village","unassigned":false,"note":"","label":[120.677168276148,24.171615397294914],"bounds":[120.675043,24.169818,120.679596,24.17372],"focusBounds":[120.675043,24.169818,120.679596,24.17372],"color":"#a8bf62"}},{"type":"Feature","id":"66000050026","geometry":{"type":"Polygon","coordinates":[[[120.67606,24.145498],[120.67407,24.147182],[120.673891,24.147015],[120.673935,24.146188],[120.673658,24.146071],[120.673014,24.146135],[120.67178,24.145027],[120.67376,24.14327],[120.675168,24.144819],[120.675158,24.145301],[120.675713,24.145162],[120.67606,24.145498]]]},"properties":{"code":"66000050026","name":"中正里","countyCode":"66000","countyName":"臺中市","townCode":"66000050","townName":"北區","level":"village","unassigned":false,"note":"","label":[120.67368354346128,24.144904777189915],"bounds":[120.67178,24.14327,120.67606,24.147182],"focusBounds":[120.67178,24.14327,120.67606,24.147182],"color":"#68bec9"}},{"type":"Feature","id":"66000050027","geometry":{"type":"Polygon","coordinates":[[[120.678427,24.14746],[120.67713,24.147966],[120.677495,24.148351],[120.677109,24.148693],[120.677029,24.148614],[120.67675,24.148787],[120.676053,24.148144],[120.674932,24.149105],[120.674321,24.148483],[120.674373,24.148124],[120.673922,24.147448],[120.674165,24.147271],[120.67407,24.147182],[120.67606,24.145498],[120.677704,24.146984],[120.678101,24.146739],[120.678427,24.14746]]]},"properties":{"code":"66000050027","name":"六合里","countyCode":"66000","countyName":"臺中市","townCode":"66000050","townName":"北區","level":"village","unassigned":false,"note":"","label":[120.6760321099141,24.147046498210187],"bounds":[120.673922,24.145498,120.678427,24.149105],"focusBounds":[120.673922,24.145498,120.678427,24.149105],"color":"#a8bf62"}},{"type":"Feature","id":"66000050028","geometry":{"type":"Polygon","coordinates":[[[120.683055,24.147292],[120.682658,24.147492],[120.682757,24.147678],[120.682529,24.147862],[120.682082,24.148035],[120.682231,24.148374],[120.682068,24.148609],[120.682133,24.148765],[120.68019,24.149435],[120.680382,24.14986],[120.679863,24.15008],[120.679945,24.150272],[120.679552,24.150415],[120.679839,24.151015],[120.679701,24.151879],[120.678337,24.151219],[120.678457,24.15094],[120.678188,24.150172],[120.678054,24.149918],[120.677802,24.149834],[120.678549,24.14783],[120.678953,24.148197],[120.679215,24.148207],[120.681042,24.146689],[120.68121,24.146685],[120.681855,24.146245],[120.681941,24.146647],[120.682568,24.147322],[120.683002,24.147169],[120.683055,24.147292]]]},"properties":{"code":"66000050028","name":"大湖里","countyCode":"66000","countyName":"臺中市","townCode":"66000050","townName":"北區","level":"village","unassigned":false,"note":"","label":[120.67921621009603,24.14920861382873],"bounds":[120.677802,24.146245,120.683055,24.151879],"focusBounds":[120.677802,24.146245,120.683055,24.151879],"color":"#68bec9"}},{"type":"Feature","id":"66000050029","geometry":{"type":"Polygon","coordinates":[[[120.686211,24.154737],[120.679625,24.152195],[120.679701,24.151879],[120.679839,24.151015],[120.679552,24.150415],[120.679945,24.150272],[120.679863,24.15008],[120.680382,24.14986],[120.68019,24.149435],[120.682133,24.148765],[120.682068,24.148609],[120.682231,24.148374],[120.682082,24.148035],[120.682529,24.147862],[120.682757,24.147678],[120.682658,24.147492],[120.683055,24.147292],[120.684165,24.149879],[120.686211,24.154737]]]},"properties":{"code":"66000050029","name":"錦平里","countyCode":"66000","countyName":"臺中市","townCode":"66000050","townName":"北區","level":"village","unassigned":false,"note":"","label":[120.68237986504447,24.151043117423306],"bounds":[120.679552,24.147292,120.686211,24.154737],"focusBounds":[120.679552,24.147292,120.686211,24.154737],"color":"#df9f6a"}},{"type":"Feature","id":"66000050030","geometry":{"type":"Polygon","coordinates":[[[120.697391,24.160735],[120.697336,24.159781],[120.696878,24.158837],[120.696755,24.158697],[120.696376,24.158703],[120.6961,24.157969],[120.695955,24.157966],[120.695957,24.156711],[120.695771,24.156707],[120.695226,24.155943],[120.695229,24.155479],[120.698656,24.155422],[120.699355,24.160396],[120.697391,24.160735]]]},"properties":{"code":"66000050030","name":"建德里","countyCode":"66000","countyName":"臺中市","townCode":"66000050","townName":"北區","level":"village","unassigned":false,"note":"","label":[120.69752784216297,24.157486101752294],"bounds":[120.695226,24.155422,120.699355,24.160735],"focusBounds":[120.695226,24.155422,120.699355,24.160735],"color":"#c38cb8"}},{"type":"Feature","id":"66000050031","geometry":{"type":"Polygon","coordinates":[[[120.685136,24.166945],[120.685074,24.162621],[120.6852,24.162755],[120.688386,24.162733],[120.688283,24.163568],[120.688974,24.164453],[120.688419,24.164937],[120.688037,24.165219],[120.687837,24.165603],[120.688469,24.166901],[120.685136,24.166945]]]},"properties":{"code":"66000050031","name":"崇德里","countyCode":"66000","countyName":"臺中市","townCode":"66000050","townName":"北區","level":"village","unassigned":false,"note":"","label":[120.68669546597778,24.164388853236566],"bounds":[120.685074,24.162621,120.688974,24.166945],"focusBounds":[120.685074,24.162621,120.688974,24.166945],"color":"#98b69b"}},{"type":"Feature","id":"66000050032","geometry":{"type":"Polygon","coordinates":[[[120.675043,24.169984],[120.675162,24.171494],[120.675047,24.17372],[120.67388,24.173906],[120.672854,24.173969],[120.671385,24.173799],[120.672229,24.170084],[120.675043,24.169984]]]},"properties":{"code":"66000050032","name":"賴旺里","countyCode":"66000","countyName":"臺中市","townCode":"66000050","townName":"北區","level":"village","unassigned":false,"note":"","label":[120.67346670830761,24.17206124411034],"bounds":[120.671385,24.169984,120.675162,24.173969],"focusBounds":[120.671385,24.169984,120.675162,24.173969],"color":"#58b99d"}},{"type":"Feature","id":"66000050033","geometry":{"type":"Polygon","coordinates":[[[120.673255,24.166931],[120.670517,24.166861],[120.670524,24.162877],[120.674608,24.1629],[120.673901,24.16502],[120.673255,24.166931]]]},"properties":{"code":"66000050033","name":"明新里","countyCode":"66000","countyName":"臺中市","townCode":"66000050","townName":"北區","level":"village","unassigned":false,"note":"","label":[120.67221508384102,24.164778567330686],"bounds":[120.670517,24.162877,120.674608,24.166931],"focusBounds":[120.670517,24.162877,120.674608,24.166931],"color":"#a49ad4"}},{"type":"Feature","id":"66000050034","geometry":{"type":"Polygon","coordinates":[[[120.672229,24.170084],[120.671385,24.173799],[120.667063,24.173073],[120.666723,24.171568],[120.666838,24.170883],[120.666517,24.169769],[120.668257,24.16978],[120.668257,24.170035],[120.672229,24.170084]]]},"properties":{"code":"66000050034","name":"立人里","countyCode":"66000","countyName":"臺中市","townCode":"66000050","townName":"北區","level":"village","unassigned":false,"note":"","label":[120.66936058163019,24.171753707236263],"bounds":[120.666517,24.169769,120.672229,24.173799],"focusBounds":[120.666517,24.169769,120.672229,24.173799],"color":"#dd8590"}},{"type":"Feature","id":"66000050035","geometry":{"type":"Polygon","coordinates":[[[120.67687,24.169911],[120.676655,24.167026],[120.679918,24.167137],[120.682677,24.167039],[120.682944,24.168546],[120.678666,24.168554],[120.679173,24.169411],[120.679252,24.169818],[120.67687,24.169911]]]},"properties":{"code":"66000050035","name":"梅川里","countyCode":"66000","countyName":"臺中市","townCode":"66000050","townName":"北區","level":"village","unassigned":false,"note":"","label":[120.67924512271459,24.16783337301306],"bounds":[120.676655,24.167026,120.682944,24.169911],"focusBounds":[120.676655,24.167026,120.682944,24.169911],"color":"#68bec9"}},{"type":"Feature","id":"66000050036","geometry":{"type":"Polygon","coordinates":[[[120.680968,24.163107],[120.681393,24.163099],[120.681502,24.163962],[120.681661,24.163939],[120.68167,24.164497],[120.682379,24.164483],[120.682387,24.165221],[120.6755,24.165349],[120.673901,24.16502],[120.674608,24.1629],[120.675821,24.163187],[120.680968,24.163107]]]},"properties":{"code":"66000050036","name":"賴福里","countyCode":"66000","countyName":"臺中市","townCode":"66000050","townName":"北區","level":"village","unassigned":false,"note":"","label":[120.67801628343602,24.164227538892984],"bounds":[120.673901,24.1629,120.682387,24.165349],"focusBounds":[120.673901,24.1629,120.682387,24.165349],"color":"#a8bf62"}}]}
