{"type":"FeatureCollection","features":[{"type":"Feature","id":"66000040001","geometry":{"type":"Polygon","coordinates":[[[120.680368,24.137554],[120.679124,24.138614],[120.676123,24.135702],[120.67589,24.135903],[120.674394,24.134416],[120.676091,24.132864],[120.678165,24.133742],[120.682415,24.135526],[120.682173,24.135971],[120.68115,24.136876],[120.680368,24.137554]]]},"properties":{"code":"66000040001","name":"民生里","countyCode":"66000","countyName":"臺中市","townCode":"66000040","townName":"西區","level":"village","unassigned":false,"note":"","label":[120.6786367826929,24.13585842777325],"bounds":[120.674394,24.132864,120.682415,24.138614],"focusBounds":[120.674394,24.132864,120.682415,24.138614],"color":"#a49ad4"}},{"type":"Feature","id":"66000040002","geometry":{"type":"Polygon","coordinates":[[[120.678737,24.138944],[120.677841,24.139715],[120.674796,24.136864],[120.674558,24.137078],[120.673604,24.136155],[120.674061,24.135759],[120.673489,24.135218],[120.673833,24.134912],[120.673067,24.134226],[120.673332,24.133999],[120.671795,24.132535],[120.672914,24.131517],[120.674518,24.132197],[120.676091,24.132864],[120.674394,24.134416],[120.67589,24.135903],[120.676123,24.135702],[120.679124,24.138614],[120.678737,24.138944]]]},"properties":{"code":"66000040002","name":"利民里","countyCode":"66000","countyName":"臺中市","townCode":"66000040","townName":"西區","level":"village","unassigned":false,"note":"","label":[120.67404227519489,24.13320199733883],"bounds":[120.671795,24.131517,120.679124,24.139715],"focusBounds":[120.671795,24.131517,120.679124,24.139715],"color":"#a8bf62"}},{"type":"Feature","id":"66000040003","geometry":{"type":"Polygon","coordinates":[[[120.66951,24.134474],[120.671795,24.132535],[120.673332,24.133999],[120.673067,24.134226],[120.673833,24.134912],[120.673489,24.135218],[120.674061,24.135759],[120.673604,24.136155],[120.674558,24.137078],[120.674796,24.136864],[120.677841,24.139715],[120.677809,24.139742],[120.677245,24.140229],[120.675732,24.13879],[120.675129,24.139305],[120.674582,24.139085],[120.674273,24.138694],[120.673713,24.139185],[120.672194,24.137741],[120.673007,24.137048],[120.672256,24.136292],[120.67077,24.134831],[120.670574,24.135002],[120.670297,24.13455],[120.670091,24.134732],[120.669908,24.134554],[120.669741,24.134704],[120.66951,24.134474]]]},"properties":{"code":"66000040003","name":"三民里","countyCode":"66000","countyName":"臺中市","townCode":"66000040","townName":"西區","level":"village","unassigned":false,"note":"","label":[120.67187064431238,24.13426030096907],"bounds":[120.66951,24.132535,120.677841,24.140229],"focusBounds":[120.66951,24.132535,120.677841,24.140229],"color":"#68bec9"}},{"type":"Feature","id":"66000040004","geometry":{"type":"Polygon","coordinates":[[[120.669197,24.138265],[120.668786,24.137871],[120.66936,24.137406],[120.669239,24.137283],[120.669453,24.137094],[120.668817,24.136479],[120.668047,24.137144],[120.667306,24.136415],[120.66951,24.134474],[120.669741,24.134704],[120.669908,24.134554],[120.670091,24.134732],[120.670297,24.13455],[120.670574,24.135002],[120.67077,24.134831],[120.672256,24.136292],[120.670851,24.137529],[120.670334,24.13798],[120.66979,24.137703],[120.669197,24.138265]]]},"properties":{"code":"66000040004","name":"東昇里","countyCode":"66000","countyName":"臺中市","townCode":"66000040","townName":"西區","level":"village","unassigned":false,"note":"","label":[120.67008422800191,24.13606426917255],"bounds":[120.667306,24.134474,120.672256,24.138265],"focusBounds":[120.667306,24.134474,120.672256,24.138265],"color":"#df9f6a"}},{"type":"Feature","id":"66000040005","geometry":{"type":"Polygon","coordinates":[[[120.675762,24.14151],[120.674721,24.142423],[120.674234,24.141811],[120.674119,24.141903],[120.673922,24.141713],[120.674554,24.141126],[120.672204,24.140423],[120.672523,24.140001],[120.672221,24.139761],[120.671955,24.14],[120.671733,24.139521],[120.671118,24.139159],[120.671297,24.138875],[120.671106,24.138696],[120.671601,24.138257],[120.670851,24.137529],[120.672256,24.136292],[120.673007,24.137048],[120.672194,24.137741],[120.673713,24.139185],[120.674273,24.138694],[120.674582,24.139085],[120.675129,24.139305],[120.675732,24.13879],[120.677245,24.140229],[120.676773,24.140638],[120.675762,24.14151]]]},"properties":{"code":"66000040005","name":"廣民里","countyCode":"66000","countyName":"臺中市","townCode":"66000040","townName":"西區","level":"village","unassigned":false,"note":"","label":[120.67462803585839,24.14012363625087],"bounds":[120.670851,24.136292,120.677245,24.142423],"focusBounds":[120.670851,24.136292,120.677245,24.142423],"color":"#c38cb8"}},{"type":"Feature","id":"66000040006","geometry":{"type":"Polygon","coordinates":[[[120.67178,24.145027],[120.67125,24.145459],[120.669744,24.143978],[120.670813,24.143057],[120.671823,24.142172],[120.670335,24.140728],[120.671183,24.140013],[120.669197,24.138265],[120.66979,24.137703],[120.670334,24.13798],[120.670851,24.137529],[120.671601,24.138257],[120.671106,24.138696],[120.671297,24.138875],[120.671118,24.139159],[120.671733,24.139521],[120.671955,24.14],[120.672221,24.139761],[120.672523,24.140001],[120.672204,24.140423],[120.674554,24.141126],[120.673922,24.141713],[120.674119,24.141903],[120.674234,24.141811],[120.674721,24.142423],[120.674683,24.142457],[120.67376,24.14327],[120.67178,24.145027]]]},"properties":{"code":"66000040006","name":"平和里","countyCode":"66000","countyName":"臺中市","townCode":"66000040","townName":"西區","level":"village","unassigned":false,"note":"","label":[120.67285587775805,24.14184688682723],"bounds":[120.669197,24.137529,120.674721,24.145459],"focusBounds":[120.669197,24.137529,120.674721,24.145459],"color":"#98b69b"}},{"type":"Feature","id":"66000040007","geometry":{"type":"Polygon","coordinates":[[[120.669197,24.138265],[120.671183,24.140013],[120.670335,24.140728],[120.671823,24.142172],[120.670813,24.143057],[120.667317,24.13967],[120.666826,24.1401],[120.6665,24.139772],[120.665726,24.140082],[120.665704,24.138609],[120.664024,24.138608],[120.664011,24.136555],[120.665703,24.136542],[120.665809,24.134942],[120.667306,24.136415],[120.668047,24.137144],[120.668817,24.136479],[120.669453,24.137094],[120.669239,24.137283],[120.66936,24.137406],[120.668786,24.137871],[120.669197,24.138265]]]},"properties":{"code":"66000040007","name":"公民里","countyCode":"66000","countyName":"臺中市","townCode":"66000040","townName":"西區","level":"village","unassigned":false,"note":"","label":[120.66705568147097,24.138211330172318],"bounds":[120.664011,24.134942,120.671823,24.143057],"focusBounds":[120.664011,24.134942,120.671823,24.143057],"color":"#58b99d"}},{"type":"Feature","id":"66000040008","geometry":{"type":"Polygon","coordinates":[[[120.66951,24.134474],[120.667306,24.136415],[120.665809,24.134942],[120.668438,24.129625],[120.668439,24.129625],[120.672914,24.131517],[120.671795,24.132535],[120.66951,24.134474]]]},"properties":{"code":"66000040008","name":"藍興里","countyCode":"66000","countyName":"臺中市","townCode":"66000040","townName":"西區","level":"village","unassigned":false,"note":"","label":[120.66898199549742,24.132558189422664],"bounds":[120.665809,24.129625,120.672914,24.136415],"focusBounds":[120.665809,24.129625,120.672914,24.136415],"color":"#efb44f"}},{"type":"Feature","id":"66000040009","geometry":{"type":"Polygon","coordinates":[[[120.664011,24.136555],[120.66401,24.134528],[120.663069,24.134527],[120.663075,24.133883],[120.662637,24.133879],[120.662611,24.132172],[120.661753,24.132127],[120.662001,24.130053],[120.662191,24.129657],[120.66341,24.129172],[120.665917,24.129551],[120.666452,24.128791],[120.668438,24.129625],[120.665809,24.134942],[120.665703,24.136542],[120.664011,24.136555]]]},"properties":{"code":"66000040009","name":"公舘里","countyCode":"66000","countyName":"臺中市","townCode":"66000040","townName":"西區","level":"village","unassigned":false,"note":"","label":[120.6648146618135,24.131903068061813],"bounds":[120.661753,24.128791,120.668438,24.136555],"focusBounds":[120.661753,24.128791,120.668438,24.136555],"color":"#78a7e3"}},{"type":"Feature","id":"66000040010","geometry":{"type":"Polygon","coordinates":[[[120.675152,24.149361],[120.67495,24.149721],[120.675211,24.150013],[120.675339,24.150576],[120.674973,24.150899],[120.674936,24.151179],[120.675291,24.151182],[120.675321,24.151307],[120.674653,24.151496],[120.673782,24.151497],[120.67368,24.151896],[120.673399,24.152178],[120.671001,24.149845],[120.67407,24.147182],[120.674165,24.147271],[120.673922,24.147448],[120.674373,24.148124],[120.674321,24.148483],[120.674932,24.149105],[120.675152,24.149361]]]},"properties":{"code":"66000040010","name":"和龍里","countyCode":"66000","countyName":"臺中市","townCode":"66000040","townName":"西區","level":"village","unassigned":false,"note":"","label":[120.67338411166345,24.149871332469836],"bounds":[120.671001,24.147182,120.675339,24.152178],"focusBounds":[120.671001,24.147182,120.675339,24.152178],"color":"#dd8590"}},{"type":"Feature","id":"66000040011","geometry":{"type":"Polygon","coordinates":[[[120.664063,24.154762],[120.663724,24.154566],[120.662953,24.153358],[120.662954,24.151475],[120.662972,24.150862],[120.664298,24.150862],[120.664297,24.14902],[120.665295,24.149013],[120.665293,24.149426],[120.665982,24.149441],[120.665978,24.149651],[120.666633,24.149655],[120.666625,24.150837],[120.667575,24.150846],[120.667576,24.150262],[120.670539,24.150246],[120.671001,24.149845],[120.673399,24.152178],[120.673156,24.152193],[120.672866,24.152221],[120.671561,24.153207],[120.67194,24.153894],[120.671835,24.154307],[120.671414,24.154357],[120.671099,24.15409],[120.670496,24.154006],[120.670201,24.15417],[120.669823,24.154065],[120.669777,24.153774],[120.669172,24.15358],[120.666346,24.153762],[120.665837,24.153687],[120.663966,24.154641],[120.664063,24.154762]]]},"properties":{"code":"66000040011","name":"民龍里","countyCode":"66000","countyName":"臺中市","townCode":"66000040","townName":"西區","level":"village","unassigned":false,"note":"","label":[120.66886574308408,24.151927234349493],"bounds":[120.662953,24.149013,120.673399,24.154762],"focusBounds":[120.662953,24.149013,120.673399,24.154762],"color":"#a49ad4"}},{"type":"Feature","id":"66000040012","geometry":{"type":"Polygon","coordinates":[[[120.668843,24.144784],[120.670338,24.146225],[120.67125,24.145459],[120.67178,24.145027],[120.673014,24.146135],[120.673658,24.146071],[120.673935,24.146188],[120.673891,24.147015],[120.67407,24.147182],[120.671001,24.149845],[120.670539,24.150246],[120.667576,24.150262],[120.667578,24.146731],[120.668162,24.14673],[120.668169,24.145414],[120.668843,24.144784]]]},"properties":{"code":"66000040012","name":"後龍里","countyCode":"66000","countyName":"臺中市","townCode":"66000040","townName":"西區","level":"village","unassigned":false,"note":"","label":[120.6700435028094,24.148094757340246],"bounds":[120.667576,24.144784,120.67407,24.150262],"focusBounds":[120.667576,24.144784,120.67407,24.150262],"color":"#a8bf62"}},{"type":"Feature","id":"66000040013","geometry":{"type":"Polygon","coordinates":[[[120.67125,24.145459],[120.670338,24.146225],[120.668843,24.144784],[120.6688,24.144407],[120.664284,24.144354],[120.6617,24.144323],[120.661696,24.142976],[120.661698,24.141655],[120.664286,24.141659],[120.66429,24.140099],[120.665726,24.140082],[120.6665,24.139772],[120.666826,24.1401],[120.667317,24.13967],[120.670813,24.143057],[120.669744,24.143978],[120.67125,24.145459]]]},"properties":{"code":"66000040013","name":"安龍里","countyCode":"66000","countyName":"臺中市","townCode":"66000040","townName":"西區","level":"village","unassigned":false,"note":"","label":[120.66683413083817,24.142238401878576],"bounds":[120.661696,24.13967,120.67125,24.146225],"focusBounds":[120.661696,24.13967,120.67125,24.146225],"color":"#68bec9"}},{"type":"Feature","id":"66000040014","geometry":{"type":"Polygon","coordinates":[[[120.66429,24.140099],[120.662614,24.1401],[120.662619,24.139276],[120.66169,24.139276],[120.661689,24.137967],[120.660195,24.137968],[120.660194,24.13656],[120.658835,24.136561],[120.658835,24.135153],[120.657331,24.135154],[120.657335,24.133911],[120.658951,24.133592],[120.661441,24.132184],[120.661753,24.132127],[120.662611,24.132172],[120.662637,24.133879],[120.663075,24.133883],[120.663069,24.134527],[120.66401,24.134528],[120.664011,24.136555],[120.664024,24.138608],[120.665704,24.138609],[120.665726,24.140082],[120.66429,24.140099]]]},"properties":{"code":"66000040014","name":"吉龍里","countyCode":"66000","countyName":"臺中市","townCode":"66000040","townName":"西區","level":"village","unassigned":false,"note":"","label":[120.66200714117868,24.13609002654325],"bounds":[120.657331,24.132127,120.665726,24.1401],"focusBounds":[120.657331,24.132127,120.665726,24.1401],"color":"#df9f6a"}},{"type":"Feature","id":"66000040015","geometry":{"type":"Polygon","coordinates":[[[120.664284,24.144354],[120.664302,24.146744],[120.660167,24.146737],[120.656995,24.146703],[120.656996,24.144015],[120.65674,24.143396],[120.65623,24.142952],[120.657306,24.142957],[120.661696,24.142976],[120.6617,24.144323],[120.664284,24.144354]]]},"properties":{"code":"66000040015","name":"昇平里","countyCode":"66000","countyName":"臺中市","townCode":"66000040","townName":"西區","level":"village","unassigned":false,"note":"","label":[120.65985102154366,24.144850905946953],"bounds":[120.65623,24.142952,120.664302,24.146744],"focusBounds":[120.65623,24.142952,120.664302,24.146744],"color":"#c38cb8"}},{"type":"Feature","id":"66000040016","geometry":{"type":"Polygon","coordinates":[[[120.660205,24.15144],[120.662954,24.151475],[120.662953,24.153358],[120.663724,24.154566],[120.664063,24.154762],[120.666129,24.15597],[120.663885,24.157639],[120.664501,24.158583],[120.665337,24.159102],[120.664785,24.159449],[120.664796,24.15994],[120.664634,24.160156],[120.664177,24.160433],[120.66366,24.16045],[120.66336,24.160608],[120.658786,24.153479],[120.658682,24.152544],[120.658684,24.151457],[120.660205,24.15144]]]},"properties":{"code":"66000040016","name":"忠明里","countyCode":"66000","countyName":"臺中市","townCode":"66000040","townName":"西區","level":"village","unassigned":false,"note":"","label":[120.6621735685109,24.15545012181058],"bounds":[120.658682,24.15144,120.666129,24.160608],"focusBounds":[120.658682,24.15144,120.666129,24.160608],"color":"#98b69b"}},{"type":"Feature","id":"66000040017","geometry":{"type":"Polygon","coordinates":[[[120.655051,24.144988],[120.655108,24.150882],[120.653025,24.15083],[120.653011,24.14882],[120.65137,24.148826],[120.651277,24.146777],[120.649782,24.146748],[120.649879,24.143814],[120.65125,24.143839],[120.651246,24.14501],[120.655051,24.144988]]]},"properties":{"code":"66000040017","name":"公正里","countyCode":"66000","countyName":"臺中市","townCode":"66000040","townName":"西區","level":"village","unassigned":false,"note":"","label":[120.65312896501527,24.147002815869552],"bounds":[120.649782,24.143814,120.655108,24.150882],"focusBounds":[120.649782,24.143814,120.655108,24.150882],"color":"#58b99d"}},{"type":"Feature","id":"66000040018","geometry":{"type":"Polygon","coordinates":[[[120.66429,24.140099],[120.664286,24.141659],[120.661698,24.141655],[120.661696,24.142976],[120.657306,24.142957],[120.657331,24.135154],[120.658835,24.135153],[120.658835,24.136561],[120.660194,24.13656],[120.660195,24.137968],[120.661689,24.137967],[120.66169,24.139276],[120.662619,24.139276],[120.662614,24.1401],[120.66429,24.140099]]]},"properties":{"code":"66000040018","name":"土庫里","countyCode":"66000","countyName":"臺中市","townCode":"66000040","townName":"西區","level":"village","unassigned":false,"note":"","label":[120.65952917289789,24.140162450950108],"bounds":[120.657306,24.135153,120.66429,24.142976],"focusBounds":[120.657306,24.135153,120.66429,24.142976],"color":"#efb44f"}},{"type":"Feature","id":"66000040019","geometry":{"type":"Polygon","coordinates":[[[120.658682,24.152544],[120.658786,24.153479],[120.66336,24.160608],[120.662916,24.161327],[120.662544,24.162081],[120.663367,24.163146],[120.663186,24.163407],[120.662487,24.163603],[120.66051,24.162285],[120.657838,24.15812],[120.656628,24.15636],[120.656095,24.156652],[120.65581,24.156295],[120.655273,24.156585],[120.654493,24.155459],[120.655656,24.154824],[120.655315,24.154338],[120.655581,24.154194],[120.655346,24.153966],[120.655351,24.153639],[120.656223,24.153634],[120.656217,24.153417],[120.656506,24.153409],[120.656509,24.15321],[120.657336,24.153187],[120.657326,24.152781],[120.658201,24.152902],[120.658202,24.152539],[120.658682,24.152544]]]},"properties":{"code":"66000040019","name":"忠誠里","countyCode":"66000","countyName":"臺中市","townCode":"66000040","townName":"西區","level":"village","unassigned":false,"note":"","label":[120.6594243917827,24.157533281902083],"bounds":[120.654493,24.152539,120.663367,24.163603],"focusBounds":[120.654493,24.152539,120.663367,24.163603],"color":"#78a7e3"}},{"type":"Feature","id":"66000040020","geometry":{"type":"Polygon","coordinates":[[[120.660205,24.15144],[120.658684,24.151457],[120.65869,24.150854],[120.657312,24.150871],[120.657319,24.149652],[120.656994,24.149343],[120.656995,24.146703],[120.660167,24.146737],[120.660205,24.15144]]]},"properties":{"code":"66000040020","name":"公益里","countyCode":"66000","countyName":"臺中市","townCode":"66000040","townName":"西區","level":"village","unassigned":false,"note":"","label":[120.65866706047426,24.148916119136246],"bounds":[120.656994,24.146703,120.660205,24.151457],"focusBounds":[120.656994,24.146703,120.660205,24.151457],"color":"#dd8590"}},{"type":"Feature","id":"66000040021","geometry":{"type":"Polygon","coordinates":[[[120.660205,24.15144],[120.660167,24.146737],[120.664302,24.146744],[120.664297,24.14902],[120.664298,24.150862],[120.662972,24.150862],[120.662954,24.151475],[120.660205,24.15144]]]},"properties":{"code":"66000040021","name":"中興里","countyCode":"66000","countyName":"臺中市","townCode":"66000040","townName":"西區","level":"village","unassigned":false,"note":"","label":[120.66221131068868,24.1489377290268],"bounds":[120.660167,24.146737,120.664302,24.151475],"focusBounds":[120.660167,24.146737,120.664302,24.151475],"color":"#a8bf62"}},{"type":"Feature","id":"66000040022","geometry":{"type":"Polygon","coordinates":[[[120.654493,24.155459],[120.653825,24.155797],[120.653044,24.154575],[120.653025,24.15083],[120.655108,24.150882],[120.657312,24.150871],[120.65869,24.150854],[120.658684,24.151457],[120.658682,24.152544],[120.658202,24.152539],[120.658201,24.152902],[120.657326,24.152781],[120.657336,24.153187],[120.656509,24.15321],[120.656506,24.153409],[120.656217,24.153417],[120.656223,24.153634],[120.655351,24.153639],[120.655346,24.153966],[120.655581,24.154194],[120.655315,24.154338],[120.655656,24.154824],[120.654493,24.155459]]]},"properties":{"code":"66000040022","name":"公平里","countyCode":"66000","countyName":"臺中市","townCode":"66000040","townName":"西區","level":"village","unassigned":false,"note":"","label":[120.65537765849587,24.152259419419398],"bounds":[120.653025,24.15083,120.65869,24.155797],"focusBounds":[120.653025,24.15083,120.65869,24.155797],"color":"#a8bf62"}},{"type":"Feature","id":"66000040023","geometry":{"type":"Polygon","coordinates":[[[120.657312,24.150871],[120.655108,24.150882],[120.655051,24.144988],[120.655164,24.141196],[120.654603,24.140558],[120.654599,24.140171],[120.654853,24.14017],[120.654858,24.140371],[120.655713,24.14129],[120.65581,24.142434],[120.65623,24.142952],[120.65674,24.143396],[120.656996,24.144015],[120.656995,24.146703],[120.656994,24.149343],[120.657319,24.149652],[120.657312,24.150871]]]},"properties":{"code":"66000040023","name":"公德里","countyCode":"66000","countyName":"臺中市","townCode":"66000040","townName":"西區","level":"village","unassigned":false,"note":"","label":[120.65601076364754,24.146594248435093],"bounds":[120.654599,24.14017,120.657319,24.150882],"focusBounds":[120.654599,24.14017,120.657319,24.150882],"color":"#68bec9"}},{"type":"Feature","id":"66000040024","geometry":{"type":"Polygon","coordinates":[[[120.667576,24.150262],[120.667575,24.150846],[120.666625,24.150837],[120.666633,24.149655],[120.665978,24.149651],[120.665982,24.149441],[120.665293,24.149426],[120.665295,24.149013],[120.664297,24.14902],[120.664302,24.146744],[120.664284,24.144354],[120.6688,24.144407],[120.668843,24.144784],[120.668169,24.145414],[120.668162,24.14673],[120.667578,24.146731],[120.667576,24.150262]]]},"properties":{"code":"66000040024","name":"双龍里","countyCode":"66000","countyName":"臺中市","townCode":"66000040","townName":"西區","level":"village","unassigned":false,"note":"","label":[120.66596625568003,24.14690721135151],"bounds":[120.664284,24.144354,120.668843,24.150846],"focusBounds":[120.664284,24.144354,120.668843,24.150846],"color":"#df9f6a"}},{"type":"Feature","id":"66000040025","geometry":{"type":"Polygon","coordinates":[[[120.654872,24.137852],[120.654894,24.13527],[120.657335,24.133911],[120.657331,24.135154],[120.657306,24.142957],[120.65623,24.142952],[120.65581,24.142434],[120.655713,24.14129],[120.654858,24.140371],[120.654853,24.14017],[120.654872,24.137852]]]},"properties":{"code":"66000040025","name":"大忠里","countyCode":"66000","countyName":"臺中市","townCode":"66000040","townName":"西區","level":"village","unassigned":false,"note":"","label":[120.65609260494097,24.13840912990572],"bounds":[120.654853,24.133911,120.657335,24.142957],"focusBounds":[120.654853,24.133911,120.657335,24.142957],"color":"#98b69b"}}]}
