{"type":"FeatureCollection","features":[{"type":"Feature","id":"66000280001","geometry":{"type":"Polygon","coordinates":[[[120.682468,24.10038],[120.679582,24.09968],[120.678727,24.09792],[120.677748,24.098066],[120.6775,24.097927],[120.677356,24.097537],[120.675386,24.097828],[120.667455,24.096691],[120.661787,24.096764],[120.661766,24.096353],[120.661338,24.095882],[120.661002,24.095896],[120.66074,24.096233],[120.660537,24.096173],[120.660164,24.095258],[120.659326,24.094992],[120.656535,24.09319],[120.657256,24.09289],[120.65833,24.09311],[120.659087,24.092936],[120.659451,24.09312],[120.659906,24.093013],[120.660507,24.093231],[120.661108,24.093233],[120.662402,24.093018],[120.664043,24.09242],[120.664954,24.092514],[120.667161,24.091348],[120.667947,24.090263],[120.66825,24.089427],[120.668807,24.088943],[120.671701,24.089778],[120.673583,24.091178],[120.677542,24.094703],[120.681663,24.098203],[120.682426,24.098741],[120.682909,24.098773],[120.682468,24.10038]]]},"properties":{"code":"66000280001","name":"大里里","countyCode":"66000","countyName":"臺中市","townCode":"66000280","townName":"大里區","level":"village","unassigned":false,"note":"","label":[120.67024497568829,24.09322439944216],"bounds":[120.656535,24.088943,120.682909,24.10038],"focusBounds":[120.656535,24.088943,120.682909,24.10038],"color":"#a49ad4"}},{"type":"Feature","id":"66000280002","geometry":{"type":"Polygon","coordinates":[[[120.674081,24.105887],[120.674326,24.105246],[120.674227,24.104668],[120.673909,24.104459],[120.672139,24.104136],[120.671653,24.103367],[120.671271,24.103065],[120.670592,24.10155],[120.669247,24.100117],[120.668628,24.099882],[120.667526,24.099888],[120.667363,24.099712],[120.667328,24.098976],[120.665962,24.098757],[120.664835,24.098068],[120.663749,24.098834],[120.662912,24.098215],[120.663286,24.09773],[120.663004,24.097466],[120.661902,24.097094],[120.661787,24.096764],[120.667455,24.096691],[120.675386,24.097828],[120.677356,24.097537],[120.6775,24.097927],[120.677748,24.098066],[120.678727,24.09792],[120.679582,24.09968],[120.682468,24.10038],[120.680397,24.107352],[120.675133,24.105832],[120.674081,24.105887]]]},"properties":{"code":"66000280002","name":"新里里","countyCode":"66000","countyName":"臺中市","townCode":"66000280","townName":"大里區","level":"village","unassigned":false,"note":"","label":[120.67613174750346,24.10144916119647],"bounds":[120.661787,24.096691,120.682468,24.107352],"focusBounds":[120.661787,24.096691,120.682468,24.107352],"color":"#dd8590"}},{"type":"Feature","id":"66000280003","geometry":{"type":"Polygon","coordinates":[[[120.669147,24.112228],[120.668526,24.112602],[120.666325,24.112556],[120.664977,24.112587],[120.663235,24.111985],[120.662115,24.110968],[120.661653,24.1103],[120.661498,24.109867],[120.661696,24.109136],[120.661301,24.107421],[120.661334,24.106519],[120.660589,24.10601],[120.658769,24.105379],[120.65786,24.104639],[120.657302,24.10448],[120.657153,24.103909],[120.658923,24.103967],[120.658973,24.103872],[120.658902,24.103475],[120.658468,24.103052],[120.658064,24.102122],[120.65772,24.101723],[120.658086,24.101148],[120.657899,24.100188],[120.658341,24.099854],[120.660971,24.098806],[120.661695,24.098561],[120.662598,24.098464],[120.662912,24.098215],[120.663749,24.098834],[120.664835,24.098068],[120.665962,24.098757],[120.667328,24.098976],[120.667363,24.099712],[120.667526,24.099888],[120.668628,24.099882],[120.669247,24.100117],[120.670592,24.10155],[120.671271,24.103065],[120.671653,24.103367],[120.672139,24.104136],[120.673909,24.104459],[120.674227,24.104668],[120.674326,24.105246],[120.674081,24.105887],[120.673679,24.106019],[120.671187,24.108826],[120.671199,24.109149],[120.671653,24.109711],[120.67161,24.111236],[120.671117,24.110924],[120.67013,24.111249],[120.670126,24.111507],[120.669147,24.112228]]]},"properties":{"code":"66000280003","name":"樹王里","countyCode":"66000","countyName":"臺中市","townCode":"66000280","townName":"大里區","level":"village","unassigned":false,"note":"","label":[120.66633879008755,24.10519613974452],"bounds":[120.657153,24.098068,120.674326,24.112602],"focusBounds":[120.657153,24.098068,120.674326,24.112602],"color":"#a49ad4"}},{"type":"Feature","id":"66000280004","geometry":{"type":"Polygon","coordinates":[[[120.686147,24.115266],[120.679282,24.115032],[120.679027,24.112205],[120.679828,24.109298],[120.683859,24.110247],[120.683855,24.111904],[120.684623,24.111929],[120.684621,24.113253],[120.684882,24.113254],[120.686141,24.114721],[120.686147,24.115266]]]},"properties":{"code":"66000280004","name":"東興里","countyCode":"66000","countyName":"臺中市","townCode":"66000280","townName":"大里區","level":"village","unassigned":false,"note":"","label":[120.68158595628033,24.112614655377936],"bounds":[120.679027,24.109298,120.686147,24.115266],"focusBounds":[120.679027,24.109298,120.686147,24.115266],"color":"#68bec9"}},{"type":"Feature","id":"66000280005","geometry":{"type":"Polygon","coordinates":[[[120.698736,24.124742],[120.696492,24.124801],[120.695997,24.124511],[120.694493,24.124122],[120.692696,24.124199],[120.692322,24.124013],[120.690811,24.124268],[120.690427,24.124391],[120.690262,24.124627],[120.68962,24.124755],[120.688328,24.12464],[120.686889,24.123969],[120.685965,24.123257],[120.685525,24.12244],[120.685355,24.121722],[120.685228,24.121096],[120.684667,24.119968],[120.683561,24.11867],[120.682646,24.118368],[120.68155,24.118326],[120.67946,24.11766],[120.679375,24.11742],[120.679358,24.117407],[120.684778,24.117522],[120.685735,24.117666],[120.6872,24.11838],[120.688882,24.119713],[120.6899,24.120518],[120.690481,24.121248],[120.691446,24.121927],[120.692274,24.122255],[120.694196,24.122481],[120.697213,24.123395],[120.697844,24.123725],[120.698736,24.124742]]]},"properties":{"code":"66000280005","name":"祥興里","countyCode":"66000","countyName":"臺中市","townCode":"66000280","townName":"大里區","level":"village","unassigned":false,"note":"","label":[120.68791771284505,24.121698878536392],"bounds":[120.679358,24.117407,120.698736,24.124801],"focusBounds":[120.679358,24.117407,120.698736,24.124801],"color":"#df9f6a"}},{"type":"Feature","id":"66000280006","geometry":{"type":"Polygon","coordinates":[[[120.698736,24.124742],[120.697844,24.123725],[120.697213,24.123395],[120.694196,24.122481],[120.692274,24.122255],[120.691446,24.121927],[120.690481,24.121248],[120.6899,24.120518],[120.688882,24.119713],[120.689358,24.118762],[120.689659,24.115375],[120.689667,24.115282],[120.692126,24.115415],[120.693506,24.117017],[120.700235,24.124885],[120.698736,24.124742]]]},"properties":{"code":"66000280006","name":"日新里","countyCode":"66000","countyName":"臺中市","townCode":"66000280","townName":"大里區","level":"village","unassigned":false,"note":"","label":[120.69233162592042,24.119473483979522],"bounds":[120.688882,24.115282,120.700235,24.124885],"focusBounds":[120.688882,24.115282,120.700235,24.124885],"color":"#c38cb8"}},{"type":"Feature","id":"66000280007","geometry":{"type":"Polygon","coordinates":[[[120.689667,24.115282],[120.689659,24.115375],[120.686147,24.115266],[120.686141,24.114721],[120.684882,24.113254],[120.684621,24.113253],[120.684623,24.111929],[120.683855,24.111904],[120.683859,24.110247],[120.686426,24.110367],[120.689979,24.110021],[120.689667,24.115282]]]},"properties":{"code":"66000280007","name":"西榮里","countyCode":"66000","countyName":"臺中市","townCode":"66000280","townName":"大里區","level":"village","unassigned":false,"note":"","label":[120.68733639100711,24.11261552895413],"bounds":[120.683855,24.110021,120.689979,24.115375],"focusBounds":[120.683855,24.110021,120.689979,24.115375],"color":"#58b99d"}},{"type":"Feature","id":"66000280008","geometry":{"type":"Polygon","coordinates":[[[120.693506,24.117017],[120.692126,24.115415],[120.689667,24.115282],[120.689979,24.110021],[120.689973,24.107775],[120.689535,24.106247],[120.694695,24.105516],[120.695673,24.108138],[120.691893,24.109642],[120.692459,24.111991],[120.692135,24.112066],[120.692478,24.112883],[120.69364,24.114125],[120.693964,24.11386],[120.695134,24.114628],[120.695677,24.115205],[120.693506,24.117017]]]},"properties":{"code":"66000280008","name":"內新里","countyCode":"66000","countyName":"臺中市","townCode":"66000280","townName":"大里區","level":"village","unassigned":false,"note":"","label":[120.69191980472856,24.107770255342977],"bounds":[120.689535,24.105516,120.695677,24.117017],"focusBounds":[120.689535,24.105516,120.695677,24.117017],"color":"#98b69b"}},{"type":"Feature","id":"66000280009","geometry":{"type":"Polygon","coordinates":[[[120.702273,24.124999],[120.700235,24.124885],[120.693506,24.117017],[120.695677,24.115205],[120.695134,24.114628],[120.693964,24.11386],[120.69364,24.114125],[120.692478,24.112883],[120.692135,24.112066],[120.692459,24.111991],[120.691893,24.109642],[120.695673,24.108138],[120.695963,24.108733],[120.697908,24.110318],[120.699013,24.110628],[120.700178,24.111293],[120.701693,24.11126],[120.701162,24.111627],[120.700703,24.112936],[120.701311,24.115532],[120.701475,24.117697],[120.702005,24.120884],[120.702444,24.121912],[120.704162,24.124871],[120.702273,24.124999]]]},"properties":{"code":"66000280009","name":"東昇里","countyCode":"66000","countyName":"臺中市","townCode":"66000280","townName":"大里區","level":"village","unassigned":false,"note":"","label":[120.69800501709456,24.117426571953324],"bounds":[120.691893,24.108138,120.704162,24.124999],"focusBounds":[120.691893,24.108138,120.704162,24.124999],"color":"#efb44f"}},{"type":"Feature","id":"66000280010","geometry":{"type":"Polygon","coordinates":[[[120.701693,24.11126],[120.700178,24.111293],[120.699013,24.110628],[120.697908,24.110318],[120.695963,24.108733],[120.695673,24.108138],[120.694695,24.105516],[120.694222,24.104214],[120.69835,24.104226],[120.699948,24.104695],[120.699767,24.105776],[120.700286,24.105919],[120.703646,24.107712],[120.70312,24.108463],[120.703017,24.10895],[120.701722,24.111249],[120.701693,24.11126]]]},"properties":{"code":"66000280010","name":"立仁里","countyCode":"66000","countyName":"臺中市","townCode":"66000280","townName":"大里區","level":"village","unassigned":false,"note":"","label":[120.6989488634577,24.10804428822055],"bounds":[120.694222,24.104214,120.703646,24.111293],"focusBounds":[120.694222,24.104214,120.703646,24.111293],"color":"#78a7e3"}},{"type":"Feature","id":"66000280011","geometry":{"type":"Polygon","coordinates":[[[120.711703,24.110539],[120.71098,24.110602],[120.710506,24.110963],[120.70719,24.111963],[120.706157,24.111909],[120.70383,24.11133],[120.70218,24.111162],[120.701722,24.111249],[120.703017,24.10895],[120.70312,24.108463],[120.703646,24.107712],[120.704447,24.105975],[120.707039,24.103787],[120.707438,24.104845],[120.707974,24.105593],[120.708363,24.105761],[120.709227,24.105274],[120.709454,24.106049],[120.71089,24.107455],[120.713622,24.109559],[120.713949,24.109997],[120.713293,24.110679],[120.712524,24.110494],[120.711703,24.110539]]]},"properties":{"code":"66000280011","name":"新仁里","countyCode":"66000","countyName":"臺中市","townCode":"66000280","townName":"大里區","level":"village","unassigned":false,"note":"","label":[120.70699135919318,24.10872384079844],"bounds":[120.701722,24.103787,120.713949,24.111963],"focusBounds":[120.701722,24.103787,120.713949,24.111963],"color":"#68bec9"}},{"type":"Feature","id":"66000280012","geometry":{"type":"Polygon","coordinates":[[[120.687554,24.099475],[120.682909,24.098773],[120.682426,24.098741],[120.681663,24.098203],[120.677542,24.094703],[120.67809,24.08984],[120.678772,24.08571],[120.68032,24.085803],[120.681595,24.086132],[120.683887,24.087491],[120.686036,24.089097],[120.685703,24.089476],[120.687666,24.091195],[120.688991,24.093564],[120.690898,24.095884],[120.691607,24.096311],[120.691823,24.097307],[120.69286,24.098237],[120.689364,24.100325],[120.688963,24.100047],[120.688258,24.100195],[120.687891,24.09966],[120.687554,24.099475]]]},"properties":{"code":"66000280012","name":"大元里","countyCode":"66000","countyName":"臺中市","townCode":"66000280","townName":"大里區","level":"village","unassigned":false,"note":"","label":[120.68387856777491,24.0938992074604],"bounds":[120.677542,24.08571,120.69286,24.100325],"focusBounds":[120.677542,24.08571,120.69286,24.100325],"color":"#dd8590"}},{"type":"Feature","id":"66000280013","geometry":{"type":"Polygon","coordinates":[[[120.678772,24.08571],[120.67809,24.08984],[120.677542,24.094703],[120.673583,24.091178],[120.671701,24.089778],[120.668807,24.088943],[120.66825,24.089427],[120.667947,24.090263],[120.667161,24.091348],[120.664954,24.092514],[120.664043,24.09242],[120.662402,24.093018],[120.661108,24.093233],[120.660507,24.093231],[120.659906,24.093013],[120.659451,24.09312],[120.659087,24.092936],[120.65833,24.09311],[120.657256,24.09289],[120.656535,24.09319],[120.655333,24.092732],[120.654191,24.092523],[120.653558,24.091816],[120.653785,24.090553],[120.653525,24.090037],[120.652535,24.089036],[120.653049,24.088286],[120.653273,24.088192],[120.655145,24.088025],[120.657917,24.08703],[120.657234,24.086179],[120.656369,24.086277],[120.655938,24.086053],[120.655824,24.08507],[120.658123,24.083132],[120.659809,24.081994],[120.66093,24.08148],[120.661476,24.081431],[120.663348,24.082284],[120.663671,24.082298],[120.664286,24.082055],[120.665591,24.081283],[120.666815,24.080915],[120.671875,24.081132],[120.67233,24.080806],[120.675407,24.083804],[120.677744,24.085398],[120.678772,24.08571]]]},"properties":{"code":"66000280013","name":"夏田里","countyCode":"66000","countyName":"臺中市","townCode":"66000280","townName":"大里區","level":"village","unassigned":false,"note":"","label":[120.66353179557046,24.087449139584525],"bounds":[120.652535,24.080806,120.678772,24.094703],"focusBounds":[120.652535,24.080806,120.678772,24.094703],"color":"#a8bf62"}},{"type":"Feature","id":"66000280014","geometry":{"type":"Polygon","coordinates":[[[120.709227,24.105274],[120.708363,24.105761],[120.707974,24.105593],[120.707438,24.104845],[120.707039,24.103787],[120.706385,24.103028],[120.705289,24.102642],[120.704765,24.102558],[120.703427,24.102815],[120.702748,24.102606],[120.702147,24.102169],[120.701467,24.101325],[120.700039,24.10046],[120.699631,24.100399],[120.698319,24.100622],[120.696651,24.099771],[120.695731,24.099586],[120.694422,24.098731],[120.693939,24.098772],[120.693757,24.099012],[120.69286,24.098237],[120.691823,24.097307],[120.691607,24.096311],[120.690898,24.095884],[120.688991,24.093564],[120.691288,24.091877],[120.696038,24.096724],[120.696519,24.096928],[120.701373,24.096217],[120.703013,24.096276],[120.70684,24.095414],[120.709437,24.094494],[120.711817,24.094002],[120.715296,24.094399],[120.715643,24.09444],[120.718757,24.096881],[120.71959,24.0981],[120.720514,24.099935],[120.718445,24.100965],[120.716814,24.101518],[120.714546,24.10295],[120.713599,24.103122],[120.713198,24.103586],[120.71273,24.10362],[120.712197,24.103444],[120.711774,24.103533],[120.709697,24.104584],[120.70925,24.105012],[120.709227,24.105274]]]},"properties":{"code":"66000280014","name":"仁化里","countyCode":"66000","countyName":"臺中市","townCode":"66000280","townName":"大里區","level":"village","unassigned":false,"note":"","label":[120.7093973216523,24.099689255549407],"bounds":[120.688991,24.091877,120.720514,24.105761],"focusBounds":[120.688991,24.091877,120.720514,24.105761],"color":"#a8bf62"}},{"type":"Feature","id":"66000280015","geometry":{"type":"Polygon","coordinates":[[[120.729099,24.094589],[120.728437,24.09469],[120.728329,24.094906],[120.727893,24.095078],[120.726124,24.096394],[120.7245,24.097853],[120.723331,24.098267],[120.720514,24.099935],[120.71959,24.0981],[120.718757,24.096881],[120.715643,24.09444],[120.715296,24.094399],[120.716325,24.091861],[120.717055,24.090943],[120.721946,24.087691],[120.724059,24.086817],[120.724109,24.084727],[120.72474,24.083657],[120.724976,24.0837],[120.725091,24.081783],[120.725491,24.081773],[120.726147,24.08202],[120.727182,24.083001],[120.727419,24.083052],[120.727801,24.082675],[120.72806,24.081138],[120.728542,24.080367],[120.728706,24.080667],[120.728751,24.081647],[120.728882,24.0817],[120.729684,24.081796],[120.730077,24.081603],[120.730772,24.081764],[120.731731,24.081377],[120.73215,24.081387],[120.732922,24.081715],[120.733822,24.083597],[120.735824,24.085858],[120.737003,24.084848],[120.736645,24.083686],[120.73686,24.083359],[120.737259,24.083234],[120.739444,24.085853],[120.740783,24.086156],[120.741278,24.086532],[120.741175,24.08862],[120.741314,24.089922],[120.741141,24.090947],[120.741453,24.091704],[120.741324,24.092673],[120.740832,24.093334],[120.740674,24.094143],[120.740409,24.094526],[120.739676,24.09489],[120.738738,24.09577],[120.738475,24.095898],[120.73819,24.095836],[120.737441,24.095337],[120.736675,24.094692],[120.736166,24.094529],[120.735383,24.094697],[120.735103,24.095169],[120.734863,24.095284],[120.734033,24.09504],[120.732985,24.095374],[120.732115,24.094759],[120.731762,24.094903],[120.730344,24.094155],[120.729099,24.094589]]]},"properties":{"code":"66000280015","name":"健民里","countyCode":"66000","countyName":"臺中市","townCode":"66000280","townName":"大里區","level":"village","unassigned":false,"note":"","label":[120.72995877342738,24.088569495002837],"bounds":[120.715296,24.080367,120.741453,24.099935],"focusBounds":[120.715296,24.080367,120.741453,24.099935],"color":"#68bec9"}},{"type":"Feature","id":"66000280016","geometry":{"type":"Polygon","coordinates":[[[120.728542,24.080367],[120.72806,24.081138],[120.727801,24.082675],[120.727419,24.083052],[120.727182,24.083001],[120.726147,24.08202],[120.725491,24.081773],[120.725091,24.081783],[120.724976,24.0837],[120.72474,24.083657],[120.724109,24.084727],[120.724059,24.086817],[120.721946,24.087691],[120.717055,24.090943],[120.716325,24.091861],[120.715296,24.094399],[120.715219,24.09406],[120.713621,24.092951],[120.710248,24.090028],[120.709749,24.089207],[120.708745,24.086507],[120.708522,24.085527],[120.709113,24.081715],[120.711328,24.081045],[120.715537,24.081092],[120.719047,24.080251],[120.720437,24.080586],[120.720982,24.080533],[120.722211,24.080023],[120.723267,24.079266],[120.724354,24.078918],[120.725824,24.078786],[120.726917,24.07848],[120.728542,24.080367]]]},"properties":{"code":"66000280016","name":"塗城里","countyCode":"66000","countyName":"臺中市","townCode":"66000280","townName":"大里區","level":"village","unassigned":false,"note":"","label":[120.7161497835382,24.085708872274907],"bounds":[120.708522,24.07848,120.728542,24.094399],"focusBounds":[120.708522,24.07848,120.728542,24.094399],"color":"#df9f6a"}},{"type":"Feature","id":"66000280017","geometry":{"type":"Polygon","coordinates":[[[120.698983,24.07851],[120.700542,24.079546],[120.704559,24.081213],[120.705629,24.081348],[120.707442,24.081832],[120.708129,24.081897],[120.709113,24.081715],[120.708522,24.085527],[120.708745,24.086507],[120.709749,24.089207],[120.707768,24.09126],[120.70234,24.092322],[120.702274,24.092145],[120.70159,24.092294],[120.701482,24.091909],[120.700571,24.092083],[120.700595,24.089664],[120.700389,24.088897],[120.702018,24.088671],[120.702707,24.088258],[120.702501,24.087273],[120.70175,24.086589],[120.700584,24.085825],[120.697085,24.084342],[120.698983,24.07851]]]},"properties":{"code":"66000280017","name":"瑞城里","countyCode":"66000","countyName":"臺中市","townCode":"66000280","townName":"大里區","level":"village","unassigned":false,"note":"","label":[120.70494471191569,24.08481005239061],"bounds":[120.697085,24.07851,120.709749,24.092322],"focusBounds":[120.697085,24.07851,120.709749,24.092322],"color":"#c38cb8"}},{"type":"Feature","id":"66000280018","geometry":{"type":"Polygon","coordinates":[[[120.69261,24.090858],[120.695727,24.088233],[120.697085,24.084342],[120.700584,24.085825],[120.70175,24.086589],[120.702501,24.087273],[120.702707,24.088258],[120.702018,24.088671],[120.700389,24.088897],[120.700595,24.089664],[120.700571,24.092083],[120.70006,24.092299],[120.700095,24.092751],[120.697891,24.093231],[120.6978,24.092873],[120.696356,24.093025],[120.695783,24.092952],[120.694392,24.092364],[120.69261,24.090858]]]},"properties":{"code":"66000280018","name":"金城里","countyCode":"66000","countyName":"臺中市","townCode":"66000280","townName":"大里區","level":"village","unassigned":false,"note":"","label":[120.69782579052783,24.08996216322881],"bounds":[120.69261,24.084342,120.702707,24.093231],"focusBounds":[120.69261,24.084342,120.702707,24.093231],"color":"#efb44f"}},{"type":"Feature","id":"66000280019","geometry":{"type":"Polygon","coordinates":[[[120.686036,24.089097],[120.691545,24.080395],[120.691657,24.077569],[120.692524,24.074709],[120.693026,24.073838],[120.6936,24.074639],[120.694695,24.076182],[120.695666,24.077236],[120.697958,24.077786],[120.698983,24.07851],[120.697085,24.084342],[120.695727,24.088233],[120.69261,24.090858],[120.691288,24.091877],[120.688991,24.093564],[120.687666,24.091195],[120.685703,24.089476],[120.686036,24.089097]]]},"properties":{"code":"66000280019","name":"東湖里","countyCode":"66000","countyName":"臺中市","townCode":"66000280","townName":"大里區","level":"village","unassigned":false,"note":"","label":[120.69280193580471,24.085177760965394],"bounds":[120.685703,24.073838,120.698983,24.093564],"focusBounds":[120.685703,24.073838,120.698983,24.093564],"color":"#58b99d"}},{"type":"Feature","id":"66000280020","geometry":{"type":"Polygon","coordinates":[[[120.693026,24.073838],[120.692524,24.074709],[120.691657,24.077569],[120.691545,24.080395],[120.686036,24.089097],[120.683887,24.087491],[120.681595,24.086132],[120.68032,24.085803],[120.678772,24.08571],[120.677744,24.085398],[120.675407,24.083804],[120.67233,24.080806],[120.674238,24.07884],[120.675613,24.07844],[120.676538,24.077789],[120.678946,24.073587],[120.679835,24.072404],[120.681048,24.07131],[120.68181,24.070822],[120.683285,24.070322],[120.685189,24.070298],[120.687068,24.070715],[120.689043,24.071322],[120.691171,24.072295],[120.692816,24.073567],[120.693026,24.073838]]]},"properties":{"code":"66000280020","name":"西湖里","countyCode":"66000","countyName":"臺中市","townCode":"66000280","townName":"大里區","level":"village","unassigned":false,"note":"","label":[120.68389598967349,24.07890628356781],"bounds":[120.67233,24.070298,120.693026,24.089097],"focusBounds":[120.67233,24.070298,120.693026,24.089097],"color":"#efb44f"}},{"type":"Feature","id":"66000280021","geometry":{"type":"Polygon","coordinates":[[[120.683859,24.110247],[120.679828,24.109298],[120.680397,24.107352],[120.682468,24.10038],[120.682909,24.098773],[120.687554,24.099475],[120.688281,24.101906],[120.683931,24.103814],[120.685025,24.105475],[120.683839,24.10581],[120.684985,24.107054],[120.684335,24.107569],[120.684065,24.108173],[120.683859,24.110247]]]},"properties":{"code":"66000280021","name":"國光里","countyCode":"66000","countyName":"臺中市","townCode":"66000280","townName":"大里區","level":"village","unassigned":false,"note":"","label":[120.68439869305942,24.10130362010006],"bounds":[120.679828,24.098773,120.688281,24.110247],"focusBounds":[120.679828,24.098773,120.688281,24.110247],"color":"#78a7e3"}},{"type":"Feature","id":"66000280022","geometry":{"type":"Polygon","coordinates":[[[120.688882,24.119713],[120.6872,24.11838],[120.685735,24.117666],[120.684778,24.117522],[120.679358,24.117407],[120.679347,24.1174],[120.679451,24.116654],[120.679282,24.115032],[120.686147,24.115266],[120.689659,24.115375],[120.689358,24.118762],[120.688882,24.119713]]]},"properties":{"code":"66000280022","name":"大明里","countyCode":"66000","countyName":"臺中市","townCode":"66000280","townName":"大里區","level":"village","unassigned":false,"note":"","label":[120.68503603453321,24.116394779480117],"bounds":[120.679282,24.115032,120.689659,24.119713],"focusBounds":[120.679282,24.115032,120.689659,24.119713],"color":"#dd8590"}},{"type":"Feature","id":"66000280023","geometry":{"type":"Polygon","coordinates":[[[120.679347,24.1174],[120.678394,24.117341],[120.676984,24.117782],[120.675897,24.117718],[120.674505,24.117184],[120.67338,24.116373],[120.672382,24.11596],[120.67177,24.115532],[120.671767,24.114851],[120.671061,24.114811],[120.671078,24.113752],[120.671879,24.112196],[120.671915,24.111634],[120.67161,24.111236],[120.671653,24.109711],[120.671199,24.109149],[120.671187,24.108826],[120.673679,24.106019],[120.674081,24.105887],[120.675133,24.105832],[120.680397,24.107352],[120.679828,24.109298],[120.679027,24.112205],[120.679282,24.115032],[120.679451,24.116654],[120.679347,24.1174]]]},"properties":{"code":"66000280023","name":"永隆里","countyCode":"66000","countyName":"臺中市","townCode":"66000280","townName":"大里區","level":"village","unassigned":false,"note":"","label":[120.67557281084524,24.111776118388278],"bounds":[120.671061,24.105832,120.680397,24.117782],"focusBounds":[120.671061,24.105832,120.680397,24.117782],"color":"#a8bf62"}},{"type":"Feature","id":"66000280024","geometry":{"type":"Polygon","coordinates":[[[120.689979,24.110021],[120.686426,24.110367],[120.683859,24.110247],[120.684065,24.108173],[120.684335,24.107569],[120.684985,24.107054],[120.683839,24.10581],[120.685025,24.105475],[120.683931,24.103814],[120.688281,24.101906],[120.689535,24.106247],[120.689973,24.107775],[120.689979,24.110021]]]},"properties":{"code":"66000280024","name":"長榮里","countyCode":"66000","countyName":"臺中市","townCode":"66000280","townName":"大里區","level":"village","unassigned":false,"note":"","label":[120.6872500407233,24.10667313288709],"bounds":[120.683839,24.101906,120.689979,24.110367],"focusBounds":[120.683839,24.101906,120.689979,24.110367],"color":"#a8bf62"}},{"type":"Feature","id":"66000280025","geometry":{"type":"Polygon","coordinates":[[[120.694695,24.105516],[120.689535,24.106247],[120.688281,24.101906],[120.687554,24.099475],[120.687891,24.09966],[120.688258,24.100195],[120.688963,24.100047],[120.689364,24.100325],[120.69286,24.098237],[120.693757,24.099012],[120.69421,24.10027],[120.693719,24.101867],[120.693701,24.10258],[120.694222,24.104214],[120.694695,24.105516]]]},"properties":{"code":"66000280025","name":"中新里","countyCode":"66000","countyName":"臺中市","townCode":"66000280","townName":"大里區","level":"village","unassigned":false,"note":"","label":[120.69110870437225,24.10244922729477],"bounds":[120.687554,24.098237,120.694695,24.106247],"focusBounds":[120.687554,24.098237,120.694695,24.106247],"color":"#68bec9"}},{"type":"Feature","id":"66000280026","geometry":{"type":"Polygon","coordinates":[[[120.694222,24.104214],[120.693701,24.10258],[120.693719,24.101867],[120.69421,24.10027],[120.693757,24.099012],[120.693939,24.098772],[120.694422,24.098731],[120.695731,24.099586],[120.696651,24.099771],[120.698319,24.100622],[120.699631,24.100399],[120.700039,24.10046],[120.701467,24.101325],[120.702147,24.102169],[120.702748,24.102606],[120.703427,24.102815],[120.704765,24.102558],[120.705289,24.102642],[120.706385,24.103028],[120.707039,24.103787],[120.704447,24.105975],[120.703646,24.107712],[120.700286,24.105919],[120.699767,24.105776],[120.699948,24.104695],[120.69835,24.104226],[120.694222,24.104214]]]},"properties":{"code":"66000280026","name":"立德里","countyCode":"66000","countyName":"臺中市","townCode":"66000280","townName":"大里區","level":"village","unassigned":false,"note":"","label":[120.69964473430137,24.102503504338923],"bounds":[120.693701,24.098731,120.707039,24.107712],"focusBounds":[120.693701,24.098731,120.707039,24.107712],"color":"#df9f6a"}},{"type":"Feature","id":"66000280027","geometry":{"type":"Polygon","coordinates":[[[120.715296,24.094399],[120.711817,24.094002],[120.709437,24.094494],[120.70684,24.095414],[120.703013,24.096276],[120.701373,24.096217],[120.696519,24.096928],[120.696038,24.096724],[120.691288,24.091877],[120.69261,24.090858],[120.694392,24.092364],[120.695783,24.092952],[120.696356,24.093025],[120.6978,24.092873],[120.697891,24.093231],[120.700095,24.092751],[120.70006,24.092299],[120.700571,24.092083],[120.701482,24.091909],[120.70159,24.092294],[120.702274,24.092145],[120.70234,24.092322],[120.707768,24.09126],[120.709749,24.089207],[120.710248,24.090028],[120.713621,24.092951],[120.715219,24.09406],[120.715296,24.094399]]]},"properties":{"code":"66000280027","name":"仁德里","countyCode":"66000","countyName":"臺中市","townCode":"66000280","townName":"大里區","level":"village","unassigned":false,"note":"","label":[120.7029742340391,24.094236311824563],"bounds":[120.691288,24.089207,120.715296,24.096928],"focusBounds":[120.691288,24.089207,120.715296,24.096928],"color":"#98b69b"}}]}
