{"type":"FeatureCollection","features":[{"type":"Feature","id":"66000120001","geometry":{"type":"Polygon","coordinates":[[[120.578817,24.270698],[120.579098,24.270855],[120.579112,24.270085],[120.575372,24.262852],[120.575778,24.261911],[120.576049,24.261741],[120.576491,24.261873],[120.578363,24.263247],[120.582195,24.265613],[120.582557,24.266105],[120.582937,24.26726],[120.582917,24.268966],[120.58468,24.268377],[120.584817,24.269795],[120.58459,24.273959],[120.583219,24.272843],[120.582366,24.272402],[120.58163,24.272226],[120.581034,24.272396],[120.580486,24.272788],[120.579385,24.274243],[120.578895,24.274237],[120.578417,24.273263],[120.578644,24.272968],[120.578731,24.271607],[120.578655,24.270785],[120.578817,24.270698]]]},"properties":{"code":"66000120001","name":"鰲峰里","countyCode":"66000","countyName":"臺中市","townCode":"66000120","townName":"清水區","level":"village","unassigned":false,"note":"","label":[120.58047302993639,24.26760365279781],"bounds":[120.575372,24.261741,120.584817,24.274243],"focusBounds":[120.575372,24.261741,120.584817,24.274243],"color":"#efb44f"}},{"type":"Feature","id":"66000120002","geometry":{"type":"Polygon","coordinates":[[[120.575372,24.262852],[120.579112,24.270085],[120.579098,24.270855],[120.578817,24.270698],[120.577924,24.269024],[120.577204,24.269022],[120.576922,24.268857],[120.574651,24.263227],[120.575064,24.263327],[120.575372,24.262852]]]},"properties":{"code":"66000120002","name":"靈泉里","countyCode":"66000","countyName":"臺中市","townCode":"66000120","townName":"清水區","level":"village","unassigned":false,"note":"","label":[120.57676192777535,24.266798072276085],"bounds":[120.574651,24.262852,120.579112,24.270855],"focusBounds":[120.574651,24.262852,120.579112,24.270855],"color":"#a49ad4"}},{"type":"Feature","id":"66000120003","geometry":{"type":"Polygon","coordinates":[[[120.5708,24.264411],[120.569973,24.262178],[120.56933,24.259937],[120.569265,24.25915],[120.572341,24.258928],[120.572418,24.260424],[120.573131,24.262271],[120.573427,24.262626],[120.574651,24.263227],[120.576922,24.268857],[120.577204,24.269022],[120.577924,24.269024],[120.578817,24.270698],[120.578655,24.270785],[120.578107,24.270368],[120.577239,24.270319],[120.576891,24.269196],[120.576689,24.269114],[120.575612,24.269422],[120.574873,24.26751],[120.574326,24.267678],[120.573368,24.265355],[120.572821,24.265087],[120.572471,24.26426],[120.572183,24.264022],[120.57173,24.264434],[120.5708,24.264411]]]},"properties":{"code":"66000120003","name":"清水里","countyCode":"66000","countyName":"臺中市","townCode":"66000120","townName":"清水區","level":"village","unassigned":false,"note":"","label":[120.57161953784642,24.262356960221034],"bounds":[120.569265,24.258928,120.578817,24.270785],"focusBounds":[120.569265,24.258928,120.578817,24.270785],"color":"#dd8590"}},{"type":"Feature","id":"66000120004","geometry":{"type":"Polygon","coordinates":[[[120.576774,24.272263],[120.576083,24.272065],[120.575383,24.272104],[120.57429,24.270671],[120.575928,24.270141],[120.575612,24.269422],[120.576689,24.269114],[120.576891,24.269196],[120.577239,24.270319],[120.576433,24.270556],[120.576421,24.270746],[120.576188,24.270816],[120.576459,24.271485],[120.576774,24.272263]]]},"properties":{"code":"66000120004","name":"文昌里","countyCode":"66000","countyName":"臺中市","townCode":"66000120","townName":"清水區","level":"village","unassigned":false,"note":"","label":[120.57551742649245,24.27105094570262],"bounds":[120.57429,24.269114,120.577239,24.272263],"focusBounds":[120.57429,24.269114,120.577239,24.272263],"color":"#a49ad4"}},{"type":"Feature","id":"66000120005","geometry":{"type":"Polygon","coordinates":[[[120.57429,24.270671],[120.573756,24.271171],[120.572111,24.271428],[120.571283,24.269683],[120.570698,24.267858],[120.571347,24.265935],[120.5708,24.264411],[120.57173,24.264434],[120.572183,24.264022],[120.572471,24.26426],[120.572821,24.265087],[120.573368,24.265355],[120.574326,24.267678],[120.574873,24.26751],[120.575612,24.269422],[120.575928,24.270141],[120.57429,24.270671]]]},"properties":{"code":"66000120005","name":"南寧里","countyCode":"66000","countyName":"臺中市","townCode":"66000120","townName":"清水區","level":"village","unassigned":false,"note":"","label":[120.57268719264559,24.268291585705654],"bounds":[120.570698,24.264022,120.575928,24.271428],"focusBounds":[120.570698,24.264022,120.575928,24.271428],"color":"#a8bf62"}},{"type":"Feature","id":"66000120006","geometry":{"type":"Polygon","coordinates":[[[120.575601,24.278282],[120.575474,24.278214],[120.573281,24.276876],[120.572903,24.276301],[120.572471,24.274844],[120.572344,24.272006],[120.572111,24.271428],[120.573756,24.271171],[120.57429,24.270671],[120.575383,24.272104],[120.576083,24.272065],[120.576774,24.272263],[120.577318,24.273731],[120.57728,24.274704],[120.577099,24.275627],[120.575601,24.278282]]]},"properties":{"code":"66000120006","name":"西寧里","countyCode":"66000","countyName":"臺中市","townCode":"66000120","townName":"清水區","level":"village","unassigned":false,"note":"","label":[120.57477179579152,24.274395153695345],"bounds":[120.572111,24.270671,120.577318,24.278282],"focusBounds":[120.572111,24.270671,120.577318,24.278282],"color":"#68bec9"}},{"type":"Feature","id":"66000120007","geometry":{"type":"Polygon","coordinates":[[[120.579385,24.274243],[120.577462,24.276831],[120.575601,24.278282],[120.577099,24.275627],[120.57728,24.274704],[120.577318,24.273731],[120.576774,24.272263],[120.576459,24.271485],[120.576981,24.271466],[120.577378,24.27194],[120.578731,24.271607],[120.578644,24.272968],[120.578417,24.273263],[120.578895,24.274237],[120.579385,24.274243]]]},"properties":{"code":"66000120007","name":"北寧里","countyCode":"66000","countyName":"臺中市","townCode":"66000120","townName":"清水區","level":"village","unassigned":false,"note":"","label":[120.5781276485587,24.27453361683308],"bounds":[120.575601,24.271466,120.579385,24.278282],"focusBounds":[120.575601,24.271466,120.579385,24.278282],"color":"#df9f6a"}},{"type":"Feature","id":"66000120008","geometry":{"type":"Polygon","coordinates":[[[120.578731,24.271607],[120.577378,24.27194],[120.576981,24.271466],[120.576459,24.271485],[120.576188,24.270816],[120.576421,24.270746],[120.576433,24.270556],[120.577239,24.270319],[120.578107,24.270368],[120.578655,24.270785],[120.578731,24.271607]]]},"properties":{"code":"66000120008","name":"中興里","countyCode":"66000","countyName":"臺中市","townCode":"66000120","townName":"清水區","level":"village","unassigned":false,"note":"","label":[120.57764629575067,24.27110797506823],"bounds":[120.576188,24.270319,120.578731,24.27194],"focusBounds":[120.576188,24.270319,120.578731,24.27194],"color":"#c38cb8"}},{"type":"Feature","id":"66000120009","geometry":{"type":"Polygon","coordinates":[[[120.572471,24.274844],[120.571895,24.274262],[120.57107,24.274128],[120.570369,24.273502],[120.569603,24.273801],[120.568631,24.272558],[120.56812,24.271624],[120.566826,24.27208],[120.566366,24.271701],[120.565458,24.271463],[120.564403,24.271424],[120.561232,24.272377],[120.560901,24.272358],[120.561447,24.271217],[120.561488,24.270251],[120.561971,24.270367],[120.56249,24.270193],[120.561319,24.267356],[120.563106,24.267843],[120.563194,24.267452],[120.566321,24.267773],[120.567826,24.268138],[120.568622,24.2687],[120.571283,24.269683],[120.572111,24.271428],[120.572344,24.272006],[120.572471,24.274844]]]},"properties":{"code":"66000120009","name":"西社里","countyCode":"66000","countyName":"臺中市","townCode":"66000120","townName":"清水區","level":"village","unassigned":false,"note":"","label":[120.56704660224882,24.269975824458076],"bounds":[120.560901,24.267356,120.572471,24.274844],"focusBounds":[120.560901,24.267356,120.572471,24.274844],"color":"#98b69b"}},{"type":"Feature","id":"66000120010","geometry":{"type":"Polygon","coordinates":[[[120.55401,24.268231],[120.552821,24.26823],[120.549716,24.260449],[120.558132,24.258486],[120.558646,24.258179],[120.560258,24.257825],[120.561809,24.257954],[120.562749,24.257878],[120.56578,24.258167],[120.567676,24.258832],[120.569265,24.25915],[120.56933,24.259937],[120.569973,24.262178],[120.5708,24.264411],[120.571347,24.265935],[120.570698,24.267858],[120.571283,24.269683],[120.568622,24.2687],[120.567826,24.268138],[120.566321,24.267773],[120.563194,24.267452],[120.563106,24.267843],[120.561319,24.267356],[120.560596,24.267147],[120.560087,24.267537],[120.559623,24.267518],[120.559113,24.267041],[120.556748,24.266576],[120.556239,24.268328],[120.55401,24.268231]]]},"properties":{"code":"66000120010","name":"南社里","countyCode":"66000","countyName":"臺中市","townCode":"66000120","townName":"清水區","level":"village","unassigned":false,"note":"","label":[120.5608968973998,24.26255601495518],"bounds":[120.549716,24.257825,120.571347,24.269683],"focusBounds":[120.549716,24.257825,120.571347,24.269683],"color":"#58b99d"}},{"type":"Feature","id":"66000120011","geometry":{"type":"Polygon","coordinates":[[[120.571918,24.299296],[120.571326,24.298353],[120.571191,24.297607],[120.570739,24.296712],[120.569127,24.294862],[120.567849,24.294149],[120.567233,24.293508],[120.567117,24.292622],[120.567441,24.292394],[120.566595,24.290785],[120.564978,24.291204],[120.564677,24.290562],[120.563059,24.289397],[120.562246,24.287286],[120.561915,24.285818],[120.562208,24.285564],[120.562715,24.285134],[120.563693,24.284848],[120.565816,24.285227],[120.566449,24.285098],[120.567314,24.284339],[120.568512,24.284228],[120.570599,24.288051],[120.571074,24.288898],[120.57245,24.288581],[120.571331,24.290768],[120.571481,24.29199],[120.571903,24.293569],[120.573014,24.295897],[120.573582,24.296953],[120.575179,24.299036],[120.575663,24.300013],[120.575633,24.30025],[120.574448,24.300355],[120.571918,24.299296]]]},"properties":{"code":"66000120011","name":"裕嘉里","countyCode":"66000","countyName":"臺中市","townCode":"66000120","townName":"清水區","level":"village","unassigned":false,"note":"","label":[120.56900517768776,24.290275086499115],"bounds":[120.561915,24.284228,120.575663,24.300355],"focusBounds":[120.561915,24.284228,120.575663,24.300355],"color":"#efb44f"}},{"type":"Feature","id":"66000120012","geometry":{"type":"Polygon","coordinates":[[[120.549457,24.293102],[120.550385,24.292626],[120.550213,24.29252],[120.550818,24.292192],[120.552143,24.291476],[120.555372,24.288966],[120.556035,24.288627],[120.556944,24.28861],[120.562246,24.287286],[120.563059,24.289397],[120.564677,24.290562],[120.564978,24.291204],[120.566595,24.290785],[120.567441,24.292394],[120.567117,24.292622],[120.567233,24.293508],[120.567849,24.294149],[120.569127,24.294862],[120.570739,24.296712],[120.571191,24.297607],[120.571326,24.298353],[120.571918,24.299296],[120.569702,24.298551],[120.549457,24.293102]]]},"properties":{"code":"66000120012","name":"臨江里","countyCode":"66000","countyName":"臺中市","townCode":"66000120","townName":"清水區","level":"village","unassigned":false,"note":"","label":[120.55996231485894,24.291892847167365],"bounds":[120.549457,24.287286,120.571918,24.299296],"focusBounds":[120.549457,24.287286,120.571918,24.299296],"color":"#78a7e3"}},{"type":"Feature","id":"66000120013","geometry":{"type":"Polygon","coordinates":[[[120.562208,24.285564],[120.560823,24.284043],[120.561677,24.283402],[120.561329,24.282553],[120.561039,24.281114],[120.561186,24.279548],[120.558458,24.273346],[120.553285,24.27527],[120.552086,24.27372],[120.555228,24.272587],[120.555482,24.27245],[120.555594,24.271785],[120.556068,24.271653],[120.557816,24.271495],[120.558939,24.271916],[120.558961,24.272381],[120.559411,24.272415],[120.559522,24.272156],[120.560901,24.272358],[120.561232,24.272377],[120.564403,24.271424],[120.565458,24.271463],[120.566366,24.271701],[120.566826,24.27208],[120.565743,24.272993],[120.564127,24.278772],[120.564294,24.279313],[120.564769,24.279828],[120.565862,24.280435],[120.567069,24.281607],[120.568512,24.284228],[120.567314,24.284339],[120.566449,24.285098],[120.565816,24.285227],[120.563693,24.284848],[120.562715,24.285134],[120.562208,24.285564]]]},"properties":{"code":"66000120013","name":"秀水里","countyCode":"66000","countyName":"臺中市","townCode":"66000120","townName":"清水區","level":"village","unassigned":false,"note":"","label":[120.5622200279687,24.27508367658865],"bounds":[120.552086,24.271424,120.568512,24.285564],"focusBounds":[120.552086,24.271424,120.568512,24.285564],"color":"#dd8590"}},{"type":"Feature","id":"66000120014","geometry":{"type":"Polygon","coordinates":[[[120.562246,24.287286],[120.556944,24.28861],[120.556035,24.288627],[120.555372,24.288966],[120.552143,24.291476],[120.550818,24.292192],[120.549038,24.288158],[120.548908,24.28674],[120.549117,24.2863],[120.550414,24.285478],[120.551053,24.284899],[120.551401,24.284208],[120.55158,24.282919],[120.549797,24.281029],[120.547814,24.279269],[120.546508,24.275717],[120.552086,24.27372],[120.553285,24.27527],[120.558458,24.273346],[120.561186,24.279548],[120.561039,24.281114],[120.561329,24.282553],[120.561677,24.283402],[120.560823,24.284043],[120.562208,24.285564],[120.561915,24.285818],[120.562246,24.287286]]]},"properties":{"code":"66000120014","name":"武鹿里","countyCode":"66000","countyName":"臺中市","townCode":"66000120","townName":"清水區","level":"village","unassigned":false,"note":"","label":[120.55565513075368,24.27980632651164],"bounds":[120.546508,24.273346,120.562246,24.292192],"focusBounds":[120.546508,24.273346,120.562246,24.292192],"color":"#a49ad4"}},{"type":"Feature","id":"66000120015","geometry":{"type":"Polygon","coordinates":[[[120.549457,24.293102],[120.547793,24.293982],[120.545831,24.295525],[120.538894,24.299404],[120.518605,24.305332],[120.518252,24.304215],[120.518082,24.302407],[120.51756,24.30035],[120.516814,24.298455],[120.514051,24.294809],[120.513576,24.294642],[120.51258,24.29395],[120.511226,24.29279],[120.510545,24.292573],[120.508091,24.293413],[120.508091,24.29326],[120.510609,24.292424],[120.510836,24.292224],[120.51066,24.291656],[120.510317,24.291403],[120.51057,24.291365],[120.511704,24.29192],[120.512513,24.291742],[120.51259,24.291887],[120.512238,24.292016],[120.512303,24.292136],[120.514814,24.293244],[120.517005,24.292689],[120.518177,24.292812],[120.51932,24.294093],[120.520768,24.293585],[120.519821,24.29247],[120.520995,24.292044],[120.522177,24.293242],[120.523612,24.292768],[120.523314,24.292207],[120.521341,24.290134],[120.518732,24.291021],[120.518654,24.290854],[120.518902,24.290771],[120.518681,24.290615],[120.518682,24.290281],[120.518423,24.290041],[120.516553,24.290509],[120.513964,24.291408],[120.514179,24.289786],[120.513548,24.288465],[120.513653,24.288436],[120.513878,24.288821],[120.51457,24.288345],[120.514634,24.288455],[120.514094,24.288846],[120.515045,24.290696],[120.51648,24.290008],[120.51552,24.288126],[120.514988,24.288278],[120.514946,24.288192],[120.515907,24.28785],[120.51754,24.286941],[120.517594,24.287043],[120.516209,24.287901],[120.516923,24.289232],[120.517977,24.28889],[120.519679,24.288322],[120.519474,24.287223],[120.518963,24.287298],[120.519454,24.287155],[120.519403,24.286782],[120.518425,24.286944],[120.518407,24.286829],[120.519831,24.286598],[120.52103,24.286731],[120.521044,24.288354],[120.521233,24.288192],[120.521404,24.286865],[120.521926,24.286781],[120.521969,24.286551],[120.53314,24.287839],[120.53317,24.288001],[120.533691,24.288222],[120.535035,24.28837],[120.535024,24.28856],[120.535847,24.288687],[120.536964,24.288252],[120.53653,24.287246],[120.536342,24.287313],[120.535619,24.2856],[120.535815,24.285515],[120.535485,24.28495],[120.533912,24.284791],[120.53388,24.284965],[120.533463,24.284953],[120.533207,24.286663],[120.533474,24.284725],[120.526674,24.283935],[120.533424,24.28242],[120.542588,24.279069],[120.542953,24.278769],[120.543761,24.277406],[120.546508,24.275717],[120.547814,24.279269],[120.549797,24.281029],[120.55158,24.282919],[120.551401,24.284208],[120.551053,24.284899],[120.550414,24.285478],[120.549117,24.2863],[120.548908,24.28674],[120.549038,24.288158],[120.550818,24.292192],[120.550213,24.29252],[120.550385,24.292626],[120.549457,24.293102]]]},"properties":{"code":"66000120015","name":"海濱里","countyCode":"66000","countyName":"臺中市","townCode":"66000120","townName":"清水區","level":"village","unassigned":false,"note":"","label":[120.53134850151592,24.294687041009535],"bounds":[120.508091,24.275717,120.55158,24.305332],"focusBounds":[120.508091,24.275717,120.55158,24.305332],"color":"#a8bf62"}},{"type":"Feature","id":"66000120016","geometry":{"type":"Polygon","coordinates":[[[120.55401,24.268231],[120.554257,24.268668],[120.553611,24.269429],[120.553233,24.269665],[120.544353,24.272848],[120.536548,24.276073],[120.522558,24.281423],[120.524939,24.277344],[120.52494,24.277343],[120.527312,24.275787],[120.528852,24.275223],[120.53258,24.272314],[120.532742,24.271992],[120.534224,24.271535],[120.5328,24.268176],[120.540938,24.265227],[120.539877,24.262731],[120.541253,24.262226],[120.541429,24.262635],[120.541688,24.262542],[120.541887,24.26247],[120.541948,24.262613],[120.543514,24.262068],[120.544105,24.261706],[120.545185,24.261562],[120.549716,24.260449],[120.552821,24.26823],[120.55401,24.268231]]]},"properties":{"code":"66000120016","name":"槺榔里","countyCode":"66000","countyName":"臺中市","townCode":"66000120","townName":"清水區","level":"village","unassigned":false,"note":"","label":[120.5404696761106,24.26992476828049],"bounds":[120.522558,24.260449,120.554257,24.281423],"focusBounds":[120.522558,24.260449,120.554257,24.281423],"color":"#68bec9"}},{"type":"Feature","id":"66000120017","geometry":{"type":"Polygon","coordinates":[[[120.522558,24.281423],[120.536548,24.276073],[120.544353,24.272848],[120.553233,24.269665],[120.553611,24.269429],[120.554257,24.268668],[120.55401,24.268231],[120.556239,24.268328],[120.556748,24.266576],[120.559113,24.267041],[120.559623,24.267518],[120.560087,24.267537],[120.560596,24.267147],[120.561319,24.267356],[120.56249,24.270193],[120.561971,24.270367],[120.561488,24.270251],[120.561447,24.271217],[120.560901,24.272358],[120.559522,24.272156],[120.559411,24.272415],[120.558961,24.272381],[120.558939,24.271916],[120.557816,24.271495],[120.556068,24.271653],[120.555594,24.271785],[120.555482,24.27245],[120.555228,24.272587],[120.552086,24.27372],[120.546508,24.275717],[120.543761,24.277406],[120.542953,24.278769],[120.542588,24.279069],[120.533424,24.28242],[120.526674,24.283935],[120.523482,24.283565],[120.522558,24.281423]]]},"properties":{"code":"66000120017","name":"中社里","countyCode":"66000","countyName":"臺中市","townCode":"66000120","townName":"清水區","level":"village","unassigned":false,"note":"","label":[120.54109284739894,24.276905152277408],"bounds":[120.522558,24.266576,120.56249,24.283935],"focusBounds":[120.522558,24.266576,120.56249,24.283935],"color":"#df9f6a"}},{"type":"Feature","id":"66000120018","geometry":{"type":"Polygon","coordinates":[[[120.559185,24.31497],[120.557484,24.314023],[120.556854,24.313925],[120.554959,24.314853],[120.552701,24.314987],[120.551206,24.314788],[120.550159,24.314327],[120.547869,24.31298],[120.546905,24.311236],[120.546487,24.308885],[120.546277,24.308386],[120.545946,24.308069],[120.545914,24.307757],[120.549451,24.305791],[120.55182,24.305196],[120.551716,24.304611],[120.552567,24.304251],[120.552847,24.304385],[120.553272,24.304315],[120.553425,24.304802],[120.554178,24.304875],[120.55499,24.304692],[120.556628,24.30461],[120.556827,24.304733],[120.557111,24.30563],[120.557421,24.305814],[120.557976,24.305957],[120.560102,24.307128],[120.561728,24.30751],[120.561681,24.307855],[120.560651,24.309538],[120.559185,24.31366],[120.559185,24.31497]]]},"properties":{"code":"66000120018","name":"高西里","countyCode":"66000","countyName":"臺中市","townCode":"66000120","townName":"清水區","level":"village","unassigned":false,"note":"","label":[120.55370591774106,24.30987856548091],"bounds":[120.545914,24.304251,120.561728,24.314987],"focusBounds":[120.545914,24.304251,120.561728,24.314987],"color":"#c38cb8"}},{"type":"Feature","id":"66000120019","geometry":{"type":"Polygon","coordinates":[[[120.521759,24.312132],[120.519947,24.31291],[120.519578,24.313004],[120.519457,24.312905],[120.519464,24.312783],[120.521678,24.311856],[120.521347,24.310727],[120.518951,24.306431],[120.518605,24.305332],[120.538894,24.299404],[120.545831,24.295525],[120.547793,24.293982],[120.549457,24.293102],[120.569702,24.298551],[120.571918,24.299296],[120.574448,24.300355],[120.573187,24.301105],[120.572842,24.301822],[120.572337,24.304017],[120.57193,24.304722],[120.5687,24.306643],[120.567081,24.308171],[120.564301,24.30803],[120.561728,24.30751],[120.560102,24.307128],[120.557976,24.305957],[120.557421,24.305814],[120.557111,24.30563],[120.556827,24.304733],[120.556628,24.30461],[120.55499,24.304692],[120.554178,24.304875],[120.553425,24.304802],[120.553272,24.304315],[120.552847,24.304385],[120.552567,24.304251],[120.551716,24.304611],[120.55182,24.305196],[120.549451,24.305791],[120.545914,24.307757],[120.546196,24.306505],[120.547484,24.306588],[120.548279,24.306392],[120.547409,24.306502],[120.546935,24.306225],[120.546284,24.30628],[120.545385,24.305886],[120.544846,24.305971],[120.5443,24.306497],[120.543966,24.307099],[120.543516,24.307012],[120.543274,24.306591],[120.542568,24.306119],[120.542106,24.306111],[120.534002,24.31033],[120.533496,24.311408],[120.533204,24.311612],[120.531801,24.311935],[120.531536,24.312165],[120.530794,24.312381],[120.530451,24.312306],[120.53033,24.312633],[120.529615,24.313032],[120.529033,24.313017],[120.528609,24.313221],[120.528529,24.313428],[120.528713,24.313756],[120.528183,24.313888],[120.527178,24.313625],[120.526715,24.313635],[120.526721,24.313858],[120.526532,24.313883],[120.524969,24.313636],[120.522409,24.312434],[120.52191,24.312042],[120.521759,24.312132]]]},"properties":{"code":"66000120019","name":"高南里","countyCode":"66000","countyName":"臺中市","townCode":"66000120","townName":"清水區","level":"village","unassigned":false,"note":"","label":[120.54829858887504,24.300073150779347],"bounds":[120.518605,24.293102,120.574448,24.313888],"focusBounds":[120.518605,24.293102,120.574448,24.313888],"color":"#98b69b"}},{"type":"Feature","id":"66000120020","geometry":{"type":"Polygon","coordinates":[[[120.58695,24.323027],[120.581986,24.317653],[120.580221,24.316241],[120.57923,24.315395],[120.576919,24.314524],[120.576586,24.314062],[120.576018,24.31369],[120.574543,24.31347],[120.572133,24.312291],[120.569988,24.311881],[120.56901,24.311404],[120.567541,24.310048],[120.567143,24.309063],[120.567081,24.308171],[120.5687,24.306643],[120.57193,24.304722],[120.572337,24.304017],[120.572842,24.301822],[120.576519,24.302807],[120.588793,24.308152],[120.593335,24.310146],[120.594298,24.311668],[120.59902,24.315116],[120.599323,24.315489],[120.597374,24.315263],[120.596209,24.315338],[120.595215,24.31521],[120.594137,24.315679],[120.591152,24.318218],[120.590853,24.318802],[120.589193,24.319884],[120.588091,24.321766],[120.58695,24.323027]]]},"properties":{"code":"66000120020","name":"高東里","countyCode":"66000","countyName":"臺中市","townCode":"66000120","townName":"清水區","level":"village","unassigned":false,"note":"","label":[120.58239717935629,24.310999807678954],"bounds":[120.567081,24.301822,120.599323,24.323027],"focusBounds":[120.567081,24.301822,120.599323,24.323027],"color":"#58b99d"}},{"type":"Feature","id":"66000120021","geometry":{"type":"Polygon","coordinates":[[[120.551702,24.334068],[120.551658,24.333678],[120.55184,24.333352],[120.552198,24.332962],[120.552674,24.332878],[120.552337,24.332768],[120.553671,24.332176],[120.553095,24.332328],[120.552677,24.332144],[120.551244,24.332192],[120.55182,24.332011],[120.553582,24.331034],[120.553112,24.331118],[120.553225,24.330958],[120.552798,24.33109],[120.552504,24.331365],[120.552511,24.331157],[120.552204,24.331226],[120.552074,24.331088],[120.55186,24.331214],[120.551793,24.330886],[120.551054,24.3309],[120.551843,24.330715],[120.552938,24.330781],[120.554248,24.330108],[120.55339,24.33034],[120.553391,24.33025],[120.553027,24.330482],[120.55267,24.330401],[120.552958,24.33035],[120.553056,24.33015],[120.552089,24.330366],[120.552446,24.330114],[120.551839,24.330279],[120.551369,24.330283],[120.551088,24.330103],[120.550888,24.330173],[120.551045,24.330047],[120.55174,24.329956],[120.551435,24.329389],[120.550239,24.329661],[120.550604,24.328991],[120.551212,24.328785],[120.551645,24.328236],[120.551546,24.32806],[120.550765,24.327809],[120.551235,24.327363],[120.550974,24.327087],[120.551331,24.327021],[120.550969,24.32671],[120.551507,24.326802],[120.551545,24.326671],[120.5518,24.326627],[120.551071,24.326467],[120.551858,24.326478],[120.55278,24.326698],[120.552413,24.32655],[120.551982,24.326111],[120.552809,24.325811],[120.551876,24.325817],[120.551807,24.325503],[120.552116,24.325407],[120.552049,24.325052],[120.551624,24.325227],[120.552623,24.324519],[120.55304,24.324647],[120.552989,24.324522],[120.551566,24.323599],[120.54242,24.323195],[120.541726,24.323067],[120.542396,24.323735],[120.542308,24.32389],[120.540981,24.323012],[120.539461,24.322922],[120.538749,24.32264],[120.539223,24.321287],[120.538817,24.321074],[120.538793,24.320931],[120.539702,24.320205],[120.540197,24.320028],[120.540171,24.320504],[120.540383,24.320665],[120.54224,24.320924],[120.543317,24.320774],[120.544983,24.32018],[120.546012,24.319427],[120.546804,24.318466],[120.548058,24.317542],[120.548695,24.316128],[120.549184,24.315974],[120.550191,24.316149],[120.549724,24.315407],[120.548937,24.315079],[120.548631,24.314774],[120.547869,24.31298],[120.550159,24.314327],[120.551206,24.314788],[120.552701,24.314987],[120.554959,24.314853],[120.556854,24.313925],[120.557484,24.314023],[120.559185,24.31497],[120.56107,24.315842],[120.561987,24.316039],[120.565259,24.316344],[120.566598,24.3163],[120.566966,24.316134],[120.569037,24.316601],[120.574549,24.316697],[120.580221,24.316241],[120.581986,24.317653],[120.58695,24.323027],[120.586585,24.323427],[120.586264,24.323814],[120.584155,24.325347],[120.583456,24.328574],[120.580043,24.331934],[120.578276,24.332099],[120.573623,24.331949],[120.569305,24.332308],[120.565354,24.332457],[120.562608,24.332716],[120.558137,24.33363],[120.551702,24.334068]]]},"properties":{"code":"66000120021","name":"高北里","countyCode":"66000","countyName":"臺中市","townCode":"66000120","townName":"清水區","level":"village","unassigned":false,"note":"","label":[120.5646476230249,24.3244052724952],"bounds":[120.538749,24.31298,120.58695,24.334068],"focusBounds":[120.538749,24.31298,120.58695,24.334068],"color":"#efb44f"}},{"type":"Feature","id":"66000120022","geometry":{"type":"Polygon","coordinates":[[[120.580221,24.316241],[120.574549,24.316697],[120.569037,24.316601],[120.566966,24.316134],[120.566598,24.3163],[120.565259,24.316344],[120.561987,24.316039],[120.56107,24.315842],[120.559185,24.31497],[120.559185,24.31366],[120.560651,24.309538],[120.561681,24.307855],[120.561728,24.30751],[120.564301,24.30803],[120.567081,24.308171],[120.567143,24.309063],[120.567541,24.310048],[120.56901,24.311404],[120.569988,24.311881],[120.572133,24.312291],[120.574543,24.31347],[120.576018,24.31369],[120.576586,24.314062],[120.576919,24.314524],[120.57923,24.315395],[120.580221,24.316241]]]},"properties":{"code":"66000120022","name":"高美里","countyCode":"66000","countyName":"臺中市","townCode":"66000120","townName":"清水區","level":"village","unassigned":false,"note":"","label":[120.56443671982669,24.312151902187424],"bounds":[120.559185,24.30751,120.580221,24.316697],"focusBounds":[120.559185,24.30751,120.580221,24.316697],"color":"#78a7e3"}},{"type":"Feature","id":"66000120023","geometry":{"type":"Polygon","coordinates":[[[120.572842,24.301822],[120.573187,24.301105],[120.574448,24.300355],[120.575633,24.30025],[120.575663,24.300013],[120.575179,24.299036],[120.573582,24.296953],[120.573014,24.295897],[120.571903,24.293569],[120.571481,24.29199],[120.571331,24.290768],[120.57245,24.288581],[120.571074,24.288898],[120.570599,24.288051],[120.57164,24.28792],[120.572781,24.287484],[120.57313,24.28723],[120.574017,24.285941],[120.574351,24.286271],[120.575083,24.286264],[120.575466,24.286054],[120.576102,24.286339],[120.577117,24.287672],[120.577467,24.288894],[120.577916,24.289331],[120.57844,24.289412],[120.579767,24.291652],[120.580698,24.292185],[120.581617,24.293434],[120.581654,24.294007],[120.58134,24.294322],[120.581409,24.294777],[120.582104,24.295073],[120.582519,24.295564],[120.582814,24.295436],[120.583107,24.295629],[120.583317,24.296194],[120.583759,24.296746],[120.5853,24.29752],[120.585769,24.298038],[120.587453,24.301474],[120.588427,24.303025],[120.588793,24.308152],[120.576519,24.302807],[120.572842,24.301822]]]},"properties":{"code":"66000120023","name":"國姓里","countyCode":"66000","countyName":"臺中市","townCode":"66000120","townName":"清水區","level":"village","unassigned":false,"note":"","label":[120.57948237477447,24.298461569198885],"bounds":[120.570599,24.285941,120.588793,24.308152],"focusBounds":[120.570599,24.285941,120.588793,24.308152],"color":"#dd8590"}},{"type":"Feature","id":"66000120024","geometry":{"type":"Polygon","coordinates":[[[120.599323,24.315489],[120.59902,24.315116],[120.594298,24.311668],[120.593335,24.310146],[120.588793,24.308152],[120.588427,24.303025],[120.587453,24.301474],[120.585769,24.298038],[120.5853,24.29752],[120.583759,24.296746],[120.583317,24.296194],[120.583107,24.295629],[120.58364,24.295922],[120.584031,24.295954],[120.587853,24.294413],[120.587925,24.294222],[120.587593,24.293669],[120.588655,24.29331],[120.589822,24.294842],[120.593587,24.298639],[120.594753,24.298722],[120.597156,24.299834],[120.599037,24.301798],[120.599636,24.302328],[120.600155,24.302568],[120.600178,24.303173],[120.600737,24.303781],[120.602131,24.306722],[120.602408,24.307644],[120.603166,24.308825],[120.604271,24.311158],[120.604885,24.311904],[120.607235,24.313138],[120.608148,24.313788],[120.609607,24.315304],[120.609711,24.315623],[120.60901,24.315784],[120.607514,24.315983],[120.605485,24.315512],[120.601622,24.315038],[120.599846,24.315217],[120.599323,24.315489]]]},"properties":{"code":"66000120024","name":"菁埔里","countyCode":"66000","countyName":"臺中市","townCode":"66000120","townName":"清水區","level":"village","unassigned":false,"note":"","label":[120.59533564686744,24.305708610794184],"bounds":[120.583107,24.29331,120.609711,24.315983],"focusBounds":[120.583107,24.29331,120.609711,24.315983],"color":"#a8bf62"}},{"type":"Feature","id":"66000120025","geometry":{"type":"Polygon","coordinates":[[[120.609711,24.315623],[120.609607,24.315304],[120.608148,24.313788],[120.607235,24.313138],[120.604885,24.311904],[120.604271,24.311158],[120.603166,24.308825],[120.602408,24.307644],[120.602131,24.306722],[120.600737,24.303781],[120.600178,24.303173],[120.600155,24.302568],[120.599636,24.302328],[120.599037,24.301798],[120.597156,24.299834],[120.594753,24.298722],[120.593587,24.298639],[120.589822,24.294842],[120.588655,24.29331],[120.588448,24.292973],[120.589397,24.292343],[120.589647,24.292379],[120.590255,24.292912],[120.590777,24.292467],[120.592302,24.291776],[120.592731,24.291647],[120.5943,24.291633],[120.594705,24.291417],[120.595495,24.290485],[120.597008,24.289615],[120.597634,24.289411],[120.600769,24.292846],[120.601251,24.293637],[120.602027,24.295802],[120.603176,24.298103],[120.604182,24.299033],[120.605238,24.300198],[120.610708,24.303921],[120.611713,24.30501],[120.613425,24.305097],[120.618435,24.305762],[120.620606,24.305379],[120.623524,24.304171],[120.625344,24.304482],[120.62559,24.305204],[120.625529,24.307006],[120.626058,24.307923],[120.626229,24.308931],[120.626879,24.310542],[120.626714,24.312511],[120.623655,24.314585],[120.621519,24.315268],[120.618702,24.315527],[120.616406,24.315567],[120.613384,24.315216],[120.612013,24.315201],[120.609711,24.315623]]]},"properties":{"code":"66000120025","name":"頂湳里","countyCode":"66000","countyName":"臺中市","townCode":"66000120","townName":"清水區","level":"village","unassigned":false,"note":"","label":[120.61178540436978,24.31012790187681],"bounds":[120.588448,24.289411,120.626879,24.315623],"focusBounds":[120.588448,24.289411,120.626879,24.315623],"color":"#68bec9"}},{"type":"Feature","id":"66000120026","geometry":{"type":"Polygon","coordinates":[[[120.583107,24.295629],[120.582814,24.295436],[120.582519,24.295564],[120.582104,24.295073],[120.581409,24.294777],[120.58134,24.294322],[120.581654,24.294007],[120.581617,24.293434],[120.580698,24.292185],[120.579767,24.291652],[120.57844,24.289412],[120.577916,24.289331],[120.577467,24.288894],[120.577117,24.287672],[120.576102,24.286339],[120.575466,24.286054],[120.575083,24.286264],[120.574351,24.286271],[120.574017,24.285941],[120.574754,24.284112],[120.575474,24.278214],[120.575601,24.278282],[120.577979,24.279833],[120.577935,24.280035],[120.579706,24.282205],[120.580341,24.283754],[120.580288,24.28415],[120.581294,24.285744],[120.581989,24.287478],[120.582527,24.288331],[120.583414,24.289384],[120.584194,24.289562],[120.584671,24.289484],[120.585622,24.290142],[120.586122,24.290853],[120.586649,24.292282],[120.587435,24.293262],[120.587593,24.293669],[120.587925,24.294222],[120.587853,24.294413],[120.584031,24.295954],[120.58364,24.295922],[120.583107,24.295629]]]},"properties":{"code":"66000120026","name":"田寮里","countyCode":"66000","countyName":"臺中市","townCode":"66000120","townName":"清水區","level":"village","unassigned":false,"note":"","label":[120.57933212128818,24.286964751799694],"bounds":[120.574017,24.278214,120.587925,24.295954],"focusBounds":[120.574017,24.278214,120.587925,24.295954],"color":"#98b69b"}},{"type":"Feature","id":"66000120027","geometry":{"type":"Polygon","coordinates":[[[120.574017,24.285941],[120.57313,24.28723],[120.572781,24.287484],[120.57164,24.28792],[120.570599,24.288051],[120.568512,24.284228],[120.567069,24.281607],[120.565862,24.280435],[120.564769,24.279828],[120.564294,24.279313],[120.564127,24.278772],[120.565743,24.272993],[120.566826,24.27208],[120.56812,24.271624],[120.568631,24.272558],[120.569603,24.273801],[120.570369,24.273502],[120.57107,24.274128],[120.571895,24.274262],[120.572471,24.274844],[120.572903,24.276301],[120.573281,24.276876],[120.575474,24.278214],[120.574754,24.284112],[120.574017,24.285941]]]},"properties":{"code":"66000120027","name":"橋頭里","countyCode":"66000","countyName":"臺中市","townCode":"66000120","townName":"清水區","level":"village","unassigned":false,"note":"","label":[120.57018923680907,24.27946345937817],"bounds":[120.564127,24.271624,120.575474,24.288051],"focusBounds":[120.564127,24.271624,120.575474,24.288051],"color":"#df9f6a"}},{"type":"Feature","id":"66000120028","geometry":{"type":"Polygon","coordinates":[[[120.588655,24.29331],[120.587593,24.293669],[120.587435,24.293262],[120.586649,24.292282],[120.586122,24.290853],[120.585622,24.290142],[120.584671,24.289484],[120.584194,24.289562],[120.583414,24.289384],[120.582527,24.288331],[120.581989,24.287478],[120.581294,24.285744],[120.580288,24.28415],[120.580341,24.283754],[120.579706,24.282205],[120.577935,24.280035],[120.577979,24.279833],[120.575601,24.278282],[120.577462,24.276831],[120.579385,24.274243],[120.580486,24.272788],[120.581034,24.272396],[120.58163,24.272226],[120.582366,24.272402],[120.583219,24.272843],[120.58459,24.273959],[120.58452,24.274995],[120.586901,24.278442],[120.587642,24.278909],[120.591045,24.28197],[120.593772,24.284088],[120.594545,24.284956],[120.594943,24.286413],[120.595716,24.287763],[120.597634,24.289411],[120.597008,24.289615],[120.595495,24.290485],[120.594705,24.291417],[120.5943,24.291633],[120.592731,24.291647],[120.592302,24.291776],[120.590777,24.292467],[120.590255,24.292912],[120.589647,24.292379],[120.589397,24.292343],[120.588448,24.292973],[120.588655,24.29331]]]},"properties":{"code":"66000120028","name":"下湳里","countyCode":"66000","countyName":"臺中市","townCode":"66000120","townName":"清水區","level":"village","unassigned":false,"note":"","label":[120.58639412092879,24.284649244361646],"bounds":[120.575601,24.272226,120.597634,24.293669],"focusBounds":[120.575601,24.272226,120.597634,24.293669],"color":"#c38cb8"}},{"type":"Feature","id":"66000120029","geometry":{"type":"Polygon","coordinates":[[[120.628783,24.290111],[120.628943,24.289325],[120.628857,24.287569],[120.629114,24.28374],[120.629363,24.282838],[120.629776,24.27574],[120.629633,24.274787],[120.629983,24.273383],[120.630111,24.270222],[120.642758,24.270615],[120.643056,24.271434],[120.644122,24.27235],[120.644285,24.273],[120.646064,24.275207],[120.646955,24.276683],[120.644522,24.277595],[120.638273,24.278983],[120.639452,24.280952],[120.636189,24.284368],[120.637175,24.285673],[120.636571,24.286515],[120.6373,24.287417],[120.637118,24.28784],[120.637851,24.288975],[120.633135,24.290334],[120.632476,24.289673],[120.63114,24.289972],[120.628783,24.290111]]]},"properties":{"code":"66000120029","name":"東山里","countyCode":"66000","countyName":"臺中市","townCode":"66000120","townName":"清水區","level":"village","unassigned":false,"note":"","label":[120.63482402665781,24.275435173029525],"bounds":[120.628783,24.270222,120.646955,24.290334],"focusBounds":[120.628783,24.270222,120.646955,24.290334],"color":"#98b69b"}},{"type":"Feature","id":"66000120030","geometry":{"type":"Polygon","coordinates":[[[120.621841,24.290397],[120.620816,24.29227],[120.620177,24.292851],[120.618678,24.293118],[120.611587,24.295935],[120.610722,24.296721],[120.609859,24.297059],[120.608918,24.297946],[120.60828,24.298218],[120.604182,24.299033],[120.603176,24.298103],[120.602027,24.295802],[120.601251,24.293637],[120.600769,24.292846],[120.597634,24.289411],[120.598176,24.289167],[120.599213,24.28786],[120.599755,24.287553],[120.600905,24.287526],[120.60236,24.28707],[120.605104,24.285934],[120.606457,24.28557],[120.610285,24.283821],[120.613609,24.282774],[120.613413,24.286741],[120.617062,24.290452],[120.619446,24.290526],[120.621841,24.290397]]]},"properties":{"code":"66000120030","name":"楊厝里","countyCode":"66000","countyName":"臺中市","townCode":"66000120","townName":"清水區","level":"village","unassigned":false,"note":"","label":[120.60758958118915,24.291703993572376],"bounds":[120.597634,24.282774,120.621841,24.299033],"focusBounds":[120.597634,24.282774,120.621841,24.299033],"color":"#58b99d"}},{"type":"Feature","id":"66000120031","geometry":{"type":"Polygon","coordinates":[[[120.626714,24.312511],[120.626879,24.310542],[120.626229,24.308931],[120.626058,24.307923],[120.625529,24.307006],[120.62559,24.305204],[120.625344,24.304482],[120.623524,24.304171],[120.620606,24.305379],[120.618435,24.305762],[120.613425,24.305097],[120.611713,24.30501],[120.610708,24.303921],[120.605238,24.300198],[120.604182,24.299033],[120.60828,24.298218],[120.608918,24.297946],[120.609859,24.297059],[120.610722,24.296721],[120.611587,24.295935],[120.618678,24.293118],[120.620177,24.292851],[120.620816,24.29227],[120.621841,24.290397],[120.628783,24.290111],[120.63114,24.289972],[120.632476,24.289673],[120.633135,24.290334],[120.637851,24.288975],[120.638946,24.290899],[120.640042,24.293593],[120.641049,24.295424],[120.641076,24.295932],[120.642128,24.297639],[120.642832,24.298274],[120.643303,24.298483],[120.646204,24.299293],[120.644188,24.301484],[120.633177,24.308772],[120.632678,24.308979],[120.626714,24.312511]]]},"properties":{"code":"66000120031","name":"海風里","countyCode":"66000","countyName":"臺中市","townCode":"66000120","townName":"清水區","level":"village","unassigned":false,"note":"","label":[120.63071414318439,24.29815943850849],"bounds":[120.604182,24.288975,120.646204,24.312511],"focusBounds":[120.604182,24.288975,120.646204,24.312511],"color":"#efb44f"}},{"type":"Feature","id":"66000120032","geometry":{"type":"Polygon","coordinates":[[[120.58459,24.273959],[120.584817,24.269795],[120.58468,24.268377],[120.587222,24.267031],[120.590239,24.266598],[120.594326,24.266409],[120.595301,24.266524],[120.597493,24.266234],[120.599075,24.266477],[120.599588,24.267005],[120.599915,24.267105],[120.60328,24.265438],[120.603394,24.265475],[120.603104,24.267406],[120.606427,24.26667],[120.613642,24.280814],[120.613609,24.282774],[120.610285,24.283821],[120.606457,24.28557],[120.605104,24.285934],[120.60236,24.28707],[120.600905,24.287526],[120.599755,24.287553],[120.599213,24.28786],[120.598176,24.289167],[120.597634,24.289411],[120.595716,24.287763],[120.594943,24.286413],[120.594545,24.284956],[120.593772,24.284088],[120.591045,24.28197],[120.587642,24.278909],[120.586901,24.278442],[120.58452,24.274995],[120.58459,24.273959]]]},"properties":{"code":"66000120032","name":"吳厝里","countyCode":"66000","countyName":"臺中市","townCode":"66000120","townName":"清水區","level":"village","unassigned":false,"note":"","label":[120.5999677994585,24.276481925998976],"bounds":[120.58452,24.265438,120.613642,24.289411],"focusBounds":[120.58452,24.265438,120.613642,24.289411],"color":"#78a7e3"}},{"type":"Feature","id":"66000120S01","geometry":{"type":"Polygon","coordinates":[[[120.526674,24.283935],[120.533474,24.284725],[120.533207,24.286663],[120.533463,24.284953],[120.53388,24.284965],[120.533912,24.284791],[120.535485,24.28495],[120.535815,24.285515],[120.535619,24.2856],[120.536342,24.287313],[120.53653,24.287246],[120.536964,24.288252],[120.535847,24.288687],[120.535024,24.28856],[120.535035,24.28837],[120.533691,24.288222],[120.53317,24.288001],[120.53314,24.287839],[120.521969,24.286551],[120.521926,24.286781],[120.521404,24.286865],[120.521233,24.288192],[120.521044,24.288354],[120.52103,24.286731],[120.519831,24.286598],[120.518407,24.286829],[120.518425,24.286944],[120.519403,24.286782],[120.519454,24.287155],[120.518963,24.287298],[120.519474,24.287223],[120.519679,24.288322],[120.517977,24.28889],[120.516923,24.289232],[120.516209,24.287901],[120.517594,24.287043],[120.51754,24.286941],[120.515907,24.28785],[120.514946,24.288192],[120.514988,24.288278],[120.51552,24.288126],[120.51648,24.290008],[120.515045,24.290696],[120.514094,24.288846],[120.514634,24.288455],[120.51457,24.288345],[120.513878,24.288821],[120.513653,24.288436],[120.513548,24.288465],[120.514179,24.289786],[120.513964,24.291408],[120.516553,24.290509],[120.518423,24.290041],[120.518682,24.290281],[120.518681,24.290615],[120.518902,24.290771],[120.518654,24.290854],[120.518732,24.291021],[120.521341,24.290134],[120.523314,24.292207],[120.523612,24.292768],[120.522177,24.293242],[120.520995,24.292044],[120.519821,24.29247],[120.520768,24.293585],[120.51932,24.294093],[120.518177,24.292812],[120.517005,24.292689],[120.514814,24.293244],[120.512303,24.292136],[120.512238,24.292016],[120.51259,24.291887],[120.512513,24.291742],[120.511704,24.29192],[120.51057,24.291365],[120.509534,24.288013],[120.512576,24.286895],[120.51616,24.284808],[120.519205,24.282291],[120.521672,24.279601],[120.524939,24.277344],[120.522558,24.281423],[120.523482,24.283565],[120.526674,24.283935]]]},"properties":{"code":"66000120S01","name":"未編定村里","countyCode":"66000","countyName":"臺中市","townCode":"66000120","townName":"清水區","level":"village","unassigned":true,"note":"未編定村里","label":[120.52119696239241,24.284170787739313],"bounds":[120.509534,24.277344,120.536964,24.294093],"focusBounds":[120.509534,24.277344,120.536964,24.294093],"color":"#dd8590"}},{"type":"Feature","id":"66000120S02","geometry":{"type":"Polygon","coordinates":[[[120.613609,24.282774],[120.613642,24.280814],[120.606427,24.26667],[120.609398,24.265955],[120.609953,24.265606],[120.61401,24.262713],[120.615022,24.262132],[120.618729,24.260523],[120.620302,24.260059],[120.627717,24.259413],[120.633162,24.259266],[120.630751,24.261558],[120.630602,24.26177],[120.63072,24.261923],[120.63249,24.262289],[120.635815,24.262198],[120.6383,24.262579],[120.63985,24.263276],[120.640589,24.263832],[120.641281,24.265007],[120.641583,24.265963],[120.642758,24.270615],[120.630111,24.270222],[120.629983,24.273383],[120.629633,24.274787],[120.629776,24.27574],[120.629363,24.282838],[120.629114,24.28374],[120.628857,24.287569],[120.628943,24.289325],[120.628783,24.290111],[120.621841,24.290397],[120.619446,24.290526],[120.617062,24.290452],[120.613413,24.286741],[120.613609,24.282774]]]},"properties":{"code":"66000120S02","name":"未編定村里","countyCode":"66000","countyName":"臺中市","townCode":"66000120","townName":"清水區","level":"village","unassigned":true,"note":"未編定村里","label":[120.62018068380284,24.27198782740981],"bounds":[120.606427,24.259266,120.642758,24.290526],"focusBounds":[120.606427,24.259266,120.642758,24.290526],"color":"#a49ad4"}},{"type":"Feature","id":"66000120S03","geometry":{"type":"Polygon","coordinates":[[[120.539707,24.334884],[120.539397,24.334482],[120.539401,24.33345],[120.539128,24.332088],[120.538543,24.33095],[120.534587,24.325628],[120.533086,24.323146],[120.532572,24.321833],[120.53232,24.320507],[120.531336,24.319612],[120.529855,24.318927],[120.528191,24.318668],[120.52602,24.317715],[120.523751,24.315778],[120.521983,24.312897],[120.521759,24.312132],[120.52191,24.312042],[120.522409,24.312434],[120.524969,24.313636],[120.526532,24.313883],[120.526721,24.313858],[120.526715,24.313635],[120.527178,24.313625],[120.528183,24.313888],[120.528713,24.313756],[120.528529,24.313428],[120.528609,24.313221],[120.529033,24.313017],[120.529615,24.313032],[120.53033,24.312633],[120.530451,24.312306],[120.530794,24.312381],[120.531536,24.312165],[120.531801,24.311935],[120.533204,24.311612],[120.533496,24.311408],[120.534002,24.31033],[120.542106,24.306111],[120.542568,24.306119],[120.543274,24.306591],[120.543516,24.307012],[120.543966,24.307099],[120.5443,24.306497],[120.544846,24.305971],[120.545385,24.305886],[120.546284,24.30628],[120.546935,24.306225],[120.547409,24.306502],[120.548279,24.306392],[120.547484,24.306588],[120.546196,24.306505],[120.545914,24.307757],[120.545946,24.308069],[120.546277,24.308386],[120.546487,24.308885],[120.546905,24.311236],[120.547869,24.31298],[120.548631,24.314774],[120.548937,24.315079],[120.549724,24.315407],[120.550191,24.316149],[120.549184,24.315974],[120.548695,24.316128],[120.548058,24.317542],[120.546804,24.318466],[120.546012,24.319427],[120.544983,24.32018],[120.543317,24.320774],[120.54224,24.320924],[120.540383,24.320665],[120.540171,24.320504],[120.540197,24.320028],[120.539702,24.320205],[120.538793,24.320931],[120.538817,24.321074],[120.539223,24.321287],[120.538749,24.32264],[120.539461,24.322922],[120.540981,24.323012],[120.542308,24.32389],[120.542396,24.323735],[120.541726,24.323067],[120.54242,24.323195],[120.551566,24.323599],[120.552989,24.324522],[120.55304,24.324647],[120.552623,24.324519],[120.551624,24.325227],[120.552049,24.325052],[120.552116,24.325407],[120.551807,24.325503],[120.551876,24.325817],[120.552809,24.325811],[120.551982,24.326111],[120.552413,24.32655],[120.55278,24.326698],[120.551858,24.326478],[120.551071,24.326467],[120.5518,24.326627],[120.551545,24.326671],[120.551507,24.326802],[120.550969,24.32671],[120.551331,24.327021],[120.550974,24.327087],[120.551235,24.327363],[120.550765,24.327809],[120.551546,24.32806],[120.551645,24.328236],[120.551212,24.328785],[120.550604,24.328991],[120.550239,24.329661],[120.551435,24.329389],[120.55174,24.329956],[120.551045,24.330047],[120.550888,24.330173],[120.551088,24.330103],[120.551369,24.330283],[120.551839,24.330279],[120.552446,24.330114],[120.552089,24.330366],[120.553056,24.33015],[120.552958,24.33035],[120.55267,24.330401],[120.553027,24.330482],[120.553391,24.33025],[120.55339,24.33034],[120.554248,24.330108],[120.552938,24.330781],[120.551843,24.330715],[120.551054,24.3309],[120.551793,24.330886],[120.55186,24.331214],[120.552074,24.331088],[120.552204,24.331226],[120.552511,24.331157],[120.552504,24.331365],[120.552798,24.33109],[120.553225,24.330958],[120.553112,24.331118],[120.553582,24.331034],[120.55182,24.332011],[120.551244,24.332192],[120.552677,24.332144],[120.553095,24.332328],[120.553671,24.332176],[120.552337,24.332768],[120.552674,24.332878],[120.552198,24.332962],[120.55184,24.333352],[120.551658,24.333678],[120.551702,24.334068],[120.539707,24.334884]]]},"properties":{"code":"66000120S03","name":"未編定村里","countyCode":"66000","countyName":"臺中市","townCode":"66000120","townName":"清水區","level":"village","unassigned":true,"note":"未編定村里","label":[120.54059887028944,24.31374349521936],"bounds":[120.521759,24.305886,120.554248,24.334884],"focusBounds":[120.521759,24.305886,120.554248,24.334884],"color":"#a8bf62"}}]}
