{"type":"FeatureCollection","features":[{"type":"Feature","id":"66000140001","geometry":{"type":"Polygon","coordinates":[[[120.541688,24.262542],[120.541429,24.262635],[120.541253,24.262226],[120.539877,24.262731],[120.540938,24.265227],[120.5328,24.268176],[120.534224,24.271535],[120.532742,24.271992],[120.53258,24.272314],[120.528852,24.275223],[120.527312,24.275787],[120.52494,24.277343],[120.526779,24.274192],[120.524019,24.267809],[120.524125,24.267561],[120.524581,24.267228],[120.523832,24.26499],[120.528737,24.263323],[120.53022,24.2611],[120.539615,24.25769],[120.541688,24.262542]]]},"properties":{"code":"66000140001","name":"頂寮里","countyCode":"66000","countyName":"臺中市","townCode":"66000140","townName":"梧棲區","level":"village","unassigned":false,"note":"","label":[120.53280432362975,24.26416825040532],"bounds":[120.523832,24.25769,120.541688,24.277343],"focusBounds":[120.523832,24.25769,120.541688,24.277343],"color":"#df9f6a"}},{"type":"Feature","id":"66000140002","geometry":{"type":"Polygon","coordinates":[[[120.521493,24.261832],[120.527178,24.259232],[120.530044,24.258216],[120.533259,24.257632],[120.53481,24.257709],[120.538987,24.256228],[120.539287,24.256931],[120.539615,24.25769],[120.53022,24.2611],[120.528737,24.263323],[120.523832,24.26499],[120.522639,24.261953],[120.521982,24.262146],[120.522054,24.262362],[120.521762,24.262445],[120.521493,24.261832]]]},"properties":{"code":"66000140002","name":"下寮里","countyCode":"66000","countyName":"臺中市","townCode":"66000140","townName":"梧棲區","level":"village","unassigned":false,"note":"","label":[120.52730463709544,24.26149842519338],"bounds":[120.521493,24.256228,120.539615,24.26499],"focusBounds":[120.521493,24.256228,120.539615,24.26499],"color":"#c38cb8"}},{"type":"Feature","id":"66000140003","geometry":{"type":"Polygon","coordinates":[[[120.521129,24.261005],[120.528106,24.257553],[120.530378,24.256913],[120.529931,24.255596],[120.529815,24.255142],[120.529973,24.254901],[120.532793,24.253989],[120.533158,24.253957],[120.533667,24.254132],[120.534327,24.253375],[120.536309,24.252604],[120.537249,24.252276],[120.538987,24.256228],[120.53481,24.257709],[120.533259,24.257632],[120.530044,24.258216],[120.527178,24.259232],[120.521493,24.261832],[120.521129,24.261005]]]},"properties":{"code":"66000140003","name":"中正里","countyCode":"66000","countyName":"臺中市","townCode":"66000140","townName":"梧棲區","level":"village","unassigned":false,"note":"","label":[120.53248040270142,24.255931958940792],"bounds":[120.521129,24.252276,120.538987,24.261832],"focusBounds":[120.521129,24.252276,120.538987,24.261832],"color":"#98b69b"}},{"type":"Feature","id":"66000140004","geometry":{"type":"Polygon","coordinates":[[[120.510842,24.261318],[120.51796,24.259379],[120.529931,24.255596],[120.530378,24.256913],[120.528106,24.257553],[120.521129,24.261005],[120.520632,24.259875],[120.520367,24.259949],[120.520249,24.259673],[120.519473,24.259905],[120.518272,24.261624],[120.517601,24.262883],[120.517845,24.263577],[120.518493,24.263412],[120.522528,24.272928],[120.520619,24.276098],[120.51702,24.277375],[120.510556,24.262254],[120.510876,24.262137],[120.510985,24.262264],[120.511132,24.26203],[120.510842,24.261318]]]},"properties":{"code":"66000140004","name":"中和里","countyCode":"66000","countyName":"臺中市","townCode":"66000140","townName":"梧棲區","level":"village","unassigned":false,"note":"","label":[120.51623935654625,24.266797488605913],"bounds":[120.510556,24.255596,120.530378,24.277375],"focusBounds":[120.510556,24.255596,120.530378,24.277375],"color":"#58b99d"}},{"type":"Feature","id":"66000140005","geometry":{"type":"Polygon","coordinates":[[[120.50995,24.260909],[120.523149,24.257314],[120.525244,24.256549],[120.534648,24.251195],[120.535114,24.251287],[120.535796,24.251667],[120.536309,24.252604],[120.534327,24.253375],[120.533667,24.254132],[120.533158,24.253957],[120.532793,24.253989],[120.529973,24.254901],[120.529815,24.255142],[120.529931,24.255596],[120.51796,24.259379],[120.510842,24.261318],[120.510176,24.261433],[120.50995,24.260909]]]},"properties":{"code":"66000140005","name":"文化里","countyCode":"66000","countyName":"臺中市","townCode":"66000140","townName":"梧棲區","level":"village","unassigned":false,"note":"","label":[120.52853801003302,24.255354780464103],"bounds":[120.50995,24.251195,120.536309,24.261433],"focusBounds":[120.50995,24.251195,120.536309,24.261433],"color":"#dd8590"}},{"type":"Feature","id":"66000140006","geometry":{"type":"Polygon","coordinates":[[[120.509362,24.259543],[120.528066,24.252956],[120.527935,24.252137],[120.529268,24.251632],[120.529555,24.252414],[120.536229,24.249985],[120.537249,24.252276],[120.536309,24.252604],[120.535796,24.251667],[120.535114,24.251287],[120.534648,24.251195],[120.525244,24.256549],[120.523149,24.257314],[120.50995,24.260909],[120.509362,24.259543]]]},"properties":{"code":"66000140006","name":"安仁里","countyCode":"66000","countyName":"臺中市","townCode":"66000140","townName":"梧棲區","level":"village","unassigned":false,"note":"","label":[120.52280890883286,24.25610706560572],"bounds":[120.509362,24.249985,120.537249,24.260909],"focusBounds":[120.509362,24.249985,120.537249,24.260909],"color":"#78a7e3"}},{"type":"Feature","id":"66000140007","geometry":{"type":"Polygon","coordinates":[[[120.509362,24.259543],[120.506685,24.253763],[120.501317,24.241016],[120.502526,24.238127],[120.503364,24.237098],[120.503547,24.236631],[120.504078,24.236109],[120.504284,24.234681],[120.504149,24.23422],[120.504553,24.233476],[120.504254,24.233099],[120.504243,24.232807],[120.50388,24.233059],[120.504242,24.232807],[120.508139,24.230271],[120.510231,24.22979],[120.513584,24.229667],[120.514305,24.229811],[120.520489,24.228736],[120.521631,24.22805],[120.523117,24.227805],[120.526393,24.226849],[120.528987,24.233021],[120.53225,24.240581],[120.534723,24.246404],[120.536229,24.249985],[120.529555,24.252414],[120.529268,24.251632],[120.527935,24.252137],[120.528066,24.252956],[120.509362,24.259543]]]},"properties":{"code":"66000140007","name":"草湳里","countyCode":"66000","countyName":"臺中市","townCode":"66000140","townName":"梧棲區","level":"village","unassigned":false,"note":"","label":[120.51779394569087,24.24288904531145],"bounds":[120.501317,24.226849,120.536229,24.259543],"focusBounds":[120.501317,24.226849,120.536229,24.259543],"color":"#dd8590"}},{"type":"Feature","id":"66000140008","geometry":{"type":"Polygon","coordinates":[[[120.541688,24.262542],[120.539615,24.25769],[120.539287,24.256931],[120.541392,24.256417],[120.541454,24.256576],[120.542651,24.256233],[120.542778,24.256765],[120.557212,24.253516],[120.561321,24.252531],[120.562749,24.257878],[120.561809,24.257954],[120.560258,24.257825],[120.558646,24.258179],[120.558132,24.258486],[120.549716,24.260449],[120.545185,24.261562],[120.544105,24.261706],[120.543514,24.262068],[120.541948,24.262613],[120.541887,24.26247],[120.541688,24.262542]]]},"properties":{"code":"66000140008","name":"南簡里","countyCode":"66000","countyName":"臺中市","townCode":"66000140","townName":"梧棲區","level":"village","unassigned":false,"note":"","label":[120.55102346346561,24.257526740031608],"bounds":[120.539287,24.252531,120.562749,24.262613],"focusBounds":[120.539287,24.252531,120.562749,24.262613],"color":"#a49ad4"}},{"type":"Feature","id":"66000140009","geometry":{"type":"Polygon","coordinates":[[[120.555323,24.246103],[120.55547,24.247645],[120.557212,24.253516],[120.542778,24.256765],[120.542651,24.256233],[120.541454,24.256576],[120.541392,24.256417],[120.539287,24.256931],[120.538987,24.256228],[120.537249,24.252276],[120.536229,24.249985],[120.539529,24.248774],[120.53995,24.249259],[120.540755,24.249785],[120.542334,24.249551],[120.546258,24.248518],[120.550222,24.247142],[120.553432,24.246354],[120.555323,24.246103]]]},"properties":{"code":"66000140009","name":"福德里","countyCode":"66000","countyName":"臺中市","townCode":"66000140","townName":"梧棲區","level":"village","unassigned":false,"note":"","label":[120.54707668850143,24.25201569882831],"bounds":[120.536229,24.246103,120.557212,24.256931],"focusBounds":[120.536229,24.246103,120.557212,24.256931],"color":"#a8bf62"}},{"type":"Feature","id":"66000140010","geometry":{"type":"Polygon","coordinates":[[[120.555323,24.246103],[120.553432,24.246354],[120.550222,24.247142],[120.546258,24.248518],[120.542334,24.249551],[120.540755,24.249785],[120.53995,24.249259],[120.539529,24.248774],[120.536229,24.249985],[120.534723,24.246404],[120.538293,24.24515],[120.538429,24.24564],[120.539539,24.245795],[120.539647,24.246422],[120.540729,24.246673],[120.546202,24.244706],[120.545933,24.243977],[120.548166,24.243153],[120.548114,24.242991],[120.549053,24.242592],[120.552562,24.241449],[120.553558,24.240943],[120.553865,24.241619],[120.55476,24.241964],[120.55505,24.242265],[120.55708,24.24156],[120.557855,24.241466],[120.557944,24.241628],[120.558119,24.242194],[120.558792,24.242981],[120.559255,24.243891],[120.558112,24.244333],[120.555168,24.244817],[120.555323,24.246103]]]},"properties":{"code":"66000140010","name":"大庄里","countyCode":"66000","countyName":"臺中市","townCode":"66000140","townName":"梧棲區","level":"village","unassigned":false,"note":"","label":[120.54818530783362,24.245404871697474],"bounds":[120.534723,24.240943,120.559255,24.249985],"focusBounds":[120.534723,24.240943,120.559255,24.249985],"color":"#df9f6a"}},{"type":"Feature","id":"66000140011","geometry":{"type":"Polygon","coordinates":[[[120.557855,24.241466],[120.55708,24.24156],[120.55505,24.242265],[120.55476,24.241964],[120.553865,24.241619],[120.553558,24.240943],[120.552562,24.241449],[120.549053,24.242592],[120.548114,24.242991],[120.548166,24.243153],[120.545933,24.243977],[120.546202,24.244706],[120.540729,24.246673],[120.539647,24.246422],[120.539539,24.245795],[120.538429,24.24564],[120.538293,24.24515],[120.534723,24.246404],[120.53225,24.240581],[120.534141,24.240392],[120.537907,24.240561],[120.541778,24.241008],[120.543416,24.240842],[120.549101,24.239414],[120.552628,24.238969],[120.555419,24.238329],[120.556082,24.239017],[120.557275,24.240877],[120.557855,24.241466]]]},"properties":{"code":"66000140011","name":"大村里","countyCode":"66000","countyName":"臺中市","townCode":"66000140","townName":"梧棲區","level":"village","unassigned":false,"note":"","label":[120.54116370473793,24.243727104632903],"bounds":[120.53225,24.238329,120.557855,24.246673],"focusBounds":[120.53225,24.238329,120.557855,24.246673],"color":"#58b99d"}},{"type":"Feature","id":"66000140012","geometry":{"type":"Polygon","coordinates":[[[120.555419,24.238329],[120.552628,24.238969],[120.549101,24.239414],[120.543416,24.240842],[120.541778,24.241008],[120.537907,24.240561],[120.534141,24.240392],[120.53225,24.240581],[120.528987,24.233021],[120.533418,24.231838],[120.533413,24.231695],[120.537513,24.2314],[120.538044,24.231117],[120.539197,24.231589],[120.54328,24.23162],[120.544817,24.231438],[120.545695,24.23154],[120.548319,24.230543],[120.548707,24.230544],[120.552292,24.234715],[120.553243,24.235502],[120.555243,24.23813],[120.555419,24.238329]]]},"properties":{"code":"66000140012","name":"興農里","countyCode":"66000","countyName":"臺中市","townCode":"66000140","townName":"梧棲區","level":"village","unassigned":false,"note":"","label":[120.54151121345288,24.236292192517706],"bounds":[120.528987,24.230543,120.555419,24.241008],"focusBounds":[120.528987,24.230543,120.555419,24.241008],"color":"#98b69b"}},{"type":"Feature","id":"66000140013","geometry":{"type":"Polygon","coordinates":[[[120.526393,24.226849],[120.530287,24.22566],[120.534296,24.225214],[120.543396,24.226533],[120.546218,24.227598],[120.548164,24.228737],[120.547804,24.228983],[120.548607,24.229445],[120.548953,24.229748],[120.548542,24.230192],[120.548707,24.230544],[120.548319,24.230543],[120.545695,24.23154],[120.544817,24.231438],[120.54328,24.23162],[120.539197,24.231589],[120.538044,24.231117],[120.537513,24.2314],[120.533413,24.231695],[120.533418,24.231838],[120.528987,24.233021],[120.526393,24.226849]]]},"properties":{"code":"66000140013","name":"永寧里","countyCode":"66000","countyName":"臺中市","townCode":"66000140","townName":"梧棲區","level":"village","unassigned":false,"note":"","label":[120.53653354469276,24.228504426059104],"bounds":[120.526393,24.225214,120.548953,24.233021],"focusBounds":[120.526393,24.225214,120.548953,24.233021],"color":"#58b99d"}},{"type":"Feature","id":"66000140014","geometry":{"type":"Polygon","coordinates":[[[120.526393,24.226849],[120.523117,24.227805],[120.521631,24.22805],[120.520489,24.228736],[120.514305,24.229811],[120.513584,24.229667],[120.514068,24.229502],[120.512625,24.226041],[120.51296,24.22589],[120.527785,24.220234],[120.528007,24.220522],[120.528565,24.220483],[120.528918,24.221128],[120.528907,24.222019],[120.52904,24.222259],[120.529266,24.222266],[120.533095,24.221119],[120.537656,24.220182],[120.546327,24.218192],[120.546739,24.217866],[120.546592,24.218275],[120.54689,24.218567],[120.547606,24.220512],[120.548227,24.223171],[120.548591,24.223772],[120.548989,24.225036],[120.548969,24.227013],[120.548141,24.227282],[120.548711,24.228519],[120.548164,24.228737],[120.546218,24.227598],[120.543396,24.226533],[120.534296,24.225214],[120.530287,24.22566],[120.526393,24.226849]]]},"properties":{"code":"66000140014","name":"永安里","countyCode":"66000","countyName":"臺中市","townCode":"66000140","townName":"梧棲區","level":"village","unassigned":false,"note":"","label":[120.54040604715372,24.22282515003335],"bounds":[120.512625,24.217866,120.548989,24.229811],"focusBounds":[120.512625,24.217866,120.548989,24.229811],"color":"#78a7e3"}},{"type":"Feature","id":"66000140S01","geometry":{"type":"Polygon","coordinates":[[[120.524939,24.277344],[120.521672,24.279601],[120.519205,24.282291],[120.51616,24.284808],[120.512576,24.286895],[120.509534,24.288013],[120.508263,24.283904],[120.508127,24.283962],[120.500065,24.267636],[120.499138,24.267977],[120.499044,24.267857],[120.499861,24.267411],[120.498195,24.263928],[120.493108,24.266141],[120.48901,24.256378],[120.488901,24.256302],[120.486212,24.257316],[120.486188,24.257068],[120.490491,24.255279],[120.487128,24.24767],[120.491613,24.243188],[120.495371,24.239753],[120.499879,24.236019],[120.50388,24.233059],[120.504243,24.232807],[120.504254,24.233099],[120.504553,24.233476],[120.504149,24.23422],[120.504284,24.234681],[120.504078,24.236109],[120.503547,24.236631],[120.503364,24.237098],[120.502526,24.238127],[120.501317,24.241016],[120.506685,24.253763],[120.509362,24.259543],[120.50995,24.260909],[120.510176,24.261433],[120.510842,24.261318],[120.511132,24.26203],[120.510985,24.262264],[120.510876,24.262137],[120.510556,24.262254],[120.51702,24.277375],[120.520619,24.276098],[120.522528,24.272928],[120.518493,24.263412],[120.517845,24.263577],[120.517601,24.262883],[120.518272,24.261624],[120.519473,24.259905],[120.520249,24.259673],[120.520367,24.259949],[120.520632,24.259875],[120.521129,24.261005],[120.521493,24.261832],[120.521762,24.262445],[120.522054,24.262362],[120.521982,24.262146],[120.522639,24.261953],[120.523832,24.26499],[120.524581,24.267228],[120.524125,24.267561],[120.524019,24.267809],[120.526779,24.274192],[120.52494,24.277343],[120.524939,24.277344]]]},"properties":{"code":"66000140S01","name":"未編定村里","countyCode":"66000","countyName":"臺中市","townCode":"66000140","townName":"梧棲區","level":"village","unassigned":true,"note":"未編定村里","label":[120.4984949722246,24.25547304982531],"bounds":[120.486188,24.232807,120.526779,24.288013],"focusBounds":[120.486188,24.232807,120.526779,24.288013],"color":"#efb44f"}}]}
