{"type":"FeatureCollection","features":[{"type":"Feature","id":"66000200001","geometry":{"type":"Polygon","coordinates":[[[120.777368,24.283931],[120.775775,24.284235],[120.774192,24.284087],[120.77208,24.282996],[120.769431,24.281318],[120.765202,24.281301],[120.762578,24.2811],[120.760419,24.280669],[120.76072,24.279328],[120.761544,24.277077],[120.761787,24.276577],[120.762239,24.27614],[120.76559,24.277308],[120.766465,24.276997],[120.768381,24.276639],[120.769665,24.276749],[120.770354,24.276263],[120.773472,24.275351],[120.774577,24.274739],[120.774923,24.274073],[120.775859,24.277479],[120.77685,24.277076],[120.777904,24.278854],[120.779854,24.28362],[120.777368,24.283931]]]},"properties":{"code":"66000200001","name":"石岡里","countyCode":"66000","countyName":"臺中市","townCode":"66000200","townName":"石岡區","level":"village","unassigned":false,"note":"","label":[120.77267025519245,24.279443168207663],"bounds":[120.760419,24.274073,120.779854,24.284235],"focusBounds":[120.760419,24.274073,120.779854,24.284235],"color":"#efb44f"}},{"type":"Feature","id":"66000200002","geometry":{"type":"Polygon","coordinates":[[[120.779854,24.28362],[120.777904,24.278854],[120.77685,24.277076],[120.775859,24.277479],[120.774923,24.274073],[120.775243,24.273688],[120.776462,24.273487],[120.776528,24.273762],[120.776952,24.273885],[120.77825,24.273643],[120.779647,24.273737],[120.779691,24.274807],[120.779558,24.275391],[120.779813,24.275885],[120.780752,24.275901],[120.780701,24.276188],[120.780168,24.276501],[120.780575,24.276989],[120.780716,24.277554],[120.7824,24.277382],[120.782575,24.277328],[120.782642,24.277046],[120.782875,24.277001],[120.783666,24.277079],[120.784055,24.278391],[120.784161,24.279978],[120.784069,24.280382],[120.783511,24.280673],[120.783485,24.28112],[120.784019,24.283429],[120.782793,24.283669],[120.779854,24.28362]]]},"properties":{"code":"66000200002","name":"萬安里","countyCode":"66000","countyName":"臺中市","townCode":"66000200","townName":"石岡區","level":"village","unassigned":false,"note":"","label":[120.78108599287452,24.279948243481726],"bounds":[120.774923,24.273487,120.784161,24.283669],"focusBounds":[120.774923,24.273487,120.784161,24.283669],"color":"#a49ad4"}},{"type":"Feature","id":"66000200003","geometry":{"type":"Polygon","coordinates":[[[120.782467,24.267721],[120.784286,24.267297],[120.785693,24.267231],[120.786858,24.267355],[120.789143,24.269453],[120.790133,24.269791],[120.790498,24.269757],[120.790537,24.269814],[120.790365,24.270312],[120.790379,24.271037],[120.790068,24.271942],[120.789185,24.272421],[120.788977,24.273579],[120.788123,24.274469],[120.788696,24.274696],[120.788928,24.275299],[120.788921,24.275762],[120.788358,24.276221],[120.787815,24.276257],[120.787494,24.276764],[120.787531,24.277098],[120.787822,24.277374],[120.789476,24.27776],[120.789005,24.281633],[120.789309,24.28278],[120.787816,24.283238],[120.78571,24.283618],[120.784019,24.283429],[120.783485,24.28112],[120.783511,24.280673],[120.784069,24.280382],[120.784161,24.279978],[120.784055,24.278391],[120.783666,24.277079],[120.782875,24.277001],[120.782642,24.277046],[120.782575,24.277328],[120.7824,24.277382],[120.780716,24.277554],[120.780575,24.276989],[120.780168,24.276501],[120.780701,24.276188],[120.780752,24.275901],[120.779813,24.275885],[120.779558,24.275391],[120.779691,24.274807],[120.779647,24.273737],[120.77825,24.273643],[120.776952,24.273885],[120.776528,24.273762],[120.776462,24.273487],[120.7768,24.273318],[120.777,24.272975],[120.777112,24.271111],[120.777446,24.270226],[120.778398,24.269553],[120.779273,24.269172],[120.780315,24.268192],[120.782133,24.267958],[120.782467,24.267721]]]},"properties":{"code":"66000200003","name":"九房里","countyCode":"66000","countyName":"臺中市","townCode":"66000200","townName":"石岡區","level":"village","unassigned":false,"note":"","label":[120.78398820408937,24.27244712639788],"bounds":[120.776462,24.267231,120.790537,24.283618],"focusBounds":[120.776462,24.267231,120.790537,24.283618],"color":"#78a7e3"}},{"type":"Feature","id":"66000200004","geometry":{"type":"Polygon","coordinates":[[[120.774791,24.243149],[120.775251,24.242773],[120.776135,24.242605],[120.777031,24.241789],[120.777653,24.241716],[120.777886,24.241833],[120.777861,24.243676],[120.778806,24.243895],[120.779197,24.244854],[120.779745,24.245124],[120.779876,24.245375],[120.779876,24.245891],[120.779533,24.246838],[120.78001,24.247357],[120.780265,24.24834],[120.779797,24.249222],[120.779947,24.249354],[120.780339,24.24936],[120.780616,24.249662],[120.780532,24.24999],[120.780002,24.250375],[120.780062,24.250576],[120.78035,24.250717],[120.781673,24.25072],[120.782075,24.250408],[120.782475,24.250309],[120.782422,24.249819],[120.782121,24.249422],[120.782276,24.249],[120.7817,24.248632],[120.78153,24.247744],[120.782288,24.247235],[120.782906,24.247206],[120.783145,24.246477],[120.784253,24.245437],[120.784298,24.246339],[120.784573,24.246872],[120.78405,24.247378],[120.784078,24.247702],[120.784844,24.248457],[120.785236,24.248407],[120.785777,24.248752],[120.786185,24.249553],[120.785989,24.250125],[120.786483,24.251205],[120.785899,24.252035],[120.786015,24.252129],[120.786501,24.251862],[120.786657,24.251984],[120.786231,24.252265],[120.786062,24.252853],[120.786297,24.253695],[120.785883,24.25418],[120.786203,24.254871],[120.786108,24.255368],[120.785441,24.256055],[120.785238,24.256504],[120.785526,24.257432],[120.785444,24.260105],[120.78555,24.260333],[120.785964,24.260333],[120.787161,24.259197],[120.78777,24.258076],[120.788089,24.257989],[120.788319,24.258581],[120.78827,24.258872],[120.787516,24.260354],[120.78738,24.26092],[120.787775,24.2613],[120.788305,24.261504],[120.788362,24.261809],[120.786082,24.26323],[120.785376,24.264184],[120.784662,24.264767],[120.784236,24.265561],[120.783482,24.266253],[120.782467,24.267721],[120.782133,24.267958],[120.780315,24.268192],[120.779273,24.269172],[120.778398,24.269553],[120.777446,24.270226],[120.777112,24.271111],[120.777,24.272975],[120.7768,24.273318],[120.776462,24.273487],[120.775243,24.273688],[120.774923,24.274073],[120.774577,24.274739],[120.773472,24.275351],[120.770354,24.276263],[120.769665,24.276749],[120.768381,24.276639],[120.766465,24.276997],[120.76559,24.277308],[120.762239,24.27614],[120.762669,24.274889],[120.762611,24.274132],[120.762798,24.273665],[120.763219,24.273368],[120.76422,24.273302],[120.763757,24.272657],[120.763731,24.272165],[120.763371,24.271926],[120.762923,24.271039],[120.762806,24.270767],[120.762908,24.270505],[120.763417,24.269454],[120.764353,24.268884],[120.764411,24.26851],[120.764079,24.267758],[120.76459,24.267381],[120.765106,24.267347],[120.765462,24.267059],[120.766245,24.267284],[120.766691,24.266932],[120.767227,24.266891],[120.767158,24.26643],[120.767646,24.265504],[120.768225,24.265137],[120.769112,24.265039],[120.769815,24.264466],[120.769033,24.263189],[120.768874,24.26193],[120.769143,24.261481],[120.768799,24.261137],[120.768764,24.260773],[120.768517,24.260403],[120.768662,24.259762],[120.768231,24.258902],[120.768211,24.258429],[120.767763,24.257167],[120.768107,24.25753],[120.7684,24.257601],[120.768632,24.257505],[120.768823,24.257161],[120.769046,24.257147],[120.768833,24.255655],[120.769178,24.254925],[120.768886,24.254618],[120.767074,24.253719],[120.766948,24.253287],[120.767099,24.252365],[120.7672,24.252173],[120.768625,24.251529],[120.769332,24.250004],[120.769834,24.249867],[120.77043,24.250008],[120.771158,24.249908],[120.77195,24.249451],[120.772573,24.248642],[120.773381,24.248295],[120.773718,24.247737],[120.773987,24.246715],[120.774039,24.24472],[120.774685,24.244387],[120.774791,24.243149]]]},"properties":{"code":"66000200004","name":"金星里","countyCode":"66000","countyName":"臺中市","townCode":"66000200","townName":"石岡區","level":"village","unassigned":false,"note":"","label":[120.77744018643727,24.260181782747008],"bounds":[120.762239,24.241716,120.788362,24.277308],"focusBounds":[120.762239,24.241716,120.788362,24.277308],"color":"#dd8590"}},{"type":"Feature","id":"66000200005","geometry":{"type":"Polygon","coordinates":[[[120.790498,24.269757],[120.790133,24.269791],[120.789143,24.269453],[120.786858,24.267355],[120.785693,24.267231],[120.784286,24.267297],[120.782467,24.267721],[120.783482,24.266253],[120.784236,24.265561],[120.784662,24.264767],[120.785376,24.264184],[120.786082,24.26323],[120.788362,24.261809],[120.788305,24.261504],[120.787775,24.2613],[120.78738,24.26092],[120.787516,24.260354],[120.78827,24.258872],[120.788319,24.258581],[120.788089,24.257989],[120.78777,24.258076],[120.787161,24.259197],[120.785964,24.260333],[120.78555,24.260333],[120.785444,24.260105],[120.785526,24.257432],[120.785238,24.256504],[120.785441,24.256055],[120.786108,24.255368],[120.786203,24.254871],[120.789305,24.252997],[120.789709,24.252365],[120.789627,24.252034],[120.789733,24.251911],[120.790495,24.25172],[120.792314,24.249956],[120.79287,24.248588],[120.792836,24.248218],[120.793135,24.24798],[120.795077,24.247016],[120.796766,24.246709],[120.797982,24.246256],[120.798902,24.246366],[120.801633,24.245773],[120.801701,24.248086],[120.802906,24.249172],[120.803175,24.249644],[120.802863,24.250551],[120.801837,24.25216],[120.802153,24.252528],[120.802685,24.252686],[120.803035,24.252995],[120.803069,24.253496],[120.8027,24.253756],[120.802041,24.253671],[120.801707,24.253795],[120.801553,24.254217],[120.801883,24.254805],[120.801765,24.255446],[120.799756,24.257752],[120.799673,24.258377],[120.800213,24.259229],[120.800178,24.25957],[120.800009,24.25972],[120.79974,24.259613],[120.798278,24.258494],[120.79791,24.2585],[120.7976,24.25871],[120.797041,24.26057],[120.79554,24.261477],[120.794788,24.26285],[120.794248,24.263437],[120.794081,24.263805],[120.794302,24.264648],[120.794058,24.26531],[120.793264,24.26618],[120.793231,24.267356],[120.791974,24.268392],[120.790636,24.269061],[120.790419,24.269359],[120.790498,24.269757]]]},"properties":{"code":"66000200005","name":"龍興里","countyCode":"66000","countyName":"臺中市","townCode":"66000200","townName":"石岡區","level":"village","unassigned":false,"note":"","label":[120.79332315679889,24.256059177284175],"bounds":[120.782467,24.245773,120.803175,24.269791],"focusBounds":[120.782467,24.245773,120.803175,24.269791],"color":"#a49ad4"}},{"type":"Feature","id":"66000200006","geometry":{"type":"Polygon","coordinates":[[[120.790723,24.282559],[120.789309,24.28278],[120.789005,24.281633],[120.789476,24.27776],[120.787822,24.277374],[120.787531,24.277098],[120.787494,24.276764],[120.787815,24.276257],[120.788358,24.276221],[120.788921,24.275762],[120.788928,24.275299],[120.788696,24.274696],[120.788123,24.274469],[120.788977,24.273579],[120.789185,24.272421],[120.790068,24.271942],[120.790379,24.271037],[120.790365,24.270312],[120.790537,24.269814],[120.790694,24.270197],[120.791042,24.270406],[120.791951,24.269936],[120.793288,24.270132],[120.794122,24.269136],[120.795644,24.268378],[120.798184,24.269294],[120.799702,24.270052],[120.799864,24.270355],[120.797736,24.272553],[120.796963,24.274337],[120.793925,24.277364],[120.793919,24.280123],[120.794141,24.281315],[120.792605,24.281995],[120.790723,24.282559]]]},"properties":{"code":"66000200006","name":"萬興里","countyCode":"66000","countyName":"臺中市","townCode":"66000200","townName":"石岡區","level":"village","unassigned":false,"note":"","label":[120.79233244050296,24.27434756975726],"bounds":[120.787494,24.268378,120.799864,24.28278],"focusBounds":[120.787494,24.268378,120.799864,24.28278],"color":"#a8bf62"}},{"type":"Feature","id":"66000200007","geometry":{"type":"Polygon","coordinates":[[[120.812899,24.273521],[120.81221,24.275134],[120.811435,24.276421],[120.810734,24.278421],[120.809178,24.27978],[120.807632,24.280222],[120.805612,24.280584],[120.80397,24.28056],[120.801899,24.280846],[120.800809,24.280699],[120.798101,24.280846],[120.794609,24.281156],[120.794141,24.281315],[120.793919,24.280123],[120.793925,24.277364],[120.796963,24.274337],[120.797736,24.272553],[120.799864,24.270355],[120.799702,24.270052],[120.798184,24.269294],[120.795644,24.268378],[120.796932,24.267843],[120.797463,24.267455],[120.798423,24.267191],[120.799885,24.266462],[120.800346,24.265816],[120.800678,24.265689],[120.802054,24.264486],[120.802802,24.263421],[120.802079,24.265757],[120.802903,24.266557],[120.803515,24.267445],[120.803618,24.267847],[120.803318,24.267953],[120.80482,24.269914],[120.804412,24.270805],[120.804362,24.2719],[120.806078,24.272119],[120.806872,24.272892],[120.807461,24.273116],[120.807914,24.273067],[120.808706,24.272267],[120.80942,24.272195],[120.809814,24.272449],[120.810108,24.272894],[120.812899,24.273521]]]},"properties":{"code":"66000200007","name":"梅子里","countyCode":"66000","countyName":"臺中市","townCode":"66000200","townName":"石岡區","level":"village","unassigned":false,"note":"","label":[120.80242201592051,24.27602059983336],"bounds":[120.793919,24.263421,120.812899,24.281315],"focusBounds":[120.793919,24.263421,120.812899,24.281315],"color":"#68bec9"}},{"type":"Feature","id":"66000200008","geometry":{"type":"Polygon","coordinates":[[[120.812899,24.273521],[120.810108,24.272894],[120.809814,24.272449],[120.80942,24.272195],[120.808706,24.272267],[120.807914,24.273067],[120.807461,24.273116],[120.806872,24.272892],[120.806078,24.272119],[120.804362,24.2719],[120.804412,24.270805],[120.80482,24.269914],[120.803318,24.267953],[120.803618,24.267847],[120.803515,24.267445],[120.802903,24.266557],[120.802079,24.265757],[120.802802,24.263421],[120.804916,24.262001],[120.80572,24.261657],[120.805935,24.261699],[120.806145,24.262092],[120.806292,24.262119],[120.806543,24.260716],[120.807394,24.262132],[120.809666,24.264715],[120.811817,24.266851],[120.81444,24.268836],[120.814066,24.269577],[120.813128,24.272606],[120.812899,24.273521]]]},"properties":{"code":"66000200008","name":"土牛里","countyCode":"66000","countyName":"臺中市","townCode":"66000200","townName":"石岡區","level":"village","unassigned":false,"note":"","label":[120.80806678797215,24.26818538041468],"bounds":[120.802079,24.260716,120.81444,24.273521],"focusBounds":[120.802079,24.260716,120.81444,24.273521],"color":"#c38cb8"}},{"type":"Feature","id":"66000200009","geometry":{"type":"Polygon","coordinates":[[[120.818354,24.263898],[120.816478,24.266601],[120.81444,24.268836],[120.811817,24.266851],[120.809666,24.264715],[120.807394,24.262132],[120.806543,24.260716],[120.806723,24.260354],[120.806935,24.258902],[120.807764,24.258213],[120.808029,24.258321],[120.808464,24.257803],[120.808569,24.257214],[120.808963,24.256719],[120.809192,24.256108],[120.809851,24.255309],[120.810756,24.253725],[120.811576,24.253206],[120.811837,24.252394],[120.812268,24.252127],[120.813154,24.252278],[120.813912,24.251743],[120.814809,24.253053],[120.815032,24.254042],[120.814923,24.254823],[120.814116,24.257048],[120.814063,24.258107],[120.813888,24.258174],[120.81401,24.258854],[120.815016,24.258437],[120.81525,24.258564],[120.815069,24.259072],[120.81517,24.25988],[120.814889,24.260277],[120.814761,24.2615],[120.81601,24.262102],[120.818823,24.262868],[120.818354,24.263898]]]},"properties":{"code":"66000200009","name":"德興里","countyCode":"66000","countyName":"臺中市","townCode":"66000200","townName":"石岡區","level":"village","unassigned":false,"note":"","label":[120.81126255023185,24.260968598707745],"bounds":[120.806543,24.251743,120.818823,24.268836],"focusBounds":[120.806543,24.251743,120.818823,24.268836],"color":"#efb44f"}},{"type":"Feature","id":"66000200010","geometry":{"type":"Polygon","coordinates":[[[120.819454,24.260894],[120.818823,24.262868],[120.81601,24.262102],[120.814761,24.2615],[120.814889,24.260277],[120.81517,24.25988],[120.815069,24.259072],[120.81525,24.258564],[120.815016,24.258437],[120.81401,24.258854],[120.813888,24.258174],[120.814063,24.258107],[120.814116,24.257048],[120.814923,24.254823],[120.815032,24.254042],[120.814809,24.253053],[120.813912,24.251743],[120.814464,24.250241],[120.815218,24.249487],[120.816028,24.248028],[120.816308,24.247216],[120.816265,24.246849],[120.81753,24.244915],[120.818483,24.243332],[120.819022,24.242801],[120.819327,24.24172],[120.819246,24.241236],[120.82002,24.241243],[120.820226,24.241459],[120.820144,24.24201],[120.8222,24.242681],[120.823257,24.242635],[120.824148,24.242314],[120.824308,24.242941],[120.824211,24.243983],[120.824005,24.245439],[120.823073,24.247737],[120.822573,24.248393],[120.822694,24.249597],[120.822106,24.252654],[120.821847,24.253811],[120.821464,24.254894],[120.820743,24.257144],[120.820397,24.258559],[120.819454,24.260894]]]},"properties":{"code":"66000200010","name":"和盛里","countyCode":"66000","countyName":"臺中市","townCode":"66000200","townName":"石岡區","level":"village","unassigned":false,"note":"","label":[120.81841657602067,24.25167924479051],"bounds":[120.813888,24.241236,120.824308,24.262868],"focusBounds":[120.813888,24.241236,120.824308,24.262868],"color":"#58b99d"}}]}
