{"type":"FeatureCollection","features":[{"type":"Feature","id":"66000240001","geometry":{"type":"Polygon","coordinates":[[[120.586257,24.137897],[120.585171,24.138853],[120.5847,24.139078],[120.583052,24.141692],[120.582187,24.142115],[120.581839,24.143086],[120.581506,24.143523],[120.580442,24.143631],[120.579414,24.144025],[120.577386,24.145705],[120.575134,24.146959],[120.574601,24.147659],[120.574386,24.14722],[120.572845,24.145469],[120.574136,24.139712],[120.574098,24.137962],[120.572693,24.133112],[120.571731,24.132334],[120.569448,24.129908],[120.569259,24.129371],[120.569036,24.128407],[120.569134,24.127651],[120.568957,24.126819],[120.568327,24.126171],[120.568076,24.123963],[120.567605,24.123198],[120.567126,24.122934],[120.568437,24.122942],[120.569654,24.122707],[120.569648,24.122536],[120.569373,24.121244],[120.568246,24.121165],[120.568102,24.120831],[120.567969,24.120523],[120.567892,24.120335],[120.568653,24.120112],[120.568532,24.119701],[120.571303,24.118954],[120.571041,24.117561],[120.571497,24.117869],[120.571835,24.117658],[120.572155,24.11781],[120.572924,24.117582],[120.573258,24.117721],[120.573545,24.11706],[120.573146,24.116894],[120.573008,24.116275],[120.576986,24.11558],[120.577345,24.117384],[120.579641,24.116099],[120.581336,24.115788],[120.58346,24.115997],[120.585116,24.114053],[120.586337,24.116027],[120.586778,24.117821],[120.586617,24.118004],[120.585868,24.118233],[120.585822,24.118939],[120.585483,24.119367],[120.584996,24.119749],[120.583622,24.120414],[120.582919,24.121051],[120.583241,24.121495],[120.583398,24.122171],[120.583391,24.123379],[120.583783,24.123706],[120.584322,24.123751],[120.584869,24.124779],[120.585993,24.126065],[120.586469,24.126721],[120.586631,24.127252],[120.587531,24.128234],[120.588492,24.129487],[120.588242,24.129851],[120.58818,24.130466],[120.587582,24.132017],[120.58695,24.132499],[120.586265,24.133597],[120.585903,24.133563],[120.585772,24.133688],[120.585903,24.135041],[120.586576,24.136927],[120.586474,24.137611],[120.586257,24.137897]]]},"properties":{"code":"66000240001","name":"王田里","countyCode":"66000","countyName":"臺中市","townCode":"66000240","townName":"大肚區","level":"village","unassigned":false,"note":"","label":[120.57929633304514,24.129721969915032],"bounds":[120.567126,24.114053,120.588492,24.147659],"focusBounds":[120.567126,24.114053,120.588492,24.147659],"color":"#98b69b"}},{"type":"Feature","id":"66000240002","geometry":{"type":"Polygon","coordinates":[[[120.567969,24.120523],[120.566029,24.121075],[120.565615,24.118898],[120.56467,24.115561],[120.564985,24.114797],[120.564041,24.11404],[120.562923,24.110774],[120.565998,24.109732],[120.572749,24.108295],[120.575298,24.108943],[120.576625,24.109584],[120.578326,24.109466],[120.581812,24.109544],[120.58155,24.109907],[120.581586,24.110284],[120.582042,24.111401],[120.582091,24.111892],[120.582705,24.112401],[120.583391,24.112378],[120.583821,24.112573],[120.584478,24.113084],[120.585116,24.114053],[120.58346,24.115997],[120.581336,24.115788],[120.579641,24.116099],[120.577345,24.117384],[120.576986,24.11558],[120.573008,24.116275],[120.573146,24.116894],[120.573545,24.11706],[120.573258,24.117721],[120.572924,24.117582],[120.572155,24.11781],[120.571835,24.117658],[120.571497,24.117869],[120.571041,24.117561],[120.571303,24.118954],[120.568532,24.119701],[120.568653,24.120112],[120.567892,24.120335],[120.567969,24.120523]]]},"properties":{"code":"66000240002","name":"中和里","countyCode":"66000","countyName":"臺中市","townCode":"66000240","townName":"大肚區","level":"village","unassigned":false,"note":"","label":[120.57079489781009,24.11289228629453],"bounds":[120.562923,24.108295,120.585116,24.121075],"focusBounds":[120.562923,24.108295,120.585116,24.121075],"color":"#58b99d"}},{"type":"Feature","id":"66000240003","geometry":{"type":"Polygon","coordinates":[[[120.571673,24.14219],[120.570627,24.140124],[120.569735,24.139293],[120.568877,24.138193],[120.566525,24.135936],[120.566241,24.134823],[120.56514,24.133673],[120.564154,24.132968],[120.564123,24.132557],[120.563932,24.132396],[120.562259,24.131865],[120.562198,24.131075],[120.560688,24.128768],[120.56061,24.128314],[120.560707,24.128037],[120.561217,24.127932],[120.560979,24.127756],[120.560806,24.127024],[120.560762,24.125985],[120.56081,24.125694],[120.561198,24.125271],[120.559597,24.123739],[120.560691,24.1231],[120.560859,24.12333],[120.561507,24.123658],[120.562685,24.124028],[120.562763,24.122194],[120.568102,24.120831],[120.568246,24.121165],[120.569373,24.121244],[120.569648,24.122536],[120.569654,24.122707],[120.568437,24.122942],[120.567126,24.122934],[120.567605,24.123198],[120.568076,24.123963],[120.568327,24.126171],[120.568957,24.126819],[120.569134,24.127651],[120.569036,24.128407],[120.569259,24.129371],[120.569448,24.129908],[120.571731,24.132334],[120.572693,24.133112],[120.574098,24.137962],[120.574136,24.139712],[120.572845,24.145469],[120.572178,24.14448],[120.571673,24.14219]]]},"properties":{"code":"66000240003","name":"福山里","countyCode":"66000","countyName":"臺中市","townCode":"66000240","townName":"大肚區","level":"village","unassigned":false,"note":"","label":[120.5651315668298,24.12861935148885],"bounds":[120.559597,24.120831,120.574136,24.145469],"focusBounds":[120.559597,24.120831,120.574136,24.145469],"color":"#efb44f"}},{"type":"Feature","id":"66000240004","geometry":{"type":"Polygon","coordinates":[[[120.559597,24.123739],[120.559293,24.123412],[120.558145,24.124172],[120.556759,24.126072],[120.553193,24.125816],[120.551681,24.127409],[120.549913,24.128569],[120.547808,24.128345],[120.547781,24.125898],[120.549912,24.123035],[120.550882,24.120154],[120.550808,24.119855],[120.550256,24.120186],[120.549854,24.120229],[120.548284,24.119301],[120.547448,24.118547],[120.545075,24.11688],[120.545493,24.116401],[120.546579,24.116091],[120.549015,24.114219],[120.549604,24.113925],[120.551995,24.113527],[120.553694,24.112808],[120.556202,24.112669],[120.558031,24.112542],[120.562923,24.110774],[120.564041,24.11404],[120.564985,24.114797],[120.56467,24.115561],[120.565615,24.118898],[120.566029,24.121075],[120.567969,24.120523],[120.568102,24.120831],[120.562763,24.122194],[120.562685,24.124028],[120.561507,24.123658],[120.560859,24.12333],[120.560691,24.1231],[120.559597,24.123739]]]},"properties":{"code":"66000240004","name":"營埔里","countyCode":"66000","countyName":"臺中市","townCode":"66000240","townName":"大肚區","level":"village","unassigned":false,"note":"","label":[120.55632827710824,24.11830368982387],"bounds":[120.545075,24.110774,120.568102,24.128569],"focusBounds":[120.545075,24.110774,120.568102,24.128569],"color":"#78a7e3"}},{"type":"Feature","id":"66000240005","geometry":{"type":"Polygon","coordinates":[[[120.549913,24.128569],[120.551681,24.127409],[120.553193,24.125816],[120.556759,24.126072],[120.558145,24.124172],[120.559293,24.123412],[120.559597,24.123739],[120.561198,24.125271],[120.56081,24.125694],[120.560762,24.125985],[120.560806,24.127024],[120.560979,24.127756],[120.561217,24.127932],[120.560707,24.128037],[120.56061,24.128314],[120.560688,24.128768],[120.562198,24.131075],[120.562259,24.131865],[120.563932,24.132396],[120.564123,24.132557],[120.564154,24.132968],[120.56514,24.133673],[120.566241,24.134823],[120.566525,24.135936],[120.568877,24.138193],[120.569735,24.139293],[120.570627,24.140124],[120.571673,24.14219],[120.565204,24.139409],[120.564732,24.139288],[120.562239,24.139326],[120.56162,24.139191],[120.559311,24.137599],[120.557732,24.137236],[120.556158,24.137439],[120.555489,24.137751],[120.555509,24.136983],[120.553829,24.136816],[120.553423,24.136381],[120.552935,24.136556],[120.552759,24.136355],[120.552618,24.135111],[120.551956,24.134553],[120.552023,24.134088],[120.551743,24.133911],[120.551193,24.134286],[120.55201,24.133118],[120.551377,24.132901],[120.550631,24.133075],[120.549775,24.131194],[120.549913,24.128569]]]},"properties":{"code":"66000240005","name":"社腳里","countyCode":"66000","countyName":"臺中市","townCode":"66000240","townName":"大肚區","level":"village","unassigned":false,"note":"","label":[120.55716687526902,24.13240608399765],"bounds":[120.549775,24.123412,120.571673,24.14219],"focusBounds":[120.549775,24.123412,120.571673,24.14219],"color":"#dd8590"}},{"type":"Feature","id":"66000240006","geometry":{"type":"Polygon","coordinates":[[[120.574311,24.148993],[120.573692,24.14967],[120.573691,24.149859],[120.572555,24.150793],[120.571325,24.151534],[120.569865,24.152767],[120.568968,24.154096],[120.562769,24.15102],[120.561172,24.149568],[120.559868,24.148781],[120.558889,24.148642],[120.555585,24.147526],[120.554378,24.147565],[120.553727,24.147874],[120.553577,24.1473],[120.554019,24.146134],[120.552701,24.145768],[120.551519,24.145733],[120.551632,24.145457],[120.548544,24.14559],[120.546735,24.145072],[120.546224,24.144569],[120.546256,24.144395],[120.544283,24.144594],[120.544205,24.144707],[120.542616,24.139255],[120.538546,24.139719],[120.529344,24.140858],[120.527761,24.141169],[120.525761,24.14137],[120.523667,24.141364],[120.523288,24.140949],[120.523552,24.139675],[120.527608,24.134167],[120.528092,24.13319],[120.529366,24.131659],[120.531146,24.128384],[120.532251,24.12692],[120.533108,24.126056],[120.534108,24.125557],[120.536826,24.124875],[120.540053,24.124057],[120.540922,24.123659],[120.541453,24.122378],[120.543394,24.119411],[120.545075,24.11688],[120.547448,24.118547],[120.548284,24.119301],[120.549854,24.120229],[120.550256,24.120186],[120.550808,24.119855],[120.550882,24.120154],[120.549912,24.123035],[120.547781,24.125898],[120.547808,24.128345],[120.549913,24.128569],[120.549775,24.131194],[120.550631,24.133075],[120.551377,24.132901],[120.55201,24.133118],[120.551193,24.134286],[120.551743,24.133911],[120.552023,24.134088],[120.551956,24.134553],[120.552618,24.135111],[120.552759,24.136355],[120.552935,24.136556],[120.553423,24.136381],[120.553829,24.136816],[120.555509,24.136983],[120.555489,24.137751],[120.556158,24.137439],[120.557732,24.137236],[120.559311,24.137599],[120.56162,24.139191],[120.562239,24.139326],[120.564732,24.139288],[120.565204,24.139409],[120.571673,24.14219],[120.572178,24.14448],[120.572845,24.145469],[120.574386,24.14722],[120.574601,24.147659],[120.574311,24.148993]]]},"properties":{"code":"66000240006","name":"新興里","countyCode":"66000","countyName":"臺中市","townCode":"66000240","townName":"大肚區","level":"village","unassigned":false,"note":"","label":[120.54034161992935,24.131719236323896],"bounds":[120.523288,24.11688,120.574601,24.154096],"focusBounds":[120.523288,24.11688,120.574601,24.154096],"color":"#a49ad4"}},{"type":"Feature","id":"66000240007","geometry":{"type":"Polygon","coordinates":[[[120.56252,24.160872],[120.561515,24.161091],[120.560383,24.160479],[120.558614,24.160423],[120.557269,24.161336],[120.557177,24.161149],[120.557409,24.160852],[120.557364,24.160614],[120.557151,24.160495],[120.55603,24.160611],[120.554549,24.1601],[120.553251,24.160028],[120.553114,24.159902],[120.55321,24.159548],[120.553072,24.159493],[120.552636,24.159961],[120.552275,24.160041],[120.552233,24.159831],[120.552546,24.159347],[120.552066,24.158862],[120.551275,24.159027],[120.550719,24.15891],[120.551003,24.158175],[120.552551,24.156715],[120.551581,24.156379],[120.551516,24.15607],[120.550727,24.15561],[120.550445,24.155219],[120.550776,24.154948],[120.550647,24.154372],[120.55034,24.154093],[120.55053,24.153772],[120.551009,24.153804],[120.550806,24.153266],[120.551102,24.152634],[120.551388,24.152373],[120.551062,24.151968],[120.550497,24.151739],[120.549544,24.151634],[120.548132,24.151215],[120.546116,24.150983],[120.546391,24.14976],[120.545852,24.149357],[120.545872,24.148177],[120.546081,24.147865],[120.546058,24.146371],[120.546239,24.145955],[120.546799,24.145544],[120.546735,24.145072],[120.548544,24.14559],[120.551632,24.145457],[120.551519,24.145733],[120.552701,24.145768],[120.554019,24.146134],[120.553577,24.1473],[120.553727,24.147874],[120.554378,24.147565],[120.555585,24.147526],[120.558889,24.148642],[120.559868,24.148781],[120.561172,24.149568],[120.562769,24.15102],[120.568968,24.154096],[120.567319,24.155861],[120.564642,24.158249],[120.56252,24.160872]]]},"properties":{"code":"66000240007","name":"大東里","countyCode":"66000","countyName":"臺中市","townCode":"66000240","townName":"大肚區","level":"village","unassigned":false,"note":"","label":[120.55745878353567,24.154157518509923],"bounds":[120.545852,24.145072,120.568968,24.161336],"focusBounds":[120.545852,24.145072,120.568968,24.161336],"color":"#a8bf62"}},{"type":"Feature","id":"66000240008","geometry":{"type":"Polygon","coordinates":[[[120.541359,24.151751],[120.541495,24.151136],[120.542461,24.150594],[120.542989,24.150456],[120.544399,24.149339],[120.545377,24.148861],[120.545872,24.148177],[120.545852,24.149357],[120.546391,24.14976],[120.546116,24.150983],[120.548132,24.151215],[120.549544,24.151634],[120.550497,24.151739],[120.551062,24.151968],[120.551388,24.152373],[120.551102,24.152634],[120.550806,24.153266],[120.551009,24.153804],[120.55053,24.153772],[120.55034,24.154093],[120.550647,24.154372],[120.54601,24.153568],[120.545723,24.154781],[120.544851,24.154466],[120.545078,24.153344],[120.545884,24.153533],[120.546026,24.152919],[120.545292,24.152774],[120.545401,24.151965],[120.545054,24.15204],[120.54499,24.152228],[120.542843,24.151711],[120.541359,24.151751]]]},"properties":{"code":"66000240008","name":"大肚里","countyCode":"66000","countyName":"臺中市","townCode":"66000240","townName":"大肚區","level":"village","unassigned":false,"note":"","label":[120.54737173430287,24.152465709074818],"bounds":[120.541359,24.148177,120.551388,24.154781],"focusBounds":[120.541359,24.148177,120.551388,24.154781],"color":"#68bec9"}},{"type":"Feature","id":"66000240009","geometry":{"type":"Polygon","coordinates":[[[120.541359,24.151751],[120.540836,24.152045],[120.540583,24.151111],[120.540518,24.149532],[120.539919,24.149713],[120.538546,24.139719],[120.542616,24.139255],[120.544205,24.144707],[120.544283,24.144594],[120.546256,24.144395],[120.546224,24.144569],[120.546735,24.145072],[120.546799,24.145544],[120.546239,24.145955],[120.546058,24.146371],[120.546081,24.147865],[120.545872,24.148177],[120.545377,24.148861],[120.544399,24.149339],[120.542989,24.150456],[120.542461,24.150594],[120.541495,24.151136],[120.541359,24.151751]]]},"properties":{"code":"66000240009","name":"永和里","countyCode":"66000","countyName":"臺中市","townCode":"66000240","townName":"大肚區","level":"village","unassigned":false,"note":"","label":[120.54215834677167,24.146348373478915],"bounds":[120.538546,24.139255,120.546799,24.152045],"focusBounds":[120.538546,24.139255,120.546799,24.152045],"color":"#df9f6a"}},{"type":"Feature","id":"66000240010","geometry":{"type":"Polygon","coordinates":[[[120.538609,24.155754],[120.536564,24.156049],[120.536321,24.154229],[120.53529,24.155406],[120.534406,24.155582],[120.534029,24.152517],[120.533218,24.152822],[120.530781,24.154516],[120.523048,24.15449],[120.523618,24.153446],[120.524521,24.152404],[120.525805,24.149019],[120.525876,24.148368],[120.525672,24.146039],[120.525247,24.144265],[120.524826,24.143228],[120.523667,24.141364],[120.525761,24.14137],[120.527761,24.141169],[120.529344,24.140858],[120.538546,24.139719],[120.539919,24.149713],[120.540518,24.149532],[120.540583,24.151111],[120.540836,24.152045],[120.539537,24.153461],[120.539253,24.154454],[120.538609,24.155754]]]},"properties":{"code":"66000240010","name":"磺溪里","countyCode":"66000","countyName":"臺中市","townCode":"66000240","townName":"大肚區","level":"village","unassigned":false,"note":"","label":[120.53234428765462,24.146957972416196],"bounds":[120.523048,24.139719,120.540836,24.156049],"focusBounds":[120.523048,24.139719,120.540836,24.156049],"color":"#c38cb8"}},{"type":"Feature","id":"66000240011","geometry":{"type":"Polygon","coordinates":[[[120.536239,24.165599],[120.531154,24.166127],[120.531249,24.164515],[120.527153,24.165135],[120.517337,24.165727],[120.519004,24.16314],[120.519713,24.161481],[120.520798,24.158509],[120.522526,24.155458],[120.523048,24.15449],[120.530781,24.154516],[120.533218,24.152822],[120.534029,24.152517],[120.534406,24.155582],[120.53529,24.155406],[120.536321,24.154229],[120.536564,24.156049],[120.538609,24.155754],[120.536824,24.161256],[120.536239,24.165599]]]},"properties":{"code":"66000240011","name":"永順里","countyCode":"66000","countyName":"臺中市","townCode":"66000240","townName":"大肚區","level":"village","unassigned":false,"note":"","label":[120.52851385726018,24.159718970699416],"bounds":[120.517337,24.152517,120.538609,24.166127],"focusBounds":[120.517337,24.152517,120.538609,24.166127],"color":"#efb44f"}},{"type":"Feature","id":"66000240012","geometry":{"type":"Polygon","coordinates":[[[120.525549,24.176675],[120.512611,24.176958],[120.517337,24.165727],[120.527153,24.165135],[120.531249,24.164515],[120.531154,24.166127],[120.536239,24.165599],[120.53603,24.1673],[120.536045,24.169247],[120.53608,24.172864],[120.533491,24.173112],[120.5337,24.174819],[120.531209,24.175216],[120.531108,24.175338],[120.530333,24.175441],[120.53031,24.175623],[120.528107,24.175836],[120.52612,24.176027],[120.525826,24.176672],[120.525549,24.176675]]]},"properties":{"code":"66000240012","name":"成功里","countyCode":"66000","countyName":"臺中市","townCode":"66000240","townName":"大肚區","level":"village","unassigned":false,"note":"","label":[120.52347413940738,24.17103853382185],"bounds":[120.512611,24.164515,120.536239,24.176958],"focusBounds":[120.512611,24.164515,120.536239,24.176958],"color":"#58b99d"}},{"type":"Feature","id":"66000240013","geometry":{"type":"Polygon","coordinates":[[[120.556546,24.173188],[120.555821,24.172951],[120.554216,24.171391],[120.553523,24.171019],[120.55315,24.170905],[120.552603,24.170978],[120.551376,24.171472],[120.549786,24.170799],[120.549205,24.170981],[120.54851,24.170953],[120.547602,24.171213],[120.543425,24.171748],[120.54284,24.171655],[120.542604,24.17073],[120.541712,24.170694],[120.538604,24.171629],[120.538354,24.172627],[120.53608,24.172864],[120.536045,24.169247],[120.539125,24.168908],[120.539378,24.167037],[120.540598,24.162509],[120.542067,24.163539],[120.544188,24.163495],[120.544267,24.162621],[120.545946,24.162359],[120.546318,24.162976],[120.54714,24.16316],[120.548115,24.162988],[120.549129,24.163149],[120.552397,24.163283],[120.554983,24.16365],[120.556513,24.164185],[120.559353,24.164895],[120.560365,24.165489],[120.558987,24.168779],[120.558487,24.170414],[120.557116,24.173552],[120.556546,24.173188]]]},"properties":{"code":"66000240013","name":"山陽里","countyCode":"66000","countyName":"臺中市","townCode":"66000240","townName":"大肚區","level":"village","unassigned":false,"note":"","label":[120.54836926453692,24.167011070618074],"bounds":[120.536045,24.162359,120.560365,24.173552],"focusBounds":[120.536045,24.162359,120.560365,24.173552],"color":"#efb44f"}},{"type":"Feature","id":"66000240014","geometry":{"type":"Polygon","coordinates":[[[120.536045,24.169247],[120.53603,24.1673],[120.536239,24.165599],[120.536824,24.161256],[120.538609,24.155754],[120.539253,24.154454],[120.539537,24.153461],[120.540836,24.152045],[120.541359,24.151751],[120.542843,24.151711],[120.54499,24.152228],[120.545054,24.15204],[120.545401,24.151965],[120.545292,24.152774],[120.546026,24.152919],[120.545884,24.153533],[120.545078,24.153344],[120.544851,24.154466],[120.545723,24.154781],[120.54601,24.153568],[120.550647,24.154372],[120.550776,24.154948],[120.550445,24.155219],[120.550727,24.15561],[120.551516,24.15607],[120.551581,24.156379],[120.552551,24.156715],[120.551003,24.158175],[120.550719,24.15891],[120.551275,24.159027],[120.552066,24.158862],[120.552546,24.159347],[120.552233,24.159831],[120.552275,24.160041],[120.552636,24.159961],[120.553072,24.159493],[120.55321,24.159548],[120.553114,24.159902],[120.553251,24.160028],[120.554549,24.1601],[120.55603,24.160611],[120.557151,24.160495],[120.557364,24.160614],[120.557409,24.160852],[120.557177,24.161149],[120.557269,24.161336],[120.558614,24.160423],[120.560383,24.160479],[120.561515,24.161091],[120.56252,24.160872],[120.560365,24.165489],[120.559353,24.164895],[120.556513,24.164185],[120.554983,24.16365],[120.552397,24.163283],[120.549129,24.163149],[120.548115,24.162988],[120.54714,24.16316],[120.546318,24.162976],[120.545946,24.162359],[120.544267,24.162621],[120.544188,24.163495],[120.542067,24.163539],[120.540598,24.162509],[120.539378,24.167037],[120.539125,24.168908],[120.536045,24.169247]]]},"properties":{"code":"66000240014","name":"頂街里","countyCode":"66000","countyName":"臺中市","townCode":"66000240","townName":"大肚區","level":"village","unassigned":false,"note":"","label":[120.54525505516027,24.158539415716167],"bounds":[120.53603,24.151711,120.56252,24.169247],"focusBounds":[120.53603,24.151711,120.56252,24.169247],"color":"#78a7e3"}},{"type":"Feature","id":"66000240015","geometry":{"type":"Polygon","coordinates":[[[120.567479,24.170898],[120.56525,24.171872],[120.564169,24.172706],[120.563723,24.172727],[120.563326,24.172567],[120.562728,24.172644],[120.562036,24.172374],[120.560268,24.172518],[120.559752,24.17262],[120.559309,24.173063],[120.558103,24.173645],[120.557451,24.173757],[120.557116,24.173552],[120.558487,24.170414],[120.558987,24.168779],[120.560365,24.165489],[120.56252,24.160872],[120.564642,24.158249],[120.567319,24.155861],[120.568968,24.154096],[120.569865,24.152767],[120.571325,24.151534],[120.572555,24.150793],[120.573691,24.149859],[120.573692,24.14967],[120.574311,24.148993],[120.574548,24.153818],[120.57444,24.155755],[120.577601,24.155758],[120.577699,24.156707],[120.579006,24.160581],[120.581348,24.165125],[120.582626,24.166972],[120.578921,24.167266],[120.577836,24.167615],[120.573365,24.168278],[120.572499,24.166853],[120.571276,24.167207],[120.568513,24.167183],[120.567781,24.167589],[120.567475,24.168388],[120.567479,24.170898]]]},"properties":{"code":"66000240015","name":"瑞井里","countyCode":"66000","countyName":"臺中市","townCode":"66000240","townName":"大肚區","level":"village","unassigned":false,"note":"","label":[120.57085820737476,24.1607252171054],"bounds":[120.557116,24.148993,120.582626,24.173757],"focusBounds":[120.557116,24.148993,120.582626,24.173757],"color":"#dd8590"}},{"type":"Feature","id":"66000240016","geometry":{"type":"Polygon","coordinates":[[[120.575744,24.17553],[120.573513,24.175655],[120.570533,24.176383],[120.570151,24.175617],[120.57044,24.175217],[120.570713,24.173552],[120.570931,24.17173],[120.570864,24.170632],[120.571011,24.17027],[120.570123,24.170524],[120.568865,24.170592],[120.567479,24.170898],[120.567475,24.168388],[120.567781,24.167589],[120.568513,24.167183],[120.571276,24.167207],[120.572499,24.166853],[120.573365,24.168278],[120.577836,24.167615],[120.578921,24.167266],[120.582626,24.166972],[120.583673,24.168048],[120.584828,24.16949],[120.584686,24.169989],[120.584374,24.170352],[120.583878,24.170914],[120.582252,24.171173],[120.58024,24.171732],[120.576568,24.172108],[120.575722,24.172081],[120.575744,24.17553]]]},"properties":{"code":"66000240016","name":"蔗廍里","countyCode":"66000","countyName":"臺中市","townCode":"66000240","townName":"大肚區","level":"village","unassigned":false,"note":"","label":[120.57451714576226,24.17027534888832],"bounds":[120.567475,24.166853,120.584828,24.176383],"focusBounds":[120.567475,24.166853,120.584828,24.176383],"color":"#a8bf62"}},{"type":"Feature","id":"66000240017","geometry":{"type":"Polygon","coordinates":[[[120.575744,24.17553],[120.575722,24.172081],[120.576568,24.172108],[120.58024,24.171732],[120.582252,24.171173],[120.583878,24.170914],[120.583088,24.172731],[120.583164,24.173561],[120.583657,24.174213],[120.58317,24.174535],[120.581381,24.174794],[120.575744,24.17553]]]},"properties":{"code":"66000240017","name":"自強里","countyCode":"66000","countyName":"臺中市","townCode":"66000240","townName":"大肚區","level":"village","unassigned":false,"note":"","label":[120.57959145442624,24.17341313280469],"bounds":[120.575722,24.170914,120.583878,24.17553],"focusBounds":[120.575722,24.170914,120.583878,24.17553],"color":"#68bec9"}}]}
