{"type":"FeatureCollection","features":[{"type":"Feature","id":"66000020001","geometry":{"type":"Polygon","coordinates":[[[120.690397,24.13533],[120.690081,24.135941],[120.689109,24.137039],[120.689955,24.137898],[120.689673,24.138645],[120.687998,24.137932],[120.685801,24.137565],[120.685555,24.136796],[120.682415,24.135526],[120.683804,24.132588],[120.687517,24.134064],[120.687431,24.13425],[120.687745,24.134386],[120.688215,24.134443],[120.688215,24.134558],[120.688785,24.134652],[120.690397,24.13533]]]},"properties":{"code":"66000020001","name":"新庄里","countyCode":"66000","countyName":"臺中市","townCode":"66000020","townName":"東區","level":"village","unassigned":false,"note":"","label":[120.68678636583765,24.13575157853299],"bounds":[120.682415,24.132588,120.690397,24.138645],"focusBounds":[120.682415,24.132588,120.690397,24.138645],"color":"#a8bf62"}},{"type":"Feature","id":"66000020002","geometry":{"type":"Polygon","coordinates":[[[120.690397,24.13533],[120.688785,24.134652],[120.688215,24.134558],[120.688215,24.134443],[120.687745,24.134386],[120.687431,24.13425],[120.687517,24.134064],[120.683804,24.132588],[120.684094,24.132001],[120.685104,24.130015],[120.684985,24.129471],[120.690228,24.131641],[120.69188,24.132365],[120.690397,24.13533]]]},"properties":{"code":"66000020002","name":"振興里","countyCode":"66000","countyName":"臺中市","townCode":"66000020","townName":"東區","level":"village","unassigned":false,"note":"","label":[120.68751043548632,24.132288788026543],"bounds":[120.683804,24.129471,120.69188,24.13533],"focusBounds":[120.683804,24.129471,120.69188,24.13533],"color":"#68bec9"}},{"type":"Feature","id":"66000020003","geometry":{"type":"Polygon","coordinates":[[[120.690228,24.131641],[120.690267,24.124815],[120.691038,24.124838],[120.693056,24.126463],[120.693057,24.127832],[120.693316,24.127837],[120.694628,24.128919],[120.694771,24.129353],[120.694303,24.132934],[120.69319,24.132898],[120.69188,24.132365],[120.690228,24.131641]]]},"properties":{"code":"66000020003","name":"東橋里","countyCode":"66000","countyName":"臺中市","townCode":"66000020","townName":"東區","level":"village","unassigned":false,"note":"","label":[120.69238730016423,24.129897004344944],"bounds":[120.690228,24.124815,120.694771,24.132934],"focusBounds":[120.690228,24.124815,120.694771,24.132934],"color":"#df9f6a"}},{"type":"Feature","id":"66000020004","geometry":{"type":"Polygon","coordinates":[[[120.690267,24.124815],[120.690228,24.131641],[120.684985,24.129471],[120.683536,24.124453],[120.683697,24.124003],[120.684572,24.122135],[120.685355,24.121722],[120.685525,24.12244],[120.685965,24.123257],[120.686889,24.123969],[120.688328,24.12464],[120.68962,24.124755],[120.690262,24.124627],[120.690267,24.124815]]]},"properties":{"code":"66000020004","name":"東興里","countyCode":"66000","countyName":"臺中市","townCode":"66000020","townName":"東區","level":"village","unassigned":false,"note":"","label":[120.68740042767035,24.127339089159484],"bounds":[120.683536,24.121722,120.690267,24.131641],"focusBounds":[120.683536,24.121722,120.690267,24.131641],"color":"#c38cb8"}},{"type":"Feature","id":"66000020005","geometry":{"type":"Polygon","coordinates":[[[120.694468,24.140649],[120.694323,24.140851],[120.694394,24.144137],[120.69248,24.144115],[120.69245,24.143056],[120.692455,24.14275],[120.689192,24.142901],[120.685773,24.143167],[120.685789,24.141298],[120.685798,24.140107],[120.686009,24.140104],[120.686057,24.137992],[120.685801,24.137565],[120.687998,24.137932],[120.689673,24.138645],[120.694468,24.140649]]]},"properties":{"code":"66000020005","name":"干城里","countyCode":"66000","countyName":"臺中市","townCode":"66000020","townName":"東區","level":"village","unassigned":false,"note":"","label":[120.68940793615904,24.140711645184492],"bounds":[120.685773,24.137565,120.694468,24.144137],"focusBounds":[120.685773,24.137565,120.694468,24.144137],"color":"#98b69b"}},{"type":"Feature","id":"66000020006","geometry":{"type":"Polygon","coordinates":[[[120.696374,24.140212],[120.696145,24.140525],[120.694624,24.140431],[120.694468,24.140649],[120.689673,24.138645],[120.689955,24.137898],[120.689109,24.137039],[120.690081,24.135941],[120.690397,24.13533],[120.69188,24.132365],[120.69319,24.132898],[120.695282,24.133995],[120.696133,24.135012],[120.696556,24.136054],[120.696564,24.139977],[120.696374,24.140212]]]},"properties":{"code":"66000020006","name":"泉源里","countyCode":"66000","countyName":"臺中市","townCode":"66000020","townName":"東區","level":"village","unassigned":false,"note":"","label":[120.69337829357244,24.136807915548427],"bounds":[120.689109,24.132365,120.696564,24.140649],"focusBounds":[120.689109,24.132365,120.696564,24.140649],"color":"#58b99d"}},{"type":"Feature","id":"66000020007","geometry":{"type":"Polygon","coordinates":[[[120.694394,24.144137],[120.694323,24.140851],[120.694468,24.140649],[120.694624,24.140431],[120.696145,24.140525],[120.696374,24.140212],[120.700824,24.140145],[120.700349,24.144648],[120.694394,24.144699],[120.694394,24.144137]]]},"properties":{"code":"66000020007","name":"旱溪里","countyCode":"66000","countyName":"臺中市","townCode":"66000020","townName":"東區","level":"village","unassigned":false,"note":"","label":[120.69752160881278,24.14243358832911],"bounds":[120.694323,24.140145,120.700824,24.144699],"focusBounds":[120.694323,24.140145,120.700824,24.144699],"color":"#efb44f"}},{"type":"Feature","id":"66000020008","geometry":{"type":"Polygon","coordinates":[[[120.700824,24.140145],[120.696374,24.140212],[120.696564,24.139977],[120.696556,24.136054],[120.696133,24.135012],[120.695282,24.133995],[120.69319,24.132898],[120.694303,24.132934],[120.697757,24.133151],[120.699477,24.132658],[120.700492,24.136413],[120.700787,24.138879],[120.700824,24.140145]]]},"properties":{"code":"66000020008","name":"樂成里","countyCode":"66000","countyName":"臺中市","townCode":"66000020","townName":"東區","level":"village","unassigned":false,"note":"","label":[120.69849475121966,24.136559761044744],"bounds":[120.69319,24.132658,120.700824,24.140212],"focusBounds":[120.69319,24.132658,120.700824,24.140212],"color":"#78a7e3"}},{"type":"Feature","id":"66000020009","geometry":{"type":"Polygon","coordinates":[[[120.699477,24.132658],[120.697757,24.133151],[120.694303,24.132934],[120.694771,24.129353],[120.694628,24.128919],[120.693316,24.127837],[120.693057,24.127832],[120.693056,24.126463],[120.691038,24.124838],[120.690267,24.124815],[120.690262,24.124627],[120.690427,24.124391],[120.690811,24.124268],[120.692322,24.124013],[120.692696,24.124199],[120.694493,24.124122],[120.695997,24.124511],[120.696492,24.124801],[120.698736,24.124742],[120.700235,24.124885],[120.702273,24.124999],[120.701625,24.12705],[120.699921,24.12974],[120.699548,24.130633],[120.69936,24.131727],[120.699477,24.132658]]]},"properties":{"code":"66000020009","name":"東門里","countyCode":"66000","countyName":"臺中市","townCode":"66000020","townName":"東區","level":"village","unassigned":false,"note":"","label":[120.69748904547566,24.127862638647976],"bounds":[120.690262,24.124013,120.702273,24.133151],"focusBounds":[120.690262,24.124013,120.702273,24.133151],"color":"#dd8590"}},{"type":"Feature","id":"66000020010","geometry":{"type":"Polygon","coordinates":[[[120.705355,24.137676],[120.705971,24.14044],[120.706339,24.14877],[120.705079,24.148271],[120.703639,24.146713],[120.702939,24.146424],[120.700605,24.14589],[120.700308,24.145808],[120.700349,24.144648],[120.700824,24.140145],[120.700787,24.138879],[120.702691,24.138881],[120.703821,24.138555],[120.705355,24.137676]]]},"properties":{"code":"66000020010","name":"十甲里","countyCode":"66000","countyName":"臺中市","townCode":"66000020","townName":"東區","level":"village","unassigned":false,"note":"","label":[120.70330844063419,24.14298419006691],"bounds":[120.700308,24.137676,120.706339,24.14877],"focusBounds":[120.700308,24.137676,120.706339,24.14877],"color":"#a49ad4"}},{"type":"Feature","id":"66000020011","geometry":{"type":"Polygon","coordinates":[[[120.699745,24.149603],[120.69868,24.149554],[120.694398,24.149862],[120.694394,24.144699],[120.700349,24.144648],[120.700308,24.145808],[120.700605,24.14589],[120.69948,24.14871],[120.699745,24.149603]]]},"properties":{"code":"66000020011","name":"東南里","countyCode":"66000","countyName":"臺中市","townCode":"66000020","townName":"東區","level":"village","unassigned":false,"note":"","label":[120.69720310928618,24.14716771706641],"bounds":[120.694394,24.144648,120.700605,24.149862],"focusBounds":[120.694394,24.144648,120.700605,24.149862],"color":"#c38cb8"}},{"type":"Feature","id":"66000020012","geometry":{"type":"Polygon","coordinates":[[[120.694398,24.149862],[120.694405,24.151598],[120.69247,24.151666],[120.691688,24.151915],[120.691652,24.151745],[120.69056,24.151987],[120.690948,24.151098],[120.69062,24.150267],[120.691163,24.150042],[120.691378,24.149763],[120.690988,24.148774],[120.690243,24.148266],[120.690623,24.147345],[120.69055,24.146731],[120.691053,24.146672],[120.690965,24.146076],[120.691811,24.145999],[120.691839,24.145755],[120.692471,24.145513],[120.69248,24.144115],[120.694394,24.144137],[120.694394,24.144699],[120.694398,24.149862]]]},"properties":{"code":"66000020012","name":"東勢里","countyCode":"66000","countyName":"臺中市","townCode":"66000020","townName":"東區","level":"village","unassigned":false,"note":"","label":[120.69266026726137,24.148245075117195],"bounds":[120.690243,24.144115,120.694405,24.151987],"focusBounds":[120.690243,24.144115,120.694405,24.151987],"color":"#68bec9"}},{"type":"Feature","id":"66000020013","geometry":{"type":"Polygon","coordinates":[[[120.692642,24.152662],[120.691991,24.152642],[120.691688,24.151915],[120.69247,24.151666],[120.694405,24.151598],[120.694398,24.149862],[120.69868,24.149554],[120.699745,24.149603],[120.700339,24.15095],[120.700127,24.151309],[120.699742,24.15143],[120.699189,24.151557],[120.698669,24.151346],[120.698134,24.151497],[120.694583,24.152462],[120.692642,24.152662]]]},"properties":{"code":"66000020013","name":"合作里","countyCode":"66000","countyName":"臺中市","townCode":"66000020","townName":"東區","level":"village","unassigned":false,"note":"","label":[120.69610576083633,24.15089370314155],"bounds":[120.691688,24.149554,120.700339,24.152662],"focusBounds":[120.691688,24.149554,120.700339,24.152662],"color":"#df9f6a"}},{"type":"Feature","id":"66000020014","geometry":{"type":"Polygon","coordinates":[[[120.689192,24.142901],[120.692455,24.14275],[120.69245,24.143056],[120.691782,24.143104],[120.691745,24.144518],[120.689556,24.144568],[120.689299,24.144377],[120.689192,24.142901]]]},"properties":{"code":"66000020014","name":"富台里","countyCode":"66000","countyName":"臺中市","townCode":"66000020","townName":"東區","level":"village","unassigned":false,"note":"","label":[120.69059798881284,24.14368996802984],"bounds":[120.689192,24.14275,120.692455,24.144568],"focusBounds":[120.689192,24.14275,120.692455,24.144568],"color":"#c38cb8"}},{"type":"Feature","id":"66000020015","geometry":{"type":"Polygon","coordinates":[[[120.69248,24.144115],[120.692471,24.145513],[120.691839,24.145755],[120.691811,24.145999],[120.690965,24.146076],[120.691053,24.146672],[120.69055,24.146731],[120.690399,24.146531],[120.690126,24.146479],[120.689148,24.146582],[120.688637,24.146462],[120.686483,24.145771],[120.685772,24.143272],[120.685773,24.143167],[120.689192,24.142901],[120.689299,24.144377],[120.689556,24.144568],[120.691745,24.144518],[120.691782,24.143104],[120.69245,24.143056],[120.69248,24.144115]]]},"properties":{"code":"66000020015","name":"富仁里","countyCode":"66000","countyName":"臺中市","townCode":"66000020","townName":"東區","level":"village","unassigned":false,"note":"","label":[120.68795569496054,24.144812233746528],"bounds":[120.685772,24.142901,120.69248,24.146731],"focusBounds":[120.685772,24.142901,120.69248,24.146731],"color":"#58b99d"}},{"type":"Feature","id":"66000020016","geometry":{"type":"Polygon","coordinates":[[[120.705355,24.137676],[120.703821,24.138555],[120.702691,24.138881],[120.700787,24.138879],[120.700492,24.136413],[120.699477,24.132658],[120.69936,24.131727],[120.699548,24.130633],[120.699921,24.12974],[120.701625,24.12705],[120.702273,24.124999],[120.704162,24.124871],[120.70568,24.127893],[120.706697,24.12948],[120.707941,24.131968],[120.708178,24.132815],[120.709179,24.135364],[120.70636,24.136703],[120.705355,24.137676]]]},"properties":{"code":"66000020016","name":"東信里","countyCode":"66000","countyName":"臺中市","townCode":"66000020","townName":"東區","level":"village","unassigned":false,"note":"","label":[120.7036054303375,24.132323957575366],"bounds":[120.69936,24.124871,120.709179,24.138881],"focusBounds":[120.69936,24.124871,120.709179,24.138881],"color":"#58b99d"}},{"type":"Feature","id":"66000020017","geometry":{"type":"Polygon","coordinates":[[[120.710538,24.149664],[120.709768,24.149912],[120.70816,24.149415],[120.70731,24.149447],[120.706339,24.14877],[120.705971,24.14044],[120.705355,24.137676],[120.70636,24.136703],[120.709179,24.135364],[120.710314,24.137527],[120.710559,24.140841],[120.710874,24.142249],[120.712033,24.144454],[120.71182,24.14453],[120.712206,24.145896],[120.712013,24.145943],[120.712032,24.14725],[120.711586,24.147459],[120.711169,24.149181],[120.710538,24.149664]]]},"properties":{"code":"66000020017","name":"東英里","countyCode":"66000","countyName":"臺中市","townCode":"66000020","townName":"東區","level":"village","unassigned":false,"note":"","label":[120.70856910182634,24.143184759544646],"bounds":[120.705355,24.135364,120.712206,24.149912],"focusBounds":[120.705355,24.135364,120.712206,24.149912],"color":"#efb44f"}}]}
