{"type":"FeatureCollection","features":[{"type":"Feature","id":"66000250001","geometry":{"type":"Polygon","coordinates":[[[120.545923,24.191889],[120.541708,24.192835],[120.541113,24.190872],[120.538227,24.186213],[120.537151,24.183565],[120.537364,24.180762],[120.538508,24.172844],[120.538354,24.172627],[120.538604,24.171629],[120.541712,24.170694],[120.542604,24.17073],[120.54284,24.171655],[120.543425,24.171748],[120.547602,24.171213],[120.54851,24.170953],[120.549205,24.170981],[120.549786,24.170799],[120.551376,24.171472],[120.552603,24.170978],[120.55315,24.170905],[120.553523,24.171019],[120.554216,24.171391],[120.555821,24.172951],[120.556546,24.173188],[120.559323,24.17919],[120.561705,24.183021],[120.559507,24.184635],[120.554989,24.184697],[120.552583,24.185733],[120.552197,24.185781],[120.54889,24.185401],[120.54806,24.185516],[120.547703,24.186012],[120.545421,24.186287],[120.545923,24.191889]]]},"properties":{"code":"66000250001","name":"竹坑里","countyCode":"66000","countyName":"臺中市","townCode":"66000250","townName":"龍井區","level":"village","unassigned":false,"note":"","label":[120.54776060126926,24.17854951616237],"bounds":[120.537151,24.170694,120.561705,24.192835],"focusBounds":[120.537151,24.170694,120.561705,24.192835],"color":"#df9f6a"}},{"type":"Feature","id":"66000250002","geometry":{"type":"Polygon","coordinates":[[[120.537151,24.183565],[120.529897,24.185168],[120.530281,24.184325],[120.530252,24.182959],[120.529746,24.18144],[120.528764,24.179374],[120.528315,24.177937],[120.528107,24.175836],[120.53031,24.175623],[120.530333,24.175441],[120.531108,24.175338],[120.531209,24.175216],[120.5337,24.174819],[120.533491,24.173112],[120.53608,24.172864],[120.538354,24.172627],[120.538508,24.172844],[120.537364,24.180762],[120.537151,24.183565]]]},"properties":{"code":"66000250002","name":"龍東里","countyCode":"66000","countyName":"臺中市","townCode":"66000250","townName":"龍井區","level":"village","unassigned":false,"note":"","label":[120.53352859927696,24.179011173166003],"bounds":[120.528107,24.172627,120.538508,24.185168],"focusBounds":[120.528107,24.172627,120.538508,24.185168],"color":"#c38cb8"}},{"type":"Feature","id":"66000250003","geometry":{"type":"Polygon","coordinates":[[[120.529897,24.185168],[120.52139,24.187026],[120.520938,24.184352],[120.522542,24.182323],[120.523758,24.180481],[120.525549,24.176675],[120.525826,24.176672],[120.52612,24.176027],[120.528107,24.175836],[120.528315,24.177937],[120.528764,24.179374],[120.529746,24.18144],[120.530252,24.182959],[120.530281,24.184325],[120.529897,24.185168]]]},"properties":{"code":"66000250003","name":"龍西里","countyCode":"66000","countyName":"臺中市","townCode":"66000250","townName":"龍井區","level":"village","unassigned":false,"note":"","label":[120.52640391235113,24.182451753844354],"bounds":[120.520938,24.175836,120.530281,24.187026],"focusBounds":[120.520938,24.175836,120.530281,24.187026],"color":"#78a7e3"}},{"type":"Feature","id":"66000250004","geometry":{"type":"Polygon","coordinates":[[[120.536027,24.194114],[120.524115,24.196635],[120.522989,24.19678],[120.522953,24.196534],[120.52139,24.187026],[120.529897,24.185168],[120.537151,24.183565],[120.538227,24.186213],[120.541113,24.190872],[120.541708,24.192835],[120.536027,24.194114]]]},"properties":{"code":"66000250004","name":"田中里","countyCode":"66000","countyName":"臺中市","townCode":"66000250","townName":"龍井區","level":"village","unassigned":false,"note":"","label":[120.53090683360602,24.19007098737445],"bounds":[120.52139,24.183565,120.541708,24.19678],"focusBounds":[120.52139,24.183565,120.541708,24.19678],"color":"#98b69b"}},{"type":"Feature","id":"66000250005","geometry":{"type":"Polygon","coordinates":[[[120.522953,24.196534],[120.513035,24.198728],[120.511056,24.199478],[120.507892,24.187397],[120.508111,24.187164],[120.511117,24.180641],[120.512611,24.176958],[120.525549,24.176675],[120.523758,24.180481],[120.522542,24.182323],[120.520938,24.184352],[120.52139,24.187026],[120.522953,24.196534]]]},"properties":{"code":"66000250005","name":"福田里","countyCode":"66000","countyName":"臺中市","townCode":"66000250","townName":"龍井區","level":"village","unassigned":false,"note":"","label":[120.51502551108398,24.188101037168014],"bounds":[120.507892,24.176675,120.525549,24.199478],"focusBounds":[120.507892,24.176675,120.525549,24.199478],"color":"#efb44f"}},{"type":"Feature","id":"66000250006","geometry":{"type":"Polygon","coordinates":[[[120.503834,24.232118],[120.503589,24.231972],[120.502555,24.232323],[120.501423,24.232342],[120.499871,24.232721],[120.496907,24.237711],[120.491979,24.239496],[120.489832,24.234254],[120.482543,24.236867],[120.480975,24.233352],[120.479726,24.232195],[120.476329,24.22433],[120.472336,24.222328],[120.471306,24.220595],[120.468822,24.214465],[120.468218,24.214652],[120.467792,24.214519],[120.466002,24.215281],[120.465705,24.215006],[120.461287,24.216753],[120.460786,24.2156],[120.461794,24.215393],[120.464915,24.214275],[120.463819,24.213261],[120.46033,24.211644],[120.457919,24.209271],[120.456561,24.20737],[120.45656,24.207183],[120.504388,24.191143],[120.507101,24.188238],[120.507892,24.187397],[120.511056,24.199478],[120.507437,24.201485],[120.506028,24.202884],[120.505236,24.20429],[120.504837,24.206108],[120.504833,24.207182],[120.505118,24.208644],[120.505651,24.209892],[120.502934,24.210573],[120.498393,24.211967],[120.493958,24.213548],[120.494431,24.21453],[120.499118,24.22175],[120.504019,24.231678],[120.503834,24.232118]]]},"properties":{"code":"66000250006","name":"麗水里","countyCode":"66000","countyName":"臺中市","townCode":"66000250","townName":"龍井區","level":"village","unassigned":false,"note":"","label":[120.4821860725256,24.21237341199904],"bounds":[120.45656,24.187397,120.511056,24.239496],"focusBounds":[120.45656,24.187397,120.511056,24.239496],"color":"#78a7e3"}},{"type":"Feature","id":"66000250007","geometry":{"type":"Polygon","coordinates":[[[120.537515,24.199933],[120.523354,24.203054],[120.523375,24.203912],[120.518724,24.204712],[120.519629,24.208191],[120.511359,24.208368],[120.510219,24.208572],[120.505651,24.209892],[120.505118,24.208644],[120.504833,24.207182],[120.504837,24.206108],[120.505236,24.20429],[120.506028,24.202884],[120.507437,24.201485],[120.511056,24.199478],[120.513035,24.198728],[120.522953,24.196534],[120.522989,24.19678],[120.524115,24.196635],[120.536027,24.194114],[120.537515,24.199933]]]},"properties":{"code":"66000250007","name":"龍津里","countyCode":"66000","countyName":"臺中市","townCode":"66000250","townName":"龍井區","level":"village","unassigned":false,"note":"","label":[120.51405567883177,24.203406601318804],"bounds":[120.504833,24.194114,120.537515,24.209892],"focusBounds":[120.504833,24.194114,120.537515,24.209892],"color":"#dd8590"}},{"type":"Feature","id":"66000250008","geometry":{"type":"Polygon","coordinates":[[[120.505651,24.209892],[120.510219,24.208572],[120.511359,24.208368],[120.519629,24.208191],[120.518724,24.204712],[120.523375,24.203912],[120.523354,24.203054],[120.537515,24.199933],[120.539057,24.206211],[120.534853,24.206771],[120.529753,24.207546],[120.52764,24.208408],[120.525272,24.208649],[120.525729,24.210319],[120.524206,24.210675],[120.508248,24.215735],[120.505651,24.209892]]]},"properties":{"code":"66000250008","name":"三德里","countyCode":"66000","countyName":"臺中市","townCode":"66000250","townName":"龍井區","level":"village","unassigned":false,"note":"","label":[120.52248517556392,24.207643006501538],"bounds":[120.505651,24.199933,120.539057,24.215735],"focusBounds":[120.505651,24.199933,120.539057,24.215735],"color":"#df9f6a"}},{"type":"Feature","id":"66000250009","geometry":{"type":"Polygon","coordinates":[[[120.513584,24.229667],[120.510231,24.22979],[120.508139,24.230271],[120.504242,24.232807],[120.503834,24.232118],[120.504019,24.231678],[120.499118,24.22175],[120.494431,24.21453],[120.493958,24.213548],[120.498393,24.211967],[120.502934,24.210573],[120.505651,24.209892],[120.508248,24.215735],[120.524206,24.210675],[120.525729,24.210319],[120.525272,24.208649],[120.52764,24.208408],[120.529753,24.207546],[120.534853,24.206771],[120.537656,24.220182],[120.533095,24.221119],[120.529266,24.222266],[120.52904,24.222259],[120.528907,24.222019],[120.528918,24.221128],[120.528565,24.220483],[120.528007,24.220522],[120.527785,24.220234],[120.51296,24.22589],[120.512625,24.226041],[120.514068,24.229502],[120.513584,24.229667]]]},"properties":{"code":"66000250009","name":"忠和里","countyCode":"66000","countyName":"臺中市","townCode":"66000250","townName":"龍井區","level":"village","unassigned":false,"note":"","label":[120.51571104456069,24.2191044657106],"bounds":[120.493958,24.206771,120.537656,24.232807],"focusBounds":[120.493958,24.206771,120.537656,24.232807],"color":"#a49ad4"}},{"type":"Feature","id":"66000250010","geometry":{"type":"Polygon","coordinates":[[[120.546739,24.217866],[120.546327,24.218192],[120.537656,24.220182],[120.534853,24.206771],[120.539057,24.206211],[120.545044,24.205509],[120.546767,24.205467],[120.547263,24.204078],[120.547645,24.204099],[120.548229,24.204464],[120.549131,24.204349],[120.551146,24.20527],[120.553462,24.205369],[120.553853,24.206768],[120.554826,24.207138],[120.555995,24.208789],[120.555637,24.208949],[120.554705,24.210148],[120.553765,24.211891],[120.55305,24.212435],[120.552805,24.214324],[120.552574,24.214397],[120.552257,24.214593],[120.551925,24.216218],[120.551428,24.216821],[120.550341,24.216947],[120.549852,24.216072],[120.549088,24.215949],[120.547823,24.216272],[120.547179,24.216613],[120.546739,24.217866]]]},"properties":{"code":"66000250010","name":"山腳里","countyCode":"66000","countyName":"臺中市","townCode":"66000250","townName":"龍井區","level":"village","unassigned":false,"note":"","label":[120.54256200773898,24.212427952408706],"bounds":[120.534853,24.204078,120.555995,24.220182],"focusBounds":[120.534853,24.204078,120.555995,24.220182],"color":"#a8bf62"}},{"type":"Feature","id":"66000250011","geometry":{"type":"Polygon","coordinates":[[[120.553462,24.205369],[120.551146,24.20527],[120.549131,24.204349],[120.548229,24.204464],[120.547645,24.204099],[120.547263,24.204078],[120.546767,24.205467],[120.545044,24.205509],[120.539057,24.206211],[120.537515,24.199933],[120.536027,24.194114],[120.541708,24.192835],[120.545923,24.191889],[120.546057,24.193435],[120.547697,24.192874],[120.548688,24.194204],[120.550066,24.193772],[120.551894,24.194247],[120.557856,24.193755],[120.559142,24.19316],[120.560906,24.191684],[120.561714,24.191423],[120.565451,24.189576],[120.566462,24.189545],[120.566457,24.189994],[120.565957,24.190776],[120.566306,24.192113],[120.566453,24.194815],[120.56608,24.196064],[120.56586,24.196269],[120.565554,24.197255],[120.565061,24.200613],[120.56368,24.20287],[120.563284,24.202959],[120.562312,24.202674],[120.561751,24.202681],[120.561494,24.202942],[120.561385,24.203385],[120.560318,24.204361],[120.558941,24.20442],[120.55764,24.205154],[120.554747,24.205684],[120.553438,24.205269],[120.553462,24.205369]]]},"properties":{"code":"66000250011","name":"龍泉里","countyCode":"66000","countyName":"臺中市","townCode":"66000250","townName":"龍井區","level":"village","unassigned":false,"note":"","label":[120.55262297918573,24.199760014937077],"bounds":[120.536027,24.189545,120.566462,24.206211],"focusBounds":[120.536027,24.189545,120.566462,24.206211],"color":"#68bec9"}},{"type":"Feature","id":"66000250012","geometry":{"type":"Polygon","coordinates":[[[120.566462,24.189545],[120.565451,24.189576],[120.561714,24.191423],[120.560906,24.191684],[120.559142,24.19316],[120.557856,24.193755],[120.551894,24.194247],[120.550066,24.193772],[120.548688,24.194204],[120.547697,24.192874],[120.546057,24.193435],[120.545923,24.191889],[120.545421,24.186287],[120.547703,24.186012],[120.54806,24.185516],[120.54889,24.185401],[120.552197,24.185781],[120.552583,24.185733],[120.554989,24.184697],[120.559507,24.184635],[120.561705,24.183021],[120.562096,24.183363],[120.5629,24.183539],[120.56692,24.181878],[120.566834,24.185442],[120.566462,24.189545]]]},"properties":{"code":"66000250012","name":"龍崗里","countyCode":"66000","countyName":"臺中市","townCode":"66000250","townName":"龍井區","level":"village","unassigned":false,"note":"","label":[120.55613832345789,24.18928878653863],"bounds":[120.545421,24.181878,120.56692,24.194247],"focusBounds":[120.545421,24.181878,120.56692,24.194247],"color":"#58b99d"}},{"type":"Feature","id":"66000250013","geometry":{"type":"Polygon","coordinates":[[[120.56608,24.196064],[120.566453,24.194815],[120.566306,24.192113],[120.565957,24.190776],[120.566457,24.189994],[120.566462,24.189545],[120.566834,24.185442],[120.56692,24.181878],[120.570663,24.180349],[120.575709,24.178704],[120.575734,24.177713],[120.577055,24.177499],[120.577372,24.178221],[120.582181,24.176835],[120.585688,24.186187],[120.580816,24.188336],[120.579905,24.189298],[120.579724,24.190356],[120.580111,24.195659],[120.579369,24.195994],[120.57805,24.196908],[120.575072,24.197304],[120.573877,24.196744],[120.57249,24.195675],[120.572244,24.195312],[120.571838,24.1952],[120.569676,24.195367],[120.569316,24.194949],[120.569071,24.194906],[120.567346,24.195845],[120.56608,24.196064]]]},"properties":{"code":"66000250013","name":"新庄里","countyCode":"66000","countyName":"臺中市","townCode":"66000250","townName":"龍井區","level":"village","unassigned":false,"note":"","label":[120.57388481064453,24.18633210559112],"bounds":[120.565957,24.176835,120.585688,24.197304],"focusBounds":[120.565957,24.176835,120.585688,24.197304],"color":"#c38cb8"}},{"type":"Feature","id":"66000250014","geometry":{"type":"Polygon","coordinates":[[[120.561705,24.183021],[120.559323,24.17919],[120.556546,24.173188],[120.557116,24.173552],[120.557451,24.173757],[120.558103,24.173645],[120.559309,24.173063],[120.559752,24.17262],[120.560268,24.172518],[120.562036,24.172374],[120.562728,24.172644],[120.563326,24.172567],[120.563723,24.172727],[120.564169,24.172706],[120.56525,24.171872],[120.567479,24.170898],[120.568865,24.170592],[120.570123,24.170524],[120.571011,24.17027],[120.570864,24.170632],[120.570931,24.17173],[120.570713,24.173552],[120.57044,24.175217],[120.570151,24.175617],[120.570533,24.176383],[120.573513,24.175655],[120.575744,24.17553],[120.581381,24.174794],[120.582181,24.176835],[120.577372,24.178221],[120.577055,24.177499],[120.575734,24.177713],[120.575709,24.178704],[120.570663,24.180349],[120.56692,24.181878],[120.5629,24.183539],[120.562096,24.183363],[120.561705,24.183021]]]},"properties":{"code":"66000250014","name":"南寮里","countyCode":"66000","countyName":"臺中市","townCode":"66000250","townName":"龍井區","level":"village","unassigned":false,"note":"","label":[120.56476563050059,24.177506608646723],"bounds":[120.556546,24.17027,120.582181,24.183539],"focusBounds":[120.556546,24.17027,120.582181,24.183539],"color":"#98b69b"}},{"type":"Feature","id":"66000250015","geometry":{"type":"Polygon","coordinates":[[[120.587605,24.185409],[120.585688,24.186187],[120.582181,24.176835],[120.581381,24.174794],[120.58317,24.174535],[120.583657,24.174213],[120.587107,24.177887],[120.589169,24.178495],[120.590049,24.179148],[120.592438,24.180351],[120.593636,24.181214],[120.592812,24.181529],[120.593175,24.182939],[120.5932,24.183037],[120.587605,24.185409]]]},"properties":{"code":"66000250015","name":"新東里","countyCode":"66000","countyName":"臺中市","townCode":"66000250","townName":"龍井區","level":"village","unassigned":false,"note":"","label":[120.58749175236964,24.181448849262967],"bounds":[120.581381,24.174213,120.593636,24.186187],"focusBounds":[120.581381,24.174213,120.593636,24.186187],"color":"#efb44f"}},{"type":"Feature","id":"66000250016","geometry":{"type":"Polygon","coordinates":[[[120.587734,24.192644],[120.586356,24.192968],[120.584898,24.193608],[120.584553,24.193595],[120.583537,24.194158],[120.583027,24.194693],[120.58208,24.194736],[120.580111,24.195659],[120.579724,24.190356],[120.579905,24.189298],[120.580816,24.188336],[120.585688,24.186187],[120.587605,24.185409],[120.588351,24.186532],[120.588606,24.18727],[120.592359,24.186636],[120.594792,24.185726],[120.595396,24.186553],[120.596128,24.186741],[120.597334,24.188289],[120.597862,24.189345],[120.596156,24.190194],[120.594714,24.19068],[120.587734,24.192644]]]},"properties":{"code":"66000250016","name":"東海里","countyCode":"66000","countyName":"臺中市","townCode":"66000250","townName":"龍井區","level":"village","unassigned":false,"note":"","label":[120.58613248459976,24.18953644330803],"bounds":[120.579724,24.185409,120.597862,24.195659],"focusBounds":[120.579724,24.185409,120.597862,24.195659],"color":"#78a7e3"}},{"type":"Feature","id":"66000250S01","geometry":{"type":"Polygon","coordinates":[[[120.50388,24.233059],[120.499879,24.236019],[120.495371,24.239753],[120.491613,24.243188],[120.487128,24.24767],[120.482543,24.236867],[120.489832,24.234254],[120.491979,24.239496],[120.496907,24.237711],[120.499871,24.232721],[120.501423,24.232342],[120.502555,24.232323],[120.503589,24.231972],[120.503834,24.232118],[120.504242,24.232807],[120.50388,24.233059]]]},"properties":{"code":"66000250S01","name":"未編定村里","countyCode":"66000","countyName":"臺中市","townCode":"66000250","townName":"龍井區","level":"village","unassigned":true,"note":"未編定村里","label":[120.48777095764527,24.239530709137348],"bounds":[120.482543,24.231972,120.504242,24.24767],"focusBounds":[120.482543,24.231972,120.504242,24.24767],"color":"#a8bf62"}}]}
