{"type":"FeatureCollection","features":[{"type":"Feature","id":"66000160001","geometry":{"type":"Polygon","coordinates":[[[120.662641,24.263246],[120.662631,24.264416],[120.66262,24.26528],[120.657793,24.262927],[120.655495,24.262765],[120.654968,24.262503],[120.654612,24.261929],[120.654108,24.259434],[120.653981,24.258325],[120.654219,24.257268],[120.653055,24.255442],[120.654303,24.254999],[120.655611,24.255452],[120.657111,24.255998],[120.658976,24.256277],[120.659946,24.256807],[120.660975,24.257082],[120.661765,24.257618],[120.662793,24.25782],[120.662775,24.258032],[120.663838,24.25831],[120.662522,24.258604],[120.662641,24.263246]]]},"properties":{"code":"66000160001","name":"神岡里","countyCode":"66000","countyName":"臺中市","townCode":"66000160","townName":"神岡區","level":"village","unassigned":false,"note":"","label":[120.65837421130476,24.259698397487508],"bounds":[120.653055,24.254999,120.663838,24.26528],"focusBounds":[120.653055,24.254999,120.663838,24.26528],"color":"#58b99d"}},{"type":"Feature","id":"66000160002","geometry":{"type":"Polygon","coordinates":[[[120.669407,24.248987],[120.66883,24.248833],[120.668666,24.249062],[120.668737,24.250776],[120.669208,24.2516],[120.669402,24.252653],[120.667873,24.252792],[120.667794,24.253625],[120.664858,24.254542],[120.664834,24.255245],[120.662797,24.255862],[120.662793,24.25782],[120.661765,24.257618],[120.660975,24.257082],[120.659946,24.256807],[120.658976,24.256277],[120.657111,24.255998],[120.655611,24.255452],[120.655788,24.255101],[120.653938,24.253769],[120.653077,24.252737],[120.652851,24.252092],[120.652769,24.251056],[120.653048,24.251311],[120.659994,24.248207],[120.662049,24.247377],[120.662789,24.247487],[120.668956,24.24485],[120.66942,24.245619],[120.669505,24.245943],[120.669195,24.246887],[120.669717,24.247393],[120.669457,24.247869],[120.669407,24.248987]]]},"properties":{"code":"66000160002","name":"庄前里","countyCode":"66000","countyName":"臺中市","townCode":"66000160","townName":"神岡區","level":"village","unassigned":false,"note":"","label":[120.66190047521287,24.25177018766138],"bounds":[120.652769,24.24485,120.669717,24.25782],"focusBounds":[120.652769,24.24485,120.669717,24.25782],"color":"#efb44f"}},{"type":"Feature","id":"66000160003","geometry":{"type":"Polygon","coordinates":[[[120.662641,24.263246],[120.662522,24.258604],[120.663838,24.25831],[120.662775,24.258032],[120.662793,24.25782],[120.662797,24.255862],[120.664834,24.255245],[120.664858,24.254542],[120.667794,24.253625],[120.667873,24.252792],[120.669402,24.252653],[120.669208,24.2516],[120.668737,24.250776],[120.668666,24.249062],[120.66883,24.248833],[120.669407,24.248987],[120.670363,24.249386],[120.671239,24.250268],[120.671359,24.250643],[120.671642,24.250717],[120.671783,24.251426],[120.672217,24.252337],[120.673538,24.252558],[120.674038,24.252781],[120.67494,24.252986],[120.675454,24.253673],[120.676443,24.254321],[120.676963,24.254501],[120.677537,24.254371],[120.677992,24.254575],[120.678017,24.255041],[120.678669,24.255054],[120.679279,24.255939],[120.6798,24.256084],[120.680187,24.256528],[120.679592,24.25738],[120.677866,24.258254],[120.677234,24.259331],[120.676522,24.259898],[120.67602,24.259931],[120.675301,24.259176],[120.674736,24.259142],[120.672851,24.258001],[120.672559,24.258251],[120.670897,24.258858],[120.667128,24.259761],[120.664928,24.260458],[120.6648,24.260751],[120.665004,24.262892],[120.662641,24.263246]]]},"properties":{"code":"66000160003","name":"北庄里","countyCode":"66000","countyName":"臺中市","townCode":"66000160","townName":"神岡區","level":"village","unassigned":false,"note":"","label":[120.67016694490611,24.2557743605606],"bounds":[120.662522,24.248833,120.680187,24.263246],"focusBounds":[120.662522,24.248833,120.680187,24.263246],"color":"#78a7e3"}},{"type":"Feature","id":"66000160004","geometry":{"type":"Polygon","coordinates":[[[120.677007,24.267054],[120.676052,24.266415],[120.675229,24.26713],[120.674471,24.268108],[120.672735,24.26931],[120.669971,24.269407],[120.668278,24.270047],[120.667788,24.269404],[120.667217,24.269108],[120.66686,24.268705],[120.666256,24.267139],[120.665623,24.266531],[120.665029,24.265308],[120.663795,24.264795],[120.663193,24.264793],[120.66305,24.264573],[120.662631,24.264416],[120.662641,24.263246],[120.665004,24.262892],[120.6648,24.260751],[120.664928,24.260458],[120.667128,24.259761],[120.670897,24.258858],[120.672559,24.258251],[120.672851,24.258001],[120.674736,24.259142],[120.675301,24.259176],[120.67602,24.259931],[120.676522,24.259898],[120.677234,24.259331],[120.677866,24.258254],[120.679592,24.25738],[120.680187,24.256528],[120.680652,24.256897],[120.682174,24.256967],[120.683304,24.257596],[120.685529,24.257517],[120.685947,24.258095],[120.686676,24.258406],[120.687386,24.258966],[120.686133,24.259715],[120.683626,24.261848],[120.682061,24.262466],[120.680246,24.264063],[120.679605,24.265053],[120.677007,24.267054]]]},"properties":{"code":"66000160004","name":"庄後里","countyCode":"66000","countyName":"臺中市","townCode":"66000160","townName":"神岡區","level":"village","unassigned":false,"note":"","label":[120.6710394063279,24.264087682250086],"bounds":[120.662631,24.256528,120.687386,24.270047],"focusBounds":[120.662631,24.256528,120.687386,24.270047],"color":"#a8bf62"}},{"type":"Feature","id":"66000160005","geometry":{"type":"Polygon","coordinates":[[[120.687386,24.258966],[120.686676,24.258406],[120.685947,24.258095],[120.685529,24.257517],[120.683304,24.257596],[120.682174,24.256967],[120.680652,24.256897],[120.680187,24.256528],[120.6798,24.256084],[120.679279,24.255939],[120.678669,24.255054],[120.678017,24.255041],[120.677992,24.254575],[120.677537,24.254371],[120.676963,24.254501],[120.676443,24.254321],[120.675454,24.253673],[120.67494,24.252986],[120.674038,24.252781],[120.675143,24.251722],[120.679714,24.248785],[120.680537,24.247879],[120.682948,24.246612],[120.684996,24.246479],[120.69285,24.248407],[120.692054,24.249107],[120.691334,24.250254],[120.689814,24.25071],[120.689372,24.251238],[120.689743,24.253591],[120.689954,24.253834],[120.690671,24.25404],[120.690865,24.2556],[120.690655,24.256197],[120.689385,24.257665],[120.689604,24.258401],[120.688542,24.258702],[120.687386,24.258966]]]},"properties":{"code":"66000160005","name":"社口里","countyCode":"66000","countyName":"臺中市","townCode":"66000160","townName":"神岡區","level":"village","unassigned":false,"note":"","label":[120.68418497665647,24.252048423648894],"bounds":[120.674038,24.246479,120.69285,24.258966],"focusBounds":[120.674038,24.246479,120.69285,24.258966],"color":"#a49ad4"}},{"type":"Feature","id":"66000160006","geometry":{"type":"Polygon","coordinates":[[[120.674447,24.23679],[120.674261,24.236598],[120.67428,24.236336],[120.674569,24.236024],[120.674559,24.235507],[120.674731,24.235087],[120.674709,24.234616],[120.674503,24.23471],[120.674257,24.234534],[120.674541,24.234032],[120.674527,24.233413],[120.67474,24.233078],[120.67504,24.233371],[120.675868,24.233178],[120.676774,24.234231],[120.677256,24.235037],[120.677585,24.236117],[120.67825,24.236573],[120.678381,24.237378],[120.678557,24.237622],[120.67893,24.237713],[120.679143,24.238072],[120.679402,24.238177],[120.680996,24.238323],[120.68185,24.239379],[120.682412,24.239711],[120.68289,24.239829],[120.683125,24.240665],[120.683863,24.240976],[120.684319,24.240802],[120.685395,24.24108],[120.685466,24.241665],[120.685876,24.242009],[120.685957,24.242352],[120.686647,24.243332],[120.686519,24.243758],[120.686626,24.244569],[120.687719,24.245215],[120.687924,24.246001],[120.688639,24.246569],[120.689424,24.246578],[120.690065,24.246139],[120.690895,24.24649],[120.692419,24.247512],[120.69285,24.248407],[120.684996,24.246479],[120.682948,24.246612],[120.680537,24.247879],[120.679714,24.248785],[120.675143,24.251722],[120.674038,24.252781],[120.673538,24.252558],[120.672217,24.252337],[120.671783,24.251426],[120.671642,24.250717],[120.671359,24.250643],[120.671239,24.250268],[120.670363,24.249386],[120.669407,24.248987],[120.669457,24.247869],[120.669717,24.247393],[120.669195,24.246887],[120.669505,24.245943],[120.66942,24.245619],[120.675202,24.243059],[120.674565,24.24188],[120.675546,24.240862],[120.675737,24.240853],[120.675793,24.240519],[120.676095,24.240157],[120.675876,24.239919],[120.676019,24.239729],[120.675938,24.239603],[120.675279,24.239729],[120.674699,24.239072],[120.674919,24.238592],[120.674575,24.238162],[120.674757,24.237748],[120.674353,24.2375],[120.674562,24.23695],[120.674447,24.23679]]]},"properties":{"code":"66000160006","name":"社南里","countyCode":"66000","countyName":"臺中市","townCode":"66000160","townName":"神岡區","level":"village","unassigned":false,"note":"","label":[120.67937657753902,24.24358402613563],"bounds":[120.669195,24.233078,120.69285,24.252781],"focusBounds":[120.669195,24.233078,120.69285,24.252781],"color":"#a8bf62"}},{"type":"Feature","id":"66000160007","geometry":{"type":"Polygon","coordinates":[[[120.697544,24.243895],[120.696143,24.24351],[120.692205,24.243579],[120.693118,24.244335],[120.693862,24.245259],[120.689435,24.245194],[120.68918,24.245672],[120.687924,24.246001],[120.687719,24.245215],[120.686626,24.244569],[120.686519,24.243758],[120.686647,24.243332],[120.685957,24.242352],[120.685876,24.242009],[120.685466,24.241665],[120.685395,24.24108],[120.684319,24.240802],[120.683863,24.240976],[120.683125,24.240665],[120.68289,24.239829],[120.682412,24.239711],[120.681112,24.237822],[120.680466,24.236032],[120.680855,24.23365],[120.681835,24.234118],[120.682744,24.234006],[120.681372,24.232095],[120.684152,24.231653],[120.684247,24.231938],[120.685257,24.23181],[120.685455,24.232385],[120.685275,24.232754],[120.685661,24.234167],[120.686621,24.234668],[120.68796,24.234987],[120.68871,24.23569],[120.689604,24.235746],[120.69055,24.235551],[120.69164,24.23514],[120.69053,24.232884],[120.690273,24.230508],[120.689726,24.23023],[120.689803,24.229259],[120.689986,24.229092],[120.691401,24.228894],[120.69271,24.22945],[120.692857,24.229624],[120.693005,24.231142],[120.694991,24.231173],[120.697052,24.231558],[120.698417,24.232285],[120.698413,24.233184],[120.699098,24.235015],[120.699041,24.235609],[120.698249,24.235586],[120.698755,24.238142],[120.698201,24.23856],[120.698116,24.239091],[120.697962,24.239132],[120.695823,24.239087],[120.695658,24.239342],[120.695663,24.23971],[120.696813,24.2416],[120.696977,24.242767],[120.697544,24.243895]]]},"properties":{"code":"66000160007","name":"三角里","countyCode":"66000","countyName":"臺中市","townCode":"66000160","townName":"神岡區","level":"village","unassigned":false,"note":"","label":[120.69097038086383,24.239457613672897],"bounds":[120.680466,24.228894,120.699098,24.246001],"focusBounds":[120.680466,24.228894,120.699098,24.246001],"color":"#68bec9"}},{"type":"Feature","id":"66000160008","geometry":{"type":"Polygon","coordinates":[[[120.687924,24.246001],[120.68918,24.245672],[120.689435,24.245194],[120.693862,24.245259],[120.693118,24.244335],[120.692205,24.243579],[120.696143,24.24351],[120.697544,24.243895],[120.699105,24.246803],[120.699212,24.249579],[120.700145,24.250421],[120.698798,24.250286],[120.697411,24.250843],[120.696141,24.251994],[120.696548,24.253132],[120.69661,24.254203],[120.69593,24.254925],[120.694545,24.255649],[120.693475,24.256737],[120.692904,24.257031],[120.692048,24.257179],[120.690456,24.258227],[120.689604,24.258401],[120.689385,24.257665],[120.690655,24.256197],[120.690865,24.2556],[120.690671,24.25404],[120.689954,24.253834],[120.689743,24.253591],[120.689372,24.251238],[120.689814,24.25071],[120.691334,24.250254],[120.692054,24.249107],[120.69285,24.248407],[120.692419,24.247512],[120.690895,24.24649],[120.690065,24.246139],[120.689424,24.246578],[120.688639,24.246569],[120.687924,24.246001]]]},"properties":{"code":"66000160008","name":"岸裡里","countyCode":"66000","countyName":"臺中市","townCode":"66000160","townName":"神岡區","level":"village","unassigned":false,"note":"","label":[120.6957394106421,24.24843782858934],"bounds":[120.687924,24.24351,120.700145,24.258401],"focusBounds":[120.687924,24.24351,120.700145,24.258401],"color":"#df9f6a"}},{"type":"Feature","id":"66000160009","geometry":{"type":"Polygon","coordinates":[[[120.69661,24.254203],[120.696548,24.253132],[120.696141,24.251994],[120.697411,24.250843],[120.698798,24.250286],[120.700145,24.250421],[120.701033,24.250939],[120.701303,24.25131],[120.701507,24.252156],[120.701924,24.252472],[120.702229,24.253011],[120.702825,24.253513],[120.703069,24.253543],[120.703479,24.254304],[120.704111,24.254743],[120.704059,24.254935],[120.703782,24.254826],[120.703407,24.254958],[120.700812,24.256218],[120.699202,24.256246],[120.698389,24.258007],[120.697691,24.258587],[120.696932,24.256796],[120.696961,24.25606],[120.69661,24.254203]]]},"properties":{"code":"66000160009","name":"大社里","countyCode":"66000","countyName":"臺中市","townCode":"66000160","townName":"神岡區","level":"village","unassigned":false,"note":"","label":[120.69938504740945,24.253655748752625],"bounds":[120.696141,24.250286,120.704111,24.258587],"focusBounds":[120.696141,24.250286,120.704111,24.258587],"color":"#c38cb8"}},{"type":"Feature","id":"66000160010","geometry":{"type":"Polygon","coordinates":[[[120.704059,24.254935],[120.704794,24.255996],[120.705693,24.256225],[120.706969,24.25617],[120.708793,24.25567],[120.711958,24.255874],[120.712777,24.256089],[120.713971,24.256727],[120.713806,24.257277],[120.713955,24.257912],[120.713562,24.2583],[120.713238,24.259229],[120.712252,24.259219],[120.711937,24.2596],[120.711514,24.260867],[120.711363,24.262539],[120.710822,24.263555],[120.710862,24.264144],[120.710086,24.264969],[120.710095,24.265323],[120.708237,24.266105],[120.707721,24.266856],[120.707553,24.267404],[120.707784,24.267733],[120.708097,24.269467],[120.707975,24.270184],[120.709483,24.270813],[120.709321,24.272082],[120.709553,24.272754],[120.710201,24.27343],[120.711661,24.274323],[120.712119,24.274387],[120.712608,24.273971],[120.712618,24.274713],[120.712452,24.274893],[120.712441,24.277314],[120.712562,24.277449],[120.712706,24.283641],[120.709368,24.284099],[120.708176,24.284305],[120.701984,24.28451],[120.703127,24.281797],[120.703424,24.279733],[120.702579,24.278142],[120.70198,24.276448],[120.701473,24.275618],[120.700496,24.274441],[120.698822,24.273247],[120.698783,24.272599],[120.699036,24.272137],[120.699179,24.270543],[120.69945,24.27028],[120.699536,24.269706],[120.700294,24.269282],[120.700448,24.268293],[120.699698,24.265174],[120.69968,24.26436],[120.698906,24.263295],[120.698967,24.262814],[120.698527,24.261259],[120.69841,24.259715],[120.698179,24.259058],[120.697691,24.258587],[120.698389,24.258007],[120.699202,24.256246],[120.700812,24.256218],[120.703407,24.254958],[120.703782,24.254826],[120.704059,24.254935]]]},"properties":{"code":"66000160010","name":"豐洲里","countyCode":"66000","countyName":"臺中市","townCode":"66000160","townName":"神岡區","level":"village","unassigned":false,"note":"","label":[120.7040063988224,24.271539454570078],"bounds":[120.697691,24.254826,120.713971,24.28451],"focusBounds":[120.697691,24.254826,120.713971,24.28451],"color":"#58b99d"}},{"type":"Feature","id":"66000160011","geometry":{"type":"Polygon","coordinates":[[[120.69204,24.284608],[120.691788,24.279203],[120.691417,24.276348],[120.691524,24.274891],[120.692463,24.274546],[120.692535,24.274208],[120.690608,24.267674],[120.690024,24.264698],[120.690207,24.263751],[120.689182,24.262355],[120.688594,24.262407],[120.688404,24.262013],[120.68881,24.260654],[120.688542,24.258702],[120.689604,24.258401],[120.690456,24.258227],[120.692048,24.257179],[120.692904,24.257031],[120.693475,24.256737],[120.694545,24.255649],[120.69593,24.254925],[120.69661,24.254203],[120.696961,24.25606],[120.696932,24.256796],[120.697691,24.258587],[120.698179,24.259058],[120.69841,24.259715],[120.698527,24.261259],[120.698967,24.262814],[120.698906,24.263295],[120.69968,24.26436],[120.699698,24.265174],[120.700448,24.268293],[120.700294,24.269282],[120.699536,24.269706],[120.69945,24.27028],[120.699179,24.270543],[120.699036,24.272137],[120.698783,24.272599],[120.698822,24.273247],[120.700496,24.274441],[120.701473,24.275618],[120.70198,24.276448],[120.702579,24.278142],[120.703424,24.279733],[120.703127,24.281797],[120.701984,24.28451],[120.69204,24.284608]]]},"properties":{"code":"66000160011","name":"神洲里","countyCode":"66000","countyName":"臺中市","townCode":"66000160","townName":"神岡區","level":"village","unassigned":false,"note":"","label":[120.69522858372997,24.266862145375658],"bounds":[120.688404,24.254203,120.703424,24.284608],"focusBounds":[120.688404,24.254203,120.703424,24.284608],"color":"#efb44f"}},{"type":"Feature","id":"66000160012","geometry":{"type":"Polygon","coordinates":[[[120.69204,24.284608],[120.685066,24.284833],[120.683145,24.284694],[120.672327,24.287901],[120.670603,24.286442],[120.669746,24.285282],[120.669253,24.279463],[120.669526,24.274686],[120.67001,24.273887],[120.674106,24.270428],[120.677007,24.267054],[120.679605,24.265053],[120.680246,24.264063],[120.682061,24.262466],[120.683626,24.261848],[120.686133,24.259715],[120.687386,24.258966],[120.688542,24.258702],[120.68881,24.260654],[120.688404,24.262013],[120.688594,24.262407],[120.689182,24.262355],[120.690207,24.263751],[120.690024,24.264698],[120.690608,24.267674],[120.692535,24.274208],[120.692463,24.274546],[120.691524,24.274891],[120.691417,24.276348],[120.691788,24.279203],[120.69204,24.284608]]]},"properties":{"code":"66000160012","name":"溪洲里","countyCode":"66000","countyName":"臺中市","townCode":"66000160","townName":"神岡區","level":"village","unassigned":false,"note":"","label":[120.68169054137788,24.275289344674725],"bounds":[120.669253,24.258702,120.692535,24.287901],"focusBounds":[120.669253,24.258702,120.692535,24.287901],"color":"#68bec9"}},{"type":"Feature","id":"66000160013","geometry":{"type":"Polygon","coordinates":[[[120.666126,24.289711],[120.665048,24.288058],[120.662997,24.283182],[120.662818,24.282055],[120.663238,24.2805],[120.66199,24.278359],[120.662386,24.277915],[120.66272,24.277122],[120.661876,24.277227],[120.662509,24.275794],[120.664122,24.273988],[120.664154,24.273743],[120.66211,24.273172],[120.661817,24.273343],[120.660413,24.273221],[120.659969,24.272014],[120.656384,24.267066],[120.654715,24.266031],[120.653574,24.264599],[120.652445,24.264493],[120.648488,24.259659],[120.647485,24.258339],[120.649198,24.258217],[120.649296,24.258031],[120.65076,24.257416],[120.651475,24.256897],[120.652071,24.256027],[120.653055,24.255442],[120.654219,24.257268],[120.653981,24.258325],[120.654108,24.259434],[120.654612,24.261929],[120.654968,24.262503],[120.655495,24.262765],[120.657793,24.262927],[120.66262,24.26528],[120.662631,24.264416],[120.66305,24.264573],[120.663193,24.264793],[120.663795,24.264795],[120.665029,24.265308],[120.665623,24.266531],[120.666256,24.267139],[120.66686,24.268705],[120.667217,24.269108],[120.667788,24.269404],[120.668278,24.270047],[120.669971,24.269407],[120.672735,24.26931],[120.674471,24.268108],[120.675229,24.26713],[120.676052,24.266415],[120.677007,24.267054],[120.674106,24.270428],[120.67001,24.273887],[120.669526,24.274686],[120.669253,24.279463],[120.669746,24.285282],[120.670603,24.286442],[120.672327,24.287901],[120.666126,24.289711]]]},"properties":{"code":"66000160013","name":"圳前里","countyCode":"66000","countyName":"臺中市","townCode":"66000160","townName":"神岡區","level":"village","unassigned":false,"note":"","label":[120.66341017455696,24.269835533251644],"bounds":[120.647485,24.255442,120.677007,24.289711],"focusBounds":[120.647485,24.255442,120.677007,24.289711],"color":"#dd8590"}},{"type":"Feature","id":"66000160014","geometry":{"type":"Polygon","coordinates":[[[120.646204,24.299293],[120.643303,24.298483],[120.642832,24.298274],[120.642128,24.297639],[120.641076,24.295932],[120.641049,24.295424],[120.640042,24.293593],[120.638946,24.290899],[120.637851,24.288975],[120.637118,24.28784],[120.6373,24.287417],[120.636571,24.286515],[120.637175,24.285673],[120.636189,24.284368],[120.639452,24.280952],[120.638273,24.278983],[120.644522,24.277595],[120.646955,24.276683],[120.649865,24.275128],[120.652123,24.274326],[120.652756,24.274346],[120.653172,24.275548],[120.654716,24.275057],[120.659069,24.274328],[120.659151,24.276177],[120.659306,24.276818],[120.659637,24.277275],[120.660842,24.277358],[120.661876,24.277227],[120.66272,24.277122],[120.662386,24.277915],[120.66199,24.278359],[120.663238,24.2805],[120.662818,24.282055],[120.662997,24.283182],[120.665048,24.288058],[120.666126,24.289711],[120.662278,24.290864],[120.658152,24.291784],[120.651458,24.295559],[120.64948,24.296855],[120.647165,24.298273],[120.646349,24.299138],[120.646204,24.299293]]]},"properties":{"code":"66000160014","name":"新庄里","countyCode":"66000","countyName":"臺中市","townCode":"66000160","townName":"神岡區","level":"village","unassigned":false,"note":"","label":[120.65039795469212,24.2855961459602],"bounds":[120.636189,24.274326,120.666126,24.299293],"focusBounds":[120.636189,24.274326,120.666126,24.299293],"color":"#a49ad4"}},{"type":"Feature","id":"66000160015","geometry":{"type":"Polygon","coordinates":[[[120.646955,24.276683],[120.646064,24.275207],[120.644285,24.273],[120.644122,24.27235],[120.643056,24.271434],[120.642758,24.270615],[120.641583,24.265963],[120.642194,24.265486],[120.642118,24.265235],[120.641707,24.26487],[120.641738,24.264618],[120.643755,24.263421],[120.647423,24.260814],[120.648249,24.260075],[120.648488,24.259659],[120.652445,24.264493],[120.653574,24.264599],[120.654715,24.266031],[120.656384,24.267066],[120.659969,24.272014],[120.660413,24.273221],[120.661817,24.273343],[120.66211,24.273172],[120.664154,24.273743],[120.664122,24.273988],[120.662509,24.275794],[120.661876,24.277227],[120.660842,24.277358],[120.659637,24.277275],[120.659306,24.276818],[120.659151,24.276177],[120.659069,24.274328],[120.654716,24.275057],[120.653172,24.275548],[120.652756,24.274346],[120.652123,24.274326],[120.649865,24.275128],[120.646955,24.276683]]]},"properties":{"code":"66000160015","name":"圳堵里","countyCode":"66000","countyName":"臺中市","townCode":"66000160","townName":"神岡區","level":"village","unassigned":false,"note":"","label":[120.65007792376312,24.269352879058115],"bounds":[120.641583,24.259659,120.664154,24.277358],"focusBounds":[120.641583,24.259659,120.664154,24.277358],"color":"#68bec9"}},{"type":"Feature","id":"66000160016","geometry":{"type":"Polygon","coordinates":[[[120.648488,24.259659],[120.648249,24.260075],[120.647423,24.260814],[120.643755,24.263421],[120.641738,24.264618],[120.641707,24.26487],[120.642118,24.265235],[120.642194,24.265486],[120.641583,24.265963],[120.641281,24.265007],[120.640589,24.263832],[120.63985,24.263276],[120.6383,24.262579],[120.635815,24.262198],[120.63249,24.262289],[120.63072,24.261923],[120.630602,24.26177],[120.630751,24.261558],[120.633162,24.259266],[120.635189,24.259129],[120.635567,24.258769],[120.636372,24.257305],[120.637064,24.255572],[120.637973,24.252061],[120.639605,24.250391],[120.640549,24.249688],[120.641277,24.248568],[120.641977,24.248303],[120.639951,24.245864],[120.639228,24.244305],[120.640573,24.24403],[120.641899,24.243493],[120.644061,24.243155],[120.645638,24.244216],[120.64579,24.245067],[120.646465,24.245398],[120.647345,24.246419],[120.647656,24.246608],[120.648083,24.246362],[120.647982,24.246713],[120.648161,24.246898],[120.651022,24.248937],[120.651932,24.250254],[120.652769,24.251056],[120.652851,24.252092],[120.653077,24.252737],[120.653938,24.253769],[120.655788,24.255101],[120.655611,24.255452],[120.654303,24.254999],[120.653055,24.255442],[120.652071,24.256027],[120.651475,24.256897],[120.65076,24.257416],[120.649296,24.258031],[120.649198,24.258217],[120.647485,24.258339],[120.648488,24.259659]]]},"properties":{"code":"66000160016","name":"山皮里","countyCode":"66000","countyName":"臺中市","townCode":"66000160","townName":"神岡區","level":"village","unassigned":false,"note":"","label":[120.6434702669139,24.254563606464313],"bounds":[120.630602,24.243155,120.655788,24.265963],"focusBounds":[120.630602,24.243155,120.655788,24.265963],"color":"#a8bf62"}}]}
