{"type":"FeatureCollection","features":[{"type":"Feature","id":"67000370005","geometry":{"type":"Polygon","coordinates":[[[120.207006,22.998025],[120.204895,22.99839],[120.201249,22.999664],[120.200267,22.998017],[120.199623,22.996188],[120.20176,22.995424],[120.202457,22.996912],[120.204073,22.99632],[120.203033,22.993367],[120.204106,22.993092],[120.20507,22.992616],[120.212184,22.997096],[120.212282,22.997473],[120.211687,22.997638],[120.210935,22.997296],[120.207006,22.998025]]]},"properties":{"code":"67000370005","name":"赤嵌里","countyCode":"67000","countyName":"臺南市","townCode":"67000370","townName":"中西區","level":"village","unassigned":false,"note":"","label":[120.2062524421866,22.99604559672757],"bounds":[120.199623,22.992616,120.212282,22.999664],"focusBounds":[120.199623,22.992616,120.212282,22.999664],"color":"#df9f6a"}},{"type":"Feature","id":"67000370007","geometry":{"type":"Polygon","coordinates":[[[120.207656,22.989038],[120.204607,22.989041],[120.203699,22.981398],[120.205499,22.981365],[120.205506,22.98262],[120.208465,22.982567],[120.208939,22.984709],[120.210093,22.984035],[120.210543,22.984463],[120.211208,22.98469],[120.211213,22.984798],[120.207656,22.989038]]]},"properties":{"code":"67000370007","name":"郡王里","countyCode":"67000","countyName":"臺南市","townCode":"67000370","townName":"中西區","level":"village","unassigned":false,"note":"","label":[120.20666622149312,22.985604240889067],"bounds":[120.203699,22.981365,120.211213,22.989041],"focusBounds":[120.203699,22.981365,120.211213,22.989041],"color":"#c38cb8"}},{"type":"Feature","id":"67000370009","geometry":{"type":"Polygon","coordinates":[[[120.211208,22.98469],[120.210543,22.984463],[120.210093,22.984035],[120.208939,22.984709],[120.208465,22.982567],[120.205506,22.98262],[120.205499,22.981365],[120.209758,22.981247],[120.21201,22.981255],[120.211217,22.982877],[120.211208,22.98469]]]},"properties":{"code":"67000370009","name":"法華里","countyCode":"67000","countyName":"臺南市","townCode":"67000370","townName":"中西區","level":"village","unassigned":false,"note":"","label":[120.20988417361418,22.982702036842284],"bounds":[120.205499,22.981247,120.21201,22.984709],"focusBounds":[120.205499,22.981247,120.21201,22.984709],"color":"#98b69b"}},{"type":"Feature","id":"67000370011","geometry":{"type":"Polygon","coordinates":[[[120.211463,22.9894],[120.211045,22.989207],[120.208818,22.990776],[120.207656,22.989038],[120.211213,22.984798],[120.211418,22.988214],[120.211485,22.98852],[120.211815,22.988835],[120.211786,22.989106],[120.211463,22.9894]]]},"properties":{"code":"67000370011","name":"開山里","countyCode":"67000","countyName":"臺南市","townCode":"67000370","townName":"中西區","level":"village","unassigned":false,"note":"","label":[120.21005561236215,22.988230089563366],"bounds":[120.207656,22.984798,120.211815,22.990776],"focusBounds":[120.207656,22.984798,120.211815,22.990776],"color":"#58b99d"}},{"type":"Feature","id":"67000370016","geometry":{"type":"Polygon","coordinates":[[[120.20507,22.992616],[120.204106,22.993092],[120.203033,22.993367],[120.202257,22.989601],[120.204607,22.989041],[120.207656,22.989038],[120.208818,22.990776],[120.208276,22.991273],[120.207663,22.992153],[120.20507,22.992616]]]},"properties":{"code":"67000370016","name":"永華里","countyCode":"67000","countyName":"臺南市","townCode":"67000370","townName":"中西區","level":"village","unassigned":false,"note":"","label":[120.20529252189988,22.99080811896699],"bounds":[120.202257,22.989038,120.208818,22.993367],"focusBounds":[120.202257,22.989038,120.208818,22.993367],"color":"#efb44f"}},{"type":"Feature","id":"67000370022","geometry":{"type":"Polygon","coordinates":[[[120.19778,22.998216],[120.192014,23.000271],[120.19185,23.000135],[120.189968,22.998577],[120.189292,22.997487],[120.190124,22.997346],[120.196603,22.995359],[120.19778,22.998216]]]},"properties":{"code":"67000370022","name":"藥王里","countyCode":"67000","countyName":"臺南市","townCode":"67000370","townName":"中西區","level":"village","unassigned":false,"note":"","label":[120.19377182532745,22.99793589419836],"bounds":[120.189292,22.995359,120.19778,23.000271],"focusBounds":[120.189292,22.995359,120.19778,23.000271],"color":"#a49ad4"}},{"type":"Feature","id":"67000370025","geometry":{"type":"Polygon","coordinates":[[[120.193502,23.005205],[120.192322,23.005327],[120.189911,23.006632],[120.187863,23.007499],[120.18627,23.006862],[120.186996,23.002979],[120.186951,23.000413],[120.187966,23.000353],[120.18799,23.000762],[120.188691,23.001675],[120.190392,23.002648],[120.191178,23.002947],[120.193502,23.005205]]]},"properties":{"code":"67000370025","name":"光賢里","countyCode":"67000","countyName":"臺南市","townCode":"67000370","townName":"中西區","level":"village","unassigned":false,"note":"","label":[120.1890400222641,23.00443768555676],"bounds":[120.18627,23.000353,120.193502,23.007499],"focusBounds":[120.18627,23.000353,120.193502,23.007499],"color":"#dd8590"}},{"type":"Feature","id":"67000370031","geometry":{"type":"Polygon","coordinates":[[[120.191681,22.994433],[120.191978,22.995894],[120.186498,22.997371],[120.186313,22.995006],[120.186841,22.993065],[120.187045,22.990847],[120.186936,22.989079],[120.186554,22.98631],[120.186597,22.986337],[120.188024,22.987248],[120.189455,22.988659],[120.189265,22.988694],[120.190494,22.989999],[120.191011,22.991393],[120.191681,22.994433]]]},"properties":{"code":"67000370031","name":"大涼里","countyCode":"67000","countyName":"臺南市","townCode":"67000370","townName":"中西區","level":"village","unassigned":false,"note":"","label":[120.18906609005441,22.99280105524835],"bounds":[120.186313,22.98631,120.191978,22.997371],"focusBounds":[120.186313,22.98631,120.191978,22.997371],"color":"#a8bf62"}},{"type":"Feature","id":"67000370033","geometry":{"type":"Polygon","coordinates":[[[120.186951,23.000413],[120.186996,23.002979],[120.18627,23.006862],[120.182772,23.005309],[120.180056,23.005439],[120.17994,23.003938],[120.180128,22.999105],[120.184749,22.999149],[120.186747,22.998923],[120.186951,23.000413]]]},"properties":{"code":"67000370033","name":"西湖里","countyCode":"67000","countyName":"臺南市","townCode":"67000370","townName":"中西區","level":"village","unassigned":false,"note":"","label":[120.18356404881926,23.00239909608422],"bounds":[120.17994,22.998923,120.186996,23.006862],"focusBounds":[120.17994,22.998923,120.186996,23.006862],"color":"#a8bf62"}},{"type":"Feature","id":"67000370034","geometry":{"type":"Polygon","coordinates":[[[120.173947,23.006197],[120.173176,23.007539],[120.167463,23.005078],[120.166355,23.004757],[120.163233,23.00474],[120.16167,23.0057],[120.159459,23.005652],[120.162931,23.003509],[120.164375,23.003173],[120.165238,23.00266],[120.16705,23.001931],[120.16775,23.001826],[120.168813,23.001425],[120.174886,22.999312],[120.180128,22.999105],[120.17994,23.003938],[120.180056,23.005439],[120.175785,23.005794],[120.174124,23.006056],[120.173947,23.006197]]]},"properties":{"code":"67000370034","name":"西賢里","countyCode":"67000","countyName":"臺南市","townCode":"67000370","townName":"中西區","level":"village","unassigned":false,"note":"","label":[120.17207027968644,23.00367729614736],"bounds":[120.159459,22.999105,120.180128,23.007539],"focusBounds":[120.159459,22.999105,120.180128,23.007539],"color":"#68bec9"}},{"type":"Feature","id":"67000370039","geometry":{"type":"Polygon","coordinates":[[[120.211755,22.994504],[120.212184,22.997096],[120.20507,22.992616],[120.207663,22.992153],[120.208276,22.991273],[120.208818,22.990776],[120.211045,22.989207],[120.211463,22.9894],[120.211569,22.991568],[120.211755,22.994504]]]},"properties":{"code":"67000370039","name":"城隍里","countyCode":"67000","countyName":"臺南市","townCode":"67000370","townName":"中西區","level":"village","unassigned":false,"note":"","label":[120.20962095195922,22.993008054555954],"bounds":[120.20507,22.989207,120.212184,22.997096],"focusBounds":[120.20507,22.989207,120.212184,22.997096],"color":"#c38cb8"}},{"type":"Feature","id":"67000370040","geometry":{"type":"Polygon","coordinates":[[[120.203033,22.993367],[120.204073,22.99632],[120.202457,22.996912],[120.20176,22.995424],[120.199623,22.996188],[120.199206,22.994517],[120.198636,22.992811],[120.197807,22.990565],[120.19818,22.990379],[120.200355,22.99],[120.202257,22.989601],[120.203033,22.993367]]]},"properties":{"code":"67000370040","name":"南美里","countyCode":"67000","countyName":"臺南市","townCode":"67000370","townName":"中西區","level":"village","unassigned":false,"note":"","label":[120.20093943593943,22.993082166042342],"bounds":[120.197807,22.989601,120.204073,22.996912],"focusBounds":[120.197807,22.989601,120.204073,22.996912],"color":"#c38cb8"}},{"type":"Feature","id":"67000370041","geometry":{"type":"Polygon","coordinates":[[[120.202257,22.989601],[120.200355,22.99],[120.200156,22.986343],[120.200138,22.981444],[120.200942,22.981432],[120.203696,22.981398],[120.203699,22.981398],[120.204607,22.989041],[120.202257,22.989601]]]},"properties":{"code":"67000370041","name":"南門里","countyCode":"67000","countyName":"臺南市","townCode":"67000370","townName":"中西區","level":"village","unassigned":false,"note":"","label":[120.20217854521827,22.985606738211146],"bounds":[120.200138,22.981398,120.204607,22.99],"focusBounds":[120.200138,22.981398,120.204607,22.99],"color":"#98b69b"}},{"type":"Feature","id":"67000370042","geometry":{"type":"Polygon","coordinates":[[[120.200355,22.99],[120.19818,22.990379],[120.197807,22.990565],[120.197682,22.990196],[120.197501,22.98924],[120.197545,22.987468],[120.197626,22.982693],[120.19766,22.981487],[120.200138,22.981444],[120.200156,22.986343],[120.200355,22.99]]]},"properties":{"code":"67000370042","name":"小西門里","countyCode":"67000","countyName":"臺南市","townCode":"67000370","townName":"中西區","level":"village","unassigned":false,"note":"","label":[120.19885971000215,22.98592038924297],"bounds":[120.197501,22.981444,120.200355,22.990565],"focusBounds":[120.197501,22.981444,120.200355,22.990565],"color":"#58b99d"}},{"type":"Feature","id":"67000370043","geometry":{"type":"Polygon","coordinates":[[[120.201249,22.999664],[120.198748,23.000552],[120.19778,22.998216],[120.196603,22.995359],[120.199206,22.994517],[120.199623,22.996188],[120.200267,22.998017],[120.201249,22.999664]]]},"properties":{"code":"67000370043","name":"五條港里","countyCode":"67000","countyName":"臺南市","townCode":"67000370","townName":"中西區","level":"village","unassigned":false,"note":"","label":[120.19882114248912,22.997583537062518],"bounds":[120.196603,22.994517,120.201249,23.000552],"focusBounds":[120.196603,22.994517,120.201249,23.000552],"color":"#efb44f"}},{"type":"Feature","id":"67000370044","geometry":{"type":"Polygon","coordinates":[[[120.195047,23.002124],[120.193752,23.00347],[120.192874,23.003151],[120.190478,23.001562],[120.19185,23.000135],[120.192014,23.000271],[120.19778,22.998216],[120.198748,23.000552],[120.195548,23.001662],[120.195047,23.002124]]]},"properties":{"code":"67000370044","name":"兌悅里","countyCode":"67000","countyName":"臺南市","townCode":"67000370","townName":"中西區","level":"village","unassigned":false,"note":"","label":[120.19405391642272,23.001162211891025],"bounds":[120.190478,22.998216,120.198748,23.00347],"focusBounds":[120.190478,22.998216,120.198748,23.00347],"color":"#78a7e3"}},{"type":"Feature","id":"67000370045","geometry":{"type":"Polygon","coordinates":[[[120.189292,22.997487],[120.186555,22.997909],[120.186498,22.997371],[120.191978,22.995894],[120.191681,22.994433],[120.194259,22.993885],[120.194236,22.993699],[120.194669,22.993576],[120.198636,22.992811],[120.199206,22.994517],[120.196603,22.995359],[120.190124,22.997346],[120.189292,22.997487]]]},"properties":{"code":"67000370045","name":"淺草里","countyCode":"67000","countyName":"臺南市","townCode":"67000370","townName":"中西區","level":"village","unassigned":false,"note":"","label":[120.19388970798467,22.995077220254004],"bounds":[120.186498,22.992811,120.199206,22.997909],"focusBounds":[120.186498,22.992811,120.199206,22.997909],"color":"#dd8590"}},{"type":"Feature","id":"67000370046","geometry":{"type":"Polygon","coordinates":[[[120.198636,22.992811],[120.194669,22.993576],[120.194236,22.993699],[120.194259,22.993885],[120.191681,22.994433],[120.191011,22.991393],[120.196994,22.990191],[120.197682,22.990196],[120.197807,22.990565],[120.198636,22.992811]]]},"properties":{"code":"67000370046","name":"府前里","countyCode":"67000","countyName":"臺南市","townCode":"67000370","townName":"中西區","level":"village","unassigned":false,"note":"","label":[120.19467261902128,22.992116308851237],"bounds":[120.191011,22.990191,120.198636,22.994433],"focusBounds":[120.191011,22.990191,120.198636,22.994433],"color":"#a49ad4"}},{"type":"Feature","id":"67000370047","geometry":{"type":"Polygon","coordinates":[[[120.197682,22.990196],[120.196994,22.990191],[120.191011,22.991393],[120.190494,22.989999],[120.189265,22.988694],[120.189455,22.988659],[120.192032,22.988168],[120.194339,22.987676],[120.195781,22.987526],[120.197545,22.987468],[120.197501,22.98924],[120.197682,22.990196]]]},"properties":{"code":"67000370047","name":"南廠里","countyCode":"67000","countyName":"臺南市","townCode":"67000370","townName":"中西區","level":"village","unassigned":false,"note":"","label":[120.19384594516563,22.989302153391947],"bounds":[120.189265,22.987468,120.197682,22.991393],"focusBounds":[120.189265,22.987468,120.197682,22.991393],"color":"#df9f6a"}},{"type":"Feature","id":"67000370048","geometry":{"type":"Polygon","coordinates":[[[120.193548,23.005203],[120.193502,23.005205],[120.191178,23.002947],[120.190392,23.002648],[120.188691,23.001675],[120.18799,23.000762],[120.187966,23.000353],[120.186951,23.000413],[120.186747,22.998923],[120.186555,22.997909],[120.189292,22.997487],[120.189968,22.998577],[120.19185,23.000135],[120.190478,23.001562],[120.192874,23.003151],[120.193752,23.00347],[120.193548,23.005203]]]},"properties":{"code":"67000370048","name":"西和里","countyCode":"67000","countyName":"臺南市","townCode":"67000370","townName":"中西區","level":"village","unassigned":false,"note":"","label":[120.1894847203489,23.000290174472863],"bounds":[120.186555,22.997487,120.193752,23.005205],"focusBounds":[120.186555,22.997487,120.193752,23.005205],"color":"#68bec9"}}]}
