{"type":"FeatureCollection","features":[{"type":"Feature","id":"67000190001","geometry":{"type":"Polygon","coordinates":[[[120.295102,23.140438],[120.293986,23.141368],[120.29356,23.141915],[120.292778,23.142261],[120.292451,23.142131],[120.29175,23.141464],[120.290585,23.141531],[120.289668,23.14043],[120.289531,23.139899],[120.289706,23.138439],[120.28986,23.138454],[120.289848,23.138269],[120.289706,23.13835],[120.289704,23.136746],[120.290139,23.135387],[120.290131,23.13447],[120.291017,23.134317],[120.290923,23.13389],[120.290399,23.13398],[120.29049,23.133802],[120.290062,23.133453],[120.290241,23.133172],[120.289948,23.133198],[120.289748,23.132479],[120.289423,23.132515],[120.28939,23.131791],[120.290459,23.131687],[120.290793,23.130645],[120.291566,23.130918],[120.291724,23.13073],[120.292245,23.130923],[120.292289,23.130807],[120.293744,23.131067],[120.293741,23.131397],[120.293928,23.131386],[120.293865,23.132144],[120.293449,23.136734],[120.295102,23.140438]]]},"properties":{"code":"67000190001","name":"東關里","countyCode":"67000","countyName":"臺南市","townCode":"67000190","townName":"善化區","level":"village","unassigned":false,"note":"","label":[120.29164395543775,23.13745360941128],"bounds":[120.28939,23.130645,120.295102,23.142261],"focusBounds":[120.28939,23.130645,120.295102,23.142261],"color":"#98b69b"}},{"type":"Feature","id":"67000190002","geometry":{"type":"Polygon","coordinates":[[[120.306223,23.130603],[120.305409,23.130802],[120.304667,23.130734],[120.296976,23.129564],[120.296539,23.132096],[120.293865,23.132144],[120.293928,23.131386],[120.294006,23.12913],[120.29413,23.129177],[120.294563,23.126852],[120.294714,23.12687],[120.296084,23.121485],[120.29635,23.121198],[120.296717,23.118727],[120.298734,23.111869],[120.302854,23.112189],[120.304151,23.119313],[120.306223,23.130603]]]},"properties":{"code":"67000190002","name":"坐駕里","countyCode":"67000","countyName":"臺南市","townCode":"67000190","townName":"善化區","level":"village","unassigned":false,"note":"","label":[120.30030307076876,23.1235021620559],"bounds":[120.293865,23.111869,120.306223,23.132144],"focusBounds":[120.293865,23.111869,120.306223,23.132144],"color":"#78a7e3"}},{"type":"Feature","id":"67000190003","geometry":{"type":"Polygon","coordinates":[[[120.314797,23.149054],[120.311825,23.150422],[120.303977,23.146761],[120.30358,23.14753],[120.303498,23.147247],[120.302634,23.146844],[120.300904,23.146363],[120.300653,23.146532],[120.299483,23.145988],[120.29845,23.147843],[120.295102,23.140438],[120.293449,23.136734],[120.293865,23.132144],[120.296539,23.132096],[120.296976,23.129564],[120.304667,23.130734],[120.305409,23.130802],[120.306223,23.130603],[120.309373,23.12976],[120.309233,23.130707],[120.309286,23.132216],[120.31208,23.13145],[120.313089,23.134699],[120.313991,23.138058],[120.313281,23.138399],[120.312039,23.138592],[120.309081,23.138105],[120.314797,23.149054]]]},"properties":{"code":"67000190003","name":"光文里","countyCode":"67000","countyName":"臺南市","townCode":"67000190","townName":"善化區","level":"village","unassigned":false,"note":"","label":[120.30213371150357,23.139136592406267],"bounds":[120.293449,23.129564,120.314797,23.150422],"focusBounds":[120.293449,23.129564,120.314797,23.150422],"color":"#58b99d"}},{"type":"Feature","id":"67000190004","geometry":{"type":"Polygon","coordinates":[[[120.293928,23.131386],[120.293741,23.131397],[120.293744,23.131067],[120.292289,23.130807],[120.292245,23.130923],[120.291724,23.13073],[120.291566,23.130918],[120.290793,23.130645],[120.290459,23.131687],[120.28939,23.131791],[120.289369,23.131314],[120.289345,23.13078],[120.289009,23.130607],[120.288898,23.130086],[120.289072,23.129946],[120.289051,23.129582],[120.288776,23.129056],[120.288592,23.128996],[120.288813,23.128438],[120.288622,23.128377],[120.288898,23.127206],[120.288871,23.125499],[120.287421,23.112059],[120.287698,23.110824],[120.288138,23.111026],[120.288725,23.109567],[120.28907,23.108213],[120.28959,23.107352],[120.291861,23.108342],[120.2936,23.110035],[120.294601,23.109276],[120.295548,23.109361],[120.295951,23.106634],[120.296173,23.106659],[120.296529,23.106228],[120.297479,23.106669],[120.298485,23.105629],[120.300285,23.106817],[120.302017,23.10756],[120.302854,23.112189],[120.298734,23.111869],[120.296717,23.118727],[120.29635,23.121198],[120.296084,23.121485],[120.294714,23.12687],[120.294563,23.126852],[120.29413,23.129177],[120.294006,23.12913],[120.293928,23.131386]]]},"properties":{"code":"67000190004","name":"文昌里","countyCode":"67000","countyName":"臺南市","townCode":"67000190","townName":"善化區","level":"village","unassigned":false,"note":"","label":[120.29263336313836,23.115467645252895],"bounds":[120.287421,23.105629,120.302854,23.131791],"focusBounds":[120.287421,23.105629,120.302854,23.131791],"color":"#efb44f"}},{"type":"Feature","id":"67000190005","geometry":{"type":"Polygon","coordinates":[[[120.289369,23.131314],[120.288739,23.131398],[120.288679,23.131263],[120.288121,23.131244],[120.288233,23.131894],[120.286253,23.131494],[120.285247,23.131588],[120.28518,23.131126],[120.284937,23.131089],[120.284855,23.132025],[120.284743,23.13199],[120.276079,23.125107],[120.274346,23.124358],[120.272567,23.124519],[120.272644,23.12493],[120.270862,23.12482],[120.27026,23.124654],[120.269956,23.124308],[120.269793,23.123642],[120.269179,23.122652],[120.269129,23.121669],[120.268395,23.119751],[120.26834,23.118607],[120.267571,23.117485],[120.267277,23.116525],[120.266735,23.116212],[120.265791,23.116315],[120.265392,23.11608],[120.265052,23.115197],[120.264898,23.11411],[120.264493,23.113193],[120.263569,23.112796],[120.263162,23.111703],[120.262219,23.11092],[120.261868,23.110284],[120.261352,23.109767],[120.260097,23.108853],[120.259439,23.108561],[120.257333,23.108189],[120.255815,23.107961],[120.255873,23.106604],[120.256454,23.106293],[120.256348,23.105648],[120.256635,23.105148],[120.257599,23.105378],[120.258177,23.105928],[120.258713,23.106071],[120.259479,23.105668],[120.259997,23.105621],[120.260319,23.105344],[120.260821,23.105485],[120.261819,23.105124],[120.263044,23.105728],[120.2636,23.106246],[120.264048,23.106419],[120.264511,23.10685],[120.264681,23.106837],[120.265041,23.107253],[120.267113,23.107962],[120.268239,23.108551],[120.267474,23.106248],[120.267767,23.10628],[120.269164,23.107098],[120.269754,23.107203],[120.26985,23.10631],[120.270516,23.105693],[120.270358,23.105199],[120.270483,23.104882],[120.270979,23.105187],[120.27147,23.105783],[120.271654,23.107733],[120.272083,23.108655],[120.272929,23.109036],[120.273155,23.108956],[120.273618,23.109964],[120.274407,23.110481],[120.275038,23.111134],[120.275995,23.110594],[120.277811,23.111414],[120.278257,23.111055],[120.279093,23.110761],[120.279481,23.109967],[120.281788,23.109904],[120.280995,23.107701],[120.281187,23.106116],[120.282051,23.106608],[120.282773,23.106747],[120.283494,23.107145],[120.284198,23.107861],[120.285304,23.108362],[120.286152,23.109142],[120.286845,23.109442],[120.286573,23.110141],[120.287698,23.110824],[120.287421,23.112059],[120.288871,23.125499],[120.288898,23.127206],[120.288622,23.128377],[120.288813,23.128438],[120.288592,23.128996],[120.288776,23.129056],[120.289051,23.129582],[120.289072,23.129946],[120.288898,23.130086],[120.289009,23.130607],[120.289345,23.13078],[120.289369,23.131314]]]},"properties":{"code":"67000190005","name":"南關里","countyCode":"67000","countyName":"臺南市","townCode":"67000190","townName":"善化區","level":"village","unassigned":false,"note":"","label":[120.27982983562154,23.118259415433535],"bounds":[120.255815,23.104882,120.289369,23.132025],"focusBounds":[120.255815,23.104882,120.289369,23.132025],"color":"#dd8590"}},{"type":"Feature","id":"67000190008","geometry":{"type":"Polygon","coordinates":[[[120.277311,23.138559],[120.274801,23.138703],[120.273718,23.131547],[120.286934,23.133422],[120.28859,23.133812],[120.289238,23.134611],[120.289247,23.135192],[120.289652,23.135187],[120.290139,23.135387],[120.289704,23.136746],[120.289706,23.13835],[120.288365,23.138518],[120.278462,23.13856],[120.277311,23.138559]]]},"properties":{"code":"67000190008","name":"文正里","countyCode":"67000","countyName":"臺南市","townCode":"67000190","townName":"善化區","level":"village","unassigned":false,"note":"","label":[120.28139215550357,23.135591435594066],"bounds":[120.273718,23.131547,120.290139,23.138703],"focusBounds":[120.273718,23.131547,120.290139,23.138703],"color":"#dd8590"}},{"type":"Feature","id":"67000190009","geometry":{"type":"Polygon","coordinates":[[[120.27711,23.149324],[120.274911,23.151389],[120.274749,23.151472],[120.274646,23.15132],[120.273993,23.151546],[120.272362,23.153053],[120.272214,23.154268],[120.271912,23.154999],[120.270603,23.15705],[120.270395,23.158124],[120.264159,23.157943],[120.263512,23.155669],[120.263569,23.154177],[120.262403,23.154008],[120.260553,23.153621],[120.260687,23.151201],[120.26191,23.151272],[120.26197,23.150744],[120.263846,23.150021],[120.266194,23.149783],[120.267525,23.149259],[120.268486,23.147839],[120.268518,23.147221],[120.267985,23.146878],[120.269626,23.145528],[120.269739,23.145598],[120.269989,23.145367],[120.27015,23.145445],[120.271272,23.143974],[120.272002,23.140598],[120.275101,23.141213],[120.277311,23.138559],[120.278462,23.13856],[120.275516,23.14207],[120.276759,23.148738],[120.27711,23.149324]]]},"properties":{"code":"67000190009","name":"胡家里","countyCode":"67000","countyName":"臺南市","townCode":"67000190","townName":"善化區","level":"village","unassigned":false,"note":"","label":[120.26839890838662,23.15301700726227],"bounds":[120.260553,23.138559,120.278462,23.158124],"focusBounds":[120.260553,23.138559,120.278462,23.158124],"color":"#a49ad4"}},{"type":"Feature","id":"67000190010","geometry":{"type":"Polygon","coordinates":[[[120.277311,23.138559],[120.275101,23.141213],[120.272002,23.140598],[120.271272,23.143974],[120.27015,23.145445],[120.269989,23.145367],[120.269739,23.145598],[120.269626,23.145528],[120.267985,23.146878],[120.268518,23.147221],[120.268486,23.147839],[120.267525,23.149259],[120.266194,23.149783],[120.263846,23.150021],[120.26197,23.150744],[120.26191,23.151272],[120.260687,23.151201],[120.260872,23.148866],[120.261459,23.14562],[120.261199,23.144807],[120.262845,23.141944],[120.261091,23.139513],[120.260113,23.138148],[120.259434,23.137507],[120.256578,23.135787],[120.254896,23.135039],[120.255174,23.132451],[120.256064,23.132666],[120.255931,23.131202],[120.259455,23.13166],[120.259652,23.130648],[120.259872,23.130702],[120.260545,23.13141],[120.261044,23.130015],[120.262122,23.130134],[120.26224,23.129304],[120.262862,23.129304],[120.262992,23.127986],[120.261828,23.127831],[120.261654,23.12812],[120.262858,23.124525],[120.264162,23.124844],[120.264358,23.125356],[120.264663,23.125398],[120.266112,23.121395],[120.269179,23.122652],[120.269793,23.123642],[120.269956,23.124308],[120.27026,23.124654],[120.270862,23.12482],[120.272644,23.12493],[120.273718,23.131547],[120.274801,23.138703],[120.277311,23.138559]]]},"properties":{"code":"67000190010","name":"胡厝里","countyCode":"67000","countyName":"臺南市","townCode":"67000190","townName":"善化區","level":"village","unassigned":false,"note":"","label":[120.26715753040281,23.135613605227398],"bounds":[120.254896,23.121395,120.277311,23.151272],"focusBounds":[120.254896,23.121395,120.277311,23.151272],"color":"#a8bf62"}},{"type":"Feature","id":"67000190011","geometry":{"type":"Polygon","coordinates":[[[120.288365,23.138518],[120.28832,23.139744],[120.286107,23.143265],[120.283305,23.150787],[120.282081,23.150026],[120.279984,23.151978],[120.27711,23.149324],[120.276759,23.148738],[120.275516,23.14207],[120.278462,23.13856],[120.288365,23.138518]]]},"properties":{"code":"67000190011","name":"什乃里","countyCode":"67000","countyName":"臺南市","townCode":"67000190","townName":"善化區","level":"village","unassigned":false,"note":"","label":[120.28076627237218,23.143798712374164],"bounds":[120.275516,23.138518,120.288365,23.151978],"focusBounds":[120.275516,23.138518,120.288365,23.151978],"color":"#68bec9"}},{"type":"Feature","id":"67000190012","geometry":{"type":"Polygon","coordinates":[[[120.290585,23.141531],[120.289519,23.142165],[120.288999,23.142908],[120.289037,23.145154],[120.288897,23.145479],[120.289065,23.147143],[120.289536,23.14845],[120.290286,23.149476],[120.29079,23.151691],[120.291341,23.152251],[120.291564,23.152835],[120.291752,23.152987],[120.29262,23.153072],[120.293132,23.153772],[120.294349,23.15457],[120.292189,23.156142],[120.291404,23.156965],[120.2877,23.157786],[120.286557,23.157293],[120.284444,23.156945],[120.281782,23.157194],[120.267891,23.166113],[120.265324,23.167949],[120.265114,23.167186],[120.265003,23.165119],[120.264111,23.163001],[120.263563,23.160773],[120.264236,23.158793],[120.264159,23.157943],[120.270395,23.158124],[120.270603,23.15705],[120.271912,23.154999],[120.272214,23.154268],[120.272362,23.153053],[120.273993,23.151546],[120.274646,23.15132],[120.274749,23.151472],[120.274911,23.151389],[120.27711,23.149324],[120.279984,23.151978],[120.282081,23.150026],[120.283305,23.150787],[120.286107,23.143265],[120.28832,23.139744],[120.288365,23.138518],[120.289706,23.13835],[120.289848,23.138269],[120.28986,23.138454],[120.289706,23.138439],[120.289531,23.139899],[120.289668,23.14043],[120.290585,23.141531]]]},"properties":{"code":"67000190012","name":"溪美里","countyCode":"67000","countyName":"臺南市","townCode":"67000190","townName":"善化區","level":"village","unassigned":false,"note":"","label":[120.27647964868798,23.155257449613508],"bounds":[120.263563,23.138269,120.294349,23.167949],"focusBounds":[120.263563,23.138269,120.294349,23.167949],"color":"#df9f6a"}},{"type":"Feature","id":"67000190013","geometry":{"type":"Polygon","coordinates":[[[120.300073,23.152572],[120.298614,23.151857],[120.298653,23.152909],[120.298022,23.154943],[120.298963,23.155491],[120.300053,23.155877],[120.300134,23.156223],[120.297713,23.164721],[120.294709,23.171308],[120.2947,23.173033],[120.295005,23.176412],[120.294811,23.176402],[120.289843,23.176078],[120.279737,23.174713],[120.278575,23.174252],[120.276841,23.173986],[120.274514,23.173289],[120.272662,23.172488],[120.269876,23.17113],[120.270105,23.173736],[120.269791,23.173139],[120.26873,23.172003],[120.267606,23.171548],[120.266713,23.170638],[120.265324,23.167949],[120.267891,23.166113],[120.281782,23.157194],[120.284444,23.156945],[120.286557,23.157293],[120.2877,23.157786],[120.291404,23.156965],[120.292189,23.156142],[120.294349,23.15457],[120.293132,23.153772],[120.29262,23.153072],[120.291752,23.152987],[120.291564,23.152835],[120.291341,23.152251],[120.29079,23.151691],[120.290286,23.149476],[120.289536,23.14845],[120.289065,23.147143],[120.288897,23.145479],[120.289037,23.145154],[120.288999,23.142908],[120.289519,23.142165],[120.290585,23.141531],[120.29175,23.141464],[120.292451,23.142131],[120.292778,23.142261],[120.29356,23.141915],[120.293986,23.141368],[120.295102,23.140438],[120.29845,23.147843],[120.300182,23.151677],[120.300073,23.152572]]]},"properties":{"code":"67000190013","name":"六分里","countyCode":"67000","countyName":"臺南市","townCode":"67000190","townName":"善化區","level":"village","unassigned":false,"note":"","label":[120.28470725123945,23.166186123107373],"bounds":[120.265324,23.140438,120.300182,23.176412],"focusBounds":[120.265324,23.140438,120.300182,23.176412],"color":"#c38cb8"}},{"type":"Feature","id":"67000190014","geometry":{"type":"Polygon","coordinates":[[[120.308563,23.172956],[120.308315,23.173465],[120.307888,23.173712],[120.307125,23.174611],[120.306335,23.175052],[120.299115,23.176363],[120.295005,23.176412],[120.2947,23.173033],[120.294709,23.171308],[120.297713,23.164721],[120.300134,23.156223],[120.300053,23.155877],[120.298963,23.155491],[120.298022,23.154943],[120.298653,23.152909],[120.298614,23.151857],[120.300073,23.152572],[120.306034,23.155603],[120.311034,23.155914],[120.310697,23.159493],[120.310465,23.159626],[120.309366,23.159379],[120.307846,23.162025],[120.306901,23.165768],[120.306956,23.166331],[120.307443,23.167378],[120.30769,23.17003],[120.308563,23.172956]]]},"properties":{"code":"67000190014","name":"六德里","countyCode":"67000","countyName":"臺南市","townCode":"67000190","townName":"善化區","level":"village","unassigned":false,"note":"","label":[120.30178804210786,23.16979426402532],"bounds":[120.2947,23.151857,120.311034,23.176412],"focusBounds":[120.2947,23.151857,120.311034,23.176412],"color":"#58b99d"}},{"type":"Feature","id":"67000190015","geometry":{"type":"Polygon","coordinates":[[[120.311825,23.150422],[120.311464,23.150998],[120.311034,23.155914],[120.306034,23.155603],[120.300073,23.152572],[120.300182,23.151677],[120.29845,23.147843],[120.299483,23.145988],[120.300653,23.146532],[120.300904,23.146363],[120.302634,23.146844],[120.303498,23.147247],[120.30358,23.14753],[120.303977,23.146761],[120.311825,23.150422]]]},"properties":{"code":"67000190015","name":"田寮里","countyCode":"67000","countyName":"臺南市","townCode":"67000190","townName":"善化區","level":"village","unassigned":false,"note":"","label":[120.30526784521507,23.15128850930948],"bounds":[120.29845,23.145988,120.311825,23.155914],"focusBounds":[120.29845,23.145988,120.311825,23.155914],"color":"#efb44f"}},{"type":"Feature","id":"67000190018","geometry":{"type":"Polygon","coordinates":[[[120.326904,23.144935],[120.3241,23.148388],[120.315243,23.148895],[120.314797,23.149054],[120.309081,23.138105],[120.312039,23.138592],[120.313281,23.138399],[120.313991,23.138058],[120.313089,23.134699],[120.32066,23.132051],[120.321027,23.133015],[120.320344,23.133519],[120.320185,23.135336],[120.321268,23.135417],[120.321228,23.137553],[120.321188,23.137783],[120.321795,23.137897],[120.321708,23.138508],[120.323314,23.138842],[120.324578,23.141771],[120.32458,23.142468],[120.324215,23.143575],[120.325379,23.143536],[120.326904,23.144935]]]},"properties":{"code":"67000190018","name":"牛庄里","countyCode":"67000","countyName":"臺南市","townCode":"67000190","townName":"善化區","level":"village","unassigned":false,"note":"","label":[120.31797306662388,23.1428901662868],"bounds":[120.309081,23.132051,120.326904,23.149054],"focusBounds":[120.309081,23.132051,120.326904,23.149054],"color":"#efb44f"}},{"type":"Feature","id":"67000190019","geometry":{"type":"Polygon","coordinates":[[[120.34587,23.151002],[120.343827,23.15286],[120.342187,23.153878],[120.339782,23.154997],[120.338301,23.156133],[120.336062,23.152726],[120.333924,23.150494],[120.327326,23.144416],[120.326904,23.144935],[120.325379,23.143536],[120.324215,23.143575],[120.32458,23.142468],[120.324578,23.141771],[120.323314,23.138842],[120.321708,23.138508],[120.321795,23.137897],[120.321188,23.137783],[120.321228,23.137553],[120.323281,23.137153],[120.325685,23.137156],[120.325867,23.137835],[120.327991,23.137619],[120.32802,23.137027],[120.329645,23.13701],[120.329691,23.138271],[120.339646,23.137947],[120.342936,23.140261],[120.344564,23.142115],[120.346275,23.149045],[120.346213,23.150563],[120.34587,23.151002]]]},"properties":{"code":"67000190019","name":"嘉北里","countyCode":"67000","countyName":"臺南市","townCode":"67000190","townName":"善化區","level":"village","unassigned":false,"note":"","label":[120.33723157192975,23.144555147005086],"bounds":[120.321188,23.13701,120.346275,23.156133],"focusBounds":[120.321188,23.13701,120.346275,23.156133],"color":"#78a7e3"}},{"type":"Feature","id":"67000190020","geometry":{"type":"Polygon","coordinates":[[[120.339646,23.137947],[120.329691,23.138271],[120.329645,23.13701],[120.32802,23.137027],[120.327991,23.137619],[120.325867,23.137835],[120.325685,23.137156],[120.323281,23.137153],[120.321228,23.137553],[120.321268,23.135417],[120.320185,23.135336],[120.320344,23.133519],[120.321027,23.133015],[120.32066,23.132051],[120.322189,23.13152],[120.323007,23.131485],[120.322972,23.130389],[120.325265,23.126266],[120.324966,23.120491],[120.325258,23.117027],[120.324759,23.111352],[120.325114,23.107797],[120.325202,23.107572],[120.325016,23.106405],[120.325189,23.106274],[120.329574,23.106131],[120.329746,23.106369],[120.330164,23.106383],[120.330335,23.106647],[120.332877,23.10656],[120.332381,23.107853],[120.332478,23.110029],[120.332352,23.111422],[120.332087,23.112169],[120.332818,23.113739],[120.332282,23.11503],[120.332288,23.116109],[120.331566,23.117135],[120.331122,23.118533],[120.331438,23.121182],[120.332087,23.122274],[120.33254,23.122702],[120.332997,23.124173],[120.333209,23.125648],[120.333534,23.126437],[120.334158,23.127161],[120.334582,23.12821],[120.334882,23.129541],[120.334801,23.130433],[120.334913,23.130875],[120.3362,23.133393],[120.336059,23.134219],[120.336175,23.134681],[120.33736,23.136225],[120.338532,23.136741],[120.339308,23.137653],[120.339646,23.137947]]]},"properties":{"code":"67000190020","name":"嘉南里","countyCode":"67000","countyName":"臺南市","townCode":"67000190","townName":"善化區","level":"village","unassigned":false,"note":"","label":[120.3290743087479,23.131311738752267],"bounds":[120.320185,23.106131,120.339646,23.138271],"focusBounds":[120.320185,23.106131,120.339646,23.138271],"color":"#dd8590"}},{"type":"Feature","id":"67000190021","geometry":{"type":"Polygon","coordinates":[[[120.32066,23.132051],[120.313089,23.134699],[120.31208,23.13145],[120.309286,23.132216],[120.309233,23.130707],[120.309373,23.12976],[120.306223,23.130603],[120.304151,23.119313],[120.311052,23.119102],[120.310845,23.110411],[120.312166,23.11004],[120.313558,23.109953],[120.314648,23.109204],[120.316475,23.108961],[120.319091,23.108218],[120.319516,23.107978],[120.319738,23.107537],[120.320319,23.107465],[120.320849,23.107159],[120.320996,23.107183],[120.321419,23.107993],[120.322226,23.107433],[120.323128,23.107234],[120.323867,23.107255],[120.324546,23.107709],[120.324973,23.10781],[120.325114,23.107797],[120.324759,23.111352],[120.325258,23.117027],[120.324966,23.120491],[120.325265,23.126266],[120.322972,23.130389],[120.323007,23.131485],[120.322189,23.13152],[120.32066,23.132051]]]},"properties":{"code":"67000190021","name":"小新里","countyCode":"67000","countyName":"臺南市","townCode":"67000190","townName":"善化區","level":"village","unassigned":false,"note":"","label":[120.31715775172458,23.124037651143457],"bounds":[120.304151,23.107159,120.325265,23.134699],"focusBounds":[120.304151,23.107159,120.325265,23.134699],"color":"#a49ad4"}},{"type":"Feature","id":"67000190022","geometry":{"type":"Polygon","coordinates":[[[120.28939,23.131791],[120.289423,23.132515],[120.289748,23.132479],[120.289948,23.133198],[120.290241,23.133172],[120.290062,23.133453],[120.29049,23.133802],[120.290399,23.13398],[120.290923,23.13389],[120.291017,23.134317],[120.290131,23.13447],[120.290139,23.135387],[120.289652,23.135187],[120.289247,23.135192],[120.289238,23.134611],[120.28859,23.133812],[120.286934,23.133422],[120.273718,23.131547],[120.272644,23.12493],[120.272567,23.124519],[120.274346,23.124358],[120.276079,23.125107],[120.284743,23.13199],[120.284855,23.132025],[120.284937,23.131089],[120.28518,23.131126],[120.285247,23.131588],[120.286253,23.131494],[120.288233,23.131894],[120.288121,23.131244],[120.288679,23.131263],[120.288739,23.131398],[120.289369,23.131314],[120.28939,23.131791]]]},"properties":{"code":"67000190022","name":"頂街里","countyCode":"67000","countyName":"臺南市","townCode":"67000190","townName":"善化區","level":"village","unassigned":false,"note":"","label":[120.27646819191939,23.129094603062292],"bounds":[120.272567,23.124358,120.291017,23.135387],"focusBounds":[120.272567,23.124358,120.291017,23.135387],"color":"#68bec9"}},{"type":"Feature","id":"67000190023","geometry":{"type":"Polygon","coordinates":[[[120.308779,23.172553],[120.308563,23.172956],[120.30769,23.17003],[120.307443,23.167378],[120.306956,23.166331],[120.306901,23.165768],[120.307846,23.162025],[120.309366,23.159379],[120.310465,23.159626],[120.310697,23.159493],[120.311034,23.155914],[120.311464,23.150998],[120.311825,23.150422],[120.314797,23.149054],[120.315243,23.148895],[120.3241,23.148388],[120.326904,23.144935],[120.327326,23.144416],[120.333924,23.150494],[120.336062,23.152726],[120.338301,23.156133],[120.33592,23.157351],[120.3331,23.15914],[120.33169,23.159477],[120.331278,23.159699],[120.32966,23.161282],[120.320196,23.168523],[120.308779,23.172553]]]},"properties":{"code":"67000190023","name":"昌隆里","countyCode":"67000","countyName":"臺南市","townCode":"67000190","townName":"善化區","level":"village","unassigned":false,"note":"","label":[120.31969558756668,23.157956541076835],"bounds":[120.306901,23.144416,120.338301,23.172956],"focusBounds":[120.306901,23.144416,120.338301,23.172956],"color":"#68bec9"}},{"type":"Feature","id":"67000190024","geometry":{"type":"Polygon","coordinates":[[[120.310845,23.110411],[120.311052,23.119102],[120.304151,23.119313],[120.302854,23.112189],[120.302017,23.10756],[120.304501,23.107876],[120.305895,23.108679],[120.306369,23.109394],[120.307196,23.10962],[120.307793,23.110056],[120.309219,23.110606],[120.30999,23.110614],[120.310845,23.110411]]]},"properties":{"code":"67000190024","name":"蓮潭里","countyCode":"67000","countyName":"臺南市","townCode":"67000190","townName":"善化區","level":"village","unassigned":false,"note":"","label":[120.3070988671006,23.113891676227855],"bounds":[120.302017,23.10756,120.311052,23.119313],"focusBounds":[120.302017,23.10756,120.311052,23.119313],"color":"#df9f6a"}}]}
