{"type":"FeatureCollection","features":[{"type":"Feature","id":"67000050001","geometry":{"type":"Polygon","coordinates":[[[120.380162,23.368645],[120.377189,23.368463],[120.372094,23.369467],[120.370716,23.36945],[120.369999,23.369149],[120.369415,23.368704],[120.36917,23.36736],[120.368978,23.367054],[120.368399,23.366806],[120.367348,23.367005],[120.366591,23.367386],[120.366137,23.367962],[120.364196,23.369254],[120.361748,23.369267],[120.357657,23.368928],[120.357222,23.369049],[120.35481,23.370565],[120.353438,23.370479],[120.351972,23.370195],[120.350508,23.369634],[120.34773,23.365671],[120.347888,23.364945],[120.34817,23.364587],[120.351419,23.361279],[120.351146,23.361048],[120.349974,23.360848],[120.354404,23.356929],[120.355846,23.356439],[120.357555,23.358098],[120.358762,23.358952],[120.374162,23.360484],[120.375296,23.361364],[120.376354,23.361787],[120.376592,23.362276],[120.378618,23.361852],[120.379202,23.362164],[120.380344,23.362479],[120.383518,23.362778],[120.380472,23.367708],[120.380162,23.368645]]]},"properties":{"code":"67000050001","name":"後壁里","countyCode":"67000","countyName":"臺南市","townCode":"67000050","townName":"後壁區","level":"village","unassigned":false,"note":"","label":[120.36235274299229,23.364286484769522],"bounds":[120.34773,23.356439,120.383518,23.370565],"focusBounds":[120.34773,23.356439,120.383518,23.370565],"color":"#df9f6a"}},{"type":"Feature","id":"67000050002","geometry":{"type":"Polygon","coordinates":[[[120.380162,23.368645],[120.379098,23.373868],[120.379372,23.37465],[120.380378,23.37552],[120.380652,23.375952],[120.380719,23.376402],[120.380552,23.377118],[120.377449,23.376409],[120.375662,23.376206],[120.374527,23.374249],[120.361157,23.374076],[120.360233,23.373423],[120.35481,23.370565],[120.357222,23.369049],[120.357657,23.368928],[120.361748,23.369267],[120.364196,23.369254],[120.366137,23.367962],[120.366591,23.367386],[120.367348,23.367005],[120.368399,23.366806],[120.368978,23.367054],[120.36917,23.36736],[120.369415,23.368704],[120.369999,23.369149],[120.370716,23.36945],[120.372094,23.369467],[120.377189,23.368463],[120.380162,23.368645]]]},"properties":{"code":"67000050002","name":"侯伯里","countyCode":"67000","countyName":"臺南市","townCode":"67000050","townName":"後壁區","level":"village","unassigned":false,"note":"","label":[120.36748944051556,23.37115678245819],"bounds":[120.35481,23.366806,120.380719,23.377118],"focusBounds":[120.35481,23.366806,120.380719,23.377118],"color":"#c38cb8"}},{"type":"Feature","id":"67000050003","geometry":{"type":"Polygon","coordinates":[[[120.383861,23.362688],[120.383518,23.362778],[120.380344,23.362479],[120.379202,23.362164],[120.378618,23.361852],[120.376592,23.362276],[120.376354,23.361787],[120.375296,23.361364],[120.374162,23.360484],[120.358762,23.358952],[120.357555,23.358098],[120.355846,23.356439],[120.354404,23.356929],[120.349974,23.360848],[120.349184,23.360835],[120.349773,23.353369],[120.351649,23.353462],[120.352467,23.353146],[120.35025,23.349586],[120.356122,23.349961],[120.355483,23.348038],[120.361013,23.348398],[120.361166,23.348107],[120.362834,23.347845],[120.363761,23.347482],[120.363876,23.3477],[120.365208,23.34759],[120.373622,23.346392],[120.375014,23.349899],[120.37593,23.350368],[120.382312,23.349245],[120.388021,23.34863],[120.388471,23.352341],[120.388388,23.353179],[120.388005,23.354067],[120.387393,23.354969],[120.386038,23.356503],[120.385717,23.356498],[120.381471,23.356404],[120.380316,23.357099],[120.380184,23.358801],[120.380347,23.358982],[120.383408,23.359927],[120.384358,23.35992],[120.384631,23.361141],[120.383861,23.362688]]]},"properties":{"code":"67000050003","name":"嘉苳里","countyCode":"67000","countyName":"臺南市","townCode":"67000050","townName":"後壁區","level":"village","unassigned":false,"note":"","label":[120.36960972638046,23.35349721358788],"bounds":[120.349184,23.346392,120.388471,23.362778],"focusBounds":[120.349184,23.346392,120.388471,23.362778],"color":"#98b69b"}},{"type":"Feature","id":"67000050004","geometry":{"type":"Polygon","coordinates":[[[120.399571,23.385307],[120.399517,23.38562],[120.400238,23.386661],[120.400218,23.388851],[120.399486,23.390085],[120.399585,23.390394],[120.399937,23.390605],[120.399986,23.390795],[120.398637,23.390617],[120.396605,23.386232],[120.397406,23.383741],[120.397207,23.383225],[120.395363,23.382916],[120.39399,23.38201],[120.390571,23.381556],[120.38835,23.381053],[120.381162,23.377291],[120.380552,23.377118],[120.380719,23.376402],[120.380652,23.375952],[120.380378,23.37552],[120.379372,23.37465],[120.379098,23.373868],[120.380162,23.368645],[120.380472,23.367708],[120.383518,23.362778],[120.383861,23.362688],[120.38543,23.362776],[120.386571,23.363751],[120.387232,23.364089],[120.388495,23.365502],[120.389444,23.365854],[120.390875,23.366081],[120.39231,23.366774],[120.394513,23.367224],[120.396954,23.367214],[120.400266,23.367952],[120.402186,23.367705],[120.402989,23.367801],[120.404035,23.368245],[120.405114,23.368244],[120.405553,23.368994],[120.406209,23.369364],[120.406781,23.371006],[120.406748,23.371616],[120.406254,23.372584],[120.406004,23.373821],[120.405105,23.376393],[120.40572,23.376791],[120.405723,23.376924],[120.404908,23.37764],[120.404759,23.378195],[120.404859,23.378915],[120.40543,23.379235],[120.405802,23.379754],[120.40581,23.380337],[120.405057,23.380911],[120.404407,23.381069],[120.403615,23.38141],[120.402791,23.381988],[120.402323,23.382071],[120.401489,23.382802],[120.400547,23.3828],[120.39994,23.383049],[120.39919,23.3838],[120.399737,23.384597],[120.399571,23.385307]]]},"properties":{"code":"67000050004","name":"土溝里","countyCode":"67000","countyName":"臺南市","townCode":"67000050","townName":"後壁區","level":"village","unassigned":false,"note":"","label":[120.39314088068002,23.374420385128033],"bounds":[120.379098,23.362688,120.406781,23.390795],"focusBounds":[120.379098,23.362688,120.406781,23.390795],"color":"#58b99d"}},{"type":"Feature","id":"67000050010","geometry":{"type":"Polygon","coordinates":[[[120.308136,23.354173],[120.307559,23.354456],[120.306902,23.354309],[120.305294,23.353575],[120.304817,23.353061],[120.304473,23.352913],[120.303492,23.353141],[120.303169,23.353908],[120.302721,23.354257],[120.301908,23.354287],[120.301716,23.354723],[120.301824,23.355737],[120.302624,23.356772],[120.302212,23.357724],[120.302484,23.358645],[120.302171,23.358827],[120.300578,23.358612],[120.29941,23.358159],[120.299367,23.357462],[120.298996,23.357134],[120.296806,23.356856],[120.296222,23.357],[120.295779,23.35739],[120.297048,23.341706],[120.296325,23.341414],[120.295989,23.34206],[120.295799,23.342155],[120.295656,23.34104],[120.295899,23.340857],[120.296406,23.341114],[120.29659,23.341063],[120.297562,23.33837],[120.299401,23.33739],[120.300173,23.336167],[120.302301,23.336057],[120.303248,23.337614],[120.303451,23.339567],[120.30378,23.339875],[120.305316,23.340664],[120.305581,23.341031],[120.30558,23.341181],[120.303864,23.342932],[120.303902,23.343185],[120.304468,23.343762],[120.30459,23.344981],[120.304983,23.345255],[120.306292,23.344814],[120.307441,23.345216],[120.30769,23.345174],[120.308922,23.344206],[120.309025,23.34392],[120.308871,23.343619],[120.307495,23.342503],[120.306545,23.34106],[120.306182,23.34016],[120.305321,23.33963],[120.305205,23.338788],[120.305922,23.337499],[120.305634,23.336416],[120.305682,23.33609],[120.305917,23.335762],[120.30646,23.335579],[120.307474,23.334444],[120.307621,23.333945],[120.307561,23.333467],[120.30811,23.333182],[120.308972,23.33301],[120.310424,23.333074],[120.311262,23.333963],[120.312421,23.333994],[120.313289,23.334474],[120.313927,23.335282],[120.31434,23.335363],[120.315196,23.337178],[120.315508,23.338559],[120.315428,23.341651],[120.31603,23.342861],[120.316007,23.343203],[120.315739,23.343684],[120.314677,23.343939],[120.313756,23.344705],[120.313042,23.344883],[120.31242,23.344861],[120.312219,23.345351],[120.312448,23.345818],[120.312351,23.346034],[120.309384,23.348571],[120.308468,23.350061],[120.308752,23.350378],[120.30895,23.351089],[120.309398,23.351326],[120.309559,23.351697],[120.310198,23.351863],[120.310325,23.352616],[120.309981,23.352788],[120.309749,23.352641],[120.309719,23.352283],[120.309544,23.352159],[120.308778,23.352147],[120.308524,23.352409],[120.308136,23.354173]]]},"properties":{"code":"67000050010","name":"竹新里","countyCode":"67000","countyName":"臺南市","townCode":"67000050","townName":"後壁區","level":"village","unassigned":false,"note":"","label":[120.30126586433857,23.348333846428105],"bounds":[120.295656,23.33301,120.31603,23.358827],"focusBounds":[120.295656,23.33301,120.31603,23.358827],"color":"#efb44f"}},{"type":"Feature","id":"67000050011","geometry":{"type":"Polygon","coordinates":[[[120.345718,23.342146],[120.342961,23.343799],[120.340559,23.344906],[120.327918,23.350029],[120.326567,23.34995],[120.326259,23.350075],[120.319265,23.34559],[120.316007,23.343203],[120.31603,23.342861],[120.315428,23.341651],[120.315508,23.338559],[120.315196,23.337178],[120.31434,23.335363],[120.315455,23.33539],[120.3163,23.335188],[120.31626,23.334872],[120.315853,23.334261],[120.315797,23.333572],[120.315924,23.333249],[120.315591,23.332214],[120.315701,23.33163],[120.316407,23.331252],[120.316695,23.331331],[120.316799,23.33152],[120.316555,23.332716],[120.316926,23.332907],[120.317552,23.332848],[120.318796,23.332233],[120.319522,23.3328],[120.320769,23.332887],[120.321255,23.332645],[120.321508,23.332703],[120.322054,23.332994],[120.322466,23.333754],[120.322797,23.333849],[120.323954,23.333178],[120.325123,23.33317],[120.325676,23.333031],[120.326004,23.33262],[120.325625,23.33155],[120.325657,23.33123],[120.326258,23.330594],[120.326361,23.330298],[120.325911,23.329269],[120.325998,23.328831],[120.326159,23.328698],[120.328093,23.328357],[120.328794,23.328725],[120.328883,23.329243],[120.328639,23.329743],[120.328662,23.33039],[120.329002,23.330378],[120.329196,23.330881],[120.329203,23.331821],[120.329666,23.332257],[120.330199,23.332173],[120.330937,23.331749],[120.331261,23.331717],[120.332042,23.330685],[120.332185,23.330132],[120.332055,23.329368],[120.331448,23.328739],[120.330154,23.328307],[120.329965,23.327967],[120.33477,23.327082],[120.335248,23.32784],[120.335169,23.329902],[120.337219,23.329514],[120.337829,23.330519],[120.338224,23.330756],[120.342469,23.337539],[120.345718,23.342146]]]},"properties":{"code":"67000050011","name":"新東里","countyCode":"67000","countyName":"臺南市","townCode":"67000050","townName":"後壁區","level":"village","unassigned":false,"note":"","label":[120.32915773690287,23.340154600566308],"bounds":[120.31434,23.327082,120.345718,23.350075],"focusBounds":[120.31434,23.327082,120.345718,23.350075],"color":"#78a7e3"}},{"type":"Feature","id":"67000050012","geometry":{"type":"Polygon","coordinates":[[[120.365208,23.34759],[120.363876,23.3477],[120.363761,23.347482],[120.362834,23.347845],[120.361166,23.348107],[120.361013,23.348398],[120.355483,23.348038],[120.356122,23.349961],[120.35025,23.349586],[120.345718,23.342146],[120.342469,23.337539],[120.338224,23.330756],[120.344319,23.329345],[120.35382,23.330987],[120.353779,23.331938],[120.353921,23.332312],[120.353796,23.332802],[120.354654,23.33333],[120.354398,23.33421],[120.354933,23.334361],[120.354824,23.334691],[120.355508,23.334773],[120.355392,23.335344],[120.356377,23.335722],[120.357116,23.335177],[120.357317,23.334568],[120.357681,23.335393],[120.358132,23.335682],[120.358148,23.336114],[120.359142,23.337767],[120.360438,23.339186],[120.363938,23.345108],[120.365208,23.34759]]]},"properties":{"code":"67000050012","name":"頂安里","countyCode":"67000","countyName":"臺南市","townCode":"67000050","townName":"後壁區","level":"village","unassigned":false,"note":"","label":[120.3517056037156,23.340150282227498],"bounds":[120.338224,23.329345,120.365208,23.349961],"focusBounds":[120.338224,23.329345,120.365208,23.349961],"color":"#dd8590"}},{"type":"Feature","id":"67000050013","geometry":{"type":"Polygon","coordinates":[[[120.388021,23.34863],[120.382312,23.349245],[120.37593,23.350368],[120.375014,23.349899],[120.373622,23.346392],[120.365208,23.34759],[120.363938,23.345108],[120.360438,23.339186],[120.359142,23.337767],[120.358148,23.336114],[120.358132,23.335682],[120.357681,23.335393],[120.357317,23.334568],[120.357116,23.335177],[120.356377,23.335722],[120.355392,23.335344],[120.355508,23.334773],[120.354824,23.334691],[120.354933,23.334361],[120.354398,23.33421],[120.354654,23.33333],[120.353796,23.332802],[120.353921,23.332312],[120.353779,23.331938],[120.35382,23.330987],[120.355558,23.33128],[120.356378,23.330978],[120.357351,23.331226],[120.358615,23.331073],[120.359526,23.331542],[120.361736,23.332041],[120.361732,23.332455],[120.366037,23.333674],[120.368929,23.3347],[120.369109,23.33568],[120.380157,23.339958],[120.382142,23.3412],[120.390507,23.344777],[120.387639,23.345719],[120.388021,23.34863]]]},"properties":{"code":"67000050013","name":"長安里","countyCode":"67000","countyName":"臺南市","townCode":"67000050","townName":"後壁區","level":"village","unassigned":false,"note":"","label":[120.36970894242884,23.341430662188174],"bounds":[120.353779,23.330978,120.390507,23.350368],"focusBounds":[120.353779,23.330978,120.390507,23.350368],"color":"#a49ad4"}},{"type":"Feature","id":"67000050014","geometry":{"type":"Polygon","coordinates":[[[120.390291,23.339662],[120.391427,23.340008],[120.391735,23.340338],[120.391912,23.340829],[120.392547,23.341216],[120.392724,23.3422],[120.393354,23.342362],[120.393364,23.343199],[120.393872,23.343515],[120.393995,23.344207],[120.394435,23.344533],[120.394523,23.345219],[120.394234,23.345355],[120.391301,23.34476],[120.390507,23.344777],[120.382142,23.3412],[120.380157,23.339958],[120.369109,23.33568],[120.368929,23.3347],[120.366037,23.333674],[120.361732,23.332455],[120.361736,23.332041],[120.359526,23.331542],[120.358615,23.331073],[120.357351,23.331226],[120.356378,23.330978],[120.355558,23.33128],[120.35382,23.330987],[120.344319,23.329345],[120.338224,23.330756],[120.337829,23.330519],[120.337219,23.329514],[120.337327,23.32946],[120.337031,23.328762],[120.339359,23.328425],[120.339846,23.327356],[120.339341,23.325433],[120.338163,23.324285],[120.339029,23.323746],[120.34249,23.324059],[120.351636,23.325635],[120.351715,23.325093],[120.352053,23.325073],[120.352072,23.32484],[120.351083,23.323244],[120.351947,23.321282],[120.352262,23.320947],[120.352544,23.32028],[120.353307,23.319442],[120.352703,23.317836],[120.352769,23.317311],[120.353093,23.316686],[120.353068,23.316327],[120.352758,23.315907],[120.352198,23.315627],[120.352276,23.314706],[120.352534,23.314046],[120.352898,23.314751],[120.35373,23.315366],[120.356512,23.316111],[120.357021,23.316481],[120.357698,23.317311],[120.358125,23.317375],[120.359401,23.321459],[120.358959,23.321757],[120.359438,23.32266],[120.358963,23.322888],[120.359057,23.323438],[120.35998,23.324591],[120.36128,23.325237],[120.361667,23.325228],[120.362659,23.323302],[120.363505,23.322738],[120.365358,23.322088],[120.368275,23.321322],[120.368446,23.32108],[120.368395,23.319414],[120.36854,23.318117],[120.36912,23.317085],[120.369922,23.316416],[120.371154,23.315916],[120.371921,23.315775],[120.372178,23.316382],[120.371861,23.316737],[120.371773,23.317145],[120.37204,23.319475],[120.372761,23.321123],[120.371706,23.322748],[120.371354,23.323869],[120.370903,23.324218],[120.370122,23.324361],[120.369365,23.324693],[120.369203,23.324939],[120.369359,23.325439],[120.371436,23.326533],[120.372534,23.326696],[120.374086,23.326357],[120.374776,23.326585],[120.375213,23.326572],[120.376688,23.325893],[120.377948,23.325649],[120.380365,23.325708],[120.381063,23.325535],[120.381619,23.32571],[120.383077,23.327053],[120.381237,23.328552],[120.379806,23.330073],[120.378674,23.331583],[120.378429,23.332068],[120.378351,23.332744],[120.378644,23.333855],[120.379388,23.333778],[120.380395,23.333443],[120.3832,23.332201],[120.383306,23.332031],[120.385135,23.331707],[120.384669,23.336454],[120.384828,23.337565],[120.385302,23.338533],[120.386248,23.33936],[120.387719,23.339854],[120.389941,23.340067],[120.390291,23.339662]]]},"properties":{"code":"67000050014","name":"福安里","countyCode":"67000","countyName":"臺南市","townCode":"67000050","townName":"後壁區","level":"village","unassigned":false,"note":"","label":[120.37340866080407,23.331925030823424],"bounds":[120.337031,23.314046,120.394523,23.345355],"focusBounds":[120.337031,23.314046,120.394523,23.345355],"color":"#a8bf62"}},{"type":"Feature","id":"67000050018","geometry":{"type":"Polygon","coordinates":[[[120.335945,23.388506],[120.334382,23.386576],[120.333862,23.3861],[120.333336,23.385847],[120.331834,23.385757],[120.329958,23.3854],[120.329326,23.38519],[120.328935,23.384879],[120.328687,23.386117],[120.324263,23.384376],[120.323577,23.383643],[120.32201,23.383516],[120.321694,23.383591],[120.319447,23.386037],[120.319371,23.386341],[120.319895,23.386774],[120.31959,23.387165],[120.319422,23.387343],[120.318846,23.387183],[120.317844,23.388434],[120.315275,23.38851],[120.31472,23.388383],[120.31463,23.38795],[120.312451,23.386981],[120.312434,23.386787],[120.311346,23.386136],[120.310977,23.385361],[120.311146,23.38386],[120.311178,23.383353],[120.310336,23.3831],[120.310614,23.377749],[120.311362,23.377825],[120.312084,23.378104],[120.312911,23.379155],[120.313798,23.379608],[120.314272,23.37961],[120.315097,23.379246],[120.316627,23.377849],[120.317251,23.377804],[120.31842,23.378455],[120.318719,23.378408],[120.319531,23.376676],[120.319499,23.376142],[120.323921,23.377492],[120.323577,23.3767],[120.327325,23.375288],[120.327218,23.374795],[120.327631,23.374112],[120.327323,23.373555],[120.327961,23.372871],[120.333855,23.373273],[120.334403,23.374431],[120.335451,23.374372],[120.336512,23.373717],[120.336855,23.373276],[120.336733,23.372709],[120.337313,23.372524],[120.337599,23.372094],[120.339363,23.37165],[120.341344,23.37095],[120.342082,23.371329],[120.342728,23.37194],[120.343283,23.372164],[120.342871,23.377735],[120.340464,23.378353],[120.340301,23.379204],[120.340403,23.379601],[120.34012,23.379721],[120.340114,23.380123],[120.339765,23.380997],[120.340496,23.381132],[120.340362,23.38189],[120.34129,23.383675],[120.341002,23.383938],[120.340673,23.384765],[120.340357,23.386671],[120.340165,23.386986],[120.339743,23.387161],[120.337736,23.38717],[120.337353,23.387345],[120.336355,23.388329],[120.335945,23.388506]]]},"properties":{"code":"67000050018","name":"菁寮里","countyCode":"67000","countyName":"臺南市","townCode":"67000050","townName":"後壁區","level":"village","unassigned":false,"note":"","label":[120.33112141187209,23.37935400574335],"bounds":[120.310336,23.37095,120.343283,23.38851],"focusBounds":[120.310336,23.37095,120.343283,23.38851],"color":"#68bec9"}},{"type":"Feature","id":"67000050019","geometry":{"type":"Polygon","coordinates":[[[120.327961,23.372871],[120.327323,23.373555],[120.327631,23.374112],[120.327218,23.374795],[120.327325,23.375288],[120.323577,23.3767],[120.323921,23.377492],[120.319499,23.376142],[120.319531,23.376676],[120.318719,23.378408],[120.31842,23.378455],[120.317251,23.377804],[120.316627,23.377849],[120.315097,23.379246],[120.314272,23.37961],[120.313798,23.379608],[120.312911,23.379155],[120.312084,23.378104],[120.311362,23.377825],[120.310614,23.377749],[120.310946,23.375437],[120.307964,23.374947],[120.305096,23.375512],[120.303933,23.375589],[120.303614,23.375963],[120.302861,23.375927],[120.299363,23.37534],[120.29274,23.375318],[120.292308,23.374514],[120.291327,23.373484],[120.291055,23.372818],[120.290777,23.372663],[120.290279,23.371835],[120.288028,23.369472],[120.28724,23.368837],[120.285689,23.366932],[120.284627,23.363498],[120.283803,23.362051],[120.283699,23.359736],[120.283834,23.358662],[120.284607,23.356254],[120.285574,23.355033],[120.286056,23.353961],[120.286443,23.351673],[120.28622,23.350291],[120.286874,23.350609],[120.287379,23.351282],[120.2881,23.353638],[120.287783,23.354671],[120.288297,23.355476],[120.290218,23.35648],[120.291284,23.357613],[120.291859,23.357591],[120.292866,23.356739],[120.293345,23.356722],[120.293744,23.357047],[120.29416,23.358363],[120.294376,23.358531],[120.29509,23.358278],[120.295779,23.35739],[120.296222,23.357],[120.296806,23.356856],[120.298996,23.357134],[120.299367,23.357462],[120.29941,23.358159],[120.300578,23.358612],[120.302171,23.358827],[120.302484,23.358645],[120.302212,23.357724],[120.302624,23.356772],[120.301824,23.355737],[120.301716,23.354723],[120.301908,23.354287],[120.302721,23.354257],[120.303169,23.353908],[120.303492,23.353141],[120.304473,23.352913],[120.304817,23.353061],[120.305294,23.353575],[120.306902,23.354309],[120.307559,23.354456],[120.308136,23.354173],[120.309947,23.355459],[120.311929,23.359326],[120.313452,23.363315],[120.314788,23.36292],[120.316197,23.363325],[120.317729,23.362674],[120.318788,23.36291],[120.32087,23.36288],[120.321181,23.363677],[120.322393,23.364744],[120.322493,23.365572],[120.322204,23.366123],[120.322377,23.367614],[120.322646,23.36823],[120.323554,23.368679],[120.324392,23.370327],[120.324434,23.370597],[120.3241,23.371177],[120.324129,23.371504],[120.324529,23.371755],[120.326479,23.371937],[120.327744,23.37225],[120.328017,23.372557],[120.327961,23.372871]]]},"properties":{"code":"67000050019","name":"新嘉里","countyCode":"67000","countyName":"臺南市","townCode":"67000050","townName":"後壁區","level":"village","unassigned":false,"note":"","label":[120.30241977212047,23.367267567756457],"bounds":[120.283699,23.350291,120.328017,23.37961],"focusBounds":[120.283699,23.350291,120.328017,23.37961],"color":"#df9f6a"}},{"type":"Feature","id":"67000050022","geometry":{"type":"Polygon","coordinates":[[[120.341344,23.37095],[120.339363,23.37165],[120.337599,23.372094],[120.337313,23.372524],[120.336733,23.372709],[120.336855,23.373276],[120.336512,23.373717],[120.335451,23.374372],[120.334403,23.374431],[120.333855,23.373273],[120.327961,23.372871],[120.328017,23.372557],[120.327744,23.37225],[120.326479,23.371937],[120.324529,23.371755],[120.324129,23.371504],[120.3241,23.371177],[120.324434,23.370597],[120.324392,23.370327],[120.323554,23.368679],[120.322646,23.36823],[120.322377,23.367614],[120.322204,23.366123],[120.322493,23.365572],[120.322393,23.364744],[120.321181,23.363677],[120.32087,23.36288],[120.318788,23.36291],[120.317729,23.362674],[120.316197,23.363325],[120.314788,23.36292],[120.313452,23.363315],[120.311929,23.359326],[120.309947,23.355459],[120.308136,23.354173],[120.308524,23.352409],[120.308778,23.352147],[120.309544,23.352159],[120.309719,23.352283],[120.309749,23.352641],[120.309981,23.352788],[120.310325,23.352616],[120.310198,23.351863],[120.309559,23.351697],[120.309398,23.351326],[120.30895,23.351089],[120.308752,23.350378],[120.308468,23.350061],[120.309384,23.348571],[120.312351,23.346034],[120.312448,23.345818],[120.312219,23.345351],[120.31242,23.344861],[120.313042,23.344883],[120.313756,23.344705],[120.314677,23.343939],[120.315739,23.343684],[120.316007,23.343203],[120.319265,23.34559],[120.326259,23.350075],[120.326567,23.34995],[120.327918,23.350029],[120.340559,23.344906],[120.342961,23.343799],[120.345718,23.342146],[120.35025,23.349586],[120.352467,23.353146],[120.351649,23.353462],[120.349773,23.353369],[120.349184,23.360835],[120.349974,23.360848],[120.351146,23.361048],[120.351419,23.361279],[120.34817,23.364587],[120.347888,23.364945],[120.34773,23.365671],[120.346758,23.368674],[120.345923,23.369529],[120.344681,23.370158],[120.343346,23.370079],[120.341947,23.370354],[120.341344,23.37095]]]},"properties":{"code":"67000050022","name":"長短樹里","countyCode":"67000","countyName":"臺南市","townCode":"67000050","townName":"後壁區","level":"village","unassigned":false,"note":"","label":[120.3336996352268,23.36046998449374],"bounds":[120.308136,23.342146,120.352467,23.374431],"focusBounds":[120.308136,23.342146,120.352467,23.374431],"color":"#c38cb8"}},{"type":"Feature","id":"67000050023","geometry":{"type":"Polygon","coordinates":[[[120.398637,23.390617],[120.39666,23.389747],[120.396288,23.389459],[120.396011,23.388897],[120.39582,23.388871],[120.393863,23.389915],[120.392949,23.391236],[120.392284,23.391383],[120.390305,23.391412],[120.387676,23.391092],[120.387075,23.39131],[120.385814,23.392214],[120.385427,23.393541],[120.384025,23.393756],[120.383548,23.394074],[120.383276,23.39506],[120.383462,23.395754],[120.383394,23.3964],[120.385577,23.398294],[120.386681,23.400389],[120.386979,23.40176],[120.386871,23.404762],[120.38425,23.404085],[120.382219,23.403774],[120.381041,23.403435],[120.378495,23.403355],[120.378383,23.402114],[120.377904,23.399993],[120.376789,23.397038],[120.376119,23.395471],[120.37335,23.391564],[120.372684,23.391618],[120.372397,23.388857],[120.371764,23.388428],[120.371395,23.387682],[120.368909,23.384773],[120.365116,23.379635],[120.363527,23.376378],[120.362894,23.375518],[120.361157,23.374076],[120.374527,23.374249],[120.375662,23.376206],[120.377449,23.376409],[120.380552,23.377118],[120.381162,23.377291],[120.38835,23.381053],[120.390571,23.381556],[120.39399,23.38201],[120.395363,23.382916],[120.397207,23.383225],[120.397406,23.383741],[120.396605,23.386232],[120.398637,23.390617]]]},"properties":{"code":"67000050023","name":"上茄苳里","countyCode":"67000","countyName":"臺南市","townCode":"67000050","townName":"後壁區","level":"village","unassigned":false,"note":"","label":[120.38043254722136,23.385994423928658],"bounds":[120.361157,23.374076,120.398637,23.404762],"focusBounds":[120.361157,23.374076,120.398637,23.404762],"color":"#98b69b"}},{"type":"Feature","id":"67000050024","geometry":{"type":"Polygon","coordinates":[[[120.361157,23.374076],[120.362894,23.375518],[120.363527,23.376378],[120.365116,23.379635],[120.368909,23.384773],[120.371395,23.387682],[120.371764,23.388428],[120.372397,23.388857],[120.372684,23.391618],[120.37335,23.391564],[120.376119,23.395471],[120.376789,23.397038],[120.377904,23.399993],[120.378383,23.402114],[120.378495,23.403355],[120.375397,23.403175],[120.37187,23.403251],[120.369733,23.40305],[120.36179,23.402754],[120.359621,23.402641],[120.355852,23.401728],[120.353434,23.401213],[120.349378,23.401297],[120.346329,23.40038],[120.345092,23.399744],[120.344445,23.399307],[120.344085,23.398776],[120.343101,23.398284],[120.342936,23.396694],[120.34272,23.396222],[120.339894,23.393372],[120.336972,23.389954],[120.335945,23.388506],[120.336355,23.388329],[120.337353,23.387345],[120.337736,23.38717],[120.339743,23.387161],[120.340165,23.386986],[120.340357,23.386671],[120.340673,23.384765],[120.341002,23.383938],[120.34129,23.383675],[120.340362,23.38189],[120.340496,23.381132],[120.339765,23.380997],[120.340114,23.380123],[120.34012,23.379721],[120.340403,23.379601],[120.340301,23.379204],[120.340464,23.378353],[120.342871,23.377735],[120.343283,23.372164],[120.342728,23.37194],[120.342082,23.371329],[120.341344,23.37095],[120.341947,23.370354],[120.343346,23.370079],[120.344681,23.370158],[120.345923,23.369529],[120.346758,23.368674],[120.34773,23.365671],[120.350508,23.369634],[120.351972,23.370195],[120.353438,23.370479],[120.35481,23.370565],[120.360233,23.373423],[120.361157,23.374076]]]},"properties":{"code":"67000050024","name":"菁豐里","countyCode":"67000","countyName":"臺南市","townCode":"67000050","townName":"後壁區","level":"village","unassigned":false,"note":"","label":[120.3547473932389,23.387961061467358],"bounds":[120.335945,23.365671,120.378495,23.403355],"focusBounds":[120.335945,23.365671,120.378495,23.403355],"color":"#58b99d"}}]}
