{"type":"FeatureCollection","features":[{"type":"Feature","id":"67000030001","geometry":{"type":"Polygon","coordinates":[[[120.41868,23.352638],[120.418834,23.354158],[120.418726,23.354464],[120.416209,23.351071],[120.415794,23.350773],[120.415212,23.349856],[120.41461,23.348349],[120.40887,23.340934],[120.407303,23.338439],[120.407306,23.338222],[120.408231,23.337403],[120.408965,23.337008],[120.409103,23.336618],[120.410588,23.336038],[120.41137,23.336141],[120.412181,23.337229],[120.412473,23.337876],[120.412681,23.338971],[120.414173,23.34071],[120.414387,23.341513],[120.414309,23.342007],[120.414551,23.34242],[120.415185,23.342707],[120.415542,23.342616],[120.416027,23.342177],[120.417999,23.341797],[120.419547,23.342262],[120.420411,23.342877],[120.420312,23.343374],[120.420088,23.343398],[120.419985,23.343591],[120.420093,23.34385],[120.419207,23.344975],[120.417876,23.345907],[120.4175,23.3464],[120.417143,23.347998],[120.417457,23.34839],[120.417939,23.350721],[120.41845,23.350835],[120.41868,23.352638]]]},"properties":{"code":"67000030001","name":"白河里","countyCode":"67000","countyName":"臺南市","townCode":"67000030","townName":"白河區","level":"village","unassigned":false,"note":"","label":[120.41524035554181,23.345105029519868],"bounds":[120.407303,23.336038,120.420411,23.354464],"focusBounds":[120.407303,23.336038,120.420411,23.354464],"color":"#dd8590"}},{"type":"Feature","id":"67000030002","geometry":{"type":"Polygon","coordinates":[[[120.413882,23.357974],[120.412541,23.358048],[120.412464,23.355988],[120.411756,23.356955],[120.409344,23.353705],[120.408461,23.353584],[120.40802,23.353346],[120.405572,23.351202],[120.404566,23.350093],[120.402758,23.349496],[120.402594,23.34918],[120.402795,23.348496],[120.402167,23.347249],[120.401733,23.347003],[120.40105,23.346276],[120.400549,23.346081],[120.399963,23.345373],[120.399656,23.343927],[120.39972,23.343556],[120.398872,23.342801],[120.397946,23.342267],[120.397268,23.341561],[120.396249,23.339887],[120.398068,23.339799],[120.398683,23.339502],[120.398838,23.33888],[120.398718,23.336961],[120.399465,23.335093],[120.400676,23.332971],[120.401506,23.331921],[120.401961,23.331761],[120.403671,23.332043],[120.404174,23.332368],[120.4045,23.332906],[120.404277,23.333663],[120.403543,23.334635],[120.403137,23.335466],[120.402713,23.337045],[120.402698,23.339377],[120.40297,23.340146],[120.404568,23.341626],[120.405091,23.341652],[120.405729,23.341233],[120.406236,23.340205],[120.407148,23.338944],[120.407303,23.338439],[120.40887,23.340934],[120.41461,23.348349],[120.415212,23.349856],[120.415794,23.350773],[120.416209,23.351071],[120.418726,23.354464],[120.419362,23.355298],[120.416238,23.355427],[120.415265,23.356391],[120.414645,23.356786],[120.413756,23.357817],[120.413882,23.357974]]]},"properties":{"code":"67000030002","name":"永安里","countyCode":"67000","countyName":"臺南市","townCode":"67000030","townName":"白河區","level":"village","unassigned":false,"note":"","label":[120.40705820501006,23.34631094241097],"bounds":[120.396249,23.331761,120.419362,23.358048],"focusBounds":[120.396249,23.331761,120.419362,23.358048],"color":"#a49ad4"}},{"type":"Feature","id":"67000030003","geometry":{"type":"Polygon","coordinates":[[[120.429617,23.351308],[120.428727,23.351655],[120.422411,23.352079],[120.41868,23.352638],[120.41845,23.350835],[120.417939,23.350721],[120.417457,23.34839],[120.418015,23.348625],[120.418296,23.349009],[120.418797,23.348864],[120.419477,23.3491],[120.419709,23.348952],[120.420145,23.349067],[120.422221,23.348646],[120.423291,23.348565],[120.423606,23.348739],[120.423938,23.348509],[120.424598,23.348431],[120.425805,23.349569],[120.42637,23.349827],[120.42662,23.349602],[120.427211,23.348145],[120.427833,23.347233],[120.428976,23.346682],[120.429932,23.345715],[120.431124,23.345452],[120.432266,23.345645],[120.432858,23.345892],[120.43321,23.34625],[120.433272,23.346838],[120.430826,23.348623],[120.43068,23.349465],[120.430206,23.349705],[120.429205,23.350906],[120.429617,23.351308]]]},"properties":{"code":"67000030003","name":"外角里","countyCode":"67000","countyName":"臺南市","townCode":"67000030","townName":"白河區","level":"village","unassigned":false,"note":"","label":[120.42419327358115,23.35021894728601],"bounds":[120.417457,23.345452,120.433272,23.352638],"focusBounds":[120.417457,23.345452,120.433272,23.352638],"color":"#a8bf62"}},{"type":"Feature","id":"67000030004","geometry":{"type":"Polygon","coordinates":[[[120.417344,23.362642],[120.413882,23.357974],[120.413756,23.357817],[120.414645,23.356786],[120.415265,23.356391],[120.416238,23.355427],[120.419362,23.355298],[120.418726,23.354464],[120.418834,23.354158],[120.41868,23.352638],[120.422411,23.352079],[120.428727,23.351655],[120.429617,23.351308],[120.430015,23.351534],[120.43063,23.351615],[120.431008,23.351969],[120.431831,23.352082],[120.433332,23.351879],[120.433422,23.351471],[120.433598,23.351476],[120.435163,23.352183],[120.436679,23.35322],[120.438686,23.353677],[120.439519,23.353249],[120.44,23.35338],[120.441299,23.354839],[120.441737,23.355134],[120.442088,23.355789],[120.435979,23.358678],[120.435716,23.359391],[120.435325,23.3611],[120.435378,23.361642],[120.43153,23.361456],[120.428676,23.36197],[120.426271,23.361878],[120.425385,23.361541],[120.424382,23.361462],[120.423749,23.361648],[120.421695,23.361527],[120.417344,23.362642]]]},"properties":{"code":"67000030004","name":"庄內里","countyCode":"67000","countyName":"臺南市","townCode":"67000030","townName":"白河區","level":"village","unassigned":false,"note":"","label":[120.42724268670814,23.356834971488347],"bounds":[120.413756,23.351308,120.442088,23.362642],"focusBounds":[120.413756,23.351308,120.442088,23.362642],"color":"#68bec9"}},{"type":"Feature","id":"67000030005","geometry":{"type":"Polygon","coordinates":[[[120.411756,23.356955],[120.400735,23.359758],[120.396743,23.359531],[120.391397,23.358449],[120.385717,23.356498],[120.386038,23.356503],[120.387393,23.354969],[120.388005,23.354067],[120.388388,23.353179],[120.388471,23.352341],[120.388021,23.34863],[120.387639,23.345719],[120.390507,23.344777],[120.391301,23.34476],[120.394234,23.345355],[120.394523,23.345219],[120.394435,23.344533],[120.393995,23.344207],[120.393872,23.343515],[120.393364,23.343199],[120.393354,23.342362],[120.392724,23.3422],[120.392547,23.341216],[120.391912,23.340829],[120.391735,23.340338],[120.391427,23.340008],[120.390291,23.339662],[120.390349,23.338088],[120.390024,23.335959],[120.390062,23.334641],[120.390421,23.333332],[120.391156,23.332209],[120.391515,23.332188],[120.392234,23.332532],[120.392818,23.333302],[120.393506,23.335112],[120.393885,23.336799],[120.394031,23.337886],[120.393778,23.338824],[120.393356,23.339475],[120.393478,23.339927],[120.393852,23.340237],[120.394449,23.340364],[120.395329,23.340003],[120.396249,23.339887],[120.397268,23.341561],[120.397946,23.342267],[120.398872,23.342801],[120.39972,23.343556],[120.399656,23.343927],[120.399963,23.345373],[120.400549,23.346081],[120.40105,23.346276],[120.401733,23.347003],[120.402167,23.347249],[120.402795,23.348496],[120.402594,23.34918],[120.402758,23.349496],[120.404566,23.350093],[120.405572,23.351202],[120.40802,23.353346],[120.408461,23.353584],[120.409344,23.353705],[120.411756,23.356955]]]},"properties":{"code":"67000030005","name":"秀祐里","countyCode":"67000","countyName":"臺南市","townCode":"67000030","townName":"白河區","level":"village","unassigned":false,"note":"","label":[120.39595709841187,23.352015135580956],"bounds":[120.385717,23.332188,120.411756,23.359758],"focusBounds":[120.385717,23.332188,120.411756,23.359758],"color":"#df9f6a"}},{"type":"Feature","id":"67000030006","geometry":{"type":"Polygon","coordinates":[[[120.439519,23.353249],[120.438686,23.353677],[120.436679,23.35322],[120.435163,23.352183],[120.433598,23.351476],[120.433422,23.351471],[120.433332,23.351879],[120.431831,23.352082],[120.431008,23.351969],[120.43063,23.351615],[120.430015,23.351534],[120.429617,23.351308],[120.429205,23.350906],[120.430206,23.349705],[120.43068,23.349465],[120.430826,23.348623],[120.433272,23.346838],[120.43321,23.34625],[120.432858,23.345892],[120.432266,23.345645],[120.431124,23.345452],[120.429932,23.345715],[120.428976,23.346682],[120.427833,23.347233],[120.427211,23.348145],[120.42662,23.349602],[120.42637,23.349827],[120.425805,23.349569],[120.424598,23.348431],[120.423938,23.348509],[120.423606,23.348739],[120.423291,23.348565],[120.422221,23.348646],[120.420145,23.349067],[120.419709,23.348952],[120.419477,23.3491],[120.418797,23.348864],[120.418296,23.349009],[120.418015,23.348625],[120.417457,23.34839],[120.417143,23.347998],[120.4175,23.3464],[120.417876,23.345907],[120.419207,23.344975],[120.420093,23.34385],[120.419985,23.343591],[120.420088,23.343398],[120.420312,23.343374],[120.420411,23.342877],[120.419547,23.342262],[120.417999,23.341797],[120.416027,23.342177],[120.415542,23.342616],[120.415185,23.342707],[120.414551,23.34242],[120.414309,23.342007],[120.414387,23.341513],[120.414173,23.34071],[120.412681,23.338971],[120.412473,23.337876],[120.412181,23.337229],[120.412682,23.33711],[120.413167,23.336596],[120.413743,23.336521],[120.413886,23.336223],[120.413734,23.33573],[120.413889,23.335494],[120.414825,23.335471],[120.414887,23.335227],[120.414581,23.334873],[120.414998,23.334312],[120.415647,23.334747],[120.416184,23.334882],[120.416395,23.335171],[120.417025,23.335347],[120.417882,23.335368],[120.418301,23.335565],[120.418507,23.335531],[120.418744,23.335231],[120.419138,23.335159],[120.419288,23.334954],[120.419763,23.334851],[120.419552,23.335182],[120.419594,23.335375],[120.420076,23.335864],[120.420615,23.335547],[120.420879,23.33566],[120.420975,23.335908],[120.420872,23.336277],[120.421053,23.33651],[120.421583,23.336719],[120.421685,23.33751],[120.422403,23.337691],[120.422777,23.337582],[120.42318,23.337762],[120.42382,23.337496],[120.424252,23.337565],[120.424815,23.33714],[120.425226,23.337341],[120.425863,23.337209],[120.426151,23.3374],[120.426695,23.337294],[120.426924,23.337191],[120.427092,23.336712],[120.427542,23.337033],[120.428288,23.336841],[120.429374,23.337099],[120.429786,23.336768],[120.429898,23.336396],[120.430271,23.336673],[120.43126,23.336443],[120.431789,23.33689],[120.432513,23.337087],[120.432761,23.336922],[120.433007,23.336222],[120.433543,23.336196],[120.43392,23.33601],[120.433945,23.335402],[120.434247,23.335375],[120.434492,23.3356],[120.434952,23.335465],[120.438056,23.341311],[120.438868,23.343577],[120.439169,23.343433],[120.439336,23.343767],[120.44264,23.343209],[120.443093,23.342437],[120.444707,23.34367],[120.445691,23.344206],[120.444431,23.346757],[120.444042,23.347094],[120.441777,23.34812],[120.441552,23.349273],[120.440634,23.351355],[120.439519,23.353249]]]},"properties":{"code":"67000030006","name":"河東里","countyCode":"67000","countyName":"臺南市","townCode":"67000030","townName":"白河區","level":"village","unassigned":false,"note":"","label":[120.4259352887534,23.342681009213482],"bounds":[120.412181,23.334312,120.445691,23.353677],"focusBounds":[120.412181,23.334312,120.445691,23.353677],"color":"#c38cb8"}},{"type":"Feature","id":"67000030007","geometry":{"type":"Polygon","coordinates":[[[120.459989,23.361597],[120.459665,23.362271],[120.459241,23.36252],[120.456297,23.362715],[120.455604,23.363052],[120.454962,23.36317],[120.453658,23.362962],[120.451624,23.362142],[120.451178,23.362156],[120.450757,23.362399],[120.450178,23.362341],[120.449675,23.361944],[120.449435,23.361385],[120.449553,23.360742],[120.450155,23.359497],[120.449171,23.35863],[120.447039,23.357921],[120.444694,23.357877],[120.444318,23.357644],[120.443749,23.357565],[120.442991,23.356741],[120.442381,23.356309],[120.442088,23.355789],[120.441737,23.355134],[120.441299,23.354839],[120.44,23.35338],[120.439519,23.353249],[120.440634,23.351355],[120.441552,23.349273],[120.441777,23.34812],[120.444042,23.347094],[120.444431,23.346757],[120.445691,23.344206],[120.448082,23.345273],[120.44971,23.345511],[120.452897,23.345681],[120.457801,23.345203],[120.458873,23.34474],[120.460173,23.343595],[120.461375,23.34508],[120.462463,23.345942],[120.463994,23.346611],[120.465629,23.346908],[120.467124,23.34806],[120.468088,23.349049],[120.468985,23.34952],[120.469419,23.350293],[120.469127,23.351559],[120.469332,23.352009],[120.46999,23.352257],[120.470752,23.352184],[120.471103,23.35199],[120.471214,23.351748],[120.471346,23.351808],[120.4723,23.353251],[120.472398,23.354334],[120.471701,23.356966],[120.471829,23.357248],[120.471766,23.35766],[120.468875,23.357204],[120.467701,23.357529],[120.467284,23.356938],[120.466055,23.356777],[120.465352,23.356765],[120.464407,23.356978],[120.460242,23.360033],[120.45999,23.36048],[120.459989,23.361597]]]},"properties":{"code":"67000030007","name":"虎山里","countyCode":"67000","countyName":"臺南市","townCode":"67000030","townName":"白河區","level":"village","unassigned":false,"note":"","label":[120.4552262495189,23.353348156547767],"bounds":[120.439519,23.343595,120.472398,23.36317],"focusBounds":[120.439519,23.343595,120.472398,23.36317],"color":"#98b69b"}},{"type":"Feature","id":"67000030008","geometry":{"type":"Polygon","coordinates":[[[120.460173,23.343595],[120.458873,23.34474],[120.457801,23.345203],[120.452897,23.345681],[120.44971,23.345511],[120.448082,23.345273],[120.445691,23.344206],[120.444707,23.34367],[120.443093,23.342437],[120.44264,23.343209],[120.439336,23.343767],[120.439169,23.343433],[120.438868,23.343577],[120.438056,23.341311],[120.434952,23.335465],[120.435426,23.334893],[120.43557,23.333393],[120.436331,23.332128],[120.439134,23.329974],[120.4407,23.329284],[120.444778,23.328443],[120.445588,23.328428],[120.447344,23.328736],[120.450223,23.328124],[120.452036,23.328502],[120.453272,23.328525],[120.456498,23.328055],[120.457756,23.327204],[120.459033,23.326655],[120.461659,23.326398],[120.462834,23.326129],[120.464075,23.325691],[120.464358,23.325484],[120.464528,23.325094],[120.467481,23.326224],[120.468829,23.327346],[120.469333,23.328181],[120.470189,23.329032],[120.472674,23.330793],[120.472892,23.331518],[120.472723,23.332691],[120.472099,23.333755],[120.470613,23.335461],[120.469861,23.335901],[120.469441,23.336401],[120.469072,23.337205],[120.46828,23.337878],[120.467179,23.338524],[120.465962,23.339951],[120.465115,23.340598],[120.463083,23.341449],[120.461389,23.342536],[120.460173,23.343595]]]},"properties":{"code":"67000030008","name":"大林里","countyCode":"67000","countyName":"臺南市","townCode":"67000030","townName":"白河區","level":"village","unassigned":false,"note":"","label":[120.45363361439792,23.337040543741473],"bounds":[120.434952,23.325094,120.472892,23.345681],"focusBounds":[120.434952,23.325094,120.472892,23.345681],"color":"#58b99d"}},{"type":"Feature","id":"67000030009","geometry":{"type":"Polygon","coordinates":[[[120.412181,23.337229],[120.41137,23.336141],[120.410588,23.336038],[120.409103,23.336618],[120.408965,23.337008],[120.408231,23.337403],[120.407306,23.338222],[120.406795,23.336996],[120.406766,23.336246],[120.406965,23.335649],[120.407259,23.33525],[120.40811,23.334607],[120.410175,23.334965],[120.411428,23.334838],[120.41176,23.334689],[120.412459,23.333997],[120.412736,23.332943],[120.413172,23.332349],[120.413801,23.332239],[120.415123,23.332343],[120.415564,23.329763],[120.415541,23.328518],[120.416045,23.327257],[120.416913,23.32642],[120.417823,23.325885],[120.418497,23.324973],[120.41886,23.324841],[120.419121,23.325035],[120.419725,23.325493],[120.42043,23.325514],[120.422017,23.325103],[120.422656,23.324748],[120.423125,23.324803],[120.426427,23.322182],[120.427083,23.32202],[120.428459,23.321966],[120.429976,23.320994],[120.431299,23.320623],[120.433105,23.318432],[120.433918,23.317151],[120.435105,23.316316],[120.435816,23.316059],[120.43579,23.316239],[120.436422,23.316169],[120.43723,23.31652],[120.437802,23.317008],[120.437925,23.317488],[120.438936,23.317841],[120.441491,23.317884],[120.442084,23.318186],[120.442133,23.318722],[120.441572,23.319763],[120.441562,23.320189],[120.442177,23.321108],[120.442462,23.32131],[120.442687,23.321153],[120.44291,23.321234],[120.442987,23.321708],[120.442933,23.322261],[120.442349,23.323236],[120.442306,23.324018],[120.442092,23.324466],[120.440056,23.326225],[120.436331,23.332128],[120.43557,23.333393],[120.435426,23.334893],[120.434952,23.335465],[120.434492,23.3356],[120.434247,23.335375],[120.433945,23.335402],[120.43392,23.33601],[120.433543,23.336196],[120.433007,23.336222],[120.432761,23.336922],[120.432513,23.337087],[120.431789,23.33689],[120.43126,23.336443],[120.430271,23.336673],[120.429898,23.336396],[120.429786,23.336768],[120.429374,23.337099],[120.428288,23.336841],[120.427542,23.337033],[120.427092,23.336712],[120.426924,23.337191],[120.426695,23.337294],[120.426151,23.3374],[120.425863,23.337209],[120.425226,23.337341],[120.424815,23.33714],[120.424252,23.337565],[120.42382,23.337496],[120.42318,23.337762],[120.422777,23.337582],[120.422403,23.337691],[120.421685,23.33751],[120.421583,23.336719],[120.421053,23.33651],[120.420872,23.336277],[120.420975,23.335908],[120.420879,23.33566],[120.420615,23.335547],[120.420076,23.335864],[120.419594,23.335375],[120.419552,23.335182],[120.419763,23.334851],[120.419288,23.334954],[120.419138,23.335159],[120.418744,23.335231],[120.418507,23.335531],[120.418301,23.335565],[120.417882,23.335368],[120.417025,23.335347],[120.416395,23.335171],[120.416184,23.334882],[120.415647,23.334747],[120.414998,23.334312],[120.414581,23.334873],[120.414887,23.335227],[120.414825,23.335471],[120.413889,23.335494],[120.413734,23.33573],[120.413886,23.336223],[120.413743,23.336521],[120.413167,23.336596],[120.412682,23.33711],[120.412181,23.337229]]]},"properties":{"code":"67000030009","name":"崁頭里","countyCode":"67000","countyName":"臺南市","townCode":"67000030","townName":"白河區","level":"village","unassigned":false,"note":"","label":[120.42946945025291,23.32917027720218],"bounds":[120.406766,23.316059,120.442987,23.338222],"focusBounds":[120.406766,23.316059,120.442987,23.338222],"color":"#efb44f"}},{"type":"Feature","id":"67000030010","geometry":{"type":"Polygon","coordinates":[[[120.464528,23.325094],[120.464358,23.325484],[120.464075,23.325691],[120.462834,23.326129],[120.461659,23.326398],[120.459033,23.326655],[120.457756,23.327204],[120.456498,23.328055],[120.453272,23.328525],[120.452036,23.328502],[120.450223,23.328124],[120.447344,23.328736],[120.445588,23.328428],[120.444778,23.328443],[120.4407,23.329284],[120.439134,23.329974],[120.436331,23.332128],[120.440056,23.326225],[120.442092,23.324466],[120.442306,23.324018],[120.442349,23.323236],[120.442933,23.322261],[120.442987,23.321708],[120.44291,23.321234],[120.442687,23.321153],[120.442462,23.32131],[120.442177,23.321108],[120.441562,23.320189],[120.441572,23.319763],[120.442133,23.318722],[120.442084,23.318186],[120.441491,23.317884],[120.438936,23.317841],[120.437925,23.317488],[120.437802,23.317008],[120.43723,23.31652],[120.436422,23.316169],[120.43579,23.316239],[120.435816,23.316059],[120.435901,23.315422],[120.436322,23.315321],[120.436658,23.315039],[120.436552,23.314558],[120.436817,23.314233],[120.437118,23.314437],[120.437504,23.314357],[120.437768,23.314497],[120.437931,23.314246],[120.437884,23.31396],[120.438375,23.313904],[120.438728,23.313489],[120.439103,23.313818],[120.439522,23.313573],[120.439857,23.313761],[120.439759,23.314236],[120.440118,23.314386],[120.440355,23.314199],[120.440539,23.313706],[120.440697,23.31328],[120.440486,23.313015],[120.440782,23.31287],[120.441165,23.312359],[120.440724,23.311229],[120.441098,23.309766],[120.441733,23.309157],[120.442464,23.308803],[120.443147,23.308861],[120.443329,23.30798],[120.44392,23.307524],[120.444512,23.30743],[120.44445,23.306999],[120.445385,23.306475],[120.445854,23.306516],[120.446368,23.306224],[120.447262,23.306108],[120.447701,23.305232],[120.448011,23.303976],[120.446954,23.303085],[120.446466,23.301061],[120.445783,23.300907],[120.445762,23.300633],[120.44677,23.300398],[120.446962,23.299739],[120.447385,23.299445],[120.448207,23.299189],[120.449024,23.300181],[120.450358,23.300122],[120.45005,23.29836],[120.450929,23.296897],[120.451979,23.296848],[120.452402,23.296987],[120.452657,23.298876],[120.453224,23.298983],[120.454203,23.299784],[120.454455,23.298515],[120.454525,23.29837],[120.454826,23.298319],[120.455322,23.298824],[120.456447,23.299321],[120.456613,23.29975],[120.4571,23.300153],[120.458624,23.300517],[120.459363,23.300944],[120.459853,23.30159],[120.460521,23.300624],[120.46096,23.300435],[120.462599,23.300253],[120.462816,23.300869],[120.463726,23.300731],[120.464215,23.300972],[120.464643,23.299992],[120.465163,23.300103],[120.465501,23.299807],[120.465872,23.300042],[120.466385,23.300009],[120.466937,23.298955],[120.467389,23.298668],[120.468377,23.297636],[120.469167,23.297387],[120.469708,23.297414],[120.470371,23.296876],[120.471077,23.296553],[120.472165,23.296748],[120.474375,23.298437],[120.474842,23.298449],[120.476162,23.298082],[120.47617,23.299086],[120.476454,23.300256],[120.476222,23.302569],[120.475606,23.302898],[120.47479,23.30395],[120.476308,23.30443],[120.4775,23.305199],[120.478807,23.306542],[120.481303,23.310244],[120.482504,23.310874],[120.48437,23.312675],[120.486038,23.313294],[120.487072,23.314358],[120.48757,23.315412],[120.487315,23.316714],[120.487349,23.317818],[120.486961,23.318227],[120.485608,23.31883],[120.485279,23.318881],[120.484354,23.318503],[120.483099,23.318327],[120.480898,23.318528],[120.480223,23.318456],[120.478854,23.318076],[120.477542,23.317912],[120.476286,23.31821],[120.475182,23.319324],[120.473612,23.320644],[120.471368,23.322063],[120.470145,23.323734],[120.469893,23.323875],[120.46941,23.323982],[120.46833,23.32387],[120.467651,23.324581],[120.467245,23.324794],[120.466839,23.324847],[120.465625,23.324432],[120.465238,23.324503],[120.464727,23.324652],[120.464528,23.325094]]]},"properties":{"code":"67000030010","name":"六溪里","countyCode":"67000","countyName":"臺南市","townCode":"67000030","townName":"白河區","level":"village","unassigned":false,"note":"","label":[120.46065830011173,23.31353052224542],"bounds":[120.43579,23.296553,120.48757,23.332128],"focusBounds":[120.43579,23.296553,120.48757,23.332128],"color":"#78a7e3"}},{"type":"Feature","id":"67000030011","geometry":{"type":"Polygon","coordinates":[[[120.510064,23.353699],[120.510845,23.354003],[120.511542,23.354672],[120.512361,23.355674],[120.512464,23.356299],[120.512217,23.356628],[120.512145,23.357047],[120.512169,23.358365],[120.512426,23.359831],[120.512092,23.360621],[120.511339,23.360514],[120.511182,23.360642],[120.51127,23.361474],[120.510931,23.361854],[120.511222,23.36226],[120.511102,23.362409],[120.510531,23.362379],[120.510574,23.362924],[120.510219,23.363308],[120.510674,23.363557],[120.510405,23.364081],[120.510539,23.36436],[120.509895,23.364878],[120.509549,23.364474],[120.509238,23.364656],[120.50877,23.364625],[120.508594,23.36496],[120.508045,23.365069],[120.507899,23.365443],[120.507177,23.365892],[120.507059,23.36607],[120.507319,23.366515],[120.506762,23.36703],[120.505973,23.367054],[120.505665,23.367332],[120.504927,23.367432],[120.504577,23.368271],[120.505188,23.368296],[120.505075,23.368693],[120.504626,23.368978],[120.504213,23.369044],[120.503473,23.368887],[120.503305,23.369049],[120.503442,23.369355],[120.502596,23.369536],[120.502231,23.36906],[120.502076,23.368009],[120.501644,23.367781],[120.500967,23.367811],[120.500927,23.367572],[120.500179,23.367053],[120.498489,23.367063],[120.495955,23.366687],[120.494761,23.366257],[120.493284,23.365482],[120.49223,23.365158],[120.489877,23.363398],[120.488667,23.36285],[120.48588,23.362031],[120.482664,23.359957],[120.480509,23.359103],[120.471766,23.35766],[120.471829,23.357248],[120.471701,23.356966],[120.472398,23.354334],[120.4723,23.353251],[120.471346,23.351808],[120.471214,23.351748],[120.471103,23.35199],[120.470752,23.352184],[120.46999,23.352257],[120.469332,23.352009],[120.469127,23.351559],[120.469419,23.350293],[120.468985,23.34952],[120.468088,23.349049],[120.467124,23.34806],[120.465629,23.346908],[120.463994,23.346611],[120.462463,23.345942],[120.461375,23.34508],[120.460173,23.343595],[120.461389,23.342536],[120.463083,23.341449],[120.465115,23.340598],[120.465962,23.339951],[120.467179,23.338524],[120.46828,23.337878],[120.469072,23.337205],[120.469441,23.336401],[120.469861,23.335901],[120.470613,23.335461],[120.472099,23.333755],[120.472723,23.332691],[120.472892,23.331518],[120.472674,23.330793],[120.470189,23.329032],[120.469333,23.328181],[120.468829,23.327346],[120.467481,23.326224],[120.464528,23.325094],[120.464727,23.324652],[120.465238,23.324503],[120.465625,23.324432],[120.466839,23.324847],[120.467245,23.324794],[120.467651,23.324581],[120.46833,23.32387],[120.46941,23.323982],[120.469893,23.323875],[120.470145,23.323734],[120.471368,23.322063],[120.473612,23.320644],[120.475182,23.319324],[120.47626,23.319896],[120.477463,23.320085],[120.478292,23.320564],[120.479033,23.321389],[120.481135,23.322134],[120.483123,23.323174],[120.484352,23.324077],[120.485206,23.325457],[120.486001,23.327392],[120.486969,23.329088],[120.487363,23.330862],[120.488555,23.332309],[120.490612,23.336062],[120.491516,23.338243],[120.492137,23.338917],[120.492751,23.338777],[120.492991,23.339169],[120.492916,23.339479],[120.493551,23.340106],[120.493609,23.340335],[120.492665,23.343433],[120.493004,23.343274],[120.493643,23.342381],[120.493963,23.342331],[120.494608,23.342707],[120.49548,23.342448],[120.496696,23.341414],[120.497066,23.340922],[120.497353,23.340859],[120.498095,23.341422],[120.499068,23.341433],[120.499879,23.34176],[120.500641,23.343755],[120.501008,23.34429],[120.501317,23.344222],[120.50144,23.343999],[120.501294,23.342608],[120.501383,23.342056],[120.501503,23.341888],[120.501711,23.34188],[120.502324,23.342083],[120.502324,23.343047],[120.503136,23.343363],[120.503561,23.343775],[120.503645,23.34561],[120.504769,23.346207],[120.504554,23.346315],[120.504443,23.346714],[120.504636,23.349347],[120.503783,23.349394],[120.503562,23.350288],[120.503635,23.351174],[120.504153,23.352194],[120.50411,23.353207],[120.504643,23.353894],[120.504806,23.354811],[120.505695,23.355391],[120.50616,23.355297],[120.506529,23.35465],[120.507505,23.353907],[120.508034,23.352757],[120.508871,23.353006],[120.510064,23.353699]]]},"properties":{"code":"67000030011","name":"仙草里","countyCode":"67000","countyName":"臺南市","townCode":"67000030","townName":"白河區","level":"village","unassigned":false,"note":"","label":[120.48142751105938,23.345630863881517],"bounds":[120.460173,23.319324,120.512464,23.369536],"focusBounds":[120.460173,23.319324,120.512464,23.369536],"color":"#dd8590"}},{"type":"Feature","id":"67000030012","geometry":{"type":"Polygon","coordinates":[[[120.533723,23.336471],[120.532816,23.336378],[120.531534,23.336817],[120.531262,23.337029],[120.53112,23.33751],[120.530294,23.338062],[120.52877,23.338256],[120.527591,23.338589],[120.527292,23.338864],[120.527198,23.339244],[120.526931,23.339385],[120.525853,23.339198],[120.525255,23.338765],[120.525032,23.338231],[120.524745,23.338202],[120.524457,23.338412],[120.523834,23.339419],[120.523805,23.340043],[120.523398,23.340237],[120.523112,23.340678],[120.521755,23.340387],[120.521417,23.340461],[120.521153,23.340725],[120.520826,23.341865],[120.52068,23.341947],[120.519773,23.341778],[120.519344,23.341947],[120.51842,23.342012],[120.517781,23.342624],[120.517259,23.34252],[120.516713,23.342675],[120.515584,23.343739],[120.515084,23.343333],[120.514776,23.343286],[120.514257,23.343861],[120.513386,23.343732],[120.511998,23.344132],[120.51143,23.344005],[120.510429,23.344091],[120.509611,23.343369],[120.508346,23.343009],[120.507709,23.343041],[120.507437,23.343517],[120.506608,23.344195],[120.50591,23.344238],[120.505091,23.344815],[120.505109,23.345006],[120.505674,23.34547],[120.505413,23.34585],[120.504769,23.346207],[120.503645,23.34561],[120.503561,23.343775],[120.503136,23.343363],[120.502324,23.343047],[120.502324,23.342083],[120.501711,23.34188],[120.501503,23.341888],[120.501383,23.342056],[120.501294,23.342608],[120.50144,23.343999],[120.501317,23.344222],[120.501008,23.34429],[120.500641,23.343755],[120.499879,23.34176],[120.499068,23.341433],[120.498095,23.341422],[120.497353,23.340859],[120.497066,23.340922],[120.496696,23.341414],[120.49548,23.342448],[120.494608,23.342707],[120.493963,23.342331],[120.493643,23.342381],[120.493004,23.343274],[120.492665,23.343433],[120.493609,23.340335],[120.493551,23.340106],[120.492916,23.339479],[120.492991,23.339169],[120.492751,23.338777],[120.492137,23.338917],[120.491516,23.338243],[120.490612,23.336062],[120.488555,23.332309],[120.487363,23.330862],[120.486969,23.329088],[120.486001,23.327392],[120.485206,23.325457],[120.484352,23.324077],[120.483123,23.323174],[120.481135,23.322134],[120.479033,23.321389],[120.478292,23.320564],[120.477463,23.320085],[120.47626,23.319896],[120.475182,23.319324],[120.476286,23.31821],[120.477542,23.317912],[120.478854,23.318076],[120.480223,23.318456],[120.480898,23.318528],[120.483099,23.318327],[120.484354,23.318503],[120.485279,23.318881],[120.485608,23.31883],[120.486961,23.318227],[120.487349,23.317818],[120.487315,23.316714],[120.48757,23.315412],[120.487072,23.314358],[120.486038,23.313294],[120.48437,23.312675],[120.482504,23.310874],[120.481303,23.310244],[120.478807,23.306542],[120.4775,23.305199],[120.476308,23.30443],[120.47479,23.30395],[120.475606,23.302898],[120.476222,23.302569],[120.476454,23.300256],[120.47617,23.299086],[120.476162,23.298082],[120.477158,23.298102],[120.477642,23.297974],[120.478569,23.297369],[120.4788,23.297029],[120.47877,23.296604],[120.479176,23.295731],[120.479817,23.295571],[120.480383,23.29512],[120.481093,23.294873],[120.481202,23.294185],[120.48094,23.29369],[120.481106,23.293506],[120.481853,23.293384],[120.484476,23.293941],[120.485955,23.293584],[120.487086,23.294456],[120.487219,23.295496],[120.487649,23.295682],[120.487941,23.296013],[120.488802,23.296273],[120.489074,23.297059],[120.489751,23.298088],[120.490664,23.298863],[120.491515,23.299013],[120.492195,23.299518],[120.494205,23.299406],[120.494955,23.299121],[120.495815,23.299407],[120.496221,23.299255],[120.496429,23.298697],[120.497643,23.297913],[120.499471,23.297858],[120.499935,23.298089],[120.501643,23.297581],[120.502682,23.297685],[120.503028,23.29748],[120.503696,23.296686],[120.504782,23.296115],[120.506329,23.295616],[120.507408,23.295632],[120.507724,23.295388],[120.507834,23.293955],[120.507578,23.293119],[120.506734,23.292804],[120.506414,23.292379],[120.505537,23.291727],[120.505057,23.291711],[120.504445,23.291156],[120.503824,23.291005],[120.503514,23.290102],[120.502863,23.289708],[120.502177,23.288823],[120.502264,23.287969],[120.502666,23.287561],[120.503335,23.287619],[120.503596,23.288267],[120.503863,23.288457],[120.50468,23.288136],[120.504855,23.288654],[120.505478,23.289246],[120.50544,23.289758],[120.506178,23.290469],[120.506929,23.290508],[120.507378,23.290008],[120.507658,23.289983],[120.508099,23.290208],[120.508293,23.289948],[120.508718,23.289861],[120.509057,23.290651],[120.510386,23.290944],[120.511064,23.29133],[120.511634,23.29188],[120.512826,23.291738],[120.513994,23.29209],[120.514559,23.291501],[120.515647,23.291779],[120.518184,23.290265],[120.518246,23.290012],[120.517902,23.28934],[120.517897,23.288199],[120.517372,23.287444],[120.517421,23.287292],[120.521979,23.287395],[120.521897,23.28821],[120.522576,23.28932],[120.523075,23.289758],[120.523773,23.290103],[120.524027,23.290924],[120.524463,23.291543],[120.525621,23.291923],[120.526009,23.292226],[120.526279,23.295334],[120.526043,23.297063],[120.52568,23.29824],[120.525183,23.299177],[120.524961,23.299965],[120.524597,23.300245],[120.52454,23.301272],[120.52388,23.302391],[120.524086,23.303365],[120.523786,23.3042],[120.523342,23.306494],[120.523484,23.307159],[120.52328,23.308276],[120.523345,23.30881],[120.522762,23.310086],[120.522551,23.311754],[120.52313,23.312323],[120.523178,23.312766],[120.523891,23.313346],[120.526074,23.314291],[120.527281,23.314636],[120.528345,23.315931],[120.530069,23.317255],[120.530492,23.317053],[120.530853,23.317107],[120.531562,23.318097],[120.531546,23.319024],[120.531818,23.319769],[120.53195,23.321148],[120.53285,23.321792],[120.53378,23.321976],[120.535425,23.32363],[120.535956,23.324254],[120.536782,23.326198],[120.537056,23.326538],[120.539386,23.327478],[120.539996,23.32787],[120.539098,23.329253],[120.538373,23.330052],[120.538202,23.330832],[120.537478,23.331543],[120.537234,23.332453],[120.536814,23.333263],[120.534284,23.335518],[120.533723,23.336471]]]},"properties":{"code":"67000030012","name":"關嶺里","countyCode":"67000","countyName":"臺南市","townCode":"67000030","townName":"白河區","level":"village","unassigned":false,"note":"","label":[120.50664142379854,23.322830105662987],"bounds":[120.47479,23.287292,120.539996,23.346207],"focusBounds":[120.47479,23.287292,120.539996,23.346207],"color":"#a8bf62"}},{"type":"Feature","id":"67000030014","geometry":{"type":"Polygon","coordinates":[[[120.427306,23.371273],[120.422806,23.372195],[120.423061,23.373176],[120.416455,23.37451],[120.415871,23.374507],[120.413948,23.374028],[120.406004,23.373821],[120.406254,23.372584],[120.406748,23.371616],[120.406781,23.371006],[120.406209,23.369364],[120.405553,23.368994],[120.405114,23.368244],[120.404035,23.368245],[120.402989,23.367801],[120.402186,23.367705],[120.400266,23.367952],[120.396954,23.367214],[120.394513,23.367224],[120.39231,23.366774],[120.390875,23.366081],[120.389444,23.365854],[120.388495,23.365502],[120.387232,23.364089],[120.386571,23.363751],[120.38543,23.362776],[120.383861,23.362688],[120.384631,23.361141],[120.384358,23.35992],[120.383408,23.359927],[120.380347,23.358982],[120.380184,23.358801],[120.380316,23.357099],[120.381471,23.356404],[120.385717,23.356498],[120.391397,23.358449],[120.396743,23.359531],[120.400735,23.359758],[120.411756,23.356955],[120.412464,23.355988],[120.412541,23.358048],[120.413882,23.357974],[120.417344,23.362642],[120.417286,23.362769],[120.418342,23.363004],[120.419006,23.365664],[120.42571,23.364225],[120.428216,23.371067],[120.427306,23.371273]]]},"properties":{"code":"67000030014","name":"大竹里","countyCode":"67000","countyName":"臺南市","townCode":"67000030","townName":"白河區","level":"village","unassigned":false,"note":"","label":[120.41238412597227,23.367225742569435],"bounds":[120.380184,23.355988,120.428216,23.37451],"focusBounds":[120.380184,23.355988,120.428216,23.37451],"color":"#a8bf62"}},{"type":"Feature","id":"67000030018","geometry":{"type":"Polygon","coordinates":[[[120.4514,23.382749],[120.450713,23.382897],[120.450433,23.383132],[120.450091,23.38531],[120.449767,23.385437],[120.44901,23.385247],[120.44877,23.384979],[120.448375,23.383957],[120.447774,23.383359],[120.446649,23.382852],[120.445808,23.383162],[120.445229,23.383052],[120.444926,23.38251],[120.444972,23.381295],[120.44409,23.380719],[120.442054,23.378823],[120.441564,23.378912],[120.441163,23.379222],[120.440673,23.379934],[120.440406,23.380025],[120.438872,23.379046],[120.437736,23.379375],[120.437454,23.379699],[120.437342,23.381515],[120.43608,23.382248],[120.435262,23.382511],[120.434977,23.382075],[120.435396,23.379406],[120.433819,23.377744],[120.433061,23.377529],[120.432448,23.377785],[120.432501,23.37923],[120.432281,23.379462],[120.429424,23.379191],[120.427379,23.379366],[120.42637,23.379942],[120.42597,23.380604],[120.425434,23.375971],[120.428715,23.37529],[120.429613,23.375115],[120.429653,23.375224],[120.430309,23.375258],[120.430935,23.375018],[120.432143,23.37515],[120.432817,23.373034],[120.442965,23.373352],[120.443243,23.373267],[120.44421,23.37158],[120.444679,23.37036],[120.447719,23.371432],[120.44828,23.37265],[120.453802,23.374607],[120.45492,23.371866],[120.461985,23.374344],[120.462444,23.373506],[120.462771,23.373867],[120.463615,23.373831],[120.463782,23.374003],[120.463538,23.374136],[120.463604,23.374398],[120.46302,23.374728],[120.463276,23.375841],[120.462533,23.375932],[120.462344,23.375762],[120.462092,23.376078],[120.461134,23.376219],[120.460655,23.375889],[120.460293,23.375977],[120.459105,23.3767],[120.458066,23.377813],[120.457554,23.377934],[120.457372,23.378556],[120.456337,23.379733],[120.455931,23.379706],[120.455228,23.379126],[120.454282,23.379232],[120.453106,23.379152],[120.451689,23.37974],[120.45133,23.380648],[120.4514,23.382749]]]},"properties":{"code":"67000030018","name":"竹門里","countyCode":"67000","countyName":"臺南市","townCode":"67000030","townName":"白河區","level":"village","unassigned":false,"note":"","label":[120.44742847669032,23.377266348845488],"bounds":[120.425434,23.37036,120.463782,23.385437],"focusBounds":[120.425434,23.37036,120.463782,23.385437],"color":"#68bec9"}},{"type":"Feature","id":"67000030019","geometry":{"type":"Polygon","coordinates":[[[120.495145,23.393203],[120.494774,23.393389],[120.494674,23.393962],[120.494971,23.394177],[120.494864,23.394415],[120.494498,23.394444],[120.49425,23.394231],[120.493996,23.394805],[120.493754,23.394958],[120.493374,23.394807],[120.490936,23.39556],[120.490325,23.395624],[120.489884,23.395237],[120.489775,23.394399],[120.488654,23.393608],[120.488631,23.393232],[120.489164,23.392446],[120.488418,23.392649],[120.487933,23.393006],[120.487575,23.392909],[120.486908,23.39237],[120.486274,23.393109],[120.48554,23.393062],[120.485269,23.392777],[120.485236,23.392399],[120.485452,23.392242],[120.485674,23.391438],[120.484947,23.391198],[120.484479,23.391492],[120.484004,23.391517],[120.483151,23.389839],[120.482142,23.38928],[120.480869,23.389312],[120.479419,23.387589],[120.479086,23.387835],[120.478874,23.388236],[120.478422,23.389577],[120.477471,23.390711],[120.476955,23.39057],[120.476373,23.390878],[120.475612,23.390835],[120.475385,23.391001],[120.475274,23.391535],[120.476145,23.39383],[120.475809,23.394401],[120.475142,23.394896],[120.474331,23.395968],[120.474118,23.397199],[120.4734,23.398073],[120.472826,23.398189],[120.472183,23.398077],[120.471736,23.398293],[120.471037,23.398945],[120.470456,23.398965],[120.469972,23.399378],[120.469525,23.399404],[120.468961,23.400023],[120.468835,23.400515],[120.46821,23.400581],[120.467688,23.401122],[120.467503,23.401127],[120.466725,23.400539],[120.464954,23.40077],[120.464413,23.401193],[120.462858,23.401794],[120.461842,23.402439],[120.461521,23.403233],[120.461116,23.403366],[120.46084,23.403724],[120.460938,23.404707],[120.460381,23.404743],[120.460151,23.404577],[120.459017,23.404734],[120.460655,23.397643],[120.46069,23.39598],[120.460147,23.394129],[120.459064,23.392893],[120.457684,23.391951],[120.455269,23.390832],[120.454293,23.390722],[120.450376,23.39079],[120.450262,23.389426],[120.450112,23.389146],[120.449578,23.388801],[120.449736,23.387707],[120.451018,23.387486],[120.451566,23.387073],[120.452036,23.387025],[120.453139,23.386345],[120.452606,23.38629],[120.452023,23.386008],[120.451665,23.385597],[120.451715,23.385223],[120.454546,23.383945],[120.454938,23.383393],[120.454383,23.382062],[120.453634,23.381691],[120.453354,23.381764],[120.452366,23.382628],[120.4514,23.382749],[120.45133,23.380648],[120.451689,23.37974],[120.453106,23.379152],[120.454282,23.379232],[120.455228,23.379126],[120.455931,23.379706],[120.456337,23.379733],[120.457372,23.378556],[120.457554,23.377934],[120.458066,23.377813],[120.459105,23.3767],[120.460293,23.375977],[120.460655,23.375889],[120.461134,23.376219],[120.462092,23.376078],[120.462344,23.375762],[120.462533,23.375932],[120.463276,23.375841],[120.46302,23.374728],[120.463604,23.374398],[120.463538,23.374136],[120.463782,23.374003],[120.464829,23.373376],[120.464534,23.372744],[120.464827,23.372899],[120.465648,23.372627],[120.465955,23.372034],[120.46641,23.371784],[120.467113,23.371048],[120.467297,23.37114],[120.467941,23.3707],[120.468657,23.370959],[120.46967,23.370768],[120.470544,23.370295],[120.471004,23.369753],[120.471085,23.36879],[120.470939,23.368503],[120.470388,23.367824],[120.469656,23.367325],[120.46893,23.366033],[120.469236,23.365443],[120.469732,23.36511],[120.469853,23.364413],[120.468689,23.362366],[120.468183,23.361884],[120.46802,23.361849],[120.467548,23.362288],[120.46736,23.362292],[120.463711,23.361682],[120.459989,23.361597],[120.45999,23.36048],[120.460242,23.360033],[120.464407,23.356978],[120.465352,23.356765],[120.466055,23.356777],[120.467284,23.356938],[120.467701,23.357529],[120.468875,23.357204],[120.471766,23.35766],[120.480509,23.359103],[120.482664,23.359957],[120.48588,23.362031],[120.488667,23.36285],[120.489877,23.363398],[120.49223,23.365158],[120.493284,23.365482],[120.494761,23.366257],[120.495955,23.366687],[120.498489,23.367063],[120.500179,23.367053],[120.500927,23.367572],[120.500967,23.367811],[120.500448,23.368075],[120.499473,23.368035],[120.498847,23.368653],[120.497265,23.368926],[120.496055,23.369951],[120.495063,23.369878],[120.494271,23.369488],[120.493687,23.370323],[120.492264,23.371582],[120.491502,23.372487],[120.490325,23.371178],[120.490097,23.371121],[120.489713,23.371784],[120.489451,23.372836],[120.488355,23.373059],[120.487435,23.372066],[120.487092,23.371049],[120.486687,23.370673],[120.486133,23.370246],[120.485805,23.370343],[120.485404,23.369815],[120.484376,23.369477],[120.483935,23.369567],[120.483798,23.370753],[120.483283,23.371014],[120.483002,23.371639],[120.482994,23.373048],[120.483517,23.374692],[120.483369,23.375798],[120.483593,23.377336],[120.483841,23.378247],[120.484508,23.379603],[120.485718,23.380439],[120.487843,23.381093],[120.489175,23.38178],[120.490278,23.383071],[120.49125,23.382638],[120.491628,23.382682],[120.492659,23.383174],[120.49346,23.383921],[120.494521,23.384307],[120.496014,23.383914],[120.497006,23.38437],[120.497778,23.385293],[120.498929,23.387194],[120.499222,23.387947],[120.498214,23.388475],[120.497155,23.389288],[120.49712,23.389776],[120.497543,23.390824],[120.497502,23.391232],[120.49559,23.393184],[120.495145,23.393203]]]},"properties":{"code":"67000030019","name":"崎內里","countyCode":"67000","countyName":"臺南市","townCode":"67000030","townName":"白河區","level":"village","unassigned":false,"note":"","label":[120.47261712203522,23.380340476168058],"bounds":[120.449578,23.356765,120.500967,23.404743],"focusBounds":[120.449578,23.356765,120.500967,23.404743],"color":"#df9f6a"}},{"type":"Feature","id":"67000030020","geometry":{"type":"Polygon","coordinates":[[[120.444679,23.37036],[120.44421,23.37158],[120.443243,23.373267],[120.442965,23.373352],[120.432817,23.373034],[120.432143,23.37515],[120.430935,23.375018],[120.430309,23.375258],[120.429653,23.375224],[120.429613,23.375115],[120.428715,23.37529],[120.427306,23.371273],[120.428216,23.371067],[120.42571,23.364225],[120.419006,23.365664],[120.418342,23.363004],[120.417286,23.362769],[120.417344,23.362642],[120.421695,23.361527],[120.423749,23.361648],[120.424382,23.361462],[120.425385,23.361541],[120.426271,23.361878],[120.428676,23.36197],[120.43153,23.361456],[120.435378,23.361642],[120.435325,23.3611],[120.435716,23.359391],[120.43744,23.360349],[120.439539,23.361129],[120.446821,23.365158],[120.444679,23.37036]]]},"properties":{"code":"67000030020","name":"昇安里","countyCode":"67000","countyName":"臺南市","townCode":"67000030","townName":"白河區","level":"village","unassigned":false,"note":"","label":[120.43434683061032,23.367336984388068],"bounds":[120.417286,23.359391,120.446821,23.37529],"focusBounds":[120.417286,23.359391,120.446821,23.37529],"color":"#c38cb8"}},{"type":"Feature","id":"67000030021","geometry":{"type":"Polygon","coordinates":[[[120.463782,23.374003],[120.463615,23.373831],[120.462771,23.373867],[120.462444,23.373506],[120.461985,23.374344],[120.45492,23.371866],[120.453802,23.374607],[120.44828,23.37265],[120.447719,23.371432],[120.444679,23.37036],[120.446821,23.365158],[120.439539,23.361129],[120.43744,23.360349],[120.435716,23.359391],[120.435979,23.358678],[120.442088,23.355789],[120.442381,23.356309],[120.442991,23.356741],[120.443749,23.357565],[120.444318,23.357644],[120.444694,23.357877],[120.447039,23.357921],[120.449171,23.35863],[120.450155,23.359497],[120.449553,23.360742],[120.449435,23.361385],[120.449675,23.361944],[120.450178,23.362341],[120.450757,23.362399],[120.451178,23.362156],[120.451624,23.362142],[120.453658,23.362962],[120.454962,23.36317],[120.455604,23.363052],[120.456297,23.362715],[120.459241,23.36252],[120.459665,23.362271],[120.459989,23.361597],[120.463711,23.361682],[120.46736,23.362292],[120.467548,23.362288],[120.46802,23.361849],[120.468183,23.361884],[120.468689,23.362366],[120.469853,23.364413],[120.469732,23.36511],[120.469236,23.365443],[120.46893,23.366033],[120.469656,23.367325],[120.470388,23.367824],[120.470939,23.368503],[120.471085,23.36879],[120.471004,23.369753],[120.470544,23.370295],[120.46967,23.370768],[120.468657,23.370959],[120.467941,23.3707],[120.467297,23.37114],[120.467113,23.371048],[120.46641,23.371784],[120.465955,23.372034],[120.465648,23.372627],[120.464827,23.372899],[120.464534,23.372744],[120.464829,23.373376],[120.463782,23.374003]]]},"properties":{"code":"67000030021","name":"汴頭里","countyCode":"67000","countyName":"臺南市","townCode":"67000030","townName":"白河區","level":"village","unassigned":false,"note":"","label":[120.4611215976171,23.367831949534008],"bounds":[120.435716,23.355789,120.471085,23.374607],"focusBounds":[120.435716,23.355789,120.471085,23.374607],"color":"#58b99d"}},{"type":"Feature","id":"67000030022","geometry":{"type":"Polygon","coordinates":[[[120.459017,23.404734],[120.458184,23.405265],[120.457331,23.405416],[120.455463,23.406657],[120.45485,23.406624],[120.453982,23.40722],[120.453771,23.407037],[120.45431,23.406551],[120.454247,23.406285],[120.452859,23.406672],[120.45179,23.408291],[120.450085,23.409231],[120.447916,23.409601],[120.444544,23.411005],[120.443456,23.411702],[120.443001,23.412385],[120.442432,23.412487],[120.441562,23.413163],[120.440252,23.413081],[120.440114,23.413658],[120.439913,23.413739],[120.439744,23.413656],[120.439399,23.41295],[120.438502,23.413341],[120.43812,23.413363],[120.437384,23.413026],[120.437021,23.412307],[120.436826,23.412314],[120.436214,23.412818],[120.435709,23.412205],[120.434487,23.412201],[120.434319,23.411912],[120.434588,23.41129],[120.434347,23.411084],[120.433909,23.410964],[120.433202,23.411288],[120.432246,23.410815],[120.431966,23.410321],[120.431907,23.408707],[120.431676,23.407916],[120.430387,23.406518],[120.431177,23.406332],[120.431033,23.405822],[120.431401,23.405711],[120.431695,23.405403],[120.431774,23.404873],[120.431125,23.404403],[120.431119,23.403887],[120.430171,23.403426],[120.429997,23.402789],[120.429667,23.402368],[120.429236,23.402206],[120.428792,23.401713],[120.428734,23.401331],[120.430377,23.400672],[120.430566,23.40041],[120.430606,23.399902],[120.431582,23.398374],[120.43271,23.397803],[120.432925,23.397054],[120.433429,23.396995],[120.433698,23.396779],[120.435711,23.396061],[120.436686,23.395913],[120.437449,23.39611],[120.437607,23.396691],[120.43879,23.396729],[120.439134,23.396965],[120.439496,23.396978],[120.440065,23.396733],[120.440825,23.396044],[120.443468,23.397118],[120.443941,23.397061],[120.447894,23.394237],[120.44918,23.392262],[120.449968,23.391533],[120.450376,23.39079],[120.454293,23.390722],[120.455269,23.390832],[120.457684,23.391951],[120.459064,23.392893],[120.460147,23.394129],[120.46069,23.39598],[120.460655,23.397643],[120.459017,23.404734]]]},"properties":{"code":"67000030022","name":"內角里","countyCode":"67000","countyName":"臺南市","townCode":"67000030","townName":"白河區","level":"village","unassigned":false,"note":"","label":[120.44509722057389,23.403504920981305],"bounds":[120.428734,23.390722,120.46069,23.413739],"focusBounds":[120.428734,23.390722,120.46069,23.413739],"color":"#efb44f"}},{"type":"Feature","id":"67000030025","geometry":{"type":"Polygon","coordinates":[[[120.419518,23.403853],[120.41848,23.40612],[120.418077,23.405847],[120.416766,23.405783],[120.416845,23.403211],[120.410281,23.403093],[120.410003,23.398528],[120.410452,23.396006],[120.410175,23.395643],[120.407654,23.395803],[120.407645,23.394987],[120.408161,23.394582],[120.407342,23.393759],[120.406982,23.392731],[120.407116,23.392072],[120.408041,23.391123],[120.410197,23.3906],[120.411443,23.389822],[120.41199,23.388988],[120.412163,23.388436],[120.412095,23.387591],[120.412496,23.386284],[120.41248,23.385721],[120.412062,23.38493],[120.411158,23.384324],[120.410517,23.384208],[120.399571,23.385307],[120.399737,23.384597],[120.39919,23.3838],[120.39994,23.383049],[120.400547,23.3828],[120.401489,23.382802],[120.402323,23.382071],[120.402791,23.381988],[120.403615,23.38141],[120.404407,23.381069],[120.405057,23.380911],[120.40581,23.380337],[120.405802,23.379754],[120.40543,23.379235],[120.404859,23.378915],[120.404759,23.378195],[120.404908,23.37764],[120.405723,23.376924],[120.40572,23.376791],[120.405105,23.376393],[120.406004,23.373821],[120.413948,23.374028],[120.415871,23.374507],[120.416455,23.37451],[120.423061,23.373176],[120.422806,23.372195],[120.427306,23.371273],[120.428715,23.37529],[120.425434,23.375971],[120.42597,23.380604],[120.426123,23.380941],[120.42675,23.381473],[120.426558,23.382513],[120.426663,23.382905],[120.4275,23.38353],[120.427629,23.383824],[120.42717,23.384772],[120.4252,23.384874],[120.425056,23.385008],[120.425063,23.385395],[120.425383,23.385616],[120.426071,23.385535],[120.426495,23.385648],[120.426759,23.386044],[120.42664,23.386514],[120.425894,23.387095],[120.425359,23.387317],[120.424708,23.387342],[120.424334,23.387125],[120.423782,23.387089],[120.423198,23.387577],[120.422167,23.388968],[120.421435,23.389337],[120.420337,23.389375],[120.420198,23.389593],[120.420305,23.390398],[120.420883,23.39135],[120.421402,23.39165],[120.422048,23.391746],[120.422798,23.391355],[120.423179,23.391362],[120.42327,23.391508],[120.42311,23.391872],[120.42259,23.39258],[120.42149,23.393431],[120.420438,23.393342],[120.419552,23.392948],[120.418834,23.392428],[120.418519,23.392438],[120.417777,23.392842],[120.417806,23.393161],[120.418191,23.393602],[120.418152,23.395224],[120.418926,23.396306],[120.419127,23.397196],[120.419734,23.397813],[120.420279,23.399092],[120.420143,23.399279],[120.418882,23.399378],[120.418038,23.399731],[120.417813,23.399963],[120.418201,23.400499],[120.418305,23.401899],[120.419253,23.403035],[120.419518,23.403853]]]},"properties":{"code":"67000030025","name":"詔豐里","countyCode":"67000","countyName":"臺南市","townCode":"67000030","townName":"白河區","level":"village","unassigned":false,"note":"","label":[120.41830071171239,23.381384923691506],"bounds":[120.39919,23.371273,120.428715,23.40612],"focusBounds":[120.39919,23.371273,120.428715,23.40612],"color":"#efb44f"}},{"type":"Feature","id":"67000030026","geometry":{"type":"Polygon","coordinates":[[[120.41848,23.40612],[120.418254,23.406729],[120.418134,23.408137],[120.417945,23.408517],[120.416303,23.410417],[120.415145,23.411045],[120.414491,23.41124],[120.411466,23.410229],[120.410492,23.410168],[120.410168,23.410406],[120.409424,23.412429],[120.408653,23.413183],[120.408109,23.413426],[120.40805,23.413335],[120.406704,23.411511],[120.405607,23.410761],[120.404173,23.410046],[120.396365,23.407346],[120.389466,23.405543],[120.386871,23.404762],[120.386979,23.40176],[120.386681,23.400389],[120.385577,23.398294],[120.383394,23.3964],[120.383462,23.395754],[120.383276,23.39506],[120.383548,23.394074],[120.384025,23.393756],[120.385427,23.393541],[120.385814,23.392214],[120.387075,23.39131],[120.387676,23.391092],[120.390305,23.391412],[120.392284,23.391383],[120.392949,23.391236],[120.393863,23.389915],[120.39582,23.388871],[120.396011,23.388897],[120.396288,23.389459],[120.39666,23.389747],[120.398637,23.390617],[120.399986,23.390795],[120.399937,23.390605],[120.399585,23.390394],[120.399486,23.390085],[120.400218,23.388851],[120.400238,23.386661],[120.399517,23.38562],[120.399571,23.385307],[120.410517,23.384208],[120.411158,23.384324],[120.412062,23.38493],[120.41248,23.385721],[120.412496,23.386284],[120.412095,23.387591],[120.412163,23.388436],[120.41199,23.388988],[120.411443,23.389822],[120.410197,23.3906],[120.408041,23.391123],[120.407116,23.392072],[120.406982,23.392731],[120.407342,23.393759],[120.408161,23.394582],[120.407645,23.394987],[120.407654,23.395803],[120.410175,23.395643],[120.410452,23.396006],[120.410003,23.398528],[120.410281,23.403093],[120.416845,23.403211],[120.416766,23.405783],[120.418077,23.405847],[120.41848,23.40612]]]},"properties":{"code":"67000030026","name":"廣蓮里","countyCode":"67000","countyName":"臺南市","townCode":"67000030","townName":"白河區","level":"village","unassigned":false,"note":"","label":[120.39989695048762,23.399586240119255],"bounds":[120.383276,23.384208,120.41848,23.413426],"focusBounds":[120.383276,23.384208,120.41848,23.413426],"color":"#78a7e3"}},{"type":"Feature","id":"67000030027","geometry":{"type":"Polygon","coordinates":[[[120.429781,23.406431],[120.42868,23.407309],[120.428187,23.406555],[120.427757,23.406369],[120.427089,23.406682],[120.426128,23.406867],[120.424843,23.406571],[120.424339,23.406663],[120.423134,23.406442],[120.422075,23.407097],[120.421653,23.406747],[120.42105,23.405887],[120.420285,23.403716],[120.420004,23.403457],[120.419518,23.403853],[120.419253,23.403035],[120.418305,23.401899],[120.418201,23.400499],[120.417813,23.399963],[120.418038,23.399731],[120.418882,23.399378],[120.420143,23.399279],[120.420279,23.399092],[120.419734,23.397813],[120.419127,23.397196],[120.418926,23.396306],[120.418152,23.395224],[120.418191,23.393602],[120.417806,23.393161],[120.417777,23.392842],[120.418519,23.392438],[120.418834,23.392428],[120.419552,23.392948],[120.420438,23.393342],[120.42149,23.393431],[120.42259,23.39258],[120.42311,23.391872],[120.42327,23.391508],[120.423179,23.391362],[120.422798,23.391355],[120.422048,23.391746],[120.421402,23.39165],[120.420883,23.39135],[120.420305,23.390398],[120.420198,23.389593],[120.420337,23.389375],[120.421435,23.389337],[120.422167,23.388968],[120.423198,23.387577],[120.423782,23.387089],[120.424334,23.387125],[120.424708,23.387342],[120.425359,23.387317],[120.425894,23.387095],[120.42664,23.386514],[120.426759,23.386044],[120.426495,23.385648],[120.426071,23.385535],[120.425383,23.385616],[120.425063,23.385395],[120.425056,23.385008],[120.4252,23.384874],[120.42717,23.384772],[120.427629,23.383824],[120.4275,23.38353],[120.426663,23.382905],[120.426558,23.382513],[120.42675,23.381473],[120.426123,23.380941],[120.42597,23.380604],[120.42637,23.379942],[120.427379,23.379366],[120.429424,23.379191],[120.432281,23.379462],[120.432501,23.37923],[120.432448,23.377785],[120.433061,23.377529],[120.433819,23.377744],[120.435396,23.379406],[120.434977,23.382075],[120.435262,23.382511],[120.43608,23.382248],[120.437342,23.381515],[120.437454,23.379699],[120.437736,23.379375],[120.438872,23.379046],[120.440406,23.380025],[120.440673,23.379934],[120.441163,23.379222],[120.441564,23.378912],[120.442054,23.378823],[120.44409,23.380719],[120.444972,23.381295],[120.444926,23.38251],[120.445229,23.383052],[120.445808,23.383162],[120.446649,23.382852],[120.447774,23.383359],[120.448375,23.383957],[120.44877,23.384979],[120.44901,23.385247],[120.449767,23.385437],[120.450091,23.38531],[120.450433,23.383132],[120.450713,23.382897],[120.4514,23.382749],[120.452366,23.382628],[120.453354,23.381764],[120.453634,23.381691],[120.454383,23.382062],[120.454938,23.383393],[120.454546,23.383945],[120.451715,23.385223],[120.451665,23.385597],[120.452023,23.386008],[120.452606,23.38629],[120.453139,23.386345],[120.452036,23.387025],[120.451566,23.387073],[120.451018,23.387486],[120.449736,23.387707],[120.449578,23.388801],[120.450112,23.389146],[120.450262,23.389426],[120.450376,23.39079],[120.449968,23.391533],[120.44918,23.392262],[120.447894,23.394237],[120.443941,23.397061],[120.443468,23.397118],[120.440825,23.396044],[120.440065,23.396733],[120.439496,23.396978],[120.439134,23.396965],[120.43879,23.396729],[120.437607,23.396691],[120.437449,23.39611],[120.436686,23.395913],[120.435711,23.396061],[120.433698,23.396779],[120.433429,23.396995],[120.432925,23.397054],[120.43271,23.397803],[120.431582,23.398374],[120.430606,23.399902],[120.430566,23.40041],[120.430377,23.400672],[120.428734,23.401331],[120.428792,23.401713],[120.429236,23.402206],[120.429667,23.402368],[120.429997,23.402789],[120.430171,23.403426],[120.431119,23.403887],[120.431125,23.404403],[120.431774,23.404873],[120.431695,23.405403],[120.431401,23.405711],[120.431033,23.405822],[120.431177,23.406332],[120.430387,23.406518],[120.429781,23.406431]]]},"properties":{"code":"67000030027","name":"馬稠後里","countyCode":"67000","countyName":"臺南市","townCode":"67000030","townName":"白河區","level":"village","unassigned":false,"note":"","label":[120.43248321560974,23.390263134820664],"bounds":[120.417777,23.377529,120.454938,23.407309],"focusBounds":[120.417777,23.377529,120.454938,23.407309],"color":"#a49ad4"}}]}
