{"type":"FeatureCollection","features":[{"type":"Feature","id":"67000310001","geometry":{"type":"Polygon","coordinates":[[[120.236278,23.013945],[120.235632,23.015368],[120.235128,23.01503],[120.234367,23.014582],[120.23081,23.013485],[120.233973,23.00851],[120.237707,23.008572],[120.236278,23.013945]]]},"properties":{"code":"67000310001","name":"五王里","countyCode":"67000","countyName":"臺南市","townCode":"67000310","townName":"永康區","level":"village","unassigned":false,"note":"","label":[120.2346046408797,23.011621175194534],"bounds":[120.23081,23.00851,120.237707,23.015368],"focusBounds":[120.23081,23.00851,120.237707,23.015368],"color":"#68bec9"}},{"type":"Feature","id":"67000310002","geometry":{"type":"Polygon","coordinates":[[[120.25971,23.016432],[120.259008,23.018748],[120.257436,23.019257],[120.250254,23.02227],[120.250008,23.022241],[120.250526,23.019902],[120.250642,23.017595],[120.250351,23.015455],[120.249482,23.012199],[120.248614,23.008998],[120.252322,23.007955],[120.253196,23.009675],[120.255266,23.014412],[120.255138,23.015118],[120.25971,23.016432]]]},"properties":{"code":"67000310002","name":"網寮里","countyCode":"67000","countyName":"臺南市","townCode":"67000310","townName":"永康區","level":"village","unassigned":false,"note":"","label":[120.2531951342861,23.01686744497411],"bounds":[120.248614,23.007955,120.25971,23.02227],"focusBounds":[120.248614,23.007955,120.25971,23.02227],"color":"#68bec9"}},{"type":"Feature","id":"67000310003","geometry":{"type":"Polygon","coordinates":[[[120.262468,23.030394],[120.260095,23.030666],[120.258378,23.030245],[120.258898,23.029759],[120.259596,23.028576],[120.256813,23.027735],[120.256875,23.027511],[120.255885,23.027154],[120.255239,23.027097],[120.254895,23.026702],[120.254145,23.026545],[120.254089,23.026775],[120.253441,23.026682],[120.253546,23.026312],[120.252141,23.025863],[120.252287,23.024635],[120.249599,23.024121],[120.250008,23.022241],[120.250254,23.02227],[120.257436,23.019257],[120.259008,23.018748],[120.25971,23.016432],[120.260363,23.016605],[120.260548,23.016076],[120.263017,23.016729],[120.262298,23.019103],[120.265299,23.019896],[120.264735,23.020762],[120.263851,23.02213],[120.264065,23.022179],[120.261134,23.026676],[120.261087,23.027037],[120.261276,23.027623],[120.262468,23.030394]]]},"properties":{"code":"67000310003","name":"永康里","countyCode":"67000","countyName":"臺南市","townCode":"67000310","townName":"永康區","level":"village","unassigned":false,"note":"","label":[120.25822738053,23.023581444229748],"bounds":[120.249599,23.016076,120.265299,23.030666],"focusBounds":[120.249599,23.016076,120.265299,23.030666],"color":"#df9f6a"}},{"type":"Feature","id":"67000310004","geometry":{"type":"Polygon","coordinates":[[[120.260095,23.030666],[120.258813,23.038607],[120.254063,23.03917],[120.251101,23.036792],[120.253223,23.031009],[120.256194,23.028743],[120.256581,23.028602],[120.256813,23.027735],[120.259596,23.028576],[120.258898,23.029759],[120.258378,23.030245],[120.260095,23.030666]]]},"properties":{"code":"67000310004","name":"埔園里","countyCode":"67000","countyName":"臺南市","townCode":"67000310","townName":"永康區","level":"village","unassigned":false,"note":"","label":[120.255909161387,23.03395584222002],"bounds":[120.251101,23.027735,120.260095,23.03917],"focusBounds":[120.251101,23.027735,120.260095,23.03917],"color":"#c38cb8"}},{"type":"Feature","id":"67000310005","geometry":{"type":"Polygon","coordinates":[[[120.235128,23.01503],[120.231947,23.01945],[120.232726,23.019898],[120.230476,23.022822],[120.229679,23.023433],[120.226252,23.021425],[120.225127,23.020489],[120.224479,23.019679],[120.226745,23.018245],[120.227733,23.017536],[120.228699,23.016584],[120.23081,23.013487],[120.23081,23.013485],[120.234367,23.014582],[120.235128,23.01503]]]},"properties":{"code":"67000310005","name":"大橋里","countyCode":"67000","countyName":"臺南市","townCode":"67000310","townName":"永康區","level":"village","unassigned":false,"note":"","label":[120.2299304916152,23.018524033019467],"bounds":[120.224479,23.013485,120.235128,23.023433],"focusBounds":[120.224479,23.013485,120.235128,23.023433],"color":"#98b69b"}},{"type":"Feature","id":"67000310006","geometry":{"type":"Polygon","coordinates":[[[120.277889,23.056412],[120.277963,23.057533],[120.277834,23.058536],[120.268523,23.050888],[120.265274,23.048247],[120.268227,23.040635],[120.268506,23.036223],[120.267559,23.034595],[120.267412,23.033443],[120.267104,23.032638],[120.267301,23.032636],[120.267397,23.031916],[120.27049,23.032182],[120.270769,23.029515],[120.273986,23.030033],[120.282641,23.032391],[120.287582,23.034348],[120.286636,23.034749],[120.285923,23.035235],[120.285501,23.035661],[120.284632,23.037085],[120.283012,23.037478],[120.282429,23.037942],[120.282029,23.038845],[120.281808,23.040026],[120.281877,23.041384],[120.282594,23.04295],[120.283088,23.043539],[120.284524,23.043875],[120.286683,23.046147],[120.286812,23.047526],[120.285337,23.048155],[120.284589,23.048696],[120.284176,23.049296],[120.283889,23.050284],[120.283089,23.050846],[120.281722,23.051504],[120.281387,23.052542],[120.278142,23.055378],[120.277915,23.055825],[120.277889,23.056412]]]},"properties":{"code":"67000310006","name":"王行里","countyCode":"67000","countyName":"臺南市","townCode":"67000310","townName":"永康區","level":"village","unassigned":false,"note":"","label":[120.27489829955472,23.04511497947911],"bounds":[120.265274,23.029515,120.287582,23.058536],"focusBounds":[120.265274,23.029515,120.287582,23.058536],"color":"#58b99d"}},{"type":"Feature","id":"67000310007","geometry":{"type":"Polygon","coordinates":[[[120.268227,23.040635],[120.265274,23.048247],[120.260706,23.044494],[120.261075,23.044092],[120.262122,23.036053],[120.268227,23.040635]]]},"properties":{"code":"67000310007","name":"烏竹里","countyCode":"67000","countyName":"臺南市","townCode":"67000310","townName":"永康區","level":"village","unassigned":false,"note":"","label":[120.26447669113892,23.041851856268437],"bounds":[120.260706,23.036053,120.268227,23.048247],"focusBounds":[120.260706,23.036053,120.268227,23.048247],"color":"#dd8590"}},{"type":"Feature","id":"67000310008","geometry":{"type":"Polygon","coordinates":[[[120.2503,23.036102],[120.251101,23.036792],[120.254063,23.03917],[120.260706,23.044494],[120.265274,23.048247],[120.268523,23.050888],[120.2665,23.053853],[120.261023,23.050871],[120.259506,23.050388],[120.248242,23.049691],[120.247204,23.049289],[120.247294,23.045421],[120.244683,23.045307],[120.24638,23.043415],[120.24657,23.04172],[120.251367,23.041907],[120.2503,23.036102]]]},"properties":{"code":"67000310008","name":"蔦松里","countyCode":"67000","countyName":"臺南市","townCode":"67000310","townName":"永康區","level":"village","unassigned":false,"note":"","label":[120.25397793734537,23.045657302741056],"bounds":[120.244683,23.036102,120.268523,23.053853],"focusBounds":[120.244683,23.036102,120.268523,23.053853],"color":"#78a7e3"}},{"type":"Feature","id":"67000310009","geometry":{"type":"Polygon","coordinates":[[[120.272373,23.059272],[120.271996,23.059423],[120.270415,23.059411],[120.269547,23.060156],[120.268207,23.060871],[120.267549,23.060816],[120.265649,23.06101],[120.264363,23.061919],[120.264092,23.061951],[120.262152,23.061742],[120.260638,23.061369],[120.260459,23.061163],[120.260541,23.060707],[120.259734,23.059578],[120.259505,23.059554],[120.258984,23.05999],[120.258641,23.059507],[120.258089,23.059783],[120.257106,23.059709],[120.256427,23.060183],[120.255866,23.061169],[120.255192,23.061692],[120.253253,23.061193],[120.252604,23.06145],[120.251784,23.065858],[120.252157,23.066636],[120.251654,23.066785],[120.249184,23.066763],[120.248493,23.066987],[120.248516,23.067534],[120.248049,23.067644],[120.247746,23.067183],[120.247382,23.067151],[120.246926,23.065601],[120.245768,23.06152],[120.245753,23.060815],[120.244927,23.057646],[120.243442,23.056289],[120.242695,23.055107],[120.241398,23.052325],[120.239832,23.050852],[120.241326,23.04894],[120.244683,23.045307],[120.247294,23.045421],[120.247204,23.049289],[120.248242,23.049691],[120.259506,23.050388],[120.261023,23.050871],[120.2665,23.053853],[120.268523,23.050888],[120.277834,23.058536],[120.27777,23.058883],[120.27737,23.059476],[120.276611,23.05973],[120.275625,23.059519],[120.272373,23.059272]]]},"properties":{"code":"67000310009","name":"三民里","countyCode":"67000","countyName":"臺南市","townCode":"67000310","townName":"永康區","level":"village","unassigned":false,"note":"","label":[120.25311134102559,23.055620685964094],"bounds":[120.239832,23.045307,120.277834,23.067644],"focusBounds":[120.239832,23.045307,120.277834,23.067644],"color":"#a49ad4"}},{"type":"Feature","id":"67000310010","geometry":{"type":"Polygon","coordinates":[[[120.2503,23.036102],[120.251367,23.041907],[120.24657,23.04172],[120.238301,23.041439],[120.237352,23.041265],[120.236544,23.040765],[120.232238,23.037076],[120.23014,23.035123],[120.227425,23.032212],[120.229475,23.030987],[120.230115,23.031755],[120.230672,23.031373],[120.2302,23.030314],[120.231416,23.030277],[120.232609,23.029684],[120.233226,23.029764],[120.233605,23.029601],[120.235336,23.030523],[120.236652,23.028351],[120.236862,23.027592],[120.246089,23.03295],[120.2503,23.036102]]]},"properties":{"code":"67000310010","name":"塩行里","countyCode":"67000","countyName":"臺南市","townCode":"67000310","townName":"永康區","level":"village","unassigned":false,"note":"","label":[120.23983534883924,23.03594919885037],"bounds":[120.227425,23.027592,120.251367,23.041907],"focusBounds":[120.227425,23.027592,120.251367,23.041907],"color":"#a49ad4"}},{"type":"Feature","id":"67000310011","geometry":{"type":"Polygon","coordinates":[[[120.224479,23.019679],[120.218212,23.023648],[120.218422,23.023804],[120.217729,23.024576],[120.215869,23.023423],[120.215402,23.025049],[120.214945,23.024757],[120.211318,23.023485],[120.210586,23.023076],[120.209454,23.022946],[120.209519,23.022562],[120.212703,23.020894],[120.213083,23.020266],[120.213501,23.020143],[120.213588,23.019669],[120.214732,23.018694],[120.215452,23.019565],[120.215943,23.019229],[120.216541,23.018849],[120.216989,23.019874],[120.217592,23.020322],[120.217754,23.019328],[120.217488,23.018338],[120.21877,23.018184],[120.219142,23.018144],[120.219754,23.018658],[120.221957,23.019361],[120.222529,23.019069],[120.222557,23.018436],[120.22302,23.017593],[120.22302,23.017592],[120.224479,23.019679]]]},"properties":{"code":"67000310011","name":"甲頂里","countyCode":"67000","countyName":"臺南市","townCode":"67000310","townName":"永康區","level":"village","unassigned":false,"note":"","label":[120.21708482067307,23.02206122357353],"bounds":[120.209454,23.017592,120.224479,23.025049],"focusBounds":[120.209454,23.017592,120.224479,23.025049],"color":"#a8bf62"}},{"type":"Feature","id":"67000310012","geometry":{"type":"Polygon","coordinates":[[[120.266229,23.011981],[120.264457,23.012332],[120.265661,23.008414],[120.266314,23.007986],[120.26597,23.006651],[120.265769,23.006583],[120.265301,23.005703],[120.266004,23.005434],[120.266398,23.00543],[120.266684,23.005379],[120.267188,23.006303],[120.268015,23.006045],[120.268715,23.005602],[120.269001,23.00599],[120.273967,23.000641],[120.274588,23.007564],[120.267945,23.00758],[120.269108,23.00927],[120.267794,23.009837],[120.267798,23.010395],[120.267495,23.011476],[120.266292,23.011284],[120.266229,23.011981]]]},"properties":{"code":"67000310012","name":"大灣里","countyCode":"67000","countyName":"臺南市","townCode":"67000310","townName":"永康區","level":"village","unassigned":false,"note":"","label":[120.27209980353267,23.00557178685923],"bounds":[120.264457,23.000641,120.274588,23.012332],"focusBounds":[120.264457,23.000641,120.274588,23.012332],"color":"#68bec9"}},{"type":"Feature","id":"67000310013","geometry":{"type":"Polygon","coordinates":[[[120.273967,23.000641],[120.269001,23.00599],[120.268715,23.005602],[120.268015,23.006045],[120.267188,23.006303],[120.266684,23.005379],[120.266398,23.00543],[120.266175,23.005094],[120.265672,23.005131],[120.265031,23.005361],[120.265171,23.005604],[120.264427,23.006116],[120.263779,23.005067],[120.264215,23.004762],[120.26384,23.004122],[120.265009,23.003567],[120.26529,23.003254],[120.266228,23.002758],[120.265671,23.001208],[120.266244,23.001094],[120.266018,23.000197],[120.267209,22.996527],[120.26831,22.993446],[120.271138,22.993616],[120.271681,22.994276],[120.272035,22.994319],[120.272603,22.994187],[120.273058,22.993463],[120.273445,22.993722],[120.273667,22.998152],[120.273868,22.998896],[120.273967,23.000641]]]},"properties":{"code":"67000310013","name":"東灣里","countyCode":"67000","countyName":"臺南市","townCode":"67000310","townName":"永康區","level":"village","unassigned":false,"note":"","label":[120.27013497734985,22.999453246765682],"bounds":[120.263779,22.993446,120.273967,23.006303],"focusBounds":[120.263779,22.993446,120.273967,23.006303],"color":"#98b69b"}},{"type":"Feature","id":"67000310014","geometry":{"type":"Polygon","coordinates":[[[120.264457,23.012332],[120.263017,23.016729],[120.260548,23.016076],[120.260363,23.016605],[120.25971,23.016432],[120.255138,23.015118],[120.255266,23.014412],[120.253196,23.009675],[120.261877,23.0069],[120.261754,23.006477],[120.262352,23.006189],[120.26212,23.005848],[120.263779,23.005067],[120.264427,23.006116],[120.265171,23.005604],[120.265031,23.005361],[120.265672,23.005131],[120.266175,23.005094],[120.266398,23.00543],[120.266004,23.005434],[120.265301,23.005703],[120.265769,23.006583],[120.26597,23.006651],[120.266314,23.007986],[120.265661,23.008414],[120.264457,23.012332]]]},"properties":{"code":"67000310014","name":"西灣里","countyCode":"67000","countyName":"臺南市","townCode":"67000310","townName":"永康區","level":"village","unassigned":false,"note":"","label":[120.26033075321405,23.01161829164755],"bounds":[120.253196,23.005067,120.266398,23.016729],"focusBounds":[120.253196,23.005067,120.266398,23.016729],"color":"#c38cb8"}},{"type":"Feature","id":"67000310015","geometry":{"type":"Polygon","coordinates":[[[120.263779,23.005067],[120.26212,23.005848],[120.262352,23.006189],[120.261754,23.006477],[120.256575,22.993575],[120.258552,22.994153],[120.25951,22.994243],[120.260335,22.994116],[120.260434,22.99466],[120.260804,22.994613],[120.267209,22.996527],[120.266018,23.000197],[120.266244,23.001094],[120.265671,23.001208],[120.266228,23.002758],[120.26529,23.003254],[120.265009,23.003567],[120.26384,23.004122],[120.264215,23.004762],[120.263779,23.005067]]]},"properties":{"code":"67000310015","name":"南灣里","countyCode":"67000","countyName":"臺南市","townCode":"67000310","townName":"永康區","level":"village","unassigned":false,"note":"","label":[120.26259383732827,22.998936412849847],"bounds":[120.256575,22.993575,120.267209,23.006477],"focusBounds":[120.256575,22.993575,120.267209,23.006477],"color":"#efb44f"}},{"type":"Feature","id":"67000310016","geometry":{"type":"Polygon","coordinates":[[[120.253196,23.009675],[120.252322,23.007955],[120.250823,23.004687],[120.250561,23.002449],[120.250501,22.991613],[120.250841,22.991898],[120.256575,22.993575],[120.261754,23.006477],[120.261877,23.0069],[120.253196,23.009675]]]},"properties":{"code":"67000310016","name":"崑山里","countyCode":"67000","countyName":"臺南市","townCode":"67000310","townName":"永康區","level":"village","unassigned":false,"note":"","label":[120.25494632331129,23.001431871049085],"bounds":[120.250501,22.991613,120.261877,23.009675],"focusBounds":[120.250501,22.991613,120.261877,23.009675],"color":"#58b99d"}},{"type":"Feature","id":"67000310017","geometry":{"type":"Polygon","coordinates":[[[120.275032,23.011068],[120.271995,23.013787],[120.271922,23.013667],[120.270913,23.011974],[120.269492,23.012282],[120.266229,23.011981],[120.266292,23.011284],[120.267495,23.011476],[120.267798,23.010395],[120.267794,23.009837],[120.269108,23.00927],[120.267945,23.00758],[120.274588,23.007564],[120.274973,23.010857],[120.275032,23.011068]]]},"properties":{"code":"67000310017","name":"北灣里","countyCode":"67000","countyName":"臺南市","townCode":"67000310","townName":"永康區","level":"village","unassigned":false,"note":"","label":[120.27167747011032,23.00991096367551],"bounds":[120.266229,23.007564,120.275032,23.013787],"focusBounds":[120.266229,23.007564,120.275032,23.013787],"color":"#efb44f"}},{"type":"Feature","id":"67000310018","geometry":{"type":"Polygon","coordinates":[[[120.28413,23.028078],[120.285353,23.028361],[120.286189,23.029249],[120.287538,23.029802],[120.288149,23.030869],[120.288759,23.031515],[120.288995,23.032327],[120.288846,23.033136],[120.287582,23.034348],[120.282641,23.032391],[120.273986,23.030033],[120.270769,23.029515],[120.269362,23.02935],[120.269608,23.020936],[120.274688,23.021049],[120.276256,23.020714],[120.277666,23.020857],[120.280441,23.02075],[120.283497,23.021182],[120.283257,23.021881],[120.283352,23.023238],[120.283168,23.024609],[120.283175,23.02643],[120.283404,23.027051],[120.284109,23.02762],[120.28413,23.028078]]]},"properties":{"code":"67000310018","name":"新樹里","countyCode":"67000","countyName":"臺南市","townCode":"67000310","townName":"永康區","level":"village","unassigned":false,"note":"","label":[120.27817248682744,23.02600550380721],"bounds":[120.269362,23.020714,120.288995,23.034348],"focusBounds":[120.269362,23.020714,120.288995,23.034348],"color":"#78a7e3"}},{"type":"Feature","id":"67000310019","geometry":{"type":"Polygon","coordinates":[[[120.244827,23.0019],[120.245814,23.002631],[120.245487,23.002774],[120.24547,23.003526],[120.24496,23.003558],[120.244894,23.003153],[120.244692,23.003218],[120.244612,23.003603],[120.244081,23.00361],[120.244135,23.004007],[120.24371,23.004089],[120.24366,23.004587],[120.243243,23.004708],[120.243267,23.005433],[120.242614,23.005431],[120.241925,23.005429],[120.241555,23.001019],[120.242141,23.000707],[120.241994,23.000367],[120.241097,23.000813],[120.241011,23.000641],[120.239992,23.000618],[120.23998,22.998511],[120.239783,22.996963],[120.239779,22.99431],[120.239926,22.993265],[120.241037,22.993192],[120.241438,22.993548],[120.241816,22.993231],[120.242646,22.993332],[120.243174,22.991948],[120.243587,22.991475],[120.243957,22.991677],[120.244419,22.991449],[120.244836,22.992014],[120.244396,22.99288],[120.244189,22.993799],[120.244217,22.998647],[120.243528,22.998645],[120.243029,22.999444],[120.243006,23.000176],[120.243274,23.000616],[120.24396,23.000854],[120.244072,23.000744],[120.244952,23.00133],[120.244689,23.001897],[120.244827,23.0019]]]},"properties":{"code":"67000310019","name":"復興里","countyCode":"67000","countyName":"臺南市","townCode":"67000310","townName":"永康區","level":"village","unassigned":false,"note":"","label":[120.24195078847998,22.99722950309222],"bounds":[120.239779,22.991449,120.245814,23.005433],"focusBounds":[120.239779,22.991449,120.245814,23.005433],"color":"#dd8590"}},{"type":"Feature","id":"67000310020","geometry":{"type":"Polygon","coordinates":[[[120.249482,23.012199],[120.242387,23.012415],[120.242243,23.011235],[120.241695,23.009978],[120.241693,23.008857],[120.241698,23.00881],[120.243924,23.009752],[120.243917,23.006662],[120.242788,23.006632],[120.242614,23.005431],[120.243267,23.005433],[120.243243,23.004708],[120.24366,23.004587],[120.24371,23.004089],[120.244135,23.004007],[120.244081,23.00361],[120.244612,23.003603],[120.244692,23.003218],[120.244894,23.003153],[120.24496,23.003558],[120.24547,23.003526],[120.245487,23.002774],[120.245814,23.002631],[120.244827,23.0019],[120.246222,23.001922],[120.247425,23.002307],[120.248136,23.002341],[120.248109,23.005357],[120.248614,23.008998],[120.249482,23.012199]]]},"properties":{"code":"67000310020","name":"復國里","countyCode":"67000","countyName":"臺南市","townCode":"67000310","townName":"永康區","level":"village","unassigned":false,"note":"","label":[120.24618729151528,23.008000076616653],"bounds":[120.241693,23.0019,120.249482,23.012415],"focusBounds":[120.241693,23.0019,120.249482,23.012415],"color":"#a49ad4"}},{"type":"Feature","id":"67000310021","geometry":{"type":"Polygon","coordinates":[[[120.252322,23.007955],[120.248614,23.008998],[120.248109,23.005357],[120.248136,23.002341],[120.247425,23.002307],[120.246222,23.001922],[120.244827,23.0019],[120.244689,23.001897],[120.244952,23.00133],[120.24497,23.001051],[120.245248,23.000975],[120.245121,23.000785],[120.24521,22.999686],[120.246414,22.999771],[120.246811,22.998643],[120.244217,22.998647],[120.244189,22.993799],[120.244396,22.99288],[120.244836,22.992014],[120.245412,22.992407],[120.249202,22.992473],[120.248528,22.991241],[120.24784,22.990682],[120.250355,22.991168],[120.250487,22.991223],[120.250501,22.991613],[120.250561,23.002449],[120.250823,23.004687],[120.252322,23.007955]]]},"properties":{"code":"67000310021","name":"建國里","countyCode":"67000","countyName":"臺南市","townCode":"67000310","townName":"永康區","level":"village","unassigned":false,"note":"","label":[120.24743049138095,22.995526584947342],"bounds":[120.244189,22.990682,120.252322,23.008998],"focusBounds":[120.244189,22.990682,120.252322,23.008998],"color":"#df9f6a"}},{"type":"Feature","id":"67000310022","geometry":{"type":"Polygon","coordinates":[[[120.242614,23.005431],[120.242788,23.006632],[120.243917,23.006662],[120.243924,23.009752],[120.241698,23.00881],[120.241742,23.008376],[120.240893,23.006466],[120.240194,23.005497],[120.240018,23.005478],[120.23998,23.00446],[120.239981,23.002111],[120.239992,23.000618],[120.241011,23.000641],[120.241097,23.000813],[120.241994,23.000367],[120.242141,23.000707],[120.241555,23.001019],[120.241925,23.005429],[120.242614,23.005431]]]},"properties":{"code":"67000310022","name":"神洲里","countyCode":"67000","countyName":"臺南市","townCode":"67000310","townName":"永康區","level":"village","unassigned":false,"note":"","label":[120.24098731255245,23.005003800545957],"bounds":[120.23998,23.000367,120.243924,23.009752],"focusBounds":[120.23998,23.000367,120.243924,23.009752],"color":"#68bec9"}},{"type":"Feature","id":"67000310023","geometry":{"type":"Polygon","coordinates":[[[120.292447,23.015855],[120.291379,23.016228],[120.289872,23.01728],[120.288621,23.017717],[120.286776,23.017951],[120.286183,23.01817],[120.284079,23.019555],[120.283497,23.021182],[120.280441,23.02075],[120.277666,23.020857],[120.276256,23.020714],[120.274688,23.021049],[120.269608,23.020936],[120.264735,23.020762],[120.265299,23.019896],[120.26544,23.019902],[120.266557,23.018255],[120.271922,23.013667],[120.271995,23.013787],[120.275032,23.011068],[120.277157,23.01115],[120.27993,23.010592],[120.281326,23.010663],[120.281949,23.010521],[120.282169,23.011319],[120.282047,23.012661],[120.282465,23.012882],[120.282343,23.013868],[120.282513,23.013961],[120.28351,23.01385],[120.285483,23.012661],[120.287335,23.013492],[120.287608,23.013254],[120.287584,23.012663],[120.287941,23.012411],[120.288771,23.012439],[120.289049,23.012683],[120.289362,23.012651],[120.289939,23.013159],[120.291482,23.012759],[120.2925,23.015801],[120.292447,23.015855]]]},"properties":{"code":"67000310023","name":"西勢里","countyCode":"67000","countyName":"臺南市","townCode":"67000310","townName":"永康區","level":"village","unassigned":false,"note":"","label":[120.27755777697655,23.01595750809038],"bounds":[120.264735,23.010521,120.2925,23.021182],"focusBounds":[120.264735,23.010521,120.2925,23.021182],"color":"#c38cb8"}},{"type":"Feature","id":"67000310024","geometry":{"type":"Polygon","coordinates":[[[120.23998,23.00446],[120.238888,23.00435],[120.23885,23.004534],[120.235347,23.004236],[120.235012,23.001113],[120.235541,23.001139],[120.236153,23.001592],[120.236347,23.001602],[120.236358,23.001406],[120.238301,23.001584],[120.238733,23.002057],[120.239981,23.002111],[120.23998,23.00446]]]},"properties":{"code":"67000310024","name":"成功里","countyCode":"67000","countyName":"臺南市","townCode":"67000310","townName":"永康區","level":"village","unassigned":false,"note":"","label":[120.23746483738861,23.00296191506726],"bounds":[120.235012,23.001113,120.239981,23.004534],"focusBounds":[120.235012,23.001113,120.239981,23.004534],"color":"#c38cb8"}},{"type":"Feature","id":"67000310025","geometry":{"type":"Polygon","coordinates":[[[120.241698,23.00881],[120.241693,23.008857],[120.240426,23.008534],[120.237707,23.008572],[120.233973,23.00851],[120.234698,23.007368],[120.235393,23.00589],[120.235347,23.004236],[120.23885,23.004534],[120.238888,23.00435],[120.23998,23.00446],[120.240018,23.005478],[120.240194,23.005497],[120.240893,23.006466],[120.241742,23.008376],[120.241698,23.00881]]]},"properties":{"code":"67000310025","name":"中興里","countyCode":"67000","countyName":"臺南市","townCode":"67000310","townName":"永康區","level":"village","unassigned":false,"note":"","label":[120.23791287617388,23.006511579053992],"bounds":[120.233973,23.004236,120.241742,23.008857],"focusBounds":[120.233973,23.004236,120.241742,23.008857],"color":"#98b69b"}},{"type":"Feature","id":"67000310026","geometry":{"type":"Polygon","coordinates":[[[120.234698,23.007368],[120.233048,23.007224],[120.232494,23.007921],[120.230032,23.008124],[120.230284,23.006158],[120.230015,23.005382],[120.229981,23.004575],[120.229343,23.003343],[120.22858,23.002173],[120.228539,23.001782],[120.229629,23.001453],[120.230003,23.001098],[120.230626,23.000827],[120.231107,23.00075],[120.232333,23.000942],[120.232745,23.000884],[120.232925,23.000294],[120.232968,22.998538],[120.233084,22.998499],[120.23475,22.998489],[120.235012,23.001113],[120.235347,23.004236],[120.235393,23.00589],[120.234698,23.007368]]]},"properties":{"code":"67000310026","name":"勝利里","countyCode":"67000","countyName":"臺南市","townCode":"67000310","townName":"永康區","level":"village","unassigned":false,"note":"","label":[120.23251976937246,23.003618812049517],"bounds":[120.228539,22.998489,120.235393,23.008124],"focusBounds":[120.228539,22.998489,120.235393,23.008124],"color":"#58b99d"}},{"type":"Feature","id":"67000310027","geometry":{"type":"Polygon","coordinates":[[[120.270769,23.029515],[120.27049,23.032182],[120.267397,23.031916],[120.267301,23.032636],[120.267104,23.032638],[120.267412,23.033443],[120.267559,23.034595],[120.268506,23.036223],[120.268227,23.040635],[120.262122,23.036053],[120.262846,23.031255],[120.262468,23.030394],[120.261276,23.027623],[120.265246,23.028941],[120.269362,23.02935],[120.270769,23.029515]]]},"properties":{"code":"67000310027","name":"龍潭里","countyCode":"67000","countyName":"臺南市","townCode":"67000310","townName":"永康區","level":"village","unassigned":false,"note":"","label":[120.26498944498917,23.033961959651553],"bounds":[120.261276,23.027623,120.270769,23.040635],"focusBounds":[120.261276,23.027623,120.270769,23.040635],"color":"#efb44f"}},{"type":"Feature","id":"67000310028","geometry":{"type":"Polygon","coordinates":[[[120.244217,22.998647],[120.246811,22.998643],[120.246414,22.999771],[120.24521,22.999686],[120.245121,23.000785],[120.245248,23.000975],[120.24497,23.001051],[120.244952,23.00133],[120.244072,23.000744],[120.24396,23.000854],[120.243274,23.000616],[120.243006,23.000176],[120.243029,22.999444],[120.243528,22.998645],[120.244217,22.998647]]]},"properties":{"code":"67000310028","name":"光復里","countyCode":"67000","countyName":"臺南市","townCode":"67000310","townName":"永康區","level":"village","unassigned":false,"note":"","label":[120.24410517778239,22.99970660737054],"bounds":[120.243006,22.998643,120.246811,23.00133],"focusBounds":[120.243006,22.998643,120.246811,23.00133],"color":"#78a7e3"}},{"type":"Feature","id":"67000310029","geometry":{"type":"Polygon","coordinates":[[[120.241326,23.04894],[120.239832,23.050852],[120.236837,23.049166],[120.235901,23.049044],[120.234836,23.049256],[120.234214,23.048958],[120.23324,23.048356],[120.232227,23.047446],[120.230057,23.046158],[120.229079,23.045755],[120.226989,23.043576],[120.225322,23.042069],[120.224489,23.03996],[120.223329,23.037899],[120.223191,23.036239],[120.222262,23.034944],[120.22154,23.033317],[120.220953,23.032423],[120.22293,23.031802],[120.223468,23.03259],[120.224047,23.032801],[120.224903,23.032417],[120.22551,23.031584],[120.226512,23.03221],[120.226861,23.031648],[120.227425,23.032212],[120.23014,23.035123],[120.232238,23.037076],[120.236544,23.040765],[120.237352,23.041265],[120.237219,23.041423],[120.238358,23.042683],[120.241326,23.04894]]]},"properties":{"code":"67000310029","name":"塩洲里","countyCode":"67000","countyName":"臺南市","townCode":"67000310","townName":"永康區","level":"village","unassigned":false,"note":"","label":[120.23128576564972,23.04200167963566],"bounds":[120.220953,23.031584,120.241326,23.050852],"focusBounds":[120.220953,23.031584,120.241326,23.050852],"color":"#a8bf62"}},{"type":"Feature","id":"67000310030","geometry":{"type":"Polygon","coordinates":[[[120.250642,23.017595],[120.250526,23.019902],[120.250008,23.022241],[120.244913,23.020364],[120.242575,23.019889],[120.235632,23.015368],[120.236278,23.013945],[120.237451,23.014261],[120.238023,23.014244],[120.237973,23.0134],[120.240555,23.013024],[120.24056,23.012811],[120.241022,23.012793],[120.241013,23.013358],[120.242575,23.013436],[120.242791,23.016178],[120.243439,23.017283],[120.243522,23.017682],[120.250642,23.017595]]]},"properties":{"code":"67000310030","name":"二王里","countyCode":"67000","countyName":"臺南市","townCode":"67000310","townName":"永康區","level":"village","unassigned":false,"note":"","label":[120.2403585811473,23.015749423221852],"bounds":[120.235632,23.012793,120.250642,23.022241],"focusBounds":[120.235632,23.012793,120.250642,23.022241],"color":"#a49ad4"}},{"type":"Feature","id":"67000310031","geometry":{"type":"Polygon","coordinates":[[[120.23081,23.013485],[120.23081,23.013487],[120.227907,23.012579],[120.226164,23.011264],[120.227811,23.011366],[120.228409,23.010835],[120.229107,23.01065],[120.229342,23.009866],[120.230032,23.008124],[120.232494,23.007921],[120.233048,23.007224],[120.234698,23.007368],[120.233973,23.00851],[120.23081,23.013485]]]},"properties":{"code":"67000310031","name":"六合里","countyCode":"67000","countyName":"臺南市","townCode":"67000310","townName":"永康區","level":"village","unassigned":false,"note":"","label":[120.23088297680374,23.0103243822051],"bounds":[120.226164,23.007224,120.234698,23.013487],"focusBounds":[120.226164,23.007224,120.234698,23.013487],"color":"#a8bf62"}},{"type":"Feature","id":"67000310032","geometry":{"type":"Polygon","coordinates":[[[120.242575,23.013436],[120.241013,23.013358],[120.241022,23.012793],[120.24056,23.012811],[120.240555,23.013024],[120.237973,23.0134],[120.238023,23.014244],[120.237451,23.014261],[120.236278,23.013945],[120.237707,23.008572],[120.240426,23.008534],[120.241693,23.008857],[120.241695,23.009978],[120.242243,23.011235],[120.242387,23.012415],[120.242575,23.013436]]]},"properties":{"code":"67000310032","name":"三合里","countyCode":"67000","countyName":"臺南市","townCode":"67000310","townName":"永康區","level":"village","unassigned":false,"note":"","label":[120.23942105748813,23.01086869135723],"bounds":[120.236278,23.008534,120.242575,23.014261],"focusBounds":[120.236278,23.008534,120.242575,23.014261],"color":"#df9f6a"}},{"type":"Feature","id":"67000310033","geometry":{"type":"Polygon","coordinates":[[[120.249599,23.024121],[120.249384,23.025561],[120.249285,23.028168],[120.24943,23.03121],[120.2503,23.036102],[120.246089,23.03295],[120.236862,23.027592],[120.229679,23.023433],[120.230476,23.022822],[120.232726,23.019898],[120.231947,23.01945],[120.235128,23.01503],[120.235632,23.015368],[120.242575,23.019889],[120.244913,23.020364],[120.250008,23.022241],[120.249599,23.024121]]]},"properties":{"code":"67000310033","name":"東橋里","countyCode":"67000","countyName":"臺南市","townCode":"67000310","townName":"永康區","level":"village","unassigned":false,"note":"","label":[120.24117446802762,23.02453668090343],"bounds":[120.229679,23.01503,120.2503,23.036102],"focusBounds":[120.229679,23.01503,120.2503,23.036102],"color":"#c38cb8"}},{"type":"Feature","id":"67000310034","geometry":{"type":"Polygon","coordinates":[[[120.23081,23.013487],[120.228699,23.016584],[120.227733,23.017536],[120.226745,23.018245],[120.225746,23.016881],[120.225676,23.016347],[120.225808,23.01588],[120.227907,23.012579],[120.23081,23.013487]]]},"properties":{"code":"67000310034","name":"安康里","countyCode":"67000","countyName":"臺南市","townCode":"67000310","townName":"永康區","level":"village","unassigned":false,"note":"","label":[120.22791237558643,23.0152035063449],"bounds":[120.225676,23.012579,120.23081,23.018245],"focusBounds":[120.225676,23.012579,120.23081,23.018245],"color":"#c38cb8"}},{"type":"Feature","id":"67000310035","geometry":{"type":"Polygon","coordinates":[[[120.226745,23.018245],[120.224479,23.019679],[120.22302,23.017592],[120.222871,23.016535],[120.224081,23.016348],[120.224478,23.015768],[120.224225,23.015413],[120.224346,23.014686],[120.225144,23.013825],[120.225058,23.013365],[120.224736,23.013286],[120.224902,23.012653],[120.22543,23.012486],[120.226262,23.012503],[120.225589,23.011609],[120.226164,23.011264],[120.227907,23.012579],[120.225808,23.01588],[120.225676,23.016347],[120.225746,23.016881],[120.226745,23.018245]]]},"properties":{"code":"67000310035","name":"西橋里","countyCode":"67000","countyName":"臺南市","townCode":"67000310","townName":"永康區","level":"village","unassigned":false,"note":"","label":[120.22466671769965,23.017637076939305],"bounds":[120.222871,23.011264,120.227907,23.019679],"focusBounds":[120.222871,23.011264,120.227907,23.019679],"color":"#efb44f"}},{"type":"Feature","id":"67000310036","geometry":{"type":"Polygon","coordinates":[[[120.227425,23.032212],[120.226861,23.031648],[120.226512,23.03221],[120.22551,23.031584],[120.224903,23.032417],[120.224047,23.032801],[120.223468,23.03259],[120.22293,23.031802],[120.220953,23.032423],[120.220597,23.031587],[120.220243,23.02978],[120.219756,23.028961],[120.215412,23.025056],[120.215402,23.025049],[120.215869,23.023423],[120.217729,23.024576],[120.218422,23.023804],[120.218212,23.023648],[120.224479,23.019679],[120.225127,23.020489],[120.226252,23.021425],[120.229679,23.023433],[120.236862,23.027592],[120.236652,23.028351],[120.235336,23.030523],[120.233605,23.029601],[120.233226,23.029764],[120.232609,23.029684],[120.231416,23.030277],[120.2302,23.030314],[120.230672,23.031373],[120.230115,23.031755],[120.229475,23.030987],[120.227425,23.032212]]]},"properties":{"code":"67000310036","name":"尚頂里","countyCode":"67000","countyName":"臺南市","townCode":"67000310","townName":"永康區","level":"village","unassigned":false,"note":"","label":[120.22466918072986,23.02670699517962],"bounds":[120.215402,23.019679,120.236862,23.032801],"focusBounds":[120.215402,23.019679,120.236862,23.032801],"color":"#58b99d"}},{"type":"Feature","id":"67000310037","geometry":{"type":"Polygon","coordinates":[[[120.250642,23.017595],[120.243522,23.017682],[120.243439,23.017283],[120.242791,23.016178],[120.242575,23.013436],[120.242387,23.012415],[120.249482,23.012199],[120.250351,23.015455],[120.250642,23.017595]]]},"properties":{"code":"67000310037","name":"復華里","countyCode":"67000","countyName":"臺南市","townCode":"67000310","townName":"永康區","level":"village","unassigned":false,"note":"","label":[120.24648761640249,23.014967865284508],"bounds":[120.242387,23.012199,120.250642,23.017682],"focusBounds":[120.242387,23.012199,120.250642,23.017682],"color":"#efb44f"}},{"type":"Feature","id":"67000310038","geometry":{"type":"Polygon","coordinates":[[[120.256813,23.027735],[120.256581,23.028602],[120.256194,23.028743],[120.253223,23.031009],[120.251101,23.036792],[120.2503,23.036102],[120.24943,23.03121],[120.249285,23.028168],[120.249384,23.025561],[120.249599,23.024121],[120.252287,23.024635],[120.252141,23.025863],[120.253546,23.026312],[120.253441,23.026682],[120.254089,23.026775],[120.254145,23.026545],[120.254895,23.026702],[120.255239,23.027097],[120.255885,23.027154],[120.256875,23.027511],[120.256813,23.027735]]]},"properties":{"code":"67000310038","name":"正強里","countyCode":"67000","countyName":"臺南市","townCode":"67000310","townName":"永康區","level":"village","unassigned":false,"note":"","label":[120.2518222594185,23.028823900513878],"bounds":[120.249285,23.024121,120.256875,23.036792],"focusBounds":[120.249285,23.024121,120.256875,23.036792],"color":"#dd8590"}},{"type":"Feature","id":"67000310039","geometry":{"type":"Polygon","coordinates":[[[120.239992,23.000618],[120.239981,23.002111],[120.238733,23.002057],[120.238301,23.001584],[120.236358,23.001406],[120.236347,23.001602],[120.236153,23.001592],[120.235541,23.001139],[120.235012,23.001113],[120.23475,22.998489],[120.23998,22.998511],[120.239992,23.000618]]]},"properties":{"code":"67000310039","name":"中華里","countyCode":"67000","countyName":"臺南市","townCode":"67000310","townName":"永康區","level":"village","unassigned":false,"note":"","label":[120.23757581779302,23.00000926151257],"bounds":[120.23475,22.998489,120.239992,23.002111],"focusBounds":[120.23475,22.998489,120.239992,23.002111],"color":"#a8bf62"}},{"type":"Feature","id":"67000310040","geometry":{"type":"Polygon","coordinates":[[[120.271922,23.013667],[120.266557,23.018255],[120.26544,23.019902],[120.265299,23.019896],[120.262298,23.019103],[120.263017,23.016729],[120.264457,23.012332],[120.266229,23.011981],[120.269492,23.012282],[120.270913,23.011974],[120.271922,23.013667]]]},"properties":{"code":"67000310040","name":"北興里","countyCode":"67000","countyName":"臺南市","townCode":"67000310","townName":"永康區","level":"village","unassigned":false,"note":"","label":[120.26651077523694,23.0147279305415],"bounds":[120.262298,23.011974,120.271922,23.019902],"focusBounds":[120.262298,23.011974,120.271922,23.019902],"color":"#a49ad4"}},{"type":"Feature","id":"67000310041","geometry":{"type":"Polygon","coordinates":[[[120.262122,23.036053],[120.261075,23.044092],[120.260706,23.044494],[120.254063,23.03917],[120.258813,23.038607],[120.260095,23.030666],[120.262468,23.030394],[120.262846,23.031255],[120.262122,23.036053]]]},"properties":{"code":"67000310041","name":"龍埔里","countyCode":"67000","countyName":"臺南市","townCode":"67000310","townName":"永康區","level":"village","unassigned":false,"note":"","label":[120.25945420979953,23.040660153851668],"bounds":[120.254063,23.030394,120.262846,23.044494],"focusBounds":[120.254063,23.030394,120.262846,23.044494],"color":"#a8bf62"}},{"type":"Feature","id":"67000310042","geometry":{"type":"Polygon","coordinates":[[[120.269608,23.020936],[120.269362,23.02935],[120.265246,23.028941],[120.261276,23.027623],[120.261087,23.027037],[120.261134,23.026676],[120.264065,23.022179],[120.263851,23.02213],[120.264735,23.020762],[120.269608,23.020936]]]},"properties":{"code":"67000310042","name":"永明里","countyCode":"67000","countyName":"臺南市","townCode":"67000310","townName":"永康區","level":"village","unassigned":false,"note":"","label":[120.26615577504782,23.025165621068822],"bounds":[120.261087,23.020762,120.269608,23.02935],"focusBounds":[120.261087,23.020762,120.269608,23.02935],"color":"#68bec9"}},{"type":"Feature","id":"67000310043","geometry":{"type":"Polygon","coordinates":[[[120.244683,23.045307],[120.241326,23.04894],[120.238358,23.042683],[120.237219,23.041423],[120.237352,23.041265],[120.238301,23.041439],[120.24657,23.04172],[120.24638,23.043415],[120.244683,23.045307]]]},"properties":{"code":"67000310043","name":"塩興里","countyCode":"67000","countyName":"臺南市","townCode":"67000310","townName":"永康區","level":"village","unassigned":false,"note":"","label":[120.24206548869968,23.04421595984217],"bounds":[120.237219,23.041265,120.24657,23.04894],"focusBounds":[120.237219,23.041265,120.24657,23.04894],"color":"#df9f6a"}}]}
