{"type":"FeatureCollection","features":[{"type":"Feature","id":"67000060001","geometry":{"type":"Polygon","coordinates":[[[120.407303,23.338439],[120.407148,23.338944],[120.406236,23.340205],[120.405729,23.341233],[120.405091,23.341652],[120.404568,23.341626],[120.40297,23.340146],[120.402698,23.339377],[120.402713,23.337045],[120.403137,23.335466],[120.403543,23.334635],[120.404277,23.333663],[120.4045,23.332906],[120.404174,23.332368],[120.403671,23.332043],[120.401961,23.331761],[120.401506,23.331921],[120.400676,23.332971],[120.399465,23.335093],[120.398718,23.336961],[120.398838,23.33888],[120.398683,23.339502],[120.398068,23.339799],[120.396249,23.339887],[120.395329,23.340003],[120.394449,23.340364],[120.393852,23.340237],[120.393478,23.339927],[120.393356,23.339475],[120.393778,23.338824],[120.394031,23.337886],[120.393885,23.336799],[120.394679,23.336644],[120.395096,23.336343],[120.395492,23.335801],[120.395555,23.335325],[120.39505,23.332634],[120.394068,23.330692],[120.394527,23.326739],[120.392653,23.323689],[120.400074,23.322712],[120.400473,23.323882],[120.401718,23.323946],[120.401708,23.324085],[120.402604,23.32407],[120.402593,23.324163],[120.40514,23.324205],[120.405164,23.326186],[120.406637,23.328134],[120.406992,23.328946],[120.406797,23.333778],[120.406433,23.336755],[120.406441,23.336974],[120.406795,23.336996],[120.407306,23.338222],[120.407303,23.338439]]]},"properties":{"code":"67000060001","name":"東山里","countyCode":"67000","countyName":"臺南市","townCode":"67000060","townName":"東山區","level":"village","unassigned":false,"note":"","label":[120.3989018600911,23.32842814145605],"bounds":[120.392653,23.322712,120.407306,23.341652],"focusBounds":[120.392653,23.322712,120.407306,23.341652],"color":"#78a7e3"}},{"type":"Feature","id":"67000060002","geometry":{"type":"Polygon","coordinates":[[[120.408325,23.316017],[120.404859,23.320647],[120.40514,23.324205],[120.402593,23.324163],[120.402604,23.32407],[120.401708,23.324085],[120.401718,23.323946],[120.400473,23.323882],[120.400074,23.322712],[120.392653,23.323689],[120.392121,23.322799],[120.39183,23.321962],[120.3917,23.320966],[120.391808,23.319909],[120.396042,23.309674],[120.396095,23.308601],[120.395622,23.307526],[120.394231,23.305227],[120.392167,23.302971],[120.391235,23.302188],[120.393898,23.301519],[120.394865,23.301809],[120.39539,23.301257],[120.396067,23.301294],[120.396726,23.300653],[120.397268,23.300782],[120.398101,23.300726],[120.398889,23.30126],[120.399359,23.300521],[120.4072,23.310132],[120.406533,23.31034],[120.408518,23.315726],[120.408325,23.316017]]]},"properties":{"code":"67000060002","name":"東中里","countyCode":"67000","countyName":"臺南市","townCode":"67000060","townName":"東山區","level":"village","unassigned":false,"note":"","label":[120.40076186807184,23.315044102666548],"bounds":[120.391235,23.300521,120.408518,23.324205],"focusBounds":[120.391235,23.300521,120.408518,23.324205],"color":"#dd8590"}},{"type":"Feature","id":"67000060003","geometry":{"type":"Polygon","coordinates":[[[120.419121,23.325035],[120.41886,23.324841],[120.418497,23.324973],[120.417823,23.325885],[120.416913,23.32642],[120.416045,23.327257],[120.415541,23.328518],[120.415564,23.329763],[120.415123,23.332343],[120.413801,23.332239],[120.413172,23.332349],[120.412736,23.332943],[120.412459,23.333997],[120.41176,23.334689],[120.411428,23.334838],[120.410175,23.334965],[120.40811,23.334607],[120.407259,23.33525],[120.406965,23.335649],[120.406766,23.336246],[120.406795,23.336996],[120.406441,23.336974],[120.406433,23.336755],[120.406797,23.333778],[120.406992,23.328946],[120.406637,23.328134],[120.405164,23.326186],[120.40514,23.324205],[120.404859,23.320647],[120.408325,23.316017],[120.409922,23.315777],[120.410235,23.319026],[120.41017,23.319642],[120.413971,23.319024],[120.414409,23.321326],[120.416787,23.321471],[120.417268,23.321821],[120.41876,23.323621],[120.419121,23.325035]]]},"properties":{"code":"67000060003","name":"東正里","countyCode":"67000","countyName":"臺南市","townCode":"67000060","townName":"東山區","level":"village","unassigned":false,"note":"","label":[120.4109608270085,23.32525450967072],"bounds":[120.404859,23.315777,120.419121,23.336996],"focusBounds":[120.404859,23.315777,120.419121,23.336996],"color":"#a49ad4"}},{"type":"Feature","id":"67000060004","geometry":{"type":"Polygon","coordinates":[[[120.390291,23.339662],[120.389941,23.340067],[120.387719,23.339854],[120.386248,23.33936],[120.385302,23.338533],[120.384828,23.337565],[120.384669,23.336454],[120.385135,23.331707],[120.383306,23.332031],[120.3832,23.332201],[120.380395,23.333443],[120.379388,23.333778],[120.378644,23.333855],[120.378351,23.332744],[120.378429,23.332068],[120.378674,23.331583],[120.379806,23.330073],[120.381237,23.328552],[120.383077,23.327053],[120.381619,23.32571],[120.381063,23.325535],[120.380365,23.325708],[120.377948,23.325649],[120.376688,23.325893],[120.375213,23.326572],[120.374776,23.326585],[120.374086,23.326357],[120.372534,23.326696],[120.371436,23.326533],[120.369359,23.325439],[120.369203,23.324939],[120.369365,23.324693],[120.370122,23.324361],[120.370903,23.324218],[120.371354,23.323869],[120.371706,23.322748],[120.372761,23.321123],[120.37204,23.319475],[120.371773,23.317145],[120.372826,23.317137],[120.374103,23.316668],[120.375361,23.316744],[120.376138,23.316478],[120.376272,23.316278],[120.376285,23.315378],[120.375957,23.315069],[120.375912,23.314536],[120.376249,23.314044],[120.37711,23.313491],[120.377293,23.313058],[120.377694,23.313207],[120.377919,23.313106],[120.378024,23.312772],[120.377764,23.312422],[120.377778,23.31211],[120.377957,23.311878],[120.378447,23.311752],[120.378781,23.310178],[120.379964,23.309377],[120.380621,23.308645],[120.380638,23.308136],[120.380882,23.307987],[120.384826,23.306544],[120.386057,23.306531],[120.387926,23.30766],[120.388913,23.30877],[120.389161,23.308862],[120.389878,23.308697],[120.391999,23.308986],[120.393366,23.308469],[120.393862,23.308471],[120.394387,23.308284],[120.395622,23.307526],[120.396095,23.308601],[120.396042,23.309674],[120.391808,23.319909],[120.3917,23.320966],[120.39183,23.321962],[120.392121,23.322799],[120.392653,23.323689],[120.394527,23.326739],[120.394068,23.330692],[120.39505,23.332634],[120.395555,23.335325],[120.395492,23.335801],[120.395096,23.336343],[120.394679,23.336644],[120.393885,23.336799],[120.393506,23.335112],[120.392818,23.333302],[120.392234,23.332532],[120.391515,23.332188],[120.391156,23.332209],[120.390421,23.333332],[120.390062,23.334641],[120.390024,23.335959],[120.390349,23.338088],[120.390291,23.339662]]]},"properties":{"code":"67000060004","name":"三榮里","countyCode":"67000","countyName":"臺南市","townCode":"67000060","townName":"東山區","level":"village","unassigned":false,"note":"","label":[120.38399456382295,23.31820791011225],"bounds":[120.369203,23.306531,120.396095,23.340067],"focusBounds":[120.369203,23.306531,120.396095,23.340067],"color":"#a49ad4"}},{"type":"Feature","id":"67000060005","geometry":{"type":"Polygon","coordinates":[[[120.435816,23.316059],[120.435105,23.316316],[120.433918,23.317151],[120.433105,23.318432],[120.431299,23.320623],[120.429976,23.320994],[120.428459,23.321966],[120.427083,23.32202],[120.426427,23.322182],[120.423125,23.324803],[120.422656,23.324748],[120.422017,23.325103],[120.42043,23.325514],[120.419725,23.325493],[120.419121,23.325035],[120.41876,23.323621],[120.417268,23.321821],[120.416787,23.321471],[120.414409,23.321326],[120.413971,23.319024],[120.41017,23.319642],[120.410235,23.319026],[120.409922,23.315777],[120.408325,23.316017],[120.408518,23.315726],[120.406533,23.31034],[120.4072,23.310132],[120.409743,23.309633],[120.409785,23.308755],[120.410366,23.308675],[120.410503,23.308973],[120.414233,23.308381],[120.414322,23.308697],[120.415497,23.308077],[120.420678,23.306907],[120.420893,23.306711],[120.420933,23.305707],[120.423661,23.302875],[120.42405,23.302704],[120.425264,23.30268],[120.426346,23.299835],[120.427004,23.298988],[120.428405,23.29819],[120.429353,23.303031],[120.430169,23.305673],[120.431619,23.307114],[120.434079,23.308405],[120.436876,23.309612],[120.438536,23.31132],[120.440539,23.313706],[120.440355,23.314199],[120.440118,23.314386],[120.439759,23.314236],[120.439857,23.313761],[120.439522,23.313573],[120.439103,23.313818],[120.438728,23.313489],[120.438375,23.313904],[120.437884,23.31396],[120.437931,23.314246],[120.437768,23.314497],[120.437504,23.314357],[120.437118,23.314437],[120.436817,23.314233],[120.436552,23.314558],[120.436658,23.315039],[120.436322,23.315321],[120.435901,23.315422],[120.435816,23.316059]]]},"properties":{"code":"67000060005","name":"大客里","countyCode":"67000","countyName":"臺南市","townCode":"67000060","townName":"東山區","level":"village","unassigned":false,"note":"","label":[120.42339795593273,23.31463993085464],"bounds":[120.406533,23.29819,120.440539,23.325514],"focusBounds":[120.406533,23.29819,120.440539,23.325514],"color":"#a8bf62"}},{"type":"Feature","id":"67000060006","geometry":{"type":"Polygon","coordinates":[[[120.428405,23.29819],[120.427004,23.298988],[120.426346,23.299835],[120.425264,23.30268],[120.42405,23.302704],[120.423661,23.302875],[120.420933,23.305707],[120.420893,23.306711],[120.420678,23.306907],[120.415497,23.308077],[120.414322,23.308697],[120.414233,23.308381],[120.410503,23.308973],[120.410366,23.308675],[120.409785,23.308755],[120.409743,23.309633],[120.4072,23.310132],[120.399359,23.300521],[120.398889,23.30126],[120.398101,23.300726],[120.397268,23.300782],[120.396726,23.300653],[120.396067,23.301294],[120.39539,23.301257],[120.394865,23.301809],[120.393898,23.301519],[120.391235,23.302188],[120.390092,23.301238],[120.388447,23.299531],[120.388105,23.298938],[120.388031,23.298457],[120.388238,23.297257],[120.38774,23.295381],[120.387721,23.294798],[120.387908,23.290969],[120.387091,23.288662],[120.387795,23.287843],[120.388576,23.287346],[120.391242,23.286125],[120.392388,23.286022],[120.393377,23.284182],[120.394342,23.279347],[120.395446,23.279473],[120.396976,23.280127],[120.398144,23.280023],[120.400078,23.280908],[120.400558,23.280542],[120.401355,23.280615],[120.401318,23.280843],[120.402,23.282345],[120.402249,23.282253],[120.402285,23.281836],[120.402928,23.281827],[120.403456,23.282581],[120.403707,23.282008],[120.40362,23.281132],[120.403823,23.280959],[120.404084,23.280955],[120.404711,23.281477],[120.40526,23.281464],[120.406004,23.281245],[120.406753,23.281776],[120.407183,23.281895],[120.406902,23.282312],[120.407001,23.282648],[120.40791,23.283241],[120.407271,23.283717],[120.406985,23.283743],[120.406871,23.283975],[120.406959,23.28414],[120.407851,23.284518],[120.407861,23.284914],[120.407586,23.28526],[120.408169,23.285443],[120.40839,23.286512],[120.409222,23.287099],[120.409417,23.287403],[120.409405,23.287513],[120.409071,23.287571],[120.408932,23.287983],[120.409065,23.288408],[120.409607,23.288999],[120.409848,23.290118],[120.410127,23.290295],[120.41057,23.290394],[120.412342,23.290135],[120.412772,23.290265],[120.413411,23.290209],[120.413868,23.290024],[120.414456,23.289492],[120.414845,23.289536],[120.415129,23.289382],[120.415844,23.289965],[120.41626,23.289979],[120.416597,23.289804],[120.417585,23.289944],[120.418653,23.289703],[120.418643,23.290092],[120.420104,23.291134],[120.421493,23.292468],[120.425285,23.29462],[120.426904,23.29592],[120.427429,23.296743],[120.428405,23.29819]]]},"properties":{"code":"67000060006","name":"科里里","countyCode":"67000","countyName":"臺南市","townCode":"67000060","townName":"東山區","level":"village","unassigned":false,"note":"","label":[120.41090367760233,23.299489671556334],"bounds":[120.387091,23.279347,120.428405,23.310132],"focusBounds":[120.387091,23.279347,120.428405,23.310132],"color":"#df9f6a"}},{"type":"Feature","id":"67000060007","geometry":{"type":"Polygon","coordinates":[[[120.395622,23.307526],[120.394387,23.308284],[120.393862,23.308471],[120.393366,23.308469],[120.391999,23.308986],[120.389878,23.308697],[120.389161,23.308862],[120.388913,23.30877],[120.387926,23.30766],[120.386057,23.306531],[120.384826,23.306544],[120.382831,23.30418],[120.380712,23.302805],[120.38014,23.302711],[120.379741,23.30247],[120.378224,23.303164],[120.377364,23.302844],[120.376408,23.303201],[120.376176,23.30342],[120.375773,23.303199],[120.374139,23.303422],[120.37337,23.303243],[120.373257,23.303533],[120.373424,23.303929],[120.373127,23.304089],[120.372248,23.303558],[120.37095,23.303555],[120.370262,23.303291],[120.371494,23.302661],[120.372185,23.30251],[120.372025,23.301734],[120.372009,23.300186],[120.37065,23.300157],[120.370616,23.297665],[120.367076,23.297651],[120.368117,23.294681],[120.368534,23.294173],[120.369994,23.293244],[120.37147,23.292826],[120.372356,23.292806],[120.373813,23.293318],[120.374561,23.293074],[120.375286,23.292552],[120.376618,23.290547],[120.377888,23.289684],[120.379355,23.289827],[120.380593,23.29029],[120.383227,23.290574],[120.384815,23.290397],[120.385594,23.29011],[120.387091,23.288662],[120.387908,23.290969],[120.387721,23.294798],[120.38774,23.295381],[120.388238,23.297257],[120.388031,23.298457],[120.388105,23.298938],[120.388447,23.299531],[120.390092,23.301238],[120.391235,23.302188],[120.392167,23.302971],[120.394231,23.305227],[120.395622,23.307526]]]},"properties":{"code":"67000060007","name":"東河里","countyCode":"67000","countyName":"臺南市","townCode":"67000060","townName":"東山區","level":"village","unassigned":false,"note":"","label":[120.38165968867652,23.29691223550661],"bounds":[120.367076,23.288662,120.395622,23.308986],"focusBounds":[120.367076,23.288662,120.395622,23.308986],"color":"#c38cb8"}},{"type":"Feature","id":"67000060008","geometry":{"type":"Polygon","coordinates":[[[120.40526,23.281464],[120.404711,23.281477],[120.404084,23.280955],[120.403823,23.280959],[120.40362,23.281132],[120.403707,23.282008],[120.403456,23.282581],[120.402928,23.281827],[120.402285,23.281836],[120.402249,23.282253],[120.402,23.282345],[120.401318,23.280843],[120.401355,23.280615],[120.400558,23.280542],[120.400078,23.280908],[120.398144,23.280023],[120.396976,23.280127],[120.395446,23.279473],[120.394342,23.279347],[120.394298,23.27858],[120.393305,23.276886],[120.392177,23.27603],[120.391796,23.275975],[120.391538,23.276091],[120.391136,23.275735],[120.39063,23.27587],[120.390315,23.27633],[120.389621,23.276048],[120.389397,23.275692],[120.38939,23.274689],[120.389651,23.271784],[120.390029,23.270468],[120.390465,23.269764],[120.390722,23.268944],[120.391665,23.268183],[120.393593,23.267876],[120.394398,23.267258],[120.394607,23.266829],[120.394504,23.266589],[120.394609,23.266231],[120.394508,23.265825],[120.393924,23.265022],[120.395065,23.263668],[120.395394,23.263043],[120.3964,23.262879],[120.396735,23.26302],[120.396845,23.263288],[120.397627,23.263842],[120.399239,23.263837],[120.399589,23.264162],[120.400058,23.265112],[120.400645,23.265378],[120.400864,23.265166],[120.400934,23.264414],[120.401195,23.264006],[120.401927,23.263869],[120.402571,23.263407],[120.4041,23.263213],[120.405587,23.26219],[120.405984,23.262364],[120.406677,23.263163],[120.407162,23.263359],[120.407967,23.263405],[120.408901,23.263839],[120.409233,23.263668],[120.409969,23.263778],[120.41112,23.263582],[120.411815,23.263287],[120.412726,23.263265],[120.412948,23.262869],[120.41246,23.261507],[120.41279,23.261412],[120.413512,23.261843],[120.413772,23.261845],[120.414747,23.262723],[120.414936,23.263097],[120.415271,23.26263],[120.416483,23.262645],[120.416592,23.262127],[120.416971,23.262207],[120.417179,23.261855],[120.417214,23.262156],[120.417644,23.262783],[120.417205,23.26322],[120.41732,23.263838],[120.417731,23.264585],[120.417497,23.264804],[120.416727,23.265049],[120.416643,23.265613],[120.415951,23.265488],[120.415686,23.266696],[120.415353,23.266882],[120.414687,23.266904],[120.414729,23.267189],[120.4154,23.267779],[120.415468,23.268053],[120.414177,23.267858],[120.414007,23.268016],[120.413994,23.268645],[120.413179,23.268672],[120.413437,23.26895],[120.414172,23.268953],[120.414008,23.269648],[120.413491,23.26981],[120.413628,23.270049],[120.414175,23.270023],[120.413979,23.270418],[120.413091,23.270892],[120.41311,23.271162],[120.412772,23.27131],[120.41219,23.271305],[120.411944,23.270908],[120.411492,23.270815],[120.411315,23.271364],[120.410825,23.271614],[120.410742,23.272711],[120.410268,23.272745],[120.410209,23.272861],[120.410344,23.273548],[120.410643,23.273843],[120.410974,23.274743],[120.410844,23.275483],[120.407135,23.276145],[120.405497,23.279353],[120.40526,23.281464]]]},"properties":{"code":"67000060008","name":"南溪里","countyCode":"67000","countyName":"臺南市","townCode":"67000060","townName":"東山區","level":"village","unassigned":false,"note":"","label":[120.40101063202358,23.272438594689266],"bounds":[120.38939,23.261412,120.417731,23.282581],"focusBounds":[120.38939,23.261412,120.417731,23.282581],"color":"#c38cb8"}},{"type":"Feature","id":"67000060009","geometry":{"type":"Polygon","coordinates":[[[120.418653,23.289703],[120.417585,23.289944],[120.416597,23.289804],[120.41626,23.289979],[120.415844,23.289965],[120.415129,23.289382],[120.414845,23.289536],[120.414456,23.289492],[120.413868,23.290024],[120.413411,23.290209],[120.412772,23.290265],[120.412342,23.290135],[120.41057,23.290394],[120.410127,23.290295],[120.409848,23.290118],[120.409607,23.288999],[120.409065,23.288408],[120.408932,23.287983],[120.409071,23.287571],[120.409405,23.287513],[120.409417,23.287403],[120.409222,23.287099],[120.40839,23.286512],[120.408169,23.285443],[120.407586,23.28526],[120.407861,23.284914],[120.407851,23.284518],[120.406959,23.28414],[120.406871,23.283975],[120.406985,23.283743],[120.407271,23.283717],[120.40791,23.283241],[120.407001,23.282648],[120.406902,23.282312],[120.407183,23.281895],[120.406753,23.281776],[120.406004,23.281245],[120.40526,23.281464],[120.405497,23.279353],[120.407135,23.276145],[120.410844,23.275483],[120.410974,23.274743],[120.410643,23.273843],[120.410344,23.273548],[120.410209,23.272861],[120.410268,23.272745],[120.410742,23.272711],[120.410825,23.271614],[120.411315,23.271364],[120.411492,23.270815],[120.411944,23.270908],[120.41219,23.271305],[120.412772,23.27131],[120.41311,23.271162],[120.413091,23.270892],[120.413979,23.270418],[120.414175,23.270023],[120.413628,23.270049],[120.413491,23.26981],[120.414008,23.269648],[120.414172,23.268953],[120.413437,23.26895],[120.413179,23.268672],[120.413994,23.268645],[120.414007,23.268016],[120.414177,23.267858],[120.415468,23.268053],[120.4154,23.267779],[120.414729,23.267189],[120.414687,23.266904],[120.415353,23.266882],[120.415686,23.266696],[120.415951,23.265488],[120.416643,23.265613],[120.416727,23.265049],[120.417497,23.264804],[120.417731,23.264585],[120.41732,23.263838],[120.417205,23.26322],[120.417644,23.262783],[120.417214,23.262156],[120.417179,23.261855],[120.416971,23.262207],[120.416592,23.262127],[120.416483,23.262645],[120.415271,23.26263],[120.414936,23.263097],[120.414747,23.262723],[120.413772,23.261845],[120.413512,23.261843],[120.41279,23.261412],[120.41246,23.261507],[120.412523,23.261184],[120.413191,23.260904],[120.413616,23.259767],[120.413367,23.25878],[120.413524,23.25813],[120.415551,23.256896],[120.416635,23.257358],[120.417142,23.256109],[120.418129,23.254948],[120.419248,23.254873],[120.420084,23.255093],[120.42077,23.254781],[120.421587,23.255089],[120.422082,23.255887],[120.423357,23.256682],[120.424887,23.257975],[120.426091,23.258706],[120.427038,23.258942],[120.427346,23.259244],[120.427587,23.259819],[120.427664,23.261235],[120.42826,23.26174],[120.428354,23.262127],[120.428161,23.264131],[120.427768,23.264373],[120.427759,23.265856],[120.427131,23.266196],[120.426695,23.266907],[120.425981,23.267476],[120.426263,23.267757],[120.426237,23.267996],[120.425795,23.268268],[120.425079,23.268243],[120.424764,23.268743],[120.424098,23.268657],[120.423895,23.26876],[120.423067,23.26959],[120.422756,23.270205],[120.422432,23.270289],[120.422417,23.270815],[120.421973,23.27138],[120.420676,23.272112],[120.420344,23.274],[120.420434,23.27565],[120.419093,23.277806],[120.418695,23.279665],[120.419093,23.280543],[120.419101,23.281306],[120.419501,23.283079],[120.420233,23.284502],[120.42111,23.285467],[120.421346,23.287066],[120.420738,23.287833],[120.418897,23.289222],[120.418653,23.289703]]]},"properties":{"code":"67000060009","name":"水雲里","countyCode":"67000","countyName":"臺南市","townCode":"67000060","townName":"東山區","level":"village","unassigned":false,"note":"","label":[120.41317813423356,23.281062481308204],"bounds":[120.40526,23.254781,120.428354,23.290394],"focusBounds":[120.40526,23.254781,120.428354,23.290394],"color":"#98b69b"}},{"type":"Feature","id":"67000060010","geometry":{"type":"Polygon","coordinates":[[[120.436197,23.27419],[120.436437,23.274652],[120.436485,23.275341],[120.436201,23.276573],[120.436851,23.27774],[120.437652,23.278573],[120.438383,23.279627],[120.439165,23.281748],[120.439155,23.282134],[120.438731,23.282464],[120.438105,23.282422],[120.437683,23.282226],[120.436992,23.281561],[120.436206,23.281593],[120.435962,23.281141],[120.435581,23.281102],[120.435217,23.282078],[120.435379,23.282726],[120.434897,23.283452],[120.433865,23.283658],[120.432077,23.284953],[120.432415,23.285017],[120.433696,23.284808],[120.433933,23.28499],[120.434115,23.285708],[120.433967,23.286103],[120.43541,23.28865],[120.436051,23.291878],[120.435044,23.293459],[120.434039,23.294381],[120.433203,23.294884],[120.429037,23.296596],[120.427429,23.296743],[120.426904,23.29592],[120.425285,23.29462],[120.421493,23.292468],[120.420104,23.291134],[120.418643,23.290092],[120.418653,23.289703],[120.418897,23.289222],[120.420738,23.287833],[120.421346,23.287066],[120.42111,23.285467],[120.420233,23.284502],[120.419501,23.283079],[120.419101,23.281306],[120.419093,23.280543],[120.418695,23.279665],[120.419093,23.277806],[120.420434,23.27565],[120.420344,23.274],[120.420676,23.272112],[120.421973,23.27138],[120.423268,23.271789],[120.426312,23.271678],[120.427433,23.271777],[120.431506,23.273542],[120.434141,23.274005],[120.436197,23.27419]]]},"properties":{"code":"67000060010","name":"林安里","countyCode":"67000","countyName":"臺南市","townCode":"67000060","townName":"東山區","level":"village","unassigned":false,"note":"","label":[120.42669535188674,23.279627865681803],"bounds":[120.418643,23.27138,120.439165,23.296743],"focusBounds":[120.418643,23.27138,120.439165,23.296743],"color":"#58b99d"}},{"type":"Feature","id":"67000060011","geometry":{"type":"Polygon","coordinates":[[[120.464643,23.299992],[120.464215,23.300972],[120.463726,23.300731],[120.462816,23.300869],[120.462599,23.300253],[120.46096,23.300435],[120.460521,23.300624],[120.459853,23.30159],[120.459363,23.300944],[120.458624,23.300517],[120.4571,23.300153],[120.456613,23.29975],[120.456447,23.299321],[120.455322,23.298824],[120.454826,23.298319],[120.454525,23.29837],[120.454455,23.298515],[120.454203,23.299784],[120.453224,23.298983],[120.452657,23.298876],[120.452402,23.296987],[120.451979,23.296848],[120.450929,23.296897],[120.45005,23.29836],[120.450358,23.300122],[120.449024,23.300181],[120.448207,23.299189],[120.447385,23.299445],[120.446962,23.299739],[120.44677,23.300398],[120.445762,23.300633],[120.445783,23.300907],[120.446466,23.301061],[120.446954,23.303085],[120.448011,23.303976],[120.447701,23.305232],[120.447262,23.306108],[120.446368,23.306224],[120.445854,23.306516],[120.445385,23.306475],[120.44445,23.306999],[120.444512,23.30743],[120.44392,23.307524],[120.443329,23.30798],[120.443147,23.308861],[120.442464,23.308803],[120.441733,23.309157],[120.441098,23.309766],[120.440724,23.311229],[120.441165,23.312359],[120.440782,23.31287],[120.440486,23.313015],[120.440697,23.31328],[120.440539,23.313706],[120.438536,23.31132],[120.436876,23.309612],[120.434079,23.308405],[120.431619,23.307114],[120.430169,23.305673],[120.429353,23.303031],[120.428405,23.29819],[120.427429,23.296743],[120.429037,23.296596],[120.433203,23.294884],[120.434039,23.294381],[120.435044,23.293459],[120.436051,23.291878],[120.43541,23.28865],[120.433967,23.286103],[120.434115,23.285708],[120.433933,23.28499],[120.433696,23.284808],[120.432415,23.285017],[120.432077,23.284953],[120.433865,23.283658],[120.434897,23.283452],[120.435379,23.282726],[120.435217,23.282078],[120.435581,23.281102],[120.435962,23.281141],[120.436206,23.281593],[120.436992,23.281561],[120.437683,23.282226],[120.438105,23.282422],[120.438731,23.282464],[120.439155,23.282134],[120.439165,23.281748],[120.438383,23.279627],[120.437652,23.278573],[120.436851,23.27774],[120.436201,23.276573],[120.436485,23.275341],[120.436437,23.274652],[120.436197,23.27419],[120.435814,23.273331],[120.43512,23.27235],[120.435007,23.271917],[120.43503,23.27154],[120.435686,23.270008],[120.435705,23.269585],[120.43542,23.268677],[120.435504,23.268084],[120.43572,23.267889],[120.437878,23.267996],[120.43846,23.267779],[120.438855,23.267394],[120.439389,23.264916],[120.439014,23.263048],[120.439188,23.262325],[120.439509,23.262026],[120.440051,23.261929],[120.440621,23.262274],[120.441449,23.263285],[120.441832,23.26335],[120.44251,23.262893],[120.443321,23.261889],[120.44446,23.26126],[120.444879,23.260451],[120.445271,23.260149],[120.445721,23.260129],[120.446677,23.260448],[120.449158,23.260109],[120.449338,23.259954],[120.449336,23.259662],[120.448624,23.25798],[120.448817,23.257658],[120.450472,23.257384],[120.45277,23.256456],[120.4535,23.256336],[120.455073,23.256367],[120.455544,23.256154],[120.455689,23.255936],[120.45766,23.257189],[120.458058,23.25758],[120.458227,23.25798],[120.458295,23.259801],[120.458515,23.260016],[120.459377,23.260119],[120.459827,23.260314],[120.459932,23.260622],[120.459528,23.261078],[120.459609,23.261252],[120.460241,23.261523],[120.460965,23.261371],[120.461776,23.262186],[120.462195,23.263113],[120.462599,23.263443],[120.463988,23.2641],[120.463747,23.264235],[120.462042,23.263833],[120.460644,23.264096],[120.459865,23.263773],[120.459046,23.263195],[120.458531,23.263129],[120.45677,23.263353],[120.45526,23.263775],[120.454866,23.264524],[120.454429,23.26474],[120.452837,23.264112],[120.452114,23.265466],[120.452157,23.266245],[120.452426,23.266549],[120.453247,23.266536],[120.453909,23.266702],[120.454145,23.267747],[120.453976,23.268382],[120.454736,23.270257],[120.456343,23.270489],[120.457207,23.271625],[120.457783,23.272876],[120.45877,23.272868],[120.460136,23.272272],[120.461008,23.272102],[120.46182,23.272351],[120.461885,23.272913],[120.461614,23.273735],[120.461825,23.275148],[120.46206,23.275659],[120.46275,23.276076],[120.463948,23.276082],[120.464376,23.276452],[120.464581,23.276955],[120.464547,23.277524],[120.464215,23.278079],[120.463737,23.278633],[120.462575,23.279319],[120.462654,23.280228],[120.462406,23.280701],[120.462485,23.281306],[120.461468,23.282246],[120.460804,23.283847],[120.460737,23.284266],[120.460887,23.28476],[120.459776,23.286595],[120.458859,23.2877],[120.457124,23.287907],[120.456006,23.28756],[120.455689,23.287582],[120.454979,23.287962],[120.454957,23.288462],[120.455642,23.289161],[120.455788,23.289498],[120.457126,23.29017],[120.457344,23.290605],[120.457781,23.290732],[120.457635,23.291325],[120.457863,23.291811],[120.457689,23.292071],[120.457926,23.292171],[120.457964,23.292618],[120.458355,23.292509],[120.458808,23.292864],[120.458762,23.293325],[120.464643,23.299992]]]},"properties":{"code":"67000060011","name":"東原里","countyCode":"67000","countyName":"臺南市","townCode":"67000060","townName":"東山區","level":"village","unassigned":false,"note":"","label":[120.44938580929824,23.27971021000394],"bounds":[120.427429,23.255936,120.464643,23.313706],"focusBounds":[120.427429,23.255936,120.464643,23.313706],"color":"#efb44f"}},{"type":"Feature","id":"67000060012","geometry":{"type":"Polygon","coordinates":[[[120.448624,23.25798],[120.449336,23.259662],[120.449338,23.259954],[120.449158,23.260109],[120.446677,23.260448],[120.445721,23.260129],[120.445271,23.260149],[120.444879,23.260451],[120.44446,23.26126],[120.443321,23.261889],[120.44251,23.262893],[120.441832,23.26335],[120.441449,23.263285],[120.440621,23.262274],[120.440051,23.261929],[120.439509,23.262026],[120.439188,23.262325],[120.439014,23.263048],[120.439389,23.264916],[120.438855,23.267394],[120.43846,23.267779],[120.437878,23.267996],[120.43572,23.267889],[120.435504,23.268084],[120.43542,23.268677],[120.435705,23.269585],[120.435686,23.270008],[120.43503,23.27154],[120.435007,23.271917],[120.43512,23.27235],[120.435814,23.273331],[120.436197,23.27419],[120.434141,23.274005],[120.431506,23.273542],[120.427433,23.271777],[120.426312,23.271678],[120.423268,23.271789],[120.421973,23.27138],[120.422417,23.270815],[120.422432,23.270289],[120.422756,23.270205],[120.423067,23.26959],[120.423895,23.26876],[120.424098,23.268657],[120.424764,23.268743],[120.425079,23.268243],[120.425795,23.268268],[120.426237,23.267996],[120.426263,23.267757],[120.425981,23.267476],[120.426695,23.266907],[120.427131,23.266196],[120.427759,23.265856],[120.427768,23.264373],[120.428161,23.264131],[120.428354,23.262127],[120.42826,23.26174],[120.427664,23.261235],[120.427587,23.259819],[120.427346,23.259244],[120.427038,23.258942],[120.426091,23.258706],[120.424887,23.257975],[120.423357,23.256682],[120.422082,23.255887],[120.421587,23.255089],[120.42077,23.254781],[120.421936,23.254337],[120.423191,23.253367],[120.424266,23.250849],[120.424307,23.250308],[120.424604,23.249973],[120.424387,23.248279],[120.424852,23.24774],[120.424556,23.246959],[120.424859,23.2461],[120.423978,23.245363],[120.4245,23.245342],[120.424926,23.245085],[120.425812,23.243817],[120.426504,23.243153],[120.427392,23.242911],[120.428073,23.242281],[120.428938,23.242199],[120.430142,23.240784],[120.430803,23.240545],[120.432126,23.239326],[120.432707,23.23916],[120.432964,23.2376],[120.432664,23.236416],[120.433028,23.235798],[120.433283,23.236172],[120.433981,23.236422],[120.434287,23.236868],[120.434581,23.237016],[120.4351,23.236892],[120.43578,23.237018],[120.436396,23.236649],[120.436874,23.237182],[120.437373,23.237349],[120.43782,23.237222],[120.438271,23.236833],[120.439215,23.236905],[120.440124,23.237235],[120.441134,23.236652],[120.441541,23.235668],[120.44187,23.235614],[120.443139,23.236322],[120.443975,23.236371],[120.444261,23.236863],[120.444969,23.237424],[120.445283,23.237517],[120.445478,23.237336],[120.447024,23.241226],[120.447971,23.244402],[120.448205,23.2461],[120.447509,23.248001],[120.446851,23.248622],[120.446665,23.249806],[120.447018,23.253462],[120.447625,23.254501],[120.448624,23.25798]]]},"properties":{"code":"67000060012","name":"嶺南里","countyCode":"67000","countyName":"臺南市","townCode":"67000060","townName":"東山區","level":"village","unassigned":false,"note":"","label":[120.43588981050858,23.25169445895341],"bounds":[120.42077,23.235614,120.449338,23.27419],"focusBounds":[120.42077,23.235614,120.449338,23.27419],"color":"#78a7e3"}},{"type":"Feature","id":"67000060013","geometry":{"type":"Polygon","coordinates":[[[120.520627,23.271535],[120.519866,23.271018],[120.5184,23.26955],[120.513637,23.271187],[120.511652,23.272088],[120.511103,23.272431],[120.510336,23.273844],[120.509951,23.273782],[120.50964,23.274016],[120.508338,23.274168],[120.508022,23.273858],[120.50749,23.273802],[120.506944,23.273345],[120.506266,23.273786],[120.505792,23.273841],[120.505642,23.274138],[120.504705,23.274207],[120.503559,23.274054],[120.500971,23.275049],[120.499896,23.275011],[120.499388,23.275278],[120.498688,23.274973],[120.498333,23.275535],[120.497544,23.27536],[120.496572,23.275526],[120.496129,23.275243],[120.494469,23.275136],[120.494067,23.274388],[120.49349,23.273965],[120.493448,23.273575],[120.493204,23.273332],[120.491836,23.273155],[120.49144,23.272628],[120.490322,23.272205],[120.490107,23.27187],[120.489644,23.271828],[120.489301,23.271248],[120.488898,23.271021],[120.488112,23.270801],[120.48713,23.270996],[120.486672,23.270281],[120.485967,23.270005],[120.485076,23.270289],[120.48474,23.269967],[120.484682,23.269627],[120.484174,23.269219],[120.483362,23.26946],[120.482747,23.268996],[120.482518,23.268982],[120.481969,23.269458],[120.481456,23.26964],[120.47993,23.269353],[120.478995,23.269806],[120.478293,23.269206],[120.477888,23.269092],[120.475885,23.269645],[120.474578,23.269552],[120.47345,23.270435],[120.473181,23.270467],[120.472287,23.269838],[120.471864,23.269734],[120.470332,23.270323],[120.468628,23.269536],[120.468184,23.269536],[120.466407,23.270066],[120.465692,23.269816],[120.465282,23.269559],[120.464975,23.268966],[120.464105,23.268154],[120.463759,23.267481],[120.463821,23.265717],[120.464654,23.264696],[120.464553,23.264468],[120.463988,23.2641],[120.462599,23.263443],[120.462195,23.263113],[120.461776,23.262186],[120.460965,23.261371],[120.460241,23.261523],[120.459609,23.261252],[120.459528,23.261078],[120.459932,23.260622],[120.459827,23.260314],[120.459377,23.260119],[120.458515,23.260016],[120.458295,23.259801],[120.458227,23.25798],[120.458058,23.25758],[120.45766,23.257189],[120.455689,23.255936],[120.455544,23.256154],[120.455073,23.256367],[120.4535,23.256336],[120.45277,23.256456],[120.450472,23.257384],[120.448817,23.257658],[120.448624,23.25798],[120.447625,23.254501],[120.447018,23.253462],[120.446665,23.249806],[120.446851,23.248622],[120.447509,23.248001],[120.448205,23.2461],[120.447971,23.244402],[120.447024,23.241226],[120.445478,23.237336],[120.445516,23.236622],[120.445081,23.236213],[120.44492,23.235583],[120.444259,23.23496],[120.443899,23.234373],[120.444007,23.233831],[120.443745,23.233404],[120.443732,23.23295],[120.443352,23.232395],[120.443291,23.230269],[120.442597,23.229368],[120.442829,23.228362],[120.442768,23.227986],[120.443023,23.227455],[120.443414,23.227865],[120.443729,23.229029],[120.444407,23.229265],[120.444707,23.229102],[120.444737,23.228668],[120.44447,23.227809],[120.44475,23.227139],[120.445113,23.227145],[120.445518,23.227472],[120.446086,23.227672],[120.446374,23.228199],[120.44638,23.228852],[120.447169,23.229459],[120.447685,23.230686],[120.450468,23.231913],[120.451317,23.230665],[120.45175,23.230445],[120.453512,23.230312],[120.454872,23.23126],[120.455185,23.23123],[120.457044,23.230134],[120.457991,23.229899],[120.45894,23.228619],[120.460065,23.22812],[120.460724,23.227999],[120.463058,23.228109],[120.463564,23.227965],[120.463774,23.227526],[120.464331,23.227586],[120.464628,23.227377],[120.464933,23.227892],[120.465599,23.226959],[120.465971,23.227126],[120.466599,23.226631],[120.467021,23.226484],[120.467893,23.225375],[120.468428,23.225333],[120.469883,23.225881],[120.47026,23.225717],[120.470771,23.225197],[120.471446,23.224905],[120.476035,23.224428],[120.477056,23.223],[120.478374,23.221829],[120.479332,23.221461],[120.480982,23.220327],[120.48152,23.220125],[120.483102,23.220085],[120.484295,23.220582],[120.484962,23.220501],[120.486124,23.220657],[120.48645,23.220842],[120.487252,23.222034],[120.487806,23.222309],[120.48858,23.22211],[120.489333,23.222338],[120.489896,23.221969],[120.49079,23.222317],[120.491553,23.221643],[120.491865,23.221624],[120.493002,23.220848],[120.493331,23.220775],[120.493675,23.221139],[120.494475,23.221487],[120.495635,23.222465],[120.497221,23.223229],[120.499013,23.224687],[120.499643,23.225381],[120.501419,23.22813],[120.503358,23.229973],[120.505283,23.230933],[120.50791,23.231725],[120.510607,23.233087],[120.511383,23.233713],[120.512314,23.23528],[120.517618,23.238958],[120.518853,23.239419],[120.519439,23.239486],[120.520894,23.240435],[120.522714,23.241155],[120.524164,23.241998],[120.527909,23.24536],[120.52912,23.247263],[120.52997,23.247949],[120.530319,23.248526],[120.530878,23.251071],[120.531536,23.251986],[120.531544,23.253433],[120.532179,23.254302],[120.532295,23.255052],[120.532022,23.255434],[120.530791,23.255916],[120.53072,23.256953],[120.530564,23.257294],[120.52932,23.257874],[120.529268,23.25922],[120.528744,23.260198],[120.528531,23.261957],[120.527903,23.26309],[120.526617,23.264148],[120.526225,23.265029],[120.526092,23.266489],[120.524288,23.267906],[120.523494,23.268317],[120.522438,23.269375],[120.522159,23.270297],[120.521426,23.270732],[120.520627,23.271535]]]},"properties":{"code":"67000060013","name":"南勢里","countyCode":"67000","countyName":"臺南市","townCode":"67000060","townName":"東山區","level":"village","unassigned":false,"note":"","label":[120.48698769647808,23.246099074600195],"bounds":[120.442597,23.220085,120.532295,23.275535],"focusBounds":[120.442597,23.220085,120.532295,23.275535],"color":"#a49ad4"}},{"type":"Feature","id":"67000060014","geometry":{"type":"Polygon","coordinates":[[[120.521004,23.279536],[120.515787,23.278771],[120.511719,23.278935],[120.509366,23.279417],[120.502838,23.280239],[120.497115,23.281198],[120.487557,23.282303],[120.482221,23.282448],[120.48165,23.282952],[120.481104,23.282583],[120.480968,23.282278],[120.479457,23.281765],[120.478826,23.282109],[120.478459,23.283125],[120.478124,23.28313],[120.477265,23.2831],[120.476048,23.282438],[120.474336,23.282618],[120.473845,23.282353],[120.473792,23.281877],[120.474444,23.281151],[120.47492,23.279568],[120.474733,23.279297],[120.473239,23.279341],[120.47294,23.279746],[120.472816,23.280364],[120.472465,23.280584],[120.471559,23.280286],[120.470895,23.279288],[120.470239,23.279243],[120.46999,23.279465],[120.469912,23.280252],[120.469628,23.280671],[120.468681,23.280632],[120.466639,23.281447],[120.466216,23.281427],[120.465552,23.281128],[120.463909,23.281002],[120.463349,23.280784],[120.462654,23.280228],[120.462575,23.279319],[120.463737,23.278633],[120.464215,23.278079],[120.464547,23.277524],[120.464581,23.276955],[120.464376,23.276452],[120.463948,23.276082],[120.46275,23.276076],[120.46206,23.275659],[120.461825,23.275148],[120.461614,23.273735],[120.461885,23.272913],[120.46182,23.272351],[120.461008,23.272102],[120.460136,23.272272],[120.45877,23.272868],[120.457783,23.272876],[120.457207,23.271625],[120.456343,23.270489],[120.454736,23.270257],[120.453976,23.268382],[120.454145,23.267747],[120.453909,23.266702],[120.453247,23.266536],[120.452426,23.266549],[120.452157,23.266245],[120.452114,23.265466],[120.452837,23.264112],[120.454429,23.26474],[120.454866,23.264524],[120.45526,23.263775],[120.45677,23.263353],[120.458531,23.263129],[120.459046,23.263195],[120.459865,23.263773],[120.460644,23.264096],[120.462042,23.263833],[120.463747,23.264235],[120.463988,23.2641],[120.464553,23.264468],[120.464654,23.264696],[120.463821,23.265717],[120.463759,23.267481],[120.464105,23.268154],[120.464975,23.268966],[120.465282,23.269559],[120.465692,23.269816],[120.466407,23.270066],[120.468184,23.269536],[120.468628,23.269536],[120.470332,23.270323],[120.471864,23.269734],[120.472287,23.269838],[120.473181,23.270467],[120.47345,23.270435],[120.474578,23.269552],[120.475885,23.269645],[120.477888,23.269092],[120.478293,23.269206],[120.478995,23.269806],[120.47993,23.269353],[120.481456,23.26964],[120.481969,23.269458],[120.482518,23.268982],[120.482747,23.268996],[120.483362,23.26946],[120.484174,23.269219],[120.484682,23.269627],[120.48474,23.269967],[120.485076,23.270289],[120.485967,23.270005],[120.486672,23.270281],[120.48713,23.270996],[120.488112,23.270801],[120.488898,23.271021],[120.489301,23.271248],[120.489644,23.271828],[120.490107,23.27187],[120.490322,23.272205],[120.49144,23.272628],[120.491836,23.273155],[120.493204,23.273332],[120.493448,23.273575],[120.49349,23.273965],[120.494067,23.274388],[120.494469,23.275136],[120.496129,23.275243],[120.496572,23.275526],[120.497544,23.27536],[120.498333,23.275535],[120.498688,23.274973],[120.499388,23.275278],[120.499896,23.275011],[120.500971,23.275049],[120.503559,23.274054],[120.504705,23.274207],[120.505642,23.274138],[120.505792,23.273841],[120.506266,23.273786],[120.506944,23.273345],[120.50749,23.273802],[120.508022,23.273858],[120.508338,23.274168],[120.50964,23.274016],[120.509951,23.273782],[120.510336,23.273844],[120.511103,23.272431],[120.511652,23.272088],[120.513637,23.271187],[120.5184,23.26955],[120.519866,23.271018],[120.520627,23.271535],[120.520451,23.271838],[120.522221,23.273964],[120.522329,23.274382],[120.521711,23.275831],[120.521822,23.276942],[120.521414,23.278049],[120.521278,23.279006],[120.521004,23.279536]]]},"properties":{"code":"67000060014","name":"青山里","countyCode":"67000","countyName":"臺南市","townCode":"67000060","townName":"東山區","level":"village","unassigned":false,"note":"","label":[120.4824567004891,23.275804818915276],"bounds":[120.452114,23.263129,120.522329,23.28313],"focusBounds":[120.452114,23.263129,120.522329,23.28313],"color":"#a8bf62"}},{"type":"Feature","id":"67000060015","geometry":{"type":"Polygon","coordinates":[[[120.476162,23.298082],[120.474842,23.298449],[120.474375,23.298437],[120.472165,23.296748],[120.471077,23.296553],[120.470371,23.296876],[120.469708,23.297414],[120.469167,23.297387],[120.468377,23.297636],[120.467389,23.298668],[120.466937,23.298955],[120.466385,23.300009],[120.465872,23.300042],[120.465501,23.299807],[120.465163,23.300103],[120.464643,23.299992],[120.458762,23.293325],[120.458808,23.292864],[120.458355,23.292509],[120.457964,23.292618],[120.457926,23.292171],[120.457689,23.292071],[120.457863,23.291811],[120.457635,23.291325],[120.457781,23.290732],[120.457344,23.290605],[120.457126,23.29017],[120.455788,23.289498],[120.455642,23.289161],[120.454957,23.288462],[120.454979,23.287962],[120.455689,23.287582],[120.456006,23.28756],[120.457124,23.287907],[120.458859,23.2877],[120.459776,23.286595],[120.460887,23.28476],[120.460737,23.284266],[120.460804,23.283847],[120.461468,23.282246],[120.462485,23.281306],[120.462406,23.280701],[120.462654,23.280228],[120.463349,23.280784],[120.463909,23.281002],[120.465552,23.281128],[120.466216,23.281427],[120.466639,23.281447],[120.468681,23.280632],[120.469628,23.280671],[120.469912,23.280252],[120.46999,23.279465],[120.470239,23.279243],[120.470895,23.279288],[120.471559,23.280286],[120.472465,23.280584],[120.472816,23.280364],[120.47294,23.279746],[120.473239,23.279341],[120.474733,23.279297],[120.47492,23.279568],[120.474444,23.281151],[120.473792,23.281877],[120.473845,23.282353],[120.474336,23.282618],[120.476048,23.282438],[120.477265,23.2831],[120.478124,23.28313],[120.478459,23.283125],[120.478826,23.282109],[120.479457,23.281765],[120.480968,23.282278],[120.481104,23.282583],[120.48165,23.282952],[120.482221,23.282448],[120.487557,23.282303],[120.497115,23.281198],[120.502838,23.280239],[120.509366,23.279417],[120.511719,23.278935],[120.515787,23.278771],[120.521004,23.279536],[120.521131,23.279925],[120.522705,23.281419],[120.522943,23.28206],[120.522617,23.283115],[120.522951,23.284461],[120.522186,23.286132],[120.521979,23.287395],[120.517421,23.287292],[120.517372,23.287444],[120.517897,23.288199],[120.517902,23.28934],[120.518246,23.290012],[120.518184,23.290265],[120.515647,23.291779],[120.514559,23.291501],[120.513994,23.29209],[120.512826,23.291738],[120.511634,23.29188],[120.511064,23.29133],[120.510386,23.290944],[120.509057,23.290651],[120.508718,23.289861],[120.508293,23.289948],[120.508099,23.290208],[120.507658,23.289983],[120.507378,23.290008],[120.506929,23.290508],[120.506178,23.290469],[120.50544,23.289758],[120.505478,23.289246],[120.504855,23.288654],[120.50468,23.288136],[120.503863,23.288457],[120.503596,23.288267],[120.503335,23.287619],[120.502666,23.287561],[120.502264,23.287969],[120.502177,23.288823],[120.502863,23.289708],[120.503514,23.290102],[120.503824,23.291005],[120.504445,23.291156],[120.505057,23.291711],[120.505537,23.291727],[120.506414,23.292379],[120.506734,23.292804],[120.507578,23.293119],[120.507834,23.293955],[120.507724,23.295388],[120.507408,23.295632],[120.506329,23.295616],[120.504782,23.296115],[120.503696,23.296686],[120.503028,23.29748],[120.502682,23.297685],[120.501643,23.297581],[120.499935,23.298089],[120.499471,23.297858],[120.497643,23.297913],[120.496429,23.298697],[120.496221,23.299255],[120.495815,23.299407],[120.494955,23.299121],[120.494205,23.299406],[120.492195,23.299518],[120.491515,23.299013],[120.490664,23.298863],[120.489751,23.298088],[120.489074,23.297059],[120.488802,23.296273],[120.487941,23.296013],[120.487649,23.295682],[120.487219,23.295496],[120.487086,23.294456],[120.485955,23.293584],[120.484476,23.293941],[120.481853,23.293384],[120.481106,23.293506],[120.48094,23.29369],[120.481202,23.294185],[120.481093,23.294873],[120.480383,23.29512],[120.479817,23.295571],[120.479176,23.295731],[120.47877,23.296604],[120.4788,23.297029],[120.478569,23.297369],[120.477642,23.297974],[120.477158,23.298102],[120.476162,23.298082]]]},"properties":{"code":"67000060015","name":"高原里","countyCode":"67000","countyName":"臺南市","townCode":"67000060","townName":"東山區","level":"village","unassigned":false,"note":"","label":[120.49468142846248,23.290352002686554],"bounds":[120.454957,23.278771,120.522951,23.300103],"focusBounds":[120.454957,23.278771,120.522951,23.300103],"color":"#68bec9"}},{"type":"Feature","id":"67000060016","geometry":{"type":"Polygon","coordinates":[[[120.371773,23.317145],[120.371861,23.316737],[120.372178,23.316382],[120.371921,23.315775],[120.371154,23.315916],[120.369922,23.316416],[120.36912,23.317085],[120.36854,23.318117],[120.368395,23.319414],[120.368446,23.32108],[120.368275,23.321322],[120.365358,23.322088],[120.363505,23.322738],[120.362659,23.323302],[120.361667,23.325228],[120.36128,23.325237],[120.35998,23.324591],[120.359057,23.323438],[120.358963,23.322888],[120.359438,23.32266],[120.358959,23.321757],[120.359401,23.321459],[120.358125,23.317375],[120.357698,23.317311],[120.357021,23.316481],[120.356512,23.316111],[120.35373,23.315366],[120.352898,23.314751],[120.352534,23.314046],[120.352307,23.313651],[120.352016,23.31349],[120.350758,23.313688],[120.348286,23.315102],[120.345639,23.317134],[120.342097,23.318869],[120.341299,23.318984],[120.340878,23.3186],[120.340452,23.317534],[120.340168,23.316422],[120.340222,23.315932],[120.341063,23.314242],[120.343458,23.310783],[120.343445,23.309787],[120.343363,23.309682],[120.341708,23.309528],[120.340136,23.309778],[120.339293,23.310067],[120.338714,23.309967],[120.33766,23.309377],[120.33742,23.308954],[120.336966,23.308791],[120.336897,23.30821],[120.336294,23.307942],[120.336014,23.307349],[120.335645,23.307002],[120.334567,23.306424],[120.334147,23.306029],[120.332194,23.305028],[120.331463,23.30399],[120.332456,23.302601],[120.332189,23.301338],[120.332436,23.299655],[120.333227,23.298056],[120.33456,23.296839],[120.336351,23.295818],[120.340512,23.294269],[120.341181,23.294278],[120.341956,23.294525],[120.342413,23.295483],[120.343165,23.295957],[120.345112,23.29811],[120.346533,23.300494],[120.347913,23.301088],[120.348457,23.301634],[120.348995,23.302634],[120.34874,23.303335],[120.348779,23.303654],[120.349151,23.304584],[120.349655,23.30506],[120.350374,23.304971],[120.353011,23.304122],[120.354927,23.30291],[120.358108,23.301693],[120.358261,23.301458],[120.358145,23.300729],[120.357015,23.298278],[120.35838,23.297592],[120.358927,23.297438],[120.36026,23.297382],[120.36222,23.297622],[120.364803,23.298148],[120.365412,23.298624],[120.365832,23.298679],[120.366373,23.298686],[120.367076,23.297651],[120.370616,23.297665],[120.37065,23.300157],[120.372009,23.300186],[120.372025,23.301734],[120.372185,23.30251],[120.371494,23.302661],[120.370262,23.303291],[120.37095,23.303555],[120.372248,23.303558],[120.373127,23.304089],[120.373424,23.303929],[120.373257,23.303533],[120.37337,23.303243],[120.374139,23.303422],[120.375773,23.303199],[120.376176,23.30342],[120.376408,23.303201],[120.377364,23.302844],[120.378224,23.303164],[120.379741,23.30247],[120.38014,23.302711],[120.380712,23.302805],[120.382831,23.30418],[120.384826,23.306544],[120.380882,23.307987],[120.380638,23.308136],[120.380621,23.308645],[120.379964,23.309377],[120.378781,23.310178],[120.378447,23.311752],[120.377957,23.311878],[120.377778,23.31211],[120.377764,23.312422],[120.378024,23.312772],[120.377919,23.313106],[120.377694,23.313207],[120.377293,23.313058],[120.37711,23.313491],[120.376249,23.314044],[120.375912,23.314536],[120.375957,23.315069],[120.376285,23.315378],[120.376272,23.316278],[120.376138,23.316478],[120.375361,23.316744],[120.374103,23.316668],[120.372826,23.317137],[120.371773,23.317145]]]},"properties":{"code":"67000060016","name":"聖賢里","countyCode":"67000","countyName":"臺南市","townCode":"67000060","townName":"東山區","level":"village","unassigned":false,"note":"","label":[120.36220786316137,23.30956523022654],"bounds":[120.331463,23.294269,120.384826,23.325237],"focusBounds":[120.331463,23.294269,120.384826,23.325237],"color":"#68bec9"}}]}
