{"type":"FeatureCollection","features":[{"type":"Feature","id":"67000130001","geometry":{"type":"Polygon","coordinates":[[[120.173425,23.235379],[120.171398,23.235733],[120.171056,23.234941],[120.170428,23.234789],[120.168282,23.235075],[120.168477,23.234222],[120.168178,23.233146],[120.168582,23.232586],[120.169086,23.230719],[120.169179,23.229439],[120.169976,23.227646],[120.170539,23.227101],[120.173108,23.225785],[120.173552,23.225308],[120.174438,23.225965],[120.174571,23.22622],[120.176898,23.225985],[120.179052,23.226836],[120.181481,23.226549],[120.183251,23.22673],[120.183082,23.227936],[120.182287,23.232598],[120.180038,23.23303],[120.177938,23.233406],[120.177341,23.232038],[120.176653,23.232849],[120.176265,23.233661],[120.175091,23.233776],[120.175392,23.235024],[120.173425,23.235379]]]},"properties":{"code":"67000130001","name":"仁得里","countyCode":"67000","countyName":"臺南市","townCode":"67000130","townName":"學甲區","level":"village","unassigned":false,"note":"","label":[120.1746141475095,23.229828894831634],"bounds":[120.168178,23.225308,120.183251,23.235733],"focusBounds":[120.168178,23.225308,120.183251,23.235733],"color":"#df9f6a"}},{"type":"Feature","id":"67000130002","geometry":{"type":"Polygon","coordinates":[[[120.189464,23.232007],[120.18862,23.232204],[120.188446,23.232025],[120.188437,23.231653],[120.188223,23.231514],[120.188191,23.231797],[120.185987,23.231987],[120.185917,23.231614],[120.18614,23.231449],[120.186152,23.230407],[120.185473,23.230324],[120.185957,23.230273],[120.185906,23.229524],[120.186143,23.2295],[120.186134,23.228063],[120.184673,23.227846],[120.183082,23.227936],[120.183251,23.22673],[120.181481,23.226549],[120.179052,23.226836],[120.176898,23.225985],[120.174571,23.22622],[120.174438,23.225965],[120.173552,23.225308],[120.174873,23.223248],[120.174935,23.222405],[120.175798,23.218603],[120.18535,23.218806],[120.188658,23.221433],[120.189779,23.221543],[120.190808,23.221157],[120.190869,23.221669],[120.189464,23.232007]]]},"properties":{"code":"67000130002","name":"新榮里","countyCode":"67000","countyName":"臺南市","townCode":"67000130","townName":"學甲區","level":"village","unassigned":false,"note":"","label":[120.18314354073527,23.222739347940575],"bounds":[120.173552,23.218603,120.190869,23.232204],"focusBounds":[120.173552,23.218603,120.190869,23.232204],"color":"#c38cb8"}},{"type":"Feature","id":"67000130003","geometry":{"type":"Polygon","coordinates":[[[120.155907,23.288981],[120.155168,23.288681],[120.153456,23.287383],[120.152479,23.286898],[120.151678,23.286906],[120.150447,23.2876],[120.149737,23.288663],[120.148932,23.28948],[120.14843,23.290695],[120.148,23.291276],[120.147892,23.292198],[120.147088,23.292861],[120.146802,23.293318],[120.145546,23.29377],[120.14414,23.293382],[120.14466,23.288483],[120.145388,23.286475],[120.147127,23.284557],[120.150164,23.282162],[120.150225,23.281929],[120.149892,23.281026],[120.149731,23.279956],[120.150008,23.279198],[120.149908,23.278868],[120.15022,23.276347],[120.15081,23.27546],[120.149803,23.275144],[120.150396,23.27359],[120.151543,23.269304],[120.152397,23.26756],[120.150347,23.265387],[120.147867,23.26038],[120.145424,23.261361],[120.143464,23.262354],[120.142882,23.262422],[120.142098,23.262283],[120.141579,23.262453],[120.141165,23.2622],[120.139837,23.26076],[120.139355,23.261125],[120.13721,23.259096],[120.137417,23.258087],[120.137372,23.257586],[120.139232,23.255719],[120.144536,23.25262],[120.146075,23.252321],[120.15303,23.252224],[120.154322,23.252926],[120.154398,23.252837],[120.155668,23.253941],[120.160651,23.250963],[120.160454,23.249318],[120.160529,23.247462],[120.160287,23.246986],[120.159831,23.24691],[120.159017,23.244299],[120.162101,23.243291],[120.165966,23.241417],[120.16609,23.241649],[120.170217,23.242071],[120.1702,23.244273],[120.170342,23.244285],[120.170506,23.244882],[120.166999,23.247047],[120.167103,23.248358],[120.167771,23.251449],[120.168073,23.25227],[120.169423,23.254088],[120.16985,23.255859],[120.169934,23.257124],[120.169602,23.257182],[120.169579,23.258166],[120.16878,23.25815],[120.168509,23.257804],[120.167991,23.25793],[120.167999,23.258201],[120.166849,23.258607],[120.167194,23.262047],[120.167401,23.262479],[120.168486,23.262433],[120.169201,23.261764],[120.169924,23.261423],[120.173359,23.270272],[120.17415,23.272628],[120.174413,23.274009],[120.173299,23.274617],[120.169809,23.275989],[120.167162,23.276383],[120.167268,23.277057],[120.167015,23.277151],[120.16713,23.277625],[120.166677,23.27779],[120.165564,23.279371],[120.163041,23.28202],[120.160979,23.283727],[120.159254,23.284821],[120.157972,23.286567],[120.157189,23.288158],[120.156573,23.288782],[120.155907,23.288981]]]},"properties":{"code":"67000130003","name":"光華里","countyCode":"67000","countyName":"臺南市","townCode":"67000130","townName":"學甲區","level":"village","unassigned":false,"note":"","label":[120.16132289145656,23.269412590775566],"bounds":[120.13721,23.241417,120.174413,23.29377],"focusBounds":[120.13721,23.241417,120.174413,23.29377],"color":"#98b69b"}},{"type":"Feature","id":"67000130004","geometry":{"type":"Polygon","coordinates":[[[120.191806,23.266107],[120.190579,23.266104],[120.189964,23.265763],[120.18906,23.263959],[120.188358,23.26303],[120.187887,23.2627],[120.187268,23.262669],[120.186853,23.262995],[120.186673,23.263429],[120.186395,23.265554],[120.186065,23.266424],[120.183637,23.267856],[120.183281,23.268263],[120.18313,23.268752],[120.183243,23.269572],[120.182906,23.271724],[120.182604,23.272813],[120.182366,23.273139],[120.181744,23.273517],[120.181035,23.273568],[120.180329,23.273318],[120.178713,23.272138],[120.178243,23.271943],[120.17771,23.272105],[120.174413,23.274009],[120.17415,23.272628],[120.173359,23.270272],[120.174324,23.268029],[120.176737,23.259355],[120.177366,23.258277],[120.178872,23.257237],[120.185002,23.255104],[120.187795,23.253184],[120.188301,23.252302],[120.188144,23.251047],[120.188559,23.250456],[120.189133,23.250241],[120.189783,23.248889],[120.190969,23.248742],[120.192384,23.247991],[120.193592,23.248073],[120.19389,23.24798],[120.194886,23.248347],[120.202544,23.250185],[120.203408,23.250862],[120.203772,23.253074],[120.204998,23.253548],[120.206859,23.256126],[120.209896,23.260987],[120.210202,23.262313],[120.211427,23.264077],[120.211225,23.264414],[120.210388,23.264819],[120.209017,23.26461],[120.208235,23.264299],[120.207797,23.263916],[120.20771,23.263395],[120.207981,23.262359],[120.207956,23.26138],[120.207642,23.260851],[120.206382,23.259868],[120.204668,23.258968],[120.204217,23.258971],[120.20422,23.2599],[120.205604,23.261849],[120.205421,23.262236],[120.205062,23.262467],[120.204079,23.262478],[120.202958,23.262103],[120.201973,23.261215],[120.200687,23.258618],[120.199366,23.257751],[120.198246,23.257652],[120.198874,23.259335],[120.198742,23.260918],[120.197741,23.261663],[120.197433,23.261705],[120.195872,23.26088],[120.19556,23.26086],[120.194882,23.261881],[120.194823,23.262441],[120.195073,23.263374],[120.194969,23.263623],[120.192948,23.264717],[120.191842,23.265872],[120.191806,23.266107]]]},"properties":{"code":"67000130004","name":"宅港里","countyCode":"67000","countyName":"臺南市","townCode":"67000130","townName":"學甲區","level":"village","unassigned":false,"note":"","label":[120.19142062154461,23.257304048211335],"bounds":[120.173359,23.24798,120.211427,23.274009],"focusBounds":[120.173359,23.24798,120.211427,23.274009],"color":"#58b99d"}},{"type":"Feature","id":"67000130005","geometry":{"type":"Polygon","coordinates":[[[120.180642,23.234584],[120.180257,23.234096],[120.180038,23.23303],[120.182287,23.232598],[120.183082,23.227936],[120.184673,23.227846],[120.186134,23.228063],[120.186143,23.2295],[120.185906,23.229524],[120.185957,23.230273],[120.185473,23.230324],[120.186152,23.230407],[120.18614,23.231449],[120.185917,23.231614],[120.185987,23.231987],[120.188191,23.231797],[120.188223,23.231514],[120.188437,23.231653],[120.188446,23.232025],[120.18862,23.232204],[120.189464,23.232007],[120.189266,23.233422],[120.184695,23.233939],[120.184587,23.233586],[120.184209,23.233654],[120.184322,23.234199],[120.183463,23.23405],[120.180642,23.234584]]]},"properties":{"code":"67000130005","name":"慈福里","countyCode":"67000","countyName":"臺南市","townCode":"67000130","townName":"學甲區","level":"village","unassigned":false,"note":"","label":[120.18416573119927,23.231879905223927],"bounds":[120.180038,23.227846,120.189464,23.234584],"focusBounds":[120.180038,23.227846,120.189464,23.234584],"color":"#efb44f"}},{"type":"Feature","id":"67000130006","geometry":{"type":"Polygon","coordinates":[[[120.19389,23.24798],[120.193592,23.248073],[120.192384,23.247991],[120.190969,23.248742],[120.189783,23.248889],[120.189133,23.250241],[120.188559,23.250456],[120.188144,23.251047],[120.188301,23.252302],[120.187795,23.253184],[120.185002,23.255104],[120.178872,23.257237],[120.177366,23.258277],[120.176737,23.259355],[120.174324,23.268029],[120.173359,23.270272],[120.169924,23.261423],[120.169201,23.261764],[120.168486,23.262433],[120.167401,23.262479],[120.167194,23.262047],[120.166849,23.258607],[120.167999,23.258201],[120.167991,23.25793],[120.168509,23.257804],[120.16878,23.25815],[120.169579,23.258166],[120.169602,23.257182],[120.169934,23.257124],[120.16985,23.255859],[120.169423,23.254088],[120.168073,23.25227],[120.167771,23.251449],[120.167103,23.248358],[120.166999,23.247047],[120.170506,23.244882],[120.170342,23.244285],[120.1702,23.244273],[120.170217,23.242071],[120.16609,23.241649],[120.165966,23.241417],[120.166877,23.240965],[120.166917,23.237914],[120.164655,23.235277],[120.166301,23.23481],[120.166514,23.234488],[120.168178,23.233146],[120.168477,23.234222],[120.168282,23.235075],[120.170428,23.234789],[120.171056,23.234941],[120.171398,23.235733],[120.173425,23.235379],[120.174086,23.236908],[120.176065,23.235469],[120.176768,23.235336],[120.176726,23.235794],[120.177127,23.235717],[120.17736,23.236743],[120.177613,23.236668],[120.177833,23.237708],[120.179826,23.237993],[120.180962,23.235885],[120.192707,23.247008],[120.19389,23.24798]]]},"properties":{"code":"67000130006","name":"秀昌里","countyCode":"67000","countyName":"臺南市","townCode":"67000130","townName":"學甲區","level":"village","unassigned":false,"note":"","label":[120.1791703551041,23.247516220945677],"bounds":[120.164655,23.233146,120.19389,23.270272],"focusBounds":[120.164655,23.233146,120.19389,23.270272],"color":"#78a7e3"}},{"type":"Feature","id":"67000130007","geometry":{"type":"Polygon","coordinates":[[[120.180962,23.235885],[120.179826,23.237993],[120.177833,23.237708],[120.177613,23.236668],[120.17736,23.236743],[120.177127,23.235717],[120.176726,23.235794],[120.176768,23.235336],[120.176065,23.235469],[120.174086,23.236908],[120.173425,23.235379],[120.175392,23.235024],[120.175091,23.233776],[120.176265,23.233661],[120.176653,23.232849],[120.177341,23.232038],[120.177938,23.233406],[120.180038,23.23303],[120.180257,23.234096],[120.180642,23.234584],[120.180962,23.235885]]]},"properties":{"code":"67000130007","name":"明宜里","countyCode":"67000","countyName":"臺南市","townCode":"67000130","townName":"學甲區","level":"village","unassigned":false,"note":"","label":[120.17891690315444,23.235375397102793],"bounds":[120.173425,23.232038,120.180962,23.237993],"focusBounds":[120.173425,23.232038,120.180962,23.237993],"color":"#dd8590"}},{"type":"Feature","id":"67000130008","geometry":{"type":"Polygon","coordinates":[[[120.216359,23.223361],[120.211924,23.223452],[120.21204,23.2266],[120.212502,23.228058],[120.212007,23.228588],[120.212182,23.230395],[120.210031,23.230233],[120.206843,23.230332],[120.204779,23.230433],[120.203145,23.230817],[120.201741,23.230765],[120.200047,23.230966],[120.198307,23.230312],[120.198073,23.230633],[120.196147,23.23026],[120.19438,23.230276],[120.193227,23.230545],[120.191886,23.231254],[120.189464,23.232007],[120.190869,23.221669],[120.190808,23.221157],[120.191564,23.211075],[120.191053,23.209801],[120.191956,23.209647],[120.192471,23.210788],[120.194031,23.210866],[120.194138,23.211134],[120.195298,23.211245],[120.195351,23.211102],[120.200328,23.211707],[120.199872,23.213847],[120.200053,23.214015],[120.201741,23.214171],[120.203267,23.215013],[120.203507,23.214442],[120.204506,23.215047],[120.205252,23.21412],[120.206519,23.214482],[120.206784,23.214274],[120.207089,23.214266],[120.207659,23.214462],[120.208189,23.215066],[120.208724,23.215015],[120.208897,23.215245],[120.209477,23.215381],[120.210677,23.217277],[120.211786,23.21753],[120.212746,23.219824],[120.213256,23.219659],[120.214246,23.219877],[120.215137,23.22107],[120.215608,23.221247],[120.216105,23.222163],[120.216359,23.223361]]]},"properties":{"code":"67000130008","name":"豐和里","countyCode":"67000","countyName":"臺南市","townCode":"67000130","townName":"學甲區","level":"village","unassigned":false,"note":"","label":[120.20077222199434,23.22248085549129],"bounds":[120.189464,23.209647,120.216359,23.232007],"focusBounds":[120.189464,23.209647,120.216359,23.232007],"color":"#a49ad4"}},{"type":"Feature","id":"67000130009","geometry":{"type":"Polygon","coordinates":[[[120.225836,23.261719],[120.22565,23.261974],[120.22446,23.262637],[120.221229,23.263222],[120.220502,23.263253],[120.220086,23.262206],[120.219917,23.262083],[120.219495,23.262138],[120.218884,23.262591],[120.218749,23.262915],[120.218781,23.263683],[120.219147,23.264354],[120.220407,23.265264],[120.221193,23.265547],[120.222609,23.265732],[120.223073,23.266215],[120.223214,23.2668],[120.223039,23.267467],[120.222503,23.268373],[120.221955,23.268691],[120.22121,23.268119],[120.220789,23.267047],[120.220416,23.266726],[120.219447,23.266451],[120.218115,23.266313],[120.217203,23.266515],[120.216778,23.266167],[120.216437,23.26542],[120.216385,23.263365],[120.216082,23.262228],[120.210606,23.260945],[120.209896,23.260987],[120.206859,23.256126],[120.204998,23.253548],[120.203772,23.253074],[120.203408,23.250862],[120.204158,23.249706],[120.205062,23.248672],[120.206187,23.247987],[120.207564,23.248206],[120.209371,23.247757],[120.212572,23.249744],[120.213276,23.249734],[120.214516,23.249332],[120.2167,23.247631],[120.218932,23.246496],[120.220153,23.242998],[120.226868,23.241749],[120.229416,23.23936],[120.232471,23.242291],[120.231702,23.242343],[120.231407,23.242495],[120.230047,23.244657],[120.228744,23.246132],[120.228654,23.247255],[120.227581,23.24846],[120.227515,23.249805],[120.228644,23.250005],[120.228659,23.250461],[120.229259,23.250974],[120.228885,23.251611],[120.229213,23.251788],[120.229826,23.25184],[120.228465,23.252411],[120.226302,23.254147],[120.222698,23.256149],[120.222675,23.257294],[120.222387,23.258638],[120.222029,23.259364],[120.22214,23.261116],[120.22248,23.26132],[120.225836,23.261719]]]},"properties":{"code":"67000130009","name":"平和里","countyCode":"67000","countyName":"臺南市","townCode":"67000130","townName":"學甲區","level":"village","unassigned":false,"note":"","label":[120.21588530980007,23.25522369241395],"bounds":[120.203408,23.23936,120.232471,23.268691],"focusBounds":[120.203408,23.23936,120.232471,23.268691],"color":"#a8bf62"}},{"type":"Feature","id":"67000130010","geometry":{"type":"Polygon","coordinates":[[[120.229416,23.23936],[120.226868,23.241749],[120.220153,23.242998],[120.218932,23.246496],[120.2167,23.247631],[120.214516,23.249332],[120.213276,23.249734],[120.212572,23.249744],[120.209371,23.247757],[120.207564,23.248206],[120.206187,23.247987],[120.205062,23.248672],[120.204158,23.249706],[120.203408,23.250862],[120.202544,23.250185],[120.194886,23.248347],[120.19389,23.24798],[120.192707,23.247008],[120.180962,23.235885],[120.180642,23.234584],[120.183463,23.23405],[120.184322,23.234199],[120.184209,23.233654],[120.184587,23.233586],[120.184695,23.233939],[120.189266,23.233422],[120.189464,23.232007],[120.191886,23.231254],[120.193227,23.230545],[120.19438,23.230276],[120.196147,23.23026],[120.198073,23.230633],[120.198307,23.230312],[120.200047,23.230966],[120.201741,23.230765],[120.203145,23.230817],[120.204779,23.230433],[120.206843,23.230332],[120.210031,23.230233],[120.212182,23.230395],[120.212007,23.228588],[120.212502,23.228058],[120.21204,23.2266],[120.211924,23.223452],[120.216359,23.223361],[120.216071,23.224126],[120.216331,23.225348],[120.217514,23.227058],[120.218694,23.22936],[120.220823,23.231384],[120.221025,23.231801],[120.220207,23.232497],[120.220165,23.232959],[120.221246,23.234609],[120.221286,23.235605],[120.221705,23.235765],[120.221788,23.236102],[120.225435,23.236483],[120.226324,23.237216],[120.227941,23.237985],[120.229416,23.23936]]]},"properties":{"code":"67000130010","name":"新達里","countyCode":"67000","countyName":"臺南市","townCode":"67000130","townName":"學甲區","level":"village","unassigned":false,"note":"","label":[120.20583012646262,23.239292948339195],"bounds":[120.180642,23.223361,120.229416,23.250862],"focusBounds":[120.180642,23.223361,120.229416,23.250862],"color":"#68bec9"}},{"type":"Feature","id":"67000130011","geometry":{"type":"Polygon","coordinates":[[[120.190808,23.221157],[120.189779,23.221543],[120.188658,23.221433],[120.18535,23.218806],[120.175798,23.218603],[120.176073,23.216448],[120.177153,23.213305],[120.185045,23.210561],[120.184473,23.209415],[120.184825,23.209548],[120.185125,23.20877],[120.184365,23.208396],[120.184659,23.207496],[120.184977,23.207532],[120.185077,23.206807],[120.186946,23.207037],[120.187116,23.207433],[120.187697,23.20754],[120.187715,23.207768],[120.188371,23.207926],[120.189409,23.210045],[120.191053,23.209801],[120.191564,23.211075],[120.190808,23.221157]]]},"properties":{"code":"67000130011","name":"大灣里","countyCode":"67000","countyName":"臺南市","townCode":"67000130","townName":"學甲區","level":"village","unassigned":false,"note":"","label":[120.18501437129538,23.214685430305227],"bounds":[120.175798,23.206807,120.191564,23.221543],"focusBounds":[120.175798,23.206807,120.191564,23.221543],"color":"#df9f6a"}},{"type":"Feature","id":"67000130012","geometry":{"type":"Polygon","coordinates":[[[120.190843,23.300736],[120.18841,23.301233],[120.188121,23.300374],[120.186324,23.298267],[120.185804,23.296973],[120.185865,23.29606],[120.186151,23.295379],[120.188125,23.293842],[120.189355,23.292349],[120.1896,23.291339],[120.189272,23.290473],[120.188867,23.290163],[120.18755,23.290031],[120.184067,23.290318],[120.184282,23.289496],[120.184924,23.288593],[120.184889,23.287553],[120.184074,23.287436],[120.1829,23.287903],[120.182772,23.28714],[120.18177,23.287424],[120.180251,23.286801],[120.179948,23.286304],[120.179043,23.285771],[120.178913,23.285451],[120.178996,23.285051],[120.179262,23.284771],[120.179879,23.284491],[120.180641,23.285264],[120.181125,23.285572],[120.181345,23.285513],[120.182267,23.285184],[120.182683,23.28458],[120.183622,23.28415],[120.183488,23.28372],[120.183576,23.282888],[120.183113,23.281713],[120.180996,23.282508],[120.180096,23.282636],[120.178955,23.282548],[120.177278,23.281892],[120.176489,23.281813],[120.17629,23.281576],[120.175306,23.281343],[120.174946,23.281493],[120.174375,23.281485],[120.172571,23.281101],[120.171202,23.281104],[120.169943,23.280577],[120.168565,23.27962],[120.1675,23.278417],[120.16713,23.277625],[120.167015,23.277151],[120.167268,23.277057],[120.167162,23.276383],[120.169809,23.275989],[120.173299,23.274617],[120.174413,23.274009],[120.17771,23.272105],[120.178243,23.271943],[120.178713,23.272138],[120.180329,23.273318],[120.181035,23.273568],[120.181744,23.273517],[120.182366,23.273139],[120.182604,23.272813],[120.182906,23.271724],[120.183243,23.269572],[120.18313,23.268752],[120.183281,23.268263],[120.183637,23.267856],[120.186065,23.266424],[120.186395,23.265554],[120.186673,23.263429],[120.186853,23.262995],[120.187268,23.262669],[120.187887,23.2627],[120.188358,23.26303],[120.18906,23.263959],[120.189964,23.265763],[120.190579,23.266104],[120.191806,23.266107],[120.192853,23.269146],[120.193674,23.270654],[120.193986,23.271722],[120.194006,23.272425],[120.193489,23.275674],[120.193596,23.276207],[120.193897,23.276115],[120.19447,23.275323],[120.195836,23.272814],[120.196473,23.271923],[120.197126,23.271414],[120.197853,23.2714],[120.198653,23.271811],[120.199823,23.273457],[120.200095,23.273638],[120.204339,23.274228],[120.204943,23.274573],[120.205903,23.275692],[120.20653,23.276158],[120.207088,23.276325],[120.208997,23.276458],[120.209988,23.276814],[120.210882,23.277778],[120.211218,23.279341],[120.211269,23.280157],[120.210681,23.280966],[120.210729,23.28157],[120.211258,23.281801],[120.212139,23.281663],[120.212261,23.281953],[120.211696,23.286696],[120.212355,23.291694],[120.211911,23.292704],[120.208605,23.291295],[120.206513,23.291388],[120.204275,23.2919],[120.202877,23.292937],[120.202416,23.293126],[120.202123,23.29299],[120.201509,23.29319],[120.200094,23.293991],[120.19169,23.30027],[120.190843,23.300736]]]},"properties":{"code":"67000130012","name":"三慶里","countyCode":"67000","countyName":"臺南市","townCode":"67000130","townName":"學甲區","level":"village","unassigned":false,"note":"","label":[120.19675490381016,23.285122393250393],"bounds":[120.167015,23.262669,120.212355,23.301233],"focusBounds":[120.167015,23.262669,120.212355,23.301233],"color":"#c38cb8"}},{"type":"Feature","id":"67000130013","geometry":{"type":"Polygon","coordinates":[[[120.165966,23.241417],[120.162101,23.243291],[120.159017,23.244299],[120.159831,23.24691],[120.160287,23.246986],[120.160529,23.247462],[120.160454,23.249318],[120.160651,23.250963],[120.155668,23.253941],[120.154398,23.252837],[120.154322,23.252926],[120.15303,23.252224],[120.146075,23.252321],[120.144536,23.25262],[120.139232,23.255719],[120.137372,23.257586],[120.137417,23.258087],[120.13721,23.259096],[120.136303,23.258114],[120.135093,23.256287],[120.134129,23.25609],[120.134151,23.2549],[120.133807,23.253814],[120.133426,23.253123],[120.135608,23.253313],[120.135527,23.252685],[120.136077,23.251645],[120.137626,23.251001],[120.138154,23.250581],[120.13976,23.250246],[120.139602,23.246899],[120.142596,23.244652],[120.142738,23.244238],[120.142551,23.242562],[120.143006,23.24187],[120.143162,23.241253],[120.141151,23.240863],[120.14107,23.239245],[120.13963,23.239045],[120.138656,23.239257],[120.138067,23.23887],[120.138023,23.238413],[120.13844,23.237337],[120.138123,23.235884],[120.137428,23.233955],[120.13538,23.229478],[120.135586,23.228971],[120.136483,23.229486],[120.142048,23.232832],[120.143846,23.233641],[120.146752,23.234491],[120.153154,23.235937],[120.155303,23.236835],[120.158598,23.237914],[120.160109,23.238081],[120.161123,23.237987],[120.162676,23.23732],[120.163372,23.236851],[120.163722,23.236377],[120.164271,23.235577],[120.164655,23.235277],[120.166917,23.237914],[120.166877,23.240965],[120.165966,23.241417]]]},"properties":{"code":"67000130013","name":"中洲里","countyCode":"67000","countyName":"臺南市","townCode":"67000130","townName":"學甲區","level":"village","unassigned":false,"note":"","label":[120.15074385351373,23.243824336062914],"bounds":[120.133426,23.228971,120.166917,23.259096],"focusBounds":[120.133426,23.228971,120.166917,23.259096],"color":"#dd8590"}}]}
