{"type":"FeatureCollection","features":[{"type":"Feature","id":"67000230001","geometry":{"type":"Polygon","coordinates":[[[120.465257,23.126325],[120.464953,23.126816],[120.463465,23.127331],[120.462339,23.127063],[120.462661,23.127872],[120.462599,23.128949],[120.462298,23.130015],[120.461552,23.130424],[120.46122,23.130301],[120.46019,23.12839],[120.459807,23.127984],[120.459467,23.12785],[120.458569,23.127831],[120.457456,23.128276],[120.456968,23.128166],[120.456791,23.128014],[120.456661,23.127289],[120.45665,23.126346],[120.455666,23.124852],[120.454088,23.123984],[120.45252,23.123485],[120.452316,23.123393],[120.452114,23.121487],[120.451811,23.120823],[120.449708,23.118661],[120.448396,23.118226],[120.447647,23.118255],[120.445766,23.118724],[120.441407,23.116363],[120.443825,23.115957],[120.445513,23.115037],[120.446192,23.114258],[120.446532,23.113528],[120.447429,23.112867],[120.448745,23.112554],[120.451134,23.113476],[120.451413,23.113917],[120.455063,23.116752],[120.457159,23.117692],[120.457137,23.117543],[120.458244,23.118122],[120.458234,23.119171],[120.459783,23.122803],[120.460921,23.122888],[120.461792,23.123232],[120.462013,23.123397],[120.462101,23.123754],[120.462155,23.124915],[120.463811,23.125225],[120.464284,23.12544],[120.465257,23.126325]]]},"properties":{"code":"67000230001","name":"玉井里","countyCode":"67000","countyName":"臺南市","townCode":"67000230","townName":"玉井區","level":"village","unassigned":false,"note":"","label":[120.45532412766393,23.12075806247066],"bounds":[120.441407,23.112554,120.465257,23.130424],"focusBounds":[120.441407,23.112554,120.465257,23.130424],"color":"#98b69b"}},{"type":"Feature","id":"67000230002","geometry":{"type":"Polygon","coordinates":[[[120.476103,23.121905],[120.475251,23.121313],[120.474733,23.121289],[120.474323,23.121511],[120.473996,23.122011],[120.473599,23.124191],[120.473195,23.124738],[120.470803,23.124726],[120.468695,23.125208],[120.465452,23.12499],[120.464613,23.125131],[120.464284,23.12544],[120.463811,23.125225],[120.462155,23.124915],[120.462101,23.123754],[120.462013,23.123397],[120.461792,23.123232],[120.460921,23.122888],[120.459783,23.122803],[120.458234,23.119171],[120.458244,23.118122],[120.459747,23.118358],[120.461586,23.118253],[120.462797,23.117727],[120.463378,23.116851],[120.467059,23.117157],[120.468665,23.11744],[120.47242,23.118486],[120.474621,23.119753],[120.475354,23.120537],[120.476103,23.121905]]]},"properties":{"code":"67000230002","name":"玉田里","countyCode":"67000","countyName":"臺南市","townCode":"67000230","townName":"玉井區","level":"village","unassigned":false,"note":"","label":[120.46678620237051,23.12110673017024],"bounds":[120.458234,23.116851,120.476103,23.12544],"focusBounds":[120.458234,23.116851,120.476103,23.12544],"color":"#58b99d"}},{"type":"Feature","id":"67000230003","geometry":{"type":"Polygon","coordinates":[[[120.474501,23.16316],[120.474044,23.164521],[120.473222,23.164893],[120.472897,23.165199],[120.472893,23.165457],[120.473315,23.16613],[120.472793,23.166305],[120.471806,23.165911],[120.471262,23.166007],[120.470673,23.165516],[120.470363,23.165482],[120.46988,23.165769],[120.469454,23.166253],[120.469473,23.166589],[120.469796,23.166946],[120.469719,23.167293],[120.469344,23.167483],[120.46859,23.167544],[120.466931,23.168003],[120.466976,23.168408],[120.467175,23.168498],[120.467609,23.168307],[120.467877,23.168694],[120.468467,23.168924],[120.468632,23.169404],[120.468452,23.169501],[120.467884,23.169276],[120.46761,23.169929],[120.466699,23.17072],[120.466611,23.170922],[120.466805,23.171956],[120.465564,23.171719],[120.465076,23.17043],[120.464539,23.169679],[120.464524,23.169281],[120.464782,23.168783],[120.463225,23.168613],[120.461776,23.166787],[120.460825,23.166094],[120.459638,23.165628],[120.459302,23.165343],[120.459186,23.165103],[120.459426,23.163695],[120.460583,23.161597],[120.460586,23.160753],[120.457759,23.158402],[120.456613,23.157637],[120.456287,23.157225],[120.456296,23.155198],[120.456526,23.154753],[120.456574,23.154084],[120.457165,23.153236],[120.457136,23.152832],[120.456867,23.151798],[120.456611,23.151769],[120.454615,23.149533],[120.454216,23.148761],[120.454079,23.147219],[120.454631,23.145521],[120.45605,23.143282],[120.456102,23.142164],[120.454782,23.141365],[120.453105,23.138946],[120.453048,23.137867],[120.453405,23.135766],[120.453157,23.128145],[120.45252,23.123485],[120.454088,23.123984],[120.455666,23.124852],[120.45665,23.126346],[120.456661,23.127289],[120.456791,23.128014],[120.456968,23.128166],[120.457456,23.128276],[120.458569,23.127831],[120.459467,23.12785],[120.459807,23.127984],[120.46019,23.12839],[120.46122,23.130301],[120.461552,23.130424],[120.462298,23.130015],[120.462599,23.128949],[120.462661,23.127872],[120.462339,23.127063],[120.463465,23.127331],[120.464953,23.126816],[120.465257,23.126325],[120.470213,23.130837],[120.475667,23.137161],[120.477631,23.139912],[120.47739,23.140049],[120.477428,23.14022],[120.478018,23.140848],[120.478084,23.141164],[120.477523,23.141353],[120.475543,23.140239],[120.474723,23.140094],[120.473741,23.139576],[120.473176,23.13954],[120.472781,23.139234],[120.471544,23.140627],[120.470665,23.14134],[120.473422,23.14514],[120.474498,23.14691],[120.475139,23.148309],[120.47507,23.149974],[120.474497,23.151591],[120.475719,23.153521],[120.476274,23.154747],[120.476257,23.155446],[120.47599,23.155833],[120.475655,23.156005],[120.475036,23.156059],[120.474734,23.15587],[120.474555,23.156104],[120.474202,23.156093],[120.473927,23.156706],[120.474945,23.161256],[120.474852,23.162419],[120.474501,23.16316]]]},"properties":{"code":"67000230003","name":"中正里","countyCode":"67000","countyName":"臺南市","townCode":"67000230","townName":"玉井區","level":"village","unassigned":false,"note":"","label":[120.46455281457531,23.147856515582856],"bounds":[120.45252,23.123485,120.478084,23.171956],"focusBounds":[120.45252,23.123485,120.478084,23.171956],"color":"#efb44f"}},{"type":"Feature","id":"67000230004","geometry":{"type":"Polygon","coordinates":[[[120.485864,23.140619],[120.485488,23.141],[120.484829,23.141092],[120.484522,23.14131],[120.483295,23.14164],[120.483182,23.141721],[120.483251,23.142204],[120.481842,23.142782],[120.480999,23.141619],[120.47992,23.141441],[120.479893,23.141103],[120.480263,23.140507],[120.479777,23.139824],[120.479437,23.139672],[120.479043,23.139715],[120.478691,23.140096],[120.477631,23.139912],[120.475667,23.137161],[120.470213,23.130837],[120.465257,23.126325],[120.464284,23.12544],[120.464613,23.125131],[120.465452,23.12499],[120.468695,23.125208],[120.470803,23.124726],[120.473195,23.124738],[120.473599,23.124191],[120.473996,23.122011],[120.474323,23.121511],[120.474733,23.121289],[120.475251,23.121313],[120.476103,23.121905],[120.477191,23.124347],[120.478489,23.125927],[120.479498,23.126522],[120.480354,23.126606],[120.482086,23.126479],[120.486925,23.125883],[120.486902,23.12634],[120.485468,23.128564],[120.48541,23.12897],[120.485831,23.130071],[120.487207,23.130169],[120.487417,23.13036],[120.487388,23.130727],[120.487106,23.131099],[120.486639,23.131372],[120.48598,23.13232],[120.485438,23.132821],[120.48498,23.133975],[120.485107,23.134379],[120.486008,23.13568],[120.486235,23.136402],[120.486732,23.137209],[120.487019,23.13818],[120.487022,23.138543],[120.486756,23.139105],[120.485564,23.13969],[120.485912,23.140035],[120.485864,23.140619]]]},"properties":{"code":"67000230004","name":"竹圍里","countyCode":"67000","countyName":"臺南市","townCode":"67000230","townName":"玉井區","level":"village","unassigned":false,"note":"","label":[120.4782824901897,23.13179930248519],"bounds":[120.464284,23.121289,120.487417,23.142782],"focusBounds":[120.464284,23.121289,120.487417,23.142782],"color":"#78a7e3"}},{"type":"Feature","id":"67000230005","geometry":{"type":"Polygon","coordinates":[[[120.486925,23.125883],[120.482086,23.126479],[120.480354,23.126606],[120.479498,23.126522],[120.478489,23.125927],[120.477191,23.124347],[120.476103,23.121905],[120.475354,23.120537],[120.474621,23.119753],[120.47242,23.118486],[120.468665,23.11744],[120.467059,23.117157],[120.463378,23.116851],[120.463616,23.114298],[120.463887,23.113735],[120.464963,23.113197],[120.46605,23.112918],[120.467257,23.11294],[120.467527,23.112765],[120.468076,23.109832],[120.468005,23.109121],[120.46791,23.108669],[120.466517,23.106023],[120.466592,23.105481],[120.466873,23.105313],[120.471866,23.104968],[120.472487,23.105332],[120.47369,23.106713],[120.474361,23.106839],[120.477244,23.10607],[120.478126,23.105046],[120.478299,23.104516],[120.47807,23.104289],[120.482667,23.104771],[120.486172,23.106088],[120.487003,23.106276],[120.487884,23.105816],[120.490153,23.104198],[120.492385,23.103022],[120.49646,23.10157],[120.498466,23.101429],[120.502055,23.102391],[120.504784,23.102731],[120.507522,23.103478],[120.510913,23.103536],[120.514133,23.104084],[120.520441,23.106282],[120.520697,23.106827],[120.521998,23.107825],[120.522928,23.109782],[120.524211,23.110133],[120.524727,23.110623],[120.524903,23.111017],[120.525053,23.112946],[120.526278,23.114598],[120.526716,23.114976],[120.527272,23.116249],[120.526249,23.117013],[120.52545,23.117191],[120.5245,23.117173],[120.523496,23.117951],[120.522827,23.117999],[120.521839,23.1184],[120.520691,23.119454],[120.519666,23.119646],[120.519046,23.12049],[120.518763,23.121167],[120.517655,23.121429],[120.517591,23.122165],[120.517438,23.122381],[120.516937,23.122347],[120.516135,23.121932],[120.514819,23.122666],[120.514414,23.122598],[120.513856,23.122767],[120.513149,23.122538],[120.512337,23.122689],[120.511961,23.122874],[120.511376,23.123567],[120.510705,23.123772],[120.510278,23.124175],[120.510073,23.124665],[120.508844,23.124878],[120.508513,23.125194],[120.508143,23.125253],[120.507889,23.125133],[120.507405,23.123897],[120.506462,23.122804],[120.505703,23.121069],[120.504934,23.118226],[120.504775,23.11798],[120.504489,23.117894],[120.503272,23.118008],[120.502314,23.118292],[120.501112,23.118237],[120.500284,23.118603],[120.499635,23.119457],[120.499003,23.119637],[120.49928,23.121612],[120.498921,23.121763],[120.497569,23.121841],[120.497199,23.122848],[120.495951,23.123285],[120.495401,23.123928],[120.494521,23.123747],[120.493901,23.123882],[120.491889,23.123507],[120.490631,23.123114],[120.489614,23.123481],[120.488016,23.123679],[120.487699,23.123968],[120.487682,23.12474],[120.487388,23.125303],[120.486864,23.125638],[120.486925,23.125883]]]},"properties":{"code":"67000230005","name":"沙田里","countyCode":"67000","countyName":"臺南市","townCode":"67000230","townName":"玉井區","level":"village","unassigned":false,"note":"","label":[120.49283684859462,23.113272405000185],"bounds":[120.463378,23.101429,120.527272,23.126606],"focusBounds":[120.463378,23.101429,120.527272,23.126606],"color":"#a49ad4"}},{"type":"Feature","id":"67000230006","geometry":{"type":"Polygon","coordinates":[[[120.511839,23.091992],[120.512785,23.093717],[120.513666,23.094697],[120.514233,23.095048],[120.515236,23.095211],[120.515989,23.096038],[120.516632,23.097297],[120.517414,23.099388],[120.517809,23.100752],[120.517854,23.101522],[120.518921,23.103235],[120.520003,23.104304],[120.520441,23.106282],[120.514133,23.104084],[120.510913,23.103536],[120.507522,23.103478],[120.504784,23.102731],[120.502055,23.102391],[120.498466,23.101429],[120.49646,23.10157],[120.492385,23.103022],[120.490153,23.104198],[120.487884,23.105816],[120.487003,23.106276],[120.486172,23.106088],[120.482667,23.104771],[120.47807,23.104289],[120.477457,23.103705],[120.475084,23.102821],[120.474219,23.102332],[120.471715,23.099829],[120.471633,23.098971],[120.472051,23.098183],[120.474864,23.096544],[120.476781,23.096313],[120.477814,23.09661],[120.478525,23.096646],[120.47932,23.096107],[120.47948,23.095758],[120.47936,23.095283],[120.478947,23.09465],[120.479047,23.094063],[120.478053,23.092434],[120.477736,23.092253],[120.475967,23.092213],[120.474244,23.092772],[120.472489,23.09219],[120.472404,23.092009],[120.473023,23.089742],[120.473917,23.089147],[120.475156,23.087388],[120.475344,23.086605],[120.476386,23.084852],[120.476851,23.084527],[120.478091,23.084043],[120.479004,23.085868],[120.480283,23.087252],[120.481235,23.089944],[120.481632,23.090409],[120.482475,23.090823],[120.483829,23.090902],[120.484601,23.091181],[120.485005,23.091086],[120.485524,23.090546],[120.485625,23.089951],[120.486074,23.089365],[120.486303,23.088386],[120.487534,23.088671],[120.488073,23.088213],[120.488713,23.088162],[120.489431,23.087218],[120.491902,23.087867],[120.492536,23.088188],[120.493214,23.087692],[120.493614,23.087889],[120.493899,23.087745],[120.494454,23.088297],[120.496149,23.0881],[120.496643,23.088531],[120.49756,23.08895],[120.498308,23.088109],[120.49873,23.087982],[120.498779,23.087748],[120.499891,23.087355],[120.501677,23.088716],[120.502245,23.08878],[120.502635,23.08899],[120.504309,23.089179],[120.505626,23.089842],[120.506153,23.090444],[120.506703,23.090766],[120.507258,23.090781],[120.50779,23.091559],[120.510842,23.091523],[120.511523,23.091713],[120.511839,23.091992]]]},"properties":{"code":"67000230006","name":"三埔里","countyCode":"67000","countyName":"臺南市","townCode":"67000230","townName":"玉井區","level":"village","unassigned":false,"note":"","label":[120.4917154443438,23.095596439560694],"bounds":[120.471633,23.084043,120.520441,23.106282],"focusBounds":[120.471633,23.084043,120.520441,23.106282],"color":"#68bec9"}},{"type":"Feature","id":"67000230007","geometry":{"type":"Polygon","coordinates":[[[120.463378,23.116851],[120.462797,23.117727],[120.461586,23.118253],[120.459747,23.118358],[120.458244,23.118122],[120.457137,23.117543],[120.456787,23.115171],[120.456837,23.114241],[120.454872,23.111875],[120.453881,23.111027],[120.457495,23.110008],[120.457186,23.106977],[120.458783,23.103937],[120.458748,23.102693],[120.458891,23.102258],[120.458621,23.100115],[120.45899,23.099509],[120.458869,23.099027],[120.459053,23.098689],[120.458921,23.098344],[120.459154,23.097139],[120.459788,23.096967],[120.459384,23.095167],[120.459004,23.095037],[120.458419,23.094375],[120.458063,23.092819],[120.4571,23.09161],[120.4568,23.09081],[120.456823,23.09043],[120.456942,23.089708],[120.457407,23.088649],[120.459489,23.084789],[120.459714,23.084567],[120.459761,23.083779],[120.460633,23.083341],[120.460906,23.08243],[120.461922,23.08167],[120.462301,23.081138],[120.462316,23.080791],[120.46215,23.080527],[120.461402,23.079875],[120.461592,23.078767],[120.462173,23.077498],[120.46189,23.076475],[120.462041,23.076036],[120.462432,23.075372],[120.462839,23.075156],[120.464082,23.075407],[120.464884,23.075254],[120.465274,23.074618],[120.465284,23.073833],[120.466213,23.072985],[120.466809,23.072],[120.467741,23.071849],[120.468122,23.072543],[120.468909,23.073455],[120.469744,23.07384],[120.471162,23.074046],[120.471936,23.0738],[120.472398,23.073377],[120.473381,23.073758],[120.474038,23.073328],[120.474398,23.072818],[120.475086,23.073176],[120.475288,23.073725],[120.47571,23.07383],[120.476192,23.073753],[120.476258,23.073032],[120.476872,23.072663],[120.479253,23.07305],[120.479391,23.073495],[120.479114,23.074995],[120.479258,23.076557],[120.480266,23.077745],[120.480427,23.078149],[120.480497,23.078747],[120.480275,23.079337],[120.48112,23.079936],[120.481504,23.080516],[120.480284,23.081368],[120.4798,23.082372],[120.477805,23.082969],[120.477619,23.083283],[120.478091,23.084043],[120.476851,23.084527],[120.476386,23.084852],[120.475344,23.086605],[120.475156,23.087388],[120.473917,23.089147],[120.473023,23.089742],[120.472404,23.092009],[120.472489,23.09219],[120.474244,23.092772],[120.475967,23.092213],[120.477736,23.092253],[120.478053,23.092434],[120.479047,23.094063],[120.478947,23.09465],[120.47936,23.095283],[120.47948,23.095758],[120.47932,23.096107],[120.478525,23.096646],[120.477814,23.09661],[120.476781,23.096313],[120.474864,23.096544],[120.472051,23.098183],[120.471633,23.098971],[120.471715,23.099829],[120.474219,23.102332],[120.475084,23.102821],[120.477457,23.103705],[120.47807,23.104289],[120.478299,23.104516],[120.478126,23.105046],[120.477244,23.10607],[120.474361,23.106839],[120.47369,23.106713],[120.472487,23.105332],[120.471866,23.104968],[120.466873,23.105313],[120.466592,23.105481],[120.466517,23.106023],[120.46791,23.108669],[120.468005,23.109121],[120.468076,23.109832],[120.467527,23.112765],[120.467257,23.11294],[120.46605,23.112918],[120.464963,23.113197],[120.463887,23.113735],[120.463616,23.114298],[120.463378,23.116851]]]},"properties":{"code":"67000230007","name":"三和里","countyCode":"67000","countyName":"臺南市","townCode":"67000230","townName":"玉井區","level":"village","unassigned":false,"note":"","label":[120.4651043635782,23.090260412042902],"bounds":[120.453881,23.071849,120.481504,23.118358],"focusBounds":[120.453881,23.071849,120.481504,23.118358],"color":"#a8bf62"}},{"type":"Feature","id":"67000230008","geometry":{"type":"Polygon","coordinates":[[[120.457137,23.117543],[120.457159,23.117692],[120.455063,23.116752],[120.451413,23.113917],[120.451134,23.113476],[120.448745,23.112554],[120.447429,23.112867],[120.446532,23.113528],[120.446192,23.114258],[120.445513,23.115037],[120.443825,23.115957],[120.441407,23.116363],[120.440407,23.115552],[120.439552,23.113334],[120.439022,23.112887],[120.438058,23.112683],[120.437509,23.112697],[120.435959,23.113615],[120.434263,23.113453],[120.432982,23.113649],[120.43155,23.114104],[120.430906,23.114662],[120.430716,23.114595],[120.430452,23.114752],[120.43017,23.114566],[120.430242,23.113753],[120.428886,23.113672],[120.429158,23.113156],[120.428904,23.112638],[120.429143,23.112377],[120.429189,23.111896],[120.429616,23.11185],[120.429523,23.11157],[120.429197,23.111524],[120.428403,23.111997],[120.427933,23.111873],[120.427701,23.111703],[120.427739,23.111471],[120.428684,23.111149],[120.42867,23.110984],[120.427822,23.111266],[120.427334,23.111047],[120.427302,23.110876],[120.427522,23.110689],[120.427039,23.110495],[120.427241,23.109995],[120.426326,23.11063],[120.426229,23.110384],[120.426473,23.109913],[120.425635,23.110007],[120.425772,23.109486],[120.425336,23.109209],[120.425227,23.108446],[120.424258,23.108844],[120.424255,23.108368],[120.423968,23.107983],[120.423525,23.108318],[120.422605,23.107752],[120.422504,23.107465],[120.421474,23.10668],[120.421008,23.105837],[120.420409,23.10543],[120.419955,23.104857],[120.418314,23.104562],[120.418451,23.1036],[120.419855,23.103079],[120.422857,23.10162],[120.42564,23.099567],[120.427117,23.099687],[120.427652,23.099558],[120.428563,23.098869],[120.432528,23.096896],[120.433007,23.096431],[120.434103,23.094351],[120.43496,23.093358],[120.437395,23.094405],[120.44083,23.094215],[120.444798,23.093371],[120.449145,23.091381],[120.451174,23.089959],[120.4512,23.089441],[120.45211,23.089021],[120.454044,23.087551],[120.455059,23.087338],[120.455634,23.087017],[120.455862,23.086379],[120.455655,23.086094],[120.455318,23.08484],[120.455976,23.084312],[120.456016,23.083751],[120.456635,23.084466],[120.457336,23.084345],[120.457845,23.084571],[120.45828,23.084562],[120.45904,23.084917],[120.459489,23.084789],[120.457407,23.088649],[120.456942,23.089708],[120.456823,23.09043],[120.4568,23.09081],[120.4571,23.09161],[120.458063,23.092819],[120.458419,23.094375],[120.459004,23.095037],[120.459384,23.095167],[120.459788,23.096967],[120.459154,23.097139],[120.458921,23.098344],[120.459053,23.098689],[120.458869,23.099027],[120.45899,23.099509],[120.458621,23.100115],[120.458891,23.102258],[120.458748,23.102693],[120.458783,23.103937],[120.457186,23.106977],[120.457495,23.110008],[120.453881,23.111027],[120.454872,23.111875],[120.456837,23.114241],[120.456787,23.115171],[120.457137,23.117543]]]},"properties":{"code":"67000230008","name":"望明里","countyCode":"67000","countyName":"臺南市","townCode":"67000230","townName":"玉井區","level":"village","unassigned":false,"note":"","label":[120.44323544441619,23.103936792379642],"bounds":[120.418314,23.083751,120.459788,23.117692],"focusBounds":[120.418314,23.083751,120.459788,23.117692],"color":"#df9f6a"}},{"type":"Feature","id":"67000230009","geometry":{"type":"Polygon","coordinates":[[[120.456016,23.083751],[120.455976,23.084312],[120.455318,23.08484],[120.455655,23.086094],[120.455862,23.086379],[120.455634,23.087017],[120.455059,23.087338],[120.454044,23.087551],[120.45211,23.089021],[120.4512,23.089441],[120.451174,23.089959],[120.449145,23.091381],[120.444798,23.093371],[120.44083,23.094215],[120.437395,23.094405],[120.43496,23.093358],[120.434103,23.094351],[120.433007,23.096431],[120.432528,23.096896],[120.428563,23.098869],[120.427652,23.099558],[120.427117,23.099687],[120.42564,23.099567],[120.422857,23.10162],[120.419855,23.103079],[120.418451,23.1036],[120.418328,23.102154],[120.417181,23.101684],[120.41681,23.101313],[120.416631,23.100732],[120.416232,23.100342],[120.414137,23.09942],[120.414125,23.097599],[120.412942,23.096148],[120.412379,23.094236],[120.410758,23.094044],[120.410551,23.093548],[120.410492,23.091764],[120.410081,23.090658],[120.409377,23.09042],[120.408798,23.089478],[120.408716,23.088778],[120.40799,23.088638],[120.407333,23.087984],[120.407045,23.08748],[120.406561,23.087238],[120.406332,23.086882],[120.407328,23.085901],[120.40728,23.084902],[120.407901,23.084087],[120.408765,23.084011],[120.409221,23.083095],[120.4095,23.082013],[120.409905,23.081824],[120.41036,23.081178],[120.410057,23.080085],[120.409719,23.079433],[120.409768,23.079217],[120.410143,23.079021],[120.4111,23.078935],[120.411624,23.078227],[120.411764,23.077694],[120.412141,23.077404],[120.412431,23.076577],[120.41316,23.076349],[120.413465,23.076076],[120.413721,23.073909],[120.414272,23.073343],[120.414157,23.072936],[120.414275,23.072606],[120.414703,23.072453],[120.415016,23.071932],[120.414644,23.071083],[120.414955,23.070656],[120.414911,23.070013],[120.416915,23.069986],[120.418644,23.070283],[120.420627,23.069556],[120.421791,23.069713],[120.422159,23.069799],[120.422504,23.070132],[120.42312,23.070289],[120.42339,23.070241],[120.423778,23.069835],[120.423737,23.068771],[120.423971,23.068072],[120.424476,23.067842],[120.424675,23.067562],[120.424759,23.067133],[120.424599,23.066446],[120.424888,23.065507],[120.425838,23.064172],[120.426266,23.06295],[120.426458,23.062813],[120.426824,23.062811],[120.427169,23.063444],[120.427655,23.063579],[120.427582,23.064077],[120.428383,23.064276],[120.428648,23.064529],[120.428711,23.064913],[120.42828,23.065648],[120.428389,23.065894],[120.429007,23.065999],[120.429799,23.065825],[120.431265,23.066232],[120.432157,23.06613],[120.433918,23.065384],[120.434367,23.064991],[120.435528,23.063397],[120.43585,23.063741],[120.436404,23.064018],[120.437128,23.064006],[120.437243,23.064328],[120.437503,23.064433],[120.437896,23.064081],[120.438228,23.064182],[120.438845,23.064017],[120.439141,23.064211],[120.43997,23.064162],[120.440632,23.06472],[120.440925,23.066198],[120.44129,23.067051],[120.441618,23.067152],[120.44285,23.066994],[120.443246,23.067158],[120.443399,23.068083],[120.443306,23.069295],[120.443675,23.069978],[120.443774,23.071538],[120.444007,23.072283],[120.443323,23.072794],[120.443041,23.07357],[120.44239,23.074234],[120.442231,23.0751],[120.441701,23.075517],[120.441841,23.076155],[120.44267,23.076716],[120.443889,23.076791],[120.444554,23.076347],[120.445611,23.076616],[120.445993,23.077082],[120.446028,23.078243],[120.446188,23.078529],[120.447135,23.078808],[120.447959,23.079495],[120.44867,23.079789],[120.450215,23.079426],[120.451168,23.079382],[120.452215,23.078601],[120.452765,23.07849],[120.453833,23.079327],[120.454191,23.079879],[120.454984,23.080338],[120.455126,23.080886],[120.455048,23.081793],[120.455541,23.082251],[120.455592,23.083045],[120.456016,23.083751]]]},"properties":{"code":"67000230009","name":"層林里","countyCode":"67000","countyName":"臺南市","townCode":"67000230","townName":"玉井區","level":"village","unassigned":false,"note":"","label":[120.42931328642128,23.08221326391852],"bounds":[120.406332,23.062811,120.456016,23.1036],"focusBounds":[120.406332,23.062811,120.456016,23.1036],"color":"#c38cb8"}},{"type":"Feature","id":"67000230010","geometry":{"type":"Polygon","coordinates":[[[120.465564,23.171719],[120.465386,23.171938],[120.465823,23.172267],[120.465808,23.172652],[120.464821,23.173412],[120.464547,23.17383],[120.463827,23.174012],[120.463636,23.174244],[120.464074,23.174829],[120.464846,23.174953],[120.464811,23.175091],[120.464425,23.175127],[120.464071,23.175378],[120.463842,23.175774],[120.464044,23.1759],[120.464912,23.175789],[120.464763,23.176177],[120.464377,23.176261],[120.464013,23.176102],[120.463482,23.176548],[120.46263,23.176526],[120.462406,23.176336],[120.462319,23.175833],[120.461754,23.175655],[120.461835,23.174908],[120.461659,23.174608],[120.461285,23.174427],[120.460887,23.175042],[120.460429,23.175427],[120.460367,23.175762],[120.460634,23.176188],[120.460475,23.176778],[120.460805,23.176868],[120.460704,23.178276],[120.461386,23.178297],[120.461083,23.178701],[120.459875,23.179065],[120.459779,23.179345],[120.460305,23.179626],[120.459786,23.180017],[120.45938,23.179981],[120.459322,23.180176],[120.459515,23.180514],[120.460437,23.18107],[120.460777,23.182194],[120.461089,23.182669],[120.461106,23.18358],[120.461471,23.184287],[120.461116,23.185207],[120.46097,23.187159],[120.460775,23.187357],[120.459598,23.187778],[120.457803,23.189251],[120.457258,23.189455],[120.456899,23.189976],[120.455876,23.188236],[120.454926,23.187296],[120.454585,23.18606],[120.454304,23.185569],[120.453396,23.18533],[120.452858,23.184829],[120.453089,23.183671],[120.452076,23.182936],[120.451568,23.180966],[120.449237,23.178406],[120.448752,23.176707],[120.447632,23.174106],[120.445969,23.171899],[120.444241,23.169955],[120.443417,23.168534],[120.443226,23.166925],[120.44384,23.16556],[120.443695,23.165023],[120.442981,23.164218],[120.441659,23.163662],[120.440424,23.163538],[120.439766,23.163042],[120.438903,23.162859],[120.438689,23.162216],[120.43893,23.161543],[120.438825,23.159924],[120.437834,23.158838],[120.437033,23.158474],[120.436668,23.158023],[120.436815,23.157213],[120.436455,23.15617],[120.435385,23.155173],[120.434372,23.154644],[120.433726,23.153916],[120.433613,23.1527],[120.433823,23.151549],[120.434767,23.150684],[120.43526,23.149762],[120.435221,23.148716],[120.434989,23.14786],[120.435218,23.147047],[120.434845,23.146449],[120.434495,23.14492],[120.433983,23.14422],[120.433617,23.142812],[120.433066,23.142165],[120.432313,23.13912],[120.431929,23.138552],[120.431262,23.137976],[120.431064,23.137588],[120.431101,23.137315],[120.434096,23.135009],[120.435908,23.133197],[120.436315,23.13253],[120.436417,23.131074],[120.436216,23.128964],[120.435595,23.127249],[120.435346,23.125973],[120.435807,23.124891],[120.436515,23.124047],[120.4368,23.123233],[120.436576,23.122067],[120.435618,23.120429],[120.433847,23.118614],[120.430798,23.116157],[120.430906,23.114662],[120.43155,23.114104],[120.432982,23.113649],[120.434263,23.113453],[120.435959,23.113615],[120.437509,23.112697],[120.438058,23.112683],[120.439022,23.112887],[120.439552,23.113334],[120.440407,23.115552],[120.441407,23.116363],[120.445766,23.118724],[120.447647,23.118255],[120.448396,23.118226],[120.449708,23.118661],[120.451811,23.120823],[120.452114,23.121487],[120.452316,23.123393],[120.45252,23.123485],[120.453157,23.128145],[120.453405,23.135766],[120.453048,23.137867],[120.453105,23.138946],[120.454782,23.141365],[120.456102,23.142164],[120.45605,23.143282],[120.454631,23.145521],[120.454079,23.147219],[120.454216,23.148761],[120.454615,23.149533],[120.456611,23.151769],[120.456867,23.151798],[120.457136,23.152832],[120.457165,23.153236],[120.456574,23.154084],[120.456526,23.154753],[120.456296,23.155198],[120.456287,23.157225],[120.456613,23.157637],[120.457759,23.158402],[120.460586,23.160753],[120.460583,23.161597],[120.459426,23.163695],[120.459186,23.165103],[120.459302,23.165343],[120.459638,23.165628],[120.460825,23.166094],[120.461776,23.166787],[120.463225,23.168613],[120.464782,23.168783],[120.464524,23.169281],[120.464539,23.169679],[120.465076,23.17043],[120.465564,23.171719]]]},"properties":{"code":"67000230010","name":"豐里里","countyCode":"67000","countyName":"臺南市","townCode":"67000230","townName":"玉井區","level":"village","unassigned":false,"note":"","label":[120.44556643600446,23.15298796281348],"bounds":[120.430798,23.112683,120.465823,23.189976],"focusBounds":[120.430798,23.112683,120.465823,23.189976],"color":"#58b99d"}}]}
