{"type":"FeatureCollection","features":[{"type":"Feature","id":"67000220001","geometry":{"type":"Polygon","coordinates":[[[120.345113,23.120646],[120.343453,23.122972],[120.341234,23.12721],[120.340801,23.128338],[120.339408,23.132964],[120.339308,23.137653],[120.338532,23.136741],[120.33736,23.136225],[120.336175,23.134681],[120.336059,23.134219],[120.3362,23.133393],[120.334913,23.130875],[120.334801,23.130433],[120.334882,23.129541],[120.334582,23.12821],[120.334158,23.127161],[120.333534,23.126437],[120.333209,23.125648],[120.332997,23.124173],[120.33254,23.122702],[120.332087,23.122274],[120.331438,23.121182],[120.331122,23.118533],[120.331566,23.117135],[120.332288,23.116109],[120.332282,23.11503],[120.332818,23.113739],[120.332087,23.112169],[120.332352,23.111422],[120.332478,23.110029],[120.332381,23.107853],[120.332877,23.10656],[120.333333,23.105551],[120.333935,23.105157],[120.333877,23.103729],[120.335103,23.102216],[120.335247,23.100845],[120.335823,23.099121],[120.336215,23.098612],[120.336813,23.098273],[120.352013,23.103635],[120.351649,23.103967],[120.351978,23.104199],[120.352017,23.104442],[120.35161,23.104467],[120.351496,23.105063],[120.352624,23.105173],[120.355014,23.105982],[120.3552,23.10538],[120.35644,23.104919],[120.35694,23.105865],[120.356952,23.106272],[120.357386,23.107358],[120.357377,23.108333],[120.351271,23.113225],[120.349764,23.114573],[120.347112,23.117626],[120.345113,23.120646]]]},"properties":{"code":"67000220001","name":"明和里","countyCode":"67000","countyName":"臺南市","townCode":"67000220","townName":"山上區","level":"village","unassigned":false,"note":"","label":[120.34145751266546,23.110362918774342],"bounds":[120.331122,23.098273,120.357386,23.137653],"focusBounds":[120.331122,23.098273,120.357386,23.137653],"color":"#78a7e3"}},{"type":"Feature","id":"67000220002","geometry":{"type":"Polygon","coordinates":[[[120.35644,23.104919],[120.3552,23.10538],[120.355014,23.105982],[120.352624,23.105173],[120.351496,23.105063],[120.35161,23.104467],[120.352017,23.104442],[120.351978,23.104199],[120.351649,23.103967],[120.352013,23.103635],[120.336813,23.098273],[120.33725,23.097272],[120.338485,23.095687],[120.339011,23.095233],[120.339742,23.094054],[120.341272,23.092146],[120.342496,23.090638],[120.344092,23.08909],[120.355496,23.097647],[120.356306,23.098274],[120.356074,23.098605],[120.355831,23.100898],[120.355521,23.101679],[120.355704,23.10245],[120.355477,23.103045],[120.356997,23.103375],[120.356925,23.103931],[120.35644,23.104919]]]},"properties":{"code":"67000220002","name":"南洲里","countyCode":"67000","countyName":"臺南市","townCode":"67000220","townName":"山上區","level":"village","unassigned":false,"note":"","label":[120.34729819702376,23.097192689919954],"bounds":[120.336813,23.08909,120.356997,23.105982],"focusBounds":[120.336813,23.08909,120.356997,23.105982],"color":"#dd8590"}},{"type":"Feature","id":"67000220003","geometry":{"type":"Polygon","coordinates":[[[120.366399,23.10162],[120.360674,23.106066],[120.357377,23.108333],[120.357386,23.107358],[120.356952,23.106272],[120.35694,23.105865],[120.35644,23.104919],[120.356925,23.103931],[120.356997,23.103375],[120.355477,23.103045],[120.355704,23.10245],[120.355521,23.101679],[120.355831,23.100898],[120.356074,23.098605],[120.356306,23.098274],[120.355496,23.097647],[120.359051,23.096151],[120.359404,23.096828],[120.361186,23.095998],[120.362587,23.098762],[120.36389,23.100292],[120.364195,23.100275],[120.366399,23.10162]]]},"properties":{"code":"67000220003","name":"山上里","countyCode":"67000","countyName":"臺南市","townCode":"67000220","townName":"山上區","level":"village","unassigned":false,"note":"","label":[120.35994245732228,23.101324881336872],"bounds":[120.355477,23.095998,120.366399,23.108333],"focusBounds":[120.355477,23.095998,120.366399,23.108333],"color":"#68bec9"}},{"type":"Feature","id":"67000220004","geometry":{"type":"Polygon","coordinates":[[[120.367665,23.100636],[120.366399,23.10162],[120.364195,23.100275],[120.36389,23.100292],[120.362587,23.098762],[120.361186,23.095998],[120.359404,23.096828],[120.359051,23.096151],[120.355496,23.097647],[120.344092,23.08909],[120.343427,23.088401],[120.343666,23.086799],[120.34407,23.085447],[120.344103,23.084119],[120.347037,23.083264],[120.347551,23.083243],[120.349141,23.083681],[120.351026,23.083962],[120.358591,23.084763],[120.360353,23.085109],[120.361601,23.085613],[120.363495,23.086715],[120.364609,23.086349],[120.365208,23.085957],[120.366751,23.083979],[120.367635,23.083531],[120.367705,23.084278],[120.369129,23.086943],[120.368618,23.087235],[120.368119,23.088269],[120.367731,23.090184],[120.36778,23.091406],[120.368616,23.09266],[120.370479,23.093954],[120.371027,23.094207],[120.371991,23.094353],[120.372468,23.09479],[120.37259,23.095276],[120.372253,23.096182],[120.370822,23.096441],[120.369901,23.09709],[120.368138,23.099155],[120.367665,23.100636]]]},"properties":{"code":"67000220004","name":"新莊里","countyCode":"67000","countyName":"臺南市","townCode":"67000220","townName":"山上區","level":"village","unassigned":false,"note":"","label":[120.35822433720736,23.090611630534653],"bounds":[120.343427,23.083243,120.37259,23.10162],"focusBounds":[120.343427,23.083243,120.37259,23.10162],"color":"#a8bf62"}},{"type":"Feature","id":"67000220005","geometry":{"type":"Polygon","coordinates":[[[120.405432,23.115689],[120.405044,23.115682],[120.404667,23.115367],[120.404193,23.115638],[120.403622,23.11565],[120.403021,23.115453],[120.402545,23.115631],[120.402298,23.114979],[120.401362,23.113688],[120.401395,23.112569],[120.400466,23.111975],[120.399847,23.110135],[120.399814,23.108796],[120.399035,23.107763],[120.397529,23.108248],[120.397169,23.107754],[120.396812,23.107681],[120.395583,23.108567],[120.395492,23.107423],[120.395165,23.107201],[120.394632,23.107153],[120.393882,23.106861],[120.393312,23.106295],[120.392512,23.106462],[120.391837,23.105964],[120.391067,23.105712],[120.390509,23.105913],[120.389852,23.105944],[120.389079,23.105802],[120.387091,23.105838],[120.38677,23.105752],[120.386281,23.1045],[120.385229,23.103093],[120.38416,23.102203],[120.383013,23.101741],[120.382279,23.10199],[120.379589,23.101729],[120.376801,23.101549],[120.374219,23.100579],[120.371873,23.100074],[120.368934,23.099932],[120.368493,23.100066],[120.367665,23.100636],[120.368138,23.099155],[120.369901,23.09709],[120.370822,23.096441],[120.372253,23.096182],[120.37259,23.095276],[120.372468,23.09479],[120.371991,23.094353],[120.371027,23.094207],[120.370479,23.093954],[120.368616,23.09266],[120.36778,23.091406],[120.367731,23.090184],[120.368119,23.088269],[120.368618,23.087235],[120.369129,23.086943],[120.369608,23.086945],[120.370733,23.087507],[120.371645,23.089197],[120.372033,23.090465],[120.37276,23.091326],[120.373176,23.092134],[120.374031,23.092652],[120.375748,23.092266],[120.37753,23.091029],[120.379331,23.090765],[120.381718,23.091856],[120.382524,23.091922],[120.383239,23.091008],[120.383704,23.090033],[120.384604,23.089242],[120.384836,23.088583],[120.384704,23.088242],[120.384319,23.087947],[120.383129,23.087872],[120.382721,23.087597],[120.382408,23.086761],[120.38266,23.085818],[120.382517,23.083296],[120.382906,23.082519],[120.383565,23.082063],[120.384112,23.082343],[120.384696,23.083117],[120.385542,23.083822],[120.38801,23.084753],[120.388651,23.084733],[120.389092,23.08455],[120.389163,23.080951],[120.388291,23.079684],[120.388411,23.079108],[120.38941,23.079374],[120.389917,23.079369],[120.390362,23.079262],[120.390817,23.078866],[120.39132,23.07869],[120.392641,23.079297],[120.393622,23.079175],[120.395163,23.079335],[120.39549,23.07928],[120.396007,23.078823],[120.397123,23.079624],[120.398386,23.079734],[120.400228,23.08118],[120.400637,23.08132],[120.401195,23.081238],[120.401428,23.081402],[120.401992,23.082908],[120.403314,23.083662],[120.403579,23.084873],[120.404404,23.085195],[120.404812,23.085579],[120.405536,23.085899],[120.405983,23.086252],[120.406332,23.086882],[120.406561,23.087238],[120.407045,23.08748],[120.407333,23.087984],[120.40799,23.088638],[120.408716,23.088778],[120.408798,23.089478],[120.409377,23.09042],[120.410081,23.090658],[120.410492,23.091764],[120.410551,23.093548],[120.410758,23.094044],[120.412379,23.094236],[120.412942,23.096148],[120.414125,23.097599],[120.414137,23.09942],[120.416232,23.100342],[120.416631,23.100732],[120.41681,23.101313],[120.417181,23.101684],[120.418328,23.102154],[120.418451,23.1036],[120.418314,23.104562],[120.417825,23.105547],[120.417667,23.106596],[120.418351,23.107829],[120.419501,23.108908],[120.418255,23.110583],[120.417756,23.111899],[120.417002,23.111994],[120.415895,23.111854],[120.414458,23.111463],[120.413985,23.111188],[120.412467,23.111092],[120.411839,23.111191],[120.411407,23.111964],[120.410358,23.112272],[120.410089,23.113137],[120.409094,23.11296],[120.408996,23.113086],[120.409148,23.113488],[120.408955,23.11398],[120.407982,23.11437],[120.407318,23.11482],[120.406926,23.114811],[120.405432,23.115689]]]},"properties":{"code":"67000220005","name":"玉峯里","countyCode":"67000","countyName":"臺南市","townCode":"67000220","townName":"山上區","level":"village","unassigned":false,"note":"","label":[120.39787781849269,23.09509087045222],"bounds":[120.367665,23.07869,120.419501,23.115689],"focusBounds":[120.367665,23.07869,120.419501,23.115689],"color":"#68bec9"}},{"type":"Feature","id":"67000220006","geometry":{"type":"Polygon","coordinates":[[[120.388411,23.079108],[120.388291,23.079684],[120.389163,23.080951],[120.389092,23.08455],[120.388651,23.084733],[120.38801,23.084753],[120.385542,23.083822],[120.384696,23.083117],[120.384112,23.082343],[120.383565,23.082063],[120.382906,23.082519],[120.382517,23.083296],[120.38266,23.085818],[120.382408,23.086761],[120.382721,23.087597],[120.383129,23.087872],[120.384319,23.087947],[120.384704,23.088242],[120.384836,23.088583],[120.384604,23.089242],[120.383704,23.090033],[120.383239,23.091008],[120.382524,23.091922],[120.381718,23.091856],[120.379331,23.090765],[120.37753,23.091029],[120.375748,23.092266],[120.374031,23.092652],[120.373176,23.092134],[120.37276,23.091326],[120.372033,23.090465],[120.371645,23.089197],[120.370733,23.087507],[120.369608,23.086945],[120.369129,23.086943],[120.367705,23.084278],[120.367635,23.083531],[120.367565,23.082736],[120.36776,23.081305],[120.368434,23.080314],[120.369865,23.079042],[120.369668,23.078364],[120.369927,23.078523],[120.370084,23.078873],[120.370495,23.079117],[120.371031,23.079038],[120.37189,23.079296],[120.373118,23.079327],[120.373917,23.07952],[120.374246,23.079412],[120.374834,23.078864],[120.375281,23.078811],[120.375547,23.079028],[120.375937,23.07904],[120.376417,23.079546],[120.376341,23.07984],[120.376624,23.080168],[120.376727,23.080764],[120.377118,23.081008],[120.377461,23.080958],[120.377635,23.081174],[120.378772,23.080679],[120.379026,23.079684],[120.379497,23.079281],[120.379653,23.078723],[120.380778,23.078535],[120.380725,23.078255],[120.38105,23.07805],[120.380968,23.077684],[120.381238,23.077284],[120.381705,23.077098],[120.38208,23.077273],[120.382483,23.077175],[120.382856,23.076631],[120.383063,23.075647],[120.384693,23.075527],[120.384942,23.076958],[120.385459,23.077334],[120.38669,23.077527],[120.387435,23.076809],[120.388183,23.075761],[120.388843,23.075823],[120.389027,23.076207],[120.388952,23.076746],[120.388679,23.077074],[120.38822,23.077238],[120.387989,23.078137],[120.388462,23.07869],[120.388411,23.079108]]]},"properties":{"code":"67000220006","name":"平陽里","countyCode":"67000","countyName":"臺南市","townCode":"67000220","townName":"山上區","level":"village","unassigned":false,"note":"","label":[120.37727848544158,23.086094100241546],"bounds":[120.367565,23.075527,120.389163,23.092652],"focusBounds":[120.367565,23.075527,120.389163,23.092652],"color":"#c38cb8"}},{"type":"Feature","id":"67000220007","geometry":{"type":"Polygon","coordinates":[[[120.367635,23.083531],[120.366751,23.083979],[120.365208,23.085957],[120.364609,23.086349],[120.363495,23.086715],[120.361601,23.085613],[120.360353,23.085109],[120.358591,23.084763],[120.351026,23.083962],[120.349141,23.083681],[120.347551,23.083243],[120.347037,23.083264],[120.344103,23.084119],[120.343952,23.083959],[120.343061,23.083853],[120.342473,23.083526],[120.341451,23.083986],[120.340541,23.083538],[120.341339,23.082913],[120.341673,23.082155],[120.34206,23.081829],[120.342055,23.081157],[120.341532,23.080012],[120.341825,23.079573],[120.342219,23.079394],[120.342885,23.079482],[120.34342,23.079892],[120.343686,23.080472],[120.344536,23.080494],[120.345413,23.080796],[120.346039,23.080665],[120.347648,23.079928],[120.348007,23.079293],[120.348533,23.079257],[120.34904,23.079549],[120.349627,23.080233],[120.350082,23.081121],[120.350332,23.081227],[120.350734,23.081065],[120.35111,23.080437],[120.351144,23.079054],[120.350883,23.078025],[120.349981,23.076314],[120.34989,23.075733],[120.350277,23.075615],[120.351145,23.075756],[120.351562,23.07566],[120.351897,23.075222],[120.352369,23.074006],[120.353202,23.072794],[120.353429,23.072651],[120.35374,23.072694],[120.354491,23.073649],[120.354029,23.07482],[120.354442,23.076655],[120.35483,23.07717],[120.35574,23.077223],[120.357075,23.075959],[120.357268,23.075338],[120.357156,23.074906],[120.35638,23.074147],[120.356245,23.073526],[120.356561,23.07313],[120.357788,23.072695],[120.358358,23.072283],[120.358495,23.072],[120.358407,23.071585],[120.358971,23.071505],[120.359425,23.071644],[120.359519,23.072654],[120.360321,23.072669],[120.36125,23.07243],[120.361919,23.072585],[120.36381,23.072531],[120.364624,23.072736],[120.364886,23.07336],[120.367423,23.073817],[120.36893,23.07457],[120.369798,23.074403],[120.370476,23.07447],[120.370997,23.075768],[120.370674,23.076399],[120.369414,23.07741],[120.369428,23.078152],[120.369668,23.078364],[120.369865,23.079042],[120.368434,23.080314],[120.36776,23.081305],[120.367565,23.082736],[120.367635,23.083531]]]},"properties":{"code":"67000220007","name":"豐德里","countyCode":"67000","countyName":"臺南市","townCode":"67000220","townName":"山上區","level":"village","unassigned":false,"note":"","label":[120.36218428169134,23.079264649760585],"bounds":[120.340541,23.071505,120.370997,23.086715],"focusBounds":[120.340541,23.071505,120.370997,23.086715],"color":"#98b69b"}}]}
