{"type":"FeatureCollection","features":[{"type":"Feature","id":"67000170001","geometry":{"type":"Polygon","coordinates":[[[120.137282,23.296534],[120.134701,23.296371],[120.130811,23.295094],[120.126938,23.293422],[120.12532,23.293374],[120.12349,23.293546],[120.119764,23.294524],[120.116097,23.295687],[120.109708,23.298014],[120.108952,23.29815],[120.095855,23.298241],[120.09458,23.2959],[120.094329,23.295003],[120.094557,23.290209],[120.095067,23.28807],[120.095062,23.283773],[120.094923,23.282993],[120.095031,23.281678],[120.11498,23.281872],[120.121127,23.27481],[120.125458,23.278762],[120.128041,23.277233],[120.128506,23.276798],[120.128317,23.276579],[120.128771,23.276042],[120.129916,23.275169],[120.129986,23.27487],[120.132308,23.27392],[120.132112,23.273681],[120.13261,23.272466],[120.135946,23.274087],[120.136874,23.274398],[120.137549,23.271851],[120.140844,23.272601],[120.148868,23.273878],[120.149967,23.273517],[120.150396,23.27359],[120.149803,23.275144],[120.147284,23.275828],[120.144122,23.2781],[120.142061,23.279292],[120.139616,23.281644],[120.138819,23.281933],[120.137402,23.281885],[120.136627,23.282025],[120.135997,23.282573],[120.135405,23.283366],[120.137056,23.284309],[120.136227,23.286123],[120.135705,23.287834],[120.135081,23.28903],[120.134894,23.295144],[120.13586,23.295563],[120.137282,23.296534]]]},"properties":{"code":"67000170001","name":"保吉里","countyCode":"67000","countyName":"臺南市","townCode":"67000170","townName":"北門區","level":"village","unassigned":false,"note":"","label":[120.12152631612877,23.28589176087164],"bounds":[120.094329,23.271851,120.150396,23.298241],"focusBounds":[120.094329,23.271851,120.150396,23.298241],"color":"#78a7e3"}},{"type":"Feature","id":"67000170002","geometry":{"type":"Polygon","coordinates":[[[120.144501,23.322878],[120.141541,23.324666],[120.13692,23.327991],[120.132289,23.329756],[120.118078,23.340162],[120.117275,23.338687],[120.115765,23.337275],[120.114011,23.336247],[120.112289,23.334007],[120.111018,23.33183],[120.11111,23.330433],[120.112848,23.325365],[120.112559,23.323855],[120.1128,23.322582],[120.112932,23.323035],[120.113091,23.322609],[120.113504,23.322745],[120.113613,23.322264],[120.113233,23.322024],[120.113453,23.321597],[120.112818,23.318443],[120.112549,23.315584],[120.111953,23.314195],[120.110808,23.3104],[120.110139,23.309139],[120.1094,23.308294],[120.108427,23.306806],[120.106841,23.305279],[120.105734,23.304889],[120.103115,23.304519],[120.102768,23.303888],[120.102607,23.303198],[120.101868,23.302284],[120.099014,23.300484],[120.0969,23.299611],[120.096317,23.299087],[120.095855,23.298241],[120.108952,23.29815],[120.109708,23.298014],[120.116097,23.295687],[120.119764,23.294524],[120.12349,23.293546],[120.12532,23.293374],[120.126938,23.293422],[120.130811,23.295094],[120.134701,23.296371],[120.137282,23.296534],[120.138387,23.296506],[120.140421,23.295497],[120.141171,23.294795],[120.143359,23.296254],[120.144724,23.29756],[120.146287,23.299647],[120.147736,23.302499],[120.152856,23.31325],[120.151054,23.313245],[120.150002,23.313071],[120.148808,23.314111],[120.148515,23.314598],[120.148224,23.316593],[120.148631,23.319227],[120.148519,23.319751],[120.147082,23.321067],[120.144501,23.322878]]]},"properties":{"code":"67000170002","name":"雙春里","countyCode":"67000","countyName":"臺南市","townCode":"67000170","townName":"北門區","level":"village","unassigned":false,"note":"","label":[120.12906033509778,23.313229560766214],"bounds":[120.095855,23.293374,120.152856,23.340162],"focusBounds":[120.095855,23.293374,120.152856,23.340162],"color":"#a49ad4"}},{"type":"Feature","id":"67000170005","geometry":{"type":"Polygon","coordinates":[[[120.128317,23.276579],[120.127793,23.275916],[120.126902,23.275733],[120.126447,23.275389],[120.125322,23.27336],[120.1245,23.270434],[120.12337,23.269051],[120.122829,23.26865],[120.120466,23.264978],[120.120039,23.264855],[120.118964,23.265443],[120.117593,23.26556],[120.116246,23.266414],[120.115721,23.267251],[120.114923,23.269834],[120.111884,23.274031],[120.09912,23.279051],[120.094968,23.280375],[120.094796,23.279739],[120.094314,23.274031],[120.094341,23.271713],[120.094046,23.270651],[120.093367,23.265378],[120.092856,23.263624],[120.092266,23.260062],[120.109518,23.255325],[120.113881,23.25438],[120.117469,23.252719],[120.121049,23.250301],[120.12178,23.250203],[120.122081,23.250313],[120.122996,23.25061],[120.124988,23.251603],[120.129332,23.252536],[120.128094,23.256145],[120.128722,23.256102],[120.130291,23.257093],[120.130866,23.257159],[120.131104,23.258551],[120.131649,23.258936],[120.131777,23.259246],[120.132339,23.259294],[120.132764,23.261416],[120.13257,23.261629],[120.132629,23.262061],[120.132099,23.262482],[120.136769,23.262926],[120.137129,23.263269],[120.138019,23.263483],[120.137884,23.26416],[120.138391,23.264113],[120.138568,23.264353],[120.138538,23.264796],[120.130745,23.268887],[120.137549,23.271851],[120.136874,23.274398],[120.135946,23.274087],[120.13261,23.272466],[120.132112,23.273681],[120.132308,23.27392],[120.129986,23.27487],[120.129916,23.275169],[120.128771,23.276042],[120.128317,23.276579]]]},"properties":{"code":"67000170005","name":"北門里","countyCode":"67000","countyName":"臺南市","townCode":"67000170","townName":"北門區","level":"village","unassigned":false,"note":"","label":[120.10582659483335,23.266376128619676],"bounds":[120.092266,23.250203,120.138568,23.280375],"focusBounds":[120.092266,23.250203,120.138568,23.280375],"color":"#a49ad4"}},{"type":"Feature","id":"67000170006","geometry":{"type":"Polygon","coordinates":[[[120.16264,23.309984],[120.160582,23.310645],[120.158186,23.31036],[120.156773,23.309991],[120.156221,23.310041],[120.155378,23.310697],[120.154926,23.31218],[120.15447,23.312879],[120.153975,23.31314],[120.152856,23.31325],[120.147736,23.302499],[120.148945,23.302021],[120.148497,23.301317],[120.14853,23.300994],[120.151363,23.301208],[120.155349,23.299993],[120.157233,23.298939],[120.157146,23.298384],[120.155972,23.295804],[120.156522,23.295035],[120.155817,23.293383],[120.155543,23.29177],[120.155907,23.288981],[120.156573,23.288782],[120.157189,23.288158],[120.157972,23.286567],[120.159254,23.284821],[120.160979,23.283727],[120.163041,23.28202],[120.165564,23.279371],[120.166677,23.27779],[120.16713,23.277625],[120.1675,23.278417],[120.168565,23.27962],[120.169943,23.280577],[120.171202,23.281104],[120.172571,23.281101],[120.174375,23.281485],[120.174946,23.281493],[120.175306,23.281343],[120.17629,23.281576],[120.176489,23.281813],[120.177278,23.281892],[120.178955,23.282548],[120.180096,23.282636],[120.180996,23.282508],[120.183113,23.281713],[120.183576,23.282888],[120.183488,23.28372],[120.183622,23.28415],[120.182683,23.28458],[120.182267,23.285184],[120.181345,23.285513],[120.181125,23.285572],[120.180641,23.285264],[120.179879,23.284491],[120.179262,23.284771],[120.178996,23.285051],[120.178913,23.285451],[120.179043,23.285771],[120.179948,23.286304],[120.180251,23.286801],[120.18177,23.287424],[120.182772,23.28714],[120.1829,23.287903],[120.184074,23.287436],[120.184889,23.287553],[120.184924,23.288593],[120.184282,23.289496],[120.184067,23.290318],[120.181672,23.290859],[120.180555,23.29092],[120.17868,23.291727],[120.176005,23.293908],[120.175359,23.295109],[120.173727,23.299151],[120.173923,23.299902],[120.173301,23.300412],[120.172862,23.301425],[120.171281,23.304124],[120.169447,23.306075],[120.167816,23.3074],[120.166204,23.308457],[120.164199,23.309448],[120.16264,23.309984]]]},"properties":{"code":"67000170006","name":"錦湖里","countyCode":"67000","countyName":"臺南市","townCode":"67000170","townName":"北門區","level":"village","unassigned":false,"note":"","label":[120.16578703770709,23.293858370617727],"bounds":[120.147736,23.277625,120.184924,23.31325],"focusBounds":[120.147736,23.277625,120.184924,23.31325],"color":"#a8bf62"}},{"type":"Feature","id":"67000170007","geometry":{"type":"Polygon","coordinates":[[[120.122199,23.226662],[120.122479,23.228642],[120.122799,23.229306],[120.12202,23.22938],[120.12162,23.229876],[120.121617,23.233005],[120.121711,23.237369],[120.122407,23.240095],[120.113787,23.238748],[120.112393,23.238994],[120.11043,23.238704],[120.09529,23.233245],[120.087563,23.230138],[120.088066,23.229492],[120.088662,23.22908],[120.089764,23.228593],[120.09227,23.22783],[120.093775,23.227127],[120.095542,23.225685],[120.096079,23.225462],[120.09866,23.225349],[120.100743,23.225081],[120.103134,23.225045],[120.105753,23.225322],[120.107058,23.226232],[120.107932,23.226666],[120.111912,23.226555],[120.115258,23.227159],[120.116494,23.227227],[120.1189,23.227144],[120.122199,23.226662]]]},"properties":{"code":"67000170007","name":"三光里","countyCode":"67000","countyName":"臺南市","townCode":"67000170","townName":"北門區","level":"village","unassigned":false,"note":"","label":[120.11183369281538,23.23273401607848],"bounds":[120.087563,23.225045,120.122799,23.240095],"focusBounds":[120.087563,23.225045,120.122799,23.240095],"color":"#68bec9"}},{"type":"Feature","id":"67000170009","geometry":{"type":"Polygon","coordinates":[[[120.150396,23.27359],[120.149967,23.273517],[120.148868,23.273878],[120.140844,23.272601],[120.137549,23.271851],[120.130745,23.268887],[120.138538,23.264796],[120.138568,23.264353],[120.138391,23.264113],[120.137884,23.26416],[120.138019,23.263483],[120.137129,23.263269],[120.136769,23.262926],[120.132099,23.262482],[120.132629,23.262061],[120.13257,23.261629],[120.132764,23.261416],[120.132339,23.259294],[120.131777,23.259246],[120.131649,23.258936],[120.131104,23.258551],[120.130866,23.257159],[120.130291,23.257093],[120.128722,23.256102],[120.128094,23.256145],[120.129332,23.252536],[120.132157,23.253161],[120.133807,23.253814],[120.134151,23.2549],[120.134129,23.25609],[120.135093,23.256287],[120.136303,23.258114],[120.13721,23.259096],[120.139355,23.261125],[120.139837,23.26076],[120.141165,23.2622],[120.141579,23.262453],[120.142098,23.262283],[120.142882,23.262422],[120.143464,23.262354],[120.145424,23.261361],[120.147867,23.26038],[120.150347,23.265387],[120.152397,23.26756],[120.151543,23.269304],[120.150396,23.27359]]]},"properties":{"code":"67000170009","name":"玉港里","countyCode":"67000","countyName":"臺南市","townCode":"67000170","townName":"北門區","level":"village","unassigned":false,"note":"","label":[120.14296792853128,23.267675554361663],"bounds":[120.128094,23.252536,120.152397,23.273878],"focusBounds":[120.128094,23.252536,120.152397,23.273878],"color":"#df9f6a"}},{"type":"Feature","id":"67000170011","geometry":{"type":"Polygon","coordinates":[[[120.122081,23.250313],[120.12178,23.250203],[120.121049,23.250301],[120.117469,23.252719],[120.113881,23.25438],[120.109518,23.255325],[120.092266,23.260062],[120.089351,23.249633],[120.088422,23.249147],[120.088028,23.248725],[120.087732,23.246558],[120.087014,23.245366],[120.083155,23.241129],[120.086622,23.237955],[120.087571,23.238226],[120.08836,23.238218],[120.088745,23.238107],[120.089082,23.237643],[120.089051,23.236069],[120.088724,23.234682],[120.087342,23.231727],[120.08734,23.230655],[120.087563,23.230138],[120.09529,23.233245],[120.11043,23.238704],[120.112393,23.238994],[120.113787,23.238748],[120.122407,23.240095],[120.123914,23.246063],[120.122081,23.250313]]]},"properties":{"code":"67000170011","name":"慈安里","countyCode":"67000","countyName":"臺南市","townCode":"67000170","townName":"北門區","level":"village","unassigned":false,"note":"","label":[120.10091383195204,23.24648017756673],"bounds":[120.083155,23.230138,120.123914,23.260062],"focusBounds":[120.083155,23.230138,120.123914,23.260062],"color":"#c38cb8"}},{"type":"Feature","id":"67000170013","geometry":{"type":"Polygon","coordinates":[[[120.128317,23.276579],[120.128506,23.276798],[120.128041,23.277233],[120.125458,23.278762],[120.121127,23.27481],[120.11498,23.281872],[120.095031,23.281678],[120.094968,23.280375],[120.09912,23.279051],[120.111884,23.274031],[120.114923,23.269834],[120.115721,23.267251],[120.116246,23.266414],[120.117593,23.26556],[120.118964,23.265443],[120.120039,23.264855],[120.120466,23.264978],[120.122829,23.26865],[120.12337,23.269051],[120.1245,23.270434],[120.125322,23.27336],[120.126447,23.275389],[120.126902,23.275733],[120.127793,23.275916],[120.128317,23.276579]]]},"properties":{"code":"67000170013","name":"永隆里","countyCode":"67000","countyName":"臺南市","townCode":"67000170","townName":"北門區","level":"village","unassigned":false,"note":"","label":[120.11530966271573,23.275800084103558],"bounds":[120.094968,23.264855,120.128506,23.281872],"focusBounds":[120.094968,23.264855,120.128506,23.281872],"color":"#98b69b"}},{"type":"Feature","id":"67000170014","geometry":{"type":"Polygon","coordinates":[[[120.155907,23.288981],[120.155543,23.29177],[120.155817,23.293383],[120.156522,23.295035],[120.155972,23.295804],[120.157146,23.298384],[120.157233,23.298939],[120.155349,23.299993],[120.151363,23.301208],[120.14853,23.300994],[120.148497,23.301317],[120.148945,23.302021],[120.147736,23.302499],[120.146287,23.299647],[120.144724,23.29756],[120.143359,23.296254],[120.141171,23.294795],[120.140421,23.295497],[120.138387,23.296506],[120.137282,23.296534],[120.13586,23.295563],[120.134894,23.295144],[120.135081,23.28903],[120.135705,23.287834],[120.136227,23.286123],[120.137056,23.284309],[120.135405,23.283366],[120.135997,23.282573],[120.136627,23.282025],[120.137402,23.281885],[120.138819,23.281933],[120.139616,23.281644],[120.142061,23.279292],[120.144122,23.2781],[120.147284,23.275828],[120.149803,23.275144],[120.15081,23.27546],[120.15022,23.276347],[120.149908,23.278868],[120.150008,23.279198],[120.149731,23.279956],[120.149892,23.281026],[120.150225,23.281929],[120.150164,23.282162],[120.147127,23.284557],[120.145388,23.286475],[120.14466,23.288483],[120.14414,23.293382],[120.145546,23.29377],[120.146802,23.293318],[120.147088,23.292861],[120.147892,23.292198],[120.148,23.291276],[120.14843,23.290695],[120.148932,23.28948],[120.149737,23.288663],[120.150447,23.2876],[120.151678,23.286906],[120.152479,23.286898],[120.153456,23.287383],[120.155168,23.288681],[120.155907,23.288981]]]},"properties":{"code":"67000170014","name":"蚵寮里","countyCode":"67000","countyName":"臺南市","townCode":"67000170","townName":"北門區","level":"village","unassigned":false,"note":"","label":[120.15050772557197,23.296385330799623],"bounds":[120.134894,23.275144,120.157233,23.302499],"focusBounds":[120.134894,23.275144,120.157233,23.302499],"color":"#58b99d"}},{"type":"Feature","id":"67000170015","geometry":{"type":"Polygon","coordinates":[[[120.135586,23.228971],[120.13538,23.229478],[120.137428,23.233955],[120.138123,23.235884],[120.13844,23.237337],[120.138023,23.238413],[120.138067,23.23887],[120.138656,23.239257],[120.13963,23.239045],[120.14107,23.239245],[120.141151,23.240863],[120.143162,23.241253],[120.143006,23.24187],[120.142551,23.242562],[120.142738,23.244238],[120.142596,23.244652],[120.139602,23.246899],[120.13976,23.250246],[120.138154,23.250581],[120.137626,23.251001],[120.136077,23.251645],[120.135527,23.252685],[120.135608,23.253313],[120.133426,23.253123],[120.133807,23.253814],[120.132157,23.253161],[120.129332,23.252536],[120.124988,23.251603],[120.122996,23.25061],[120.122081,23.250313],[120.123914,23.246063],[120.122407,23.240095],[120.121711,23.237369],[120.121617,23.233005],[120.12162,23.229876],[120.12202,23.22938],[120.122799,23.229306],[120.122479,23.228642],[120.122199,23.226662],[120.127844,23.22665],[120.129411,23.226846],[120.130826,23.227054],[120.133272,23.227724],[120.135586,23.228971]]]},"properties":{"code":"67000170015","name":"文山里","countyCode":"67000","countyName":"臺南市","townCode":"67000170","townName":"北門區","level":"village","unassigned":false,"note":"","label":[120.1306166549334,23.240537432068507],"bounds":[120.121617,23.22665,120.143162,23.253814],"focusBounds":[120.121617,23.22665,120.143162,23.253814],"color":"#78a7e3"}}]}
