{"type":"FeatureCollection","features":[{"type":"Feature","id":"67000080001","geometry":{"type":"Polygon","coordinates":[[[120.265066,23.237471],[120.264008,23.237366],[120.263028,23.237488],[120.263042,23.236418],[120.261291,23.236068],[120.261192,23.236346],[120.260991,23.236299],[120.260733,23.235838],[120.260799,23.235325],[120.260069,23.235019],[120.260111,23.234623],[120.259284,23.234451],[120.259535,23.233287],[120.261261,23.233795],[120.262378,23.233896],[120.263555,23.23436],[120.263824,23.234252],[120.264313,23.234362],[120.264243,23.234625],[120.264897,23.234792],[120.264858,23.234922],[120.264585,23.235837],[120.265117,23.236071],[120.265066,23.237471]]]},"properties":{"code":"67000080001","name":"下營里","countyCode":"67000","countyName":"臺南市","townCode":"67000080","townName":"下營區","level":"village","unassigned":false,"note":"","label":[120.26253593096709,23.235137744028805],"bounds":[120.259284,23.233287,120.265117,23.237488],"focusBounds":[120.259284,23.233287,120.265117,23.237488],"color":"#df9f6a"}},{"type":"Feature","id":"67000080002","geometry":{"type":"Polygon","coordinates":[[[120.259535,23.233287],[120.25575,23.23372],[120.254575,23.235202],[120.255107,23.235409],[120.254464,23.235423],[120.25438,23.236128],[120.250382,23.233207],[120.2492,23.233279],[120.248159,23.232482],[120.247897,23.231899],[120.25555,23.230939],[120.256053,23.230754],[120.25404,23.230006],[120.252831,23.222112],[120.252965,23.219044],[120.251793,23.218234],[120.250637,23.216959],[120.250807,23.215074],[120.251587,23.213011],[120.253152,23.212807],[120.254117,23.213034],[120.263183,23.219414],[120.264046,23.219854],[120.266703,23.220441],[120.266287,23.222938],[120.262739,23.230871],[120.262112,23.23164],[120.261261,23.233795],[120.259535,23.233287]]]},"properties":{"code":"67000080002","name":"仁里里","countyCode":"67000","countyName":"臺南市","townCode":"67000080","townName":"下營區","level":"village","unassigned":false,"note":"","label":[120.25916368864239,23.224102533820986],"bounds":[120.247897,23.212807,120.266703,23.236128],"focusBounds":[120.247897,23.212807,120.266703,23.236128],"color":"#c38cb8"}},{"type":"Feature","id":"67000080003","geometry":{"type":"Polygon","coordinates":[[[120.254684,23.248636],[120.253793,23.249485],[120.250246,23.242929],[120.25413,23.237012],[120.249035,23.233287],[120.2492,23.233279],[120.250382,23.233207],[120.25438,23.236128],[120.254464,23.235423],[120.255107,23.235409],[120.254575,23.235202],[120.25575,23.23372],[120.259535,23.233287],[120.259284,23.234451],[120.260111,23.234623],[120.260069,23.235019],[120.260799,23.235325],[120.260733,23.235838],[120.260991,23.236299],[120.260847,23.238053],[120.261314,23.238201],[120.258043,23.244959],[120.257709,23.24549],[120.25457,23.248571],[120.254684,23.248636]]]},"properties":{"code":"67000080003","name":"宅內里","countyCode":"67000","countyName":"臺南市","townCode":"67000080","townName":"下營區","level":"village","unassigned":false,"note":"","label":[120.25585666574743,23.24112055890837],"bounds":[120.249035,23.233207,120.261314,23.249485],"focusBounds":[120.249035,23.233207,120.261314,23.249485],"color":"#98b69b"}},{"type":"Feature","id":"67000080004","geometry":{"type":"Polygon","coordinates":[[[120.266478,23.241995],[120.264367,23.241807],[120.264087,23.244559],[120.261249,23.244287],[120.263291,23.252963],[120.263312,23.253455],[120.263187,23.25346],[120.254684,23.248636],[120.25457,23.248571],[120.257709,23.24549],[120.258043,23.244959],[120.261314,23.238201],[120.260847,23.238053],[120.260991,23.236299],[120.261192,23.236346],[120.261291,23.236068],[120.263042,23.236418],[120.263028,23.237488],[120.264008,23.237366],[120.265066,23.237471],[120.265033,23.238423],[120.266478,23.241995]]]},"properties":{"code":"67000080004","name":"後街里","countyCode":"67000","countyName":"臺南市","townCode":"67000080","townName":"下營區","level":"village","unassigned":false,"note":"","label":[120.2593925711582,23.24809186061068],"bounds":[120.25457,23.236068,120.266478,23.25346],"focusBounds":[120.25457,23.236068,120.266478,23.25346],"color":"#58b99d"}},{"type":"Feature","id":"67000080005","geometry":{"type":"Polygon","coordinates":[[[120.283605,23.230149],[120.283377,23.23021],[120.282499,23.231301],[120.282227,23.232259],[120.281804,23.232221],[120.2816,23.23273],[120.282378,23.233543],[120.282546,23.234185],[120.282269,23.234798],[120.281279,23.244591],[120.280258,23.244134],[120.279877,23.244373],[120.278134,23.244464],[120.275655,23.244387],[120.275438,23.243647],[120.272827,23.2435],[120.272365,23.242453],[120.266478,23.241995],[120.265033,23.238423],[120.265066,23.237471],[120.265117,23.236071],[120.264585,23.235837],[120.264858,23.234922],[120.265506,23.23506],[120.265551,23.234675],[120.266707,23.234898],[120.266836,23.23421],[120.268127,23.234441],[120.267506,23.233243],[120.269558,23.233052],[120.268608,23.232286],[120.268413,23.231815],[120.269435,23.225944],[120.268819,23.225641],[120.268416,23.225722],[120.269537,23.220966],[120.270838,23.221501],[120.272321,23.222575],[120.279811,23.229063],[120.281875,23.229778],[120.283694,23.229882],[120.283605,23.230149]]]},"properties":{"code":"67000080005","name":"新興里","countyCode":"67000","countyName":"臺南市","townCode":"67000080","townName":"下營區","level":"village","unassigned":false,"note":"","label":[120.27535249819957,23.236059433110157],"bounds":[120.264585,23.220966,120.283694,23.244591],"focusBounds":[120.264585,23.220966,120.283694,23.244591],"color":"#efb44f"}},{"type":"Feature","id":"67000080006","geometry":{"type":"Polygon","coordinates":[[[120.269537,23.220966],[120.268416,23.225722],[120.268819,23.225641],[120.269435,23.225944],[120.268413,23.231815],[120.268608,23.232286],[120.269558,23.233052],[120.267506,23.233243],[120.268127,23.234441],[120.266836,23.23421],[120.266707,23.234898],[120.265551,23.234675],[120.265506,23.23506],[120.264858,23.234922],[120.264897,23.234792],[120.264243,23.234625],[120.264313,23.234362],[120.263824,23.234252],[120.263555,23.23436],[120.262378,23.233896],[120.261261,23.233795],[120.262112,23.23164],[120.262739,23.230871],[120.266287,23.222938],[120.266703,23.220441],[120.269537,23.220966]]]},"properties":{"code":"67000080006","name":"營前里","countyCode":"67000","countyName":"臺南市","townCode":"67000080","townName":"下營區","level":"village","unassigned":false,"note":"","label":[120.26629529089989,23.22904058159502],"bounds":[120.261261,23.220441,120.269558,23.23506],"focusBounds":[120.261261,23.220441,120.269558,23.23506],"color":"#78a7e3"}},{"type":"Feature","id":"67000080011","geometry":{"type":"Polygon","coordinates":[[[120.282023,23.20266],[120.281257,23.211378],[120.282368,23.214771],[120.28139,23.214666],[120.281261,23.216746],[120.279397,23.216333],[120.277888,23.215611],[120.277835,23.215286],[120.277592,23.21513],[120.276228,23.214805],[120.275934,23.21517],[120.274723,23.21514],[120.272217,23.216362],[120.269913,23.217047],[120.270417,23.215425],[120.271944,23.206245],[120.270206,23.202903],[120.270005,23.202737],[120.269062,23.201738],[120.269139,23.201661],[120.271186,23.201802],[120.282023,23.20266]]]},"properties":{"code":"67000080011","name":"開化里","countyCode":"67000","countyName":"臺南市","townCode":"67000080","townName":"下營區","level":"village","unassigned":false,"note":"","label":[120.27636491821116,23.20928099767999],"bounds":[120.269062,23.201661,120.282368,23.217047],"focusBounds":[120.269062,23.201661,120.282368,23.217047],"color":"#a49ad4"}},{"type":"Feature","id":"67000080012","geometry":{"type":"Polygon","coordinates":[[[120.269913,23.217047],[120.267319,23.218622],[120.266871,23.219417],[120.266703,23.220441],[120.264046,23.219854],[120.263183,23.219414],[120.254117,23.213034],[120.253152,23.212807],[120.251587,23.213011],[120.247018,23.213416],[120.246306,23.21332],[120.247472,23.206327],[120.247849,23.206152],[120.248054,23.205864],[120.249826,23.205153],[120.250005,23.204576],[120.252872,23.204156],[120.254393,23.203358],[120.254601,23.203486],[120.255054,23.203434],[120.255065,23.203007],[120.256238,23.201756],[120.25667,23.201477],[120.257375,23.201322],[120.260154,23.202284],[120.265426,23.203238],[120.266318,23.203497],[120.267404,23.20437],[120.268097,23.204095],[120.268586,23.203568],[120.268961,23.203515],[120.270005,23.202737],[120.270206,23.202903],[120.271944,23.206245],[120.270417,23.215425],[120.269913,23.217047]]]},"properties":{"code":"67000080012","name":"西連里","countyCode":"67000","countyName":"臺南市","townCode":"67000080","townName":"下營區","level":"village","unassigned":false,"note":"","label":[120.26076630644859,23.209321689424385],"bounds":[120.246306,23.201322,120.271944,23.220441],"focusBounds":[120.246306,23.201322,120.271944,23.220441],"color":"#a8bf62"}},{"type":"Feature","id":"67000080013","geometry":{"type":"Polygon","coordinates":[[[120.29936,23.262533],[120.299043,23.262811],[120.297982,23.264584],[120.297135,23.264873],[120.296033,23.264674],[120.295451,23.264288],[120.295157,23.263821],[120.294849,23.262386],[120.294442,23.261866],[120.293014,23.26163],[120.291231,23.261936],[120.290212,23.261867],[120.289675,23.26218],[120.289258,23.26224],[120.288518,23.261753],[120.28829,23.260989],[120.288301,23.260416],[120.287362,23.2601],[120.28384,23.26017],[120.282563,23.260688],[120.280417,23.261863],[120.279949,23.261206],[120.277954,23.260977],[120.278132,23.25918],[120.278036,23.258954],[120.278568,23.254396],[120.278859,23.254419],[120.279757,23.24598],[120.279176,23.245062],[120.278134,23.244464],[120.279877,23.244373],[120.280258,23.244134],[120.281279,23.244591],[120.282269,23.234798],[120.282546,23.234185],[120.282378,23.233543],[120.2816,23.23273],[120.281804,23.232221],[120.282227,23.232259],[120.282499,23.231301],[120.283377,23.23021],[120.283605,23.230149],[120.284803,23.230161],[120.284446,23.230652],[120.284515,23.230837],[120.285784,23.231558],[120.287706,23.231522],[120.288379,23.231775],[120.289124,23.231625],[120.289147,23.232528],[120.288936,23.233048],[120.288526,23.233332],[120.288425,23.23387],[120.288147,23.233896],[120.287867,23.233243],[120.287362,23.233079],[120.286583,23.233329],[120.28637,23.2337],[120.286674,23.234363],[120.287605,23.235253],[120.286902,23.236333],[120.286763,23.236821],[120.286996,23.236954],[120.287523,23.236874],[120.287906,23.237113],[120.288429,23.239565],[120.289371,23.239987],[120.289244,23.240676],[120.289555,23.240947],[120.291229,23.241441],[120.291707,23.24231],[120.292309,23.242394],[120.293009,23.243261],[120.293765,23.243614],[120.293877,23.244195],[120.294363,23.244275],[120.294368,23.244516],[120.293945,23.244612],[120.294167,23.245045],[120.294936,23.24553],[120.295352,23.246039],[120.296404,23.24653],[120.297025,23.247026],[120.297531,23.247852],[120.297467,23.248127],[120.299192,23.248065],[120.299046,23.248806],[120.298957,23.249218],[120.298669,23.249251],[120.298382,23.249505],[120.298062,23.250497],[120.297725,23.250684],[120.297755,23.252226],[120.297322,23.252446],[120.297189,23.252766],[120.29693,23.255349],[120.298047,23.255791],[120.298349,23.256211],[120.298454,23.257049],[120.299916,23.258064],[120.299454,23.261401],[120.299599,23.261512],[120.299976,23.26141],[120.30001,23.261757],[120.299492,23.262205],[120.29936,23.262533]]]},"properties":{"code":"67000080013","name":"賀建里","countyCode":"67000","countyName":"臺南市","townCode":"67000080","townName":"下營區","level":"village","unassigned":false,"note":"","label":[120.2881548774752,23.251328781584814],"bounds":[120.277954,23.230149,120.30001,23.264873],"focusBounds":[120.277954,23.230149,120.30001,23.264873],"color":"#a8bf62"}},{"type":"Feature","id":"67000080016","geometry":{"type":"Polygon","coordinates":[[[120.293214,23.223343],[120.292591,23.223977],[120.291457,23.225577],[120.290637,23.226067],[120.290319,23.226423],[120.290226,23.226891],[120.290539,23.228234],[120.290361,23.228587],[120.289868,23.228856],[120.289339,23.228874],[120.287996,23.228299],[120.286656,23.228645],[120.285498,23.229403],[120.284803,23.230161],[120.283605,23.230149],[120.283694,23.229882],[120.281875,23.229778],[120.279811,23.229063],[120.272321,23.222575],[120.270838,23.221501],[120.269537,23.220966],[120.266703,23.220441],[120.266871,23.219417],[120.267319,23.218622],[120.269913,23.217047],[120.272217,23.216362],[120.274723,23.21514],[120.275934,23.21517],[120.276228,23.214805],[120.277592,23.21513],[120.277835,23.215286],[120.277888,23.215611],[120.279397,23.216333],[120.281261,23.216746],[120.28139,23.214666],[120.282368,23.214771],[120.281257,23.211378],[120.282023,23.20266],[120.2903,23.20335],[120.290411,23.202751],[120.28993,23.202245],[120.290423,23.201833],[120.291274,23.201583],[120.292384,23.201882],[120.292929,23.202708],[120.292871,23.20381],[120.292586,23.204944],[120.292696,23.205207],[120.291811,23.206138],[120.291439,23.206784],[120.290959,23.206678],[120.290085,23.206099],[120.289347,23.206165],[120.289043,23.206424],[120.288783,23.207404],[120.289565,23.208269],[120.289553,23.208556],[120.289056,23.210146],[120.288206,23.210609],[120.287902,23.210938],[120.287996,23.21305],[120.288783,23.214087],[120.288847,23.214613],[120.288534,23.214905],[120.287909,23.214967],[120.287366,23.215228],[120.286985,23.21555],[120.28693,23.216055],[120.28726,23.216705],[120.288444,23.217131],[120.289398,23.218056],[120.29025,23.218499],[120.290445,23.219181],[120.290421,23.22056],[120.292026,23.221728],[120.292344,23.221823],[120.292759,23.221706],[120.293651,23.2203],[120.294287,23.220219],[120.294751,23.22054],[120.294891,23.2209],[120.294557,23.221904],[120.294226,23.222423],[120.293214,23.223343]]]},"properties":{"code":"67000080016","name":"茅營里","countyCode":"67000","countyName":"臺南市","townCode":"67000080","townName":"下營區","level":"village","unassigned":false,"note":"","label":[120.283734222374,23.222753949846847],"bounds":[120.266703,23.201583,120.294891,23.230161],"focusBounds":[120.266703,23.201583,120.294891,23.230161],"color":"#68bec9"}},{"type":"Feature","id":"67000080017","geometry":{"type":"Polygon","coordinates":[[[120.253793,23.249485],[120.253184,23.249988],[120.243049,23.244338],[120.242417,23.245194],[120.239821,23.243569],[120.236906,23.243258],[120.233266,23.248833],[120.231688,23.249043],[120.228654,23.247255],[120.228744,23.246132],[120.230047,23.244657],[120.231407,23.242495],[120.231702,23.242343],[120.232471,23.242291],[120.229416,23.23936],[120.227941,23.237985],[120.226324,23.237216],[120.225435,23.236483],[120.221788,23.236102],[120.221705,23.235765],[120.221286,23.235605],[120.221246,23.234609],[120.220165,23.232959],[120.220207,23.232497],[120.221025,23.231801],[120.220823,23.231384],[120.222688,23.23058],[120.224097,23.230532],[120.22501,23.22967],[120.226635,23.227707],[120.233388,23.223418],[120.236858,23.21562],[120.240557,23.21622],[120.240909,23.214232],[120.241961,23.214334],[120.242123,23.212968],[120.246306,23.21332],[120.247018,23.213416],[120.251587,23.213011],[120.250807,23.215074],[120.250637,23.216959],[120.251793,23.218234],[120.252965,23.219044],[120.252831,23.222112],[120.25404,23.230006],[120.256053,23.230754],[120.25555,23.230939],[120.247897,23.231899],[120.248159,23.232482],[120.2492,23.233279],[120.249035,23.233287],[120.25413,23.237012],[120.250246,23.242929],[120.253793,23.249485]]]},"properties":{"code":"67000080017","name":"大吉里","countyCode":"67000","countyName":"臺南市","townCode":"67000080","townName":"下營區","level":"village","unassigned":false,"note":"","label":[120.23768328920362,23.232809989313118],"bounds":[120.220165,23.212968,120.256053,23.249988],"focusBounds":[120.220165,23.212968,120.256053,23.249988],"color":"#df9f6a"}},{"type":"Feature","id":"67000080018","geometry":{"type":"Polygon","coordinates":[[[120.277954,23.260977],[120.275933,23.260884],[120.272106,23.261248],[120.272163,23.258227],[120.271717,23.257391],[120.271218,23.257106],[120.270855,23.257079],[120.267795,23.257267],[120.267553,23.256049],[120.267143,23.255445],[120.265567,23.255191],[120.265385,23.254636],[120.264179,23.254747],[120.264057,23.254318],[120.263149,23.254226],[120.263187,23.25346],[120.263312,23.253455],[120.263291,23.252963],[120.261249,23.244287],[120.264087,23.244559],[120.264367,23.241807],[120.266478,23.241995],[120.272365,23.242453],[120.272827,23.2435],[120.275438,23.243647],[120.275655,23.244387],[120.278134,23.244464],[120.279176,23.245062],[120.279757,23.24598],[120.278859,23.254419],[120.278568,23.254396],[120.278036,23.258954],[120.278132,23.25918],[120.277954,23.260977]]]},"properties":{"code":"67000080018","name":"紅甲里","countyCode":"67000","countyName":"臺南市","townCode":"67000080","townName":"下營區","level":"village","unassigned":false,"note":"","label":[120.27146378096519,23.250343289589843],"bounds":[120.261249,23.241807,120.279757,23.261248],"focusBounds":[120.261249,23.241807,120.279757,23.261248],"color":"#c38cb8"}}]}
