{"type":"FeatureCollection","features":[{"type":"Feature","id":"68000130001","geometry":{"type":"Polygon","coordinates":[[[121.372854,24.833708],[121.372979,24.834497],[121.372822,24.834979],[121.372301,24.835176],[121.370978,24.835302],[121.37066,24.835486],[121.370122,24.836224],[121.367307,24.836764],[121.366448,24.837316],[121.365223,24.837568],[121.36416,24.838134],[121.362554,24.837956],[121.360059,24.838177],[121.359253,24.838853],[121.357791,24.839519],[121.357301,24.84045],[121.356666,24.841011],[121.356044,24.842102],[121.355778,24.842352],[121.355539,24.842325],[121.35531,24.842496],[121.354823,24.843972],[121.353446,24.844057],[121.352697,24.84448],[121.351692,24.844455],[121.349267,24.845447],[121.347456,24.845536],[121.346745,24.845887],[121.345788,24.845577],[121.345061,24.845516],[121.344738,24.845212],[121.34249,24.844667],[121.341653,24.844248],[121.341297,24.843777],[121.34049,24.843686],[121.340009,24.843388],[121.33958,24.843396],[121.339322,24.843657],[121.338266,24.843791],[121.337751,24.843622],[121.336224,24.843763],[121.335778,24.84439],[121.335847,24.844932],[121.334318,24.844881],[121.33304,24.844359],[121.332824,24.843828],[121.332839,24.843022],[121.333143,24.842641],[121.33315,24.841457],[121.332956,24.841339],[121.331891,24.841566],[121.332161,24.840614],[121.331988,24.840045],[121.332385,24.83902],[121.332196,24.837847],[121.331525,24.835997],[121.330772,24.835249],[121.330731,24.834544],[121.330386,24.833986],[121.330476,24.832695],[121.331365,24.831232],[121.330675,24.830776],[121.330922,24.830346],[121.330804,24.828696],[121.330409,24.828148],[121.330423,24.827939],[121.331272,24.827597],[121.33321,24.827696],[121.333561,24.827654],[121.33363,24.827449],[121.332879,24.826995],[121.332499,24.826472],[121.331413,24.826003],[121.331746,24.825295],[121.33172,24.825039],[121.33136,24.825055],[121.330654,24.825478],[121.329259,24.825219],[121.329167,24.824504],[121.328193,24.825085],[121.327545,24.824887],[121.327258,24.824376],[121.327569,24.823667],[121.32753,24.82302],[121.328074,24.822454],[121.327564,24.822153],[121.325734,24.821751],[121.325473,24.821204],[121.325396,24.820533],[121.325077,24.820172],[121.324582,24.820165],[121.324152,24.820491],[121.323902,24.821523],[121.322652,24.821539],[121.321794,24.822128],[121.321311,24.822158],[121.321058,24.822029],[121.320725,24.821261],[121.321184,24.820381],[121.320008,24.819498],[121.319657,24.81939],[121.319511,24.818976],[121.319172,24.818793],[121.318994,24.818449],[121.319961,24.817565],[121.321123,24.814441],[121.321694,24.813562],[121.322136,24.810769],[121.321909,24.809331],[121.322036,24.808411],[121.321863,24.808106],[121.319949,24.806786],[121.317529,24.804693],[121.320279,24.802707],[121.322845,24.802117],[121.327618,24.803779],[121.329268,24.803609],[121.331283,24.802767],[121.334762,24.800231],[121.337772,24.799416],[121.339218,24.799986],[121.340469,24.801529],[121.340921,24.803806],[121.341707,24.80582],[121.343673,24.808032],[121.345511,24.810828],[121.345785,24.810936],[121.345064,24.812518],[121.344678,24.814063],[121.345727,24.816674],[121.349646,24.821181],[121.352255,24.822958],[121.353662,24.823596],[121.353239,24.8255],[121.351851,24.827902],[121.351586,24.829108],[121.351727,24.830311],[121.352632,24.831449],[121.354544,24.832257],[121.35756,24.832954],[121.362365,24.833374],[121.366716,24.833755],[121.371152,24.833239],[121.372854,24.833708]]]},"properties":{"code":"68000130001","name":"三民里","countyCode":"68000","countyName":"桃園市","townCode":"68000130","townName":"復興區","level":"village","unassigned":false,"note":"","label":[121.3424880367126,24.826939849430616],"bounds":[121.317529,24.799416,121.372979,24.845887],"focusBounds":[121.317529,24.799416,121.372979,24.845887],"color":"#68bec9"}},{"type":"Feature","id":"68000130002","geometry":{"type":"Polygon","coordinates":[[[121.362365,24.833374],[121.35756,24.832954],[121.354544,24.832257],[121.352632,24.831449],[121.351727,24.830311],[121.351586,24.829108],[121.351851,24.827902],[121.353239,24.8255],[121.353662,24.823596],[121.352255,24.822958],[121.349646,24.821181],[121.345727,24.816674],[121.344678,24.814063],[121.345064,24.812518],[121.345785,24.810936],[121.345511,24.810828],[121.343673,24.808032],[121.341707,24.80582],[121.340921,24.803806],[121.340469,24.801529],[121.339218,24.799986],[121.337772,24.799416],[121.334762,24.800231],[121.336314,24.7979],[121.336769,24.796561],[121.33658,24.794218],[121.336757,24.792293],[121.337487,24.790449],[121.340679,24.784332],[121.342684,24.779305],[121.342953,24.777129],[121.342692,24.772085],[121.345892,24.774352],[121.347067,24.775686],[121.347788,24.777799],[121.348084,24.782216],[121.348415,24.783413],[121.349614,24.785898],[121.351201,24.788503],[121.357953,24.795302],[121.359571,24.797871],[121.360854,24.800648],[121.362156,24.802819],[121.36342,24.804127],[121.366691,24.806713],[121.366932,24.809969],[121.364591,24.820126],[121.365707,24.820442],[121.36708,24.820354],[121.367124,24.820914],[121.368495,24.822044],[121.36926,24.822028],[121.370342,24.822582],[121.370367,24.82301],[121.370885,24.823652],[121.372791,24.824933],[121.376105,24.826491],[121.376709,24.827518],[121.376276,24.827419],[121.375741,24.827589],[121.374881,24.827309],[121.37438,24.827836],[121.37385,24.828115],[121.373269,24.828807],[121.372635,24.829086],[121.371694,24.829207],[121.370717,24.829108],[121.369708,24.829781],[121.368668,24.830212],[121.368025,24.829913],[121.36752,24.830481],[121.366643,24.830574],[121.365287,24.832606],[121.363695,24.833021],[121.362716,24.833008],[121.362365,24.833374]]]},"properties":{"code":"68000130002","name":"澤仁里","countyCode":"68000","countyName":"桃園市","townCode":"68000130","townName":"復興區","level":"village","unassigned":false,"note":"","label":[121.35544056109453,24.810730827286722],"bounds":[121.334762,24.772085,121.376709,24.833374],"focusBounds":[121.334762,24.772085,121.376709,24.833374],"color":"#df9f6a"}},{"type":"Feature","id":"68000130003","geometry":{"type":"Polygon","coordinates":[[[121.390719,24.805598],[121.387426,24.805778],[121.385303,24.805657],[121.383451,24.8051],[121.381599,24.804165],[121.378646,24.801611],[121.378025,24.799861],[121.377066,24.790898],[121.376248,24.79181],[121.373623,24.793807],[121.372117,24.793935],[121.370745,24.793189],[121.368685,24.791131],[121.366833,24.79026],[121.365322,24.788952],[121.364223,24.787705],[121.363737,24.785456],[121.364213,24.784267],[121.36354,24.783109],[121.362903,24.781268],[121.362762,24.779768],[121.363643,24.776455],[121.363363,24.77458],[121.362194,24.772644],[121.361916,24.771331],[121.3628,24.769329],[121.362936,24.768703],[121.362455,24.768205],[121.36129,24.76777],[121.358344,24.767276],[121.356494,24.766782],[121.355328,24.76622],[121.354435,24.765223],[121.353884,24.763786],[121.354019,24.762973],[121.354496,24.76241],[121.356821,24.761529],[121.357642,24.761028],[121.358051,24.760526],[121.357844,24.759901],[121.35661,24.759216],[121.353938,24.758911],[121.351335,24.758104],[121.350648,24.757481],[121.350509,24.756668],[121.351123,24.756105],[121.353541,24.756036],[121.355505,24.755781],[121.358511,24.75365],[121.359536,24.753083],[121.361866,24.753642],[121.362685,24.752764],[121.363047,24.748353],[121.363107,24.748468],[121.364741,24.748644],[121.366003,24.748129],[121.36657,24.747466],[121.366616,24.745435],[121.367388,24.744063],[121.369298,24.742878],[121.374367,24.742536],[121.375141,24.742062],[121.376281,24.742578],[121.378506,24.742808],[121.380571,24.741669],[121.382435,24.742278],[121.386729,24.742315],[121.388331,24.741839],[121.389418,24.741931],[121.391226,24.74136],[121.392829,24.741213],[121.393499,24.740503],[121.394429,24.740121],[121.395771,24.739174],[121.397012,24.739171],[121.39913,24.738172],[121.400113,24.73817],[121.404086,24.735421],[121.406414,24.735744],[121.408325,24.734748],[121.409049,24.734793],[121.409772,24.734507],[121.411381,24.736062],[121.416048,24.739309],[121.417806,24.739444],[121.41874,24.740245],[121.419462,24.739818],[121.420028,24.738636],[121.422246,24.737165],[121.423537,24.73669],[121.42374,24.735459],[121.428444,24.734739],[121.429531,24.734736],[121.433531,24.73609],[121.432977,24.736826],[121.432796,24.73742],[121.433087,24.739191],[121.432749,24.740752],[121.431989,24.742241],[121.430367,24.743458],[121.430157,24.745549],[121.429402,24.746563],[121.428685,24.748065],[121.428653,24.748809],[121.429218,24.749946],[121.429126,24.750439],[121.42848,24.75152],[121.428487,24.753454],[121.427893,24.754733],[121.427007,24.755337],[121.425567,24.758399],[121.425523,24.759057],[121.425828,24.759842],[121.425839,24.760588],[121.425116,24.761211],[121.423448,24.761736],[121.423268,24.762434],[121.423425,24.763094],[121.424156,24.764316],[121.425235,24.76668],[121.426734,24.768261],[121.429399,24.770151],[121.431432,24.771938],[121.432336,24.772264],[121.434786,24.772646],[121.435756,24.772961],[121.436921,24.77372],[121.438507,24.775469],[121.439686,24.77738],[121.440101,24.778519],[121.440575,24.77914],[121.442403,24.780486],[121.444064,24.780636],[121.446109,24.781854],[121.446921,24.782743],[121.447536,24.784205],[121.448678,24.785032],[121.449525,24.785936],[121.449619,24.786356],[121.449512,24.786744],[121.44902,24.78749],[121.448843,24.788244],[121.449083,24.788698],[121.450082,24.789394],[121.450487,24.790181],[121.450491,24.790616],[121.447379,24.788979],[121.443984,24.78805],[121.441006,24.787785],[121.438774,24.78793],[121.435947,24.78848],[121.430149,24.790674],[121.427922,24.79231],[121.42436,24.795717],[121.419679,24.799599],[121.416193,24.801992],[121.412077,24.803586],[121.404892,24.805418],[121.402427,24.805675],[121.394686,24.805382],[121.390719,24.805598]]]},"properties":{"code":"68000130003","name":"義盛里","countyCode":"68000","countyName":"桃園市","townCode":"68000130","townName":"復興區","level":"village","unassigned":false,"note":"","label":[121.39766361612881,24.77217928207967],"bounds":[121.350509,24.734507,121.450491,24.805778],"focusBounds":[121.350509,24.734507,121.450491,24.805778],"color":"#c38cb8"}},{"type":"Feature","id":"68000130004","geometry":{"type":"Polygon","coordinates":[[[121.408801,24.840635],[121.407059,24.841705],[121.405523,24.842396],[121.40456,24.842519],[121.402704,24.843573],[121.40204,24.842653],[121.401495,24.842181],[121.4009,24.841787],[121.399903,24.841561],[121.397989,24.841778],[121.397648,24.842299],[121.397053,24.842785],[121.397219,24.843746],[121.396223,24.843636],[121.395041,24.843937],[121.393534,24.843951],[121.392442,24.843237],[121.391638,24.84316],[121.390413,24.842473],[121.389128,24.842196],[121.388079,24.84241],[121.387593,24.842104],[121.385041,24.840808],[121.384828,24.839682],[121.384446,24.838822],[121.384548,24.838018],[121.383928,24.837664],[121.383347,24.836985],[121.382525,24.836687],[121.380753,24.836422],[121.378826,24.834939],[121.377895,24.834483],[121.376992,24.834357],[121.375799,24.833845],[121.374414,24.833756],[121.373618,24.833281],[121.373249,24.833365],[121.372854,24.833708],[121.371152,24.833239],[121.366716,24.833755],[121.362365,24.833374],[121.362716,24.833008],[121.363695,24.833021],[121.365287,24.832606],[121.366643,24.830574],[121.36752,24.830481],[121.368025,24.829913],[121.368668,24.830212],[121.369708,24.829781],[121.370717,24.829108],[121.371694,24.829207],[121.372635,24.829086],[121.373269,24.828807],[121.37385,24.828115],[121.37438,24.827836],[121.374881,24.827309],[121.375741,24.827589],[121.376276,24.827419],[121.376709,24.827518],[121.376105,24.826491],[121.372791,24.824933],[121.370885,24.823652],[121.370367,24.82301],[121.370342,24.822582],[121.36926,24.822028],[121.368495,24.822044],[121.367124,24.820914],[121.36708,24.820354],[121.365707,24.820442],[121.364591,24.820126],[121.366932,24.809969],[121.366691,24.806713],[121.367233,24.805795],[121.367513,24.80581],[121.368043,24.806288],[121.368278,24.806299],[121.368495,24.805896],[121.368917,24.805621],[121.36896,24.805204],[121.369524,24.805334],[121.370412,24.80593],[121.37156,24.806059],[121.371918,24.806432],[121.371829,24.807039],[121.372019,24.807201],[121.372555,24.807364],[121.373922,24.807399],[121.374114,24.807542],[121.374201,24.808331],[121.373944,24.808769],[121.374224,24.809148],[121.374702,24.809129],[121.375462,24.808595],[121.376207,24.808785],[121.376867,24.809795],[121.377707,24.810439],[121.377733,24.811369],[121.378173,24.812206],[121.378849,24.812739],[121.379894,24.812769],[121.380879,24.813386],[121.381206,24.813822],[121.381389,24.815057],[121.381823,24.81525],[121.382261,24.815192],[121.383122,24.814727],[121.383843,24.814944],[121.384201,24.813979],[121.384632,24.813629],[121.385136,24.813474],[121.385496,24.813098],[121.385684,24.811761],[121.386124,24.811261],[121.386786,24.810926],[121.387074,24.810573],[121.386927,24.809697],[121.387598,24.80919],[121.388171,24.807895],[121.388843,24.807763],[121.389324,24.80798],[121.389732,24.807693],[121.390719,24.805598],[121.394686,24.805382],[121.402427,24.805675],[121.404892,24.805418],[121.412077,24.803586],[121.416193,24.801992],[121.419679,24.799599],[121.42436,24.795717],[121.427922,24.79231],[121.430149,24.790674],[121.435947,24.78848],[121.438774,24.78793],[121.441006,24.787785],[121.443984,24.78805],[121.447379,24.788979],[121.450491,24.790616],[121.450385,24.790917],[121.450037,24.791078],[121.449479,24.79106],[121.447295,24.79006],[121.445708,24.790133],[121.444436,24.7912],[121.442953,24.7918],[121.441555,24.793425],[121.438267,24.795338],[121.437601,24.79638],[121.437556,24.797398],[121.437095,24.79818],[121.437407,24.799533],[121.438023,24.800884],[121.438014,24.803209],[121.437773,24.804615],[121.436957,24.805559],[121.437295,24.807836],[121.436505,24.810426],[121.436566,24.812053],[121.433501,24.813189],[121.432277,24.813482],[121.431205,24.814055],[121.42957,24.815276],[121.428562,24.81679],[121.427871,24.817127],[121.427009,24.819044],[121.425289,24.820109],[121.425011,24.820929],[121.425039,24.822802],[121.424077,24.825032],[121.423645,24.825432],[121.423035,24.825518],[121.422021,24.825384],[121.419376,24.825592],[121.418622,24.825212],[121.417591,24.82525],[121.416917,24.825572],[121.416205,24.826918],[121.416083,24.828743],[121.415601,24.82946],[121.414371,24.83074],[121.41385,24.831959],[121.414039,24.832611],[121.414901,24.833546],[121.415155,24.834051],[121.415605,24.835598],[121.414145,24.836261],[121.413593,24.836656],[121.412962,24.836774],[121.412469,24.837133],[121.411717,24.838123],[121.410324,24.838687],[121.409363,24.839733],[121.408801,24.840635]]]},"properties":{"code":"68000130004","name":"霞雲里","countyCode":"68000","countyName":"桃園市","townCode":"68000130","townName":"復興區","level":"village","unassigned":false,"note":"","label":[121.3988323389591,24.82372513300858],"bounds":[121.362365,24.787785,121.450491,24.843951],"focusBounds":[121.362365,24.787785,121.450491,24.843951],"color":"#98b69b"}},{"type":"Feature","id":"68000130005","geometry":{"type":"Polygon","coordinates":[[[121.316198,24.803429],[121.315328,24.803725],[121.31195,24.805487],[121.307804,24.808668],[121.305754,24.809821],[121.304672,24.809996],[121.303413,24.808875],[121.302868,24.808581],[121.302073,24.808268],[121.300737,24.808088],[121.29909,24.808325],[121.297041,24.809211],[121.295214,24.809723],[121.292016,24.812147],[121.288682,24.814042],[121.286697,24.81593],[121.286033,24.816249],[121.28476,24.816191],[121.28325,24.815753],[121.280087,24.816638],[121.278958,24.816717],[121.277627,24.816335],[121.2756,24.815305],[121.274904,24.815141],[121.268606,24.81493],[121.266219,24.814514],[121.265162,24.814147],[121.264663,24.813715],[121.26464,24.813001],[121.264878,24.811828],[121.265865,24.809125],[121.265871,24.80757],[121.265542,24.806797],[121.264583,24.805767],[121.264023,24.805424],[121.262893,24.805099],[121.26052,24.805038],[121.2588,24.805836],[121.257298,24.805938],[121.256405,24.806369],[121.255428,24.807467],[121.254029,24.809956],[121.2532,24.81067],[121.25229,24.810674],[121.249723,24.809863],[121.248016,24.809719],[121.243998,24.808979],[121.243176,24.808728],[121.243629,24.80857],[121.245423,24.806961],[121.245435,24.805977],[121.246012,24.805329],[121.246598,24.805089],[121.247442,24.803492],[121.247704,24.802407],[121.247667,24.801384],[121.24755,24.801089],[121.246893,24.800582],[121.246623,24.800072],[121.246909,24.799138],[121.246841,24.798546],[121.247231,24.797408],[121.248039,24.796484],[121.25049,24.795587],[121.250872,24.795227],[121.250977,24.794644],[121.251217,24.794433],[121.252139,24.793955],[121.253365,24.793621],[121.254696,24.793852],[121.255172,24.79358],[121.257504,24.792837],[121.258244,24.792932],[121.259557,24.793713],[121.260314,24.793218],[121.260937,24.791833],[121.261174,24.789956],[121.260433,24.787917],[121.259659,24.787057],[121.258667,24.786519],[121.258483,24.785873],[121.258494,24.785082],[121.25867,24.784699],[121.259718,24.783606],[121.259854,24.782977],[121.259784,24.78243],[121.260076,24.781911],[121.263268,24.781148],[121.264859,24.781377],[121.266026,24.779793],[121.266239,24.779701],[121.267979,24.779932],[121.268416,24.779427],[121.2706,24.778351],[121.271169,24.777874],[121.271355,24.777272],[121.2713,24.774818],[121.272753,24.774822],[121.273552,24.774592],[121.275229,24.773309],[121.276905,24.771132],[121.277423,24.770924],[121.279007,24.770704],[121.284574,24.77032],[121.286024,24.769829],[121.287547,24.768682],[121.291727,24.768046],[121.292458,24.767725],[121.292712,24.76738],[121.293073,24.76538],[121.293873,24.764042],[121.294552,24.763772],[121.298259,24.762919],[121.298596,24.762924],[121.300302,24.763555],[121.301153,24.763284],[121.302947,24.768324],[121.30414,24.772775],[121.306636,24.788602],[121.308063,24.789044],[121.30891,24.789034],[121.309979,24.789583],[121.310907,24.790344],[121.312238,24.793956],[121.31243,24.796264],[121.312841,24.797918],[121.312856,24.798776],[121.314177,24.801057],[121.314326,24.80158],[121.314556,24.80162],[121.316198,24.803429]]]},"properties":{"code":"68000130005","name":"長興里","countyCode":"68000","countyName":"桃園市","townCode":"68000130","townName":"復興區","level":"village","unassigned":false,"note":"","label":[121.28364587642768,24.79312603755452],"bounds":[121.243176,24.762919,121.316198,24.816717],"focusBounds":[121.243176,24.762919,121.316198,24.816717],"color":"#58b99d"}},{"type":"Feature","id":"68000130006","geometry":{"type":"Polygon","coordinates":[[[121.382257,24.679735],[121.380536,24.681956],[121.378177,24.684247],[121.373724,24.690264],[121.371626,24.692192],[121.369526,24.693518],[121.365324,24.69569],[121.361381,24.696542],[121.357174,24.696913],[121.351258,24.698008],[121.345866,24.697901],[121.341001,24.698391],[121.338386,24.698056],[121.334949,24.697203],[121.326602,24.693512],[121.3294,24.691325],[121.331146,24.689403],[121.335748,24.68378],[121.337271,24.681301],[121.338301,24.680331],[121.338936,24.679271],[121.33936,24.675667],[121.339135,24.674743],[121.339666,24.673161],[121.339848,24.67039],[121.339705,24.669797],[121.339313,24.669339],[121.339619,24.668235],[121.339098,24.666852],[121.339204,24.66656],[121.339688,24.666232],[121.340412,24.666437],[121.342452,24.668852],[121.343112,24.669254],[121.343668,24.669395],[121.344036,24.669306],[121.344337,24.668942],[121.344856,24.666735],[121.345481,24.666436],[121.348294,24.667822],[121.348992,24.667912],[121.349677,24.667533],[121.350461,24.666518],[121.351351,24.666069],[121.351682,24.666099],[121.353063,24.667647],[121.353519,24.667798],[121.353725,24.667114],[121.35365,24.666484],[121.35323,24.666322],[121.353187,24.665627],[121.353045,24.665443],[121.353727,24.664955],[121.35344,24.66413],[121.353293,24.662919],[121.353528,24.661678],[121.353111,24.66127],[121.353072,24.660388],[121.353818,24.659048],[121.35343,24.658478],[121.353447,24.657753],[121.352993,24.657053],[121.352878,24.656432],[121.352901,24.656084],[121.353398,24.655841],[121.353524,24.655441],[121.353195,24.654813],[121.352329,24.654048],[121.352271,24.652209],[121.352772,24.650611],[121.352643,24.649753],[121.353015,24.648784],[121.352233,24.645097],[121.352396,24.643541],[121.352901,24.642725],[121.353401,24.64225],[121.355651,24.641379],[121.355928,24.641054],[121.356781,24.639379],[121.357389,24.637598],[121.357517,24.637032],[121.357403,24.636791],[121.357397,24.634856],[121.357815,24.633712],[121.358099,24.633534],[121.361171,24.633751],[121.363477,24.632455],[121.3658,24.63174],[121.369086,24.63339],[121.374562,24.635578],[121.376495,24.637248],[121.378477,24.64005],[121.379988,24.644114],[121.380776,24.649401],[121.38116,24.650545],[121.379056,24.652705],[121.379412,24.654886],[121.37923,24.656366],[121.37828,24.657644],[121.378361,24.659891],[121.378966,24.661034],[121.378706,24.661597],[121.378313,24.661811],[121.378252,24.662353],[121.377579,24.662729],[121.377448,24.663052],[121.377648,24.663481],[121.377595,24.664027],[121.3785,24.664856],[121.379592,24.66652],[121.382896,24.666506],[121.382824,24.665935],[121.383752,24.665864],[121.384752,24.665436],[121.385822,24.664579],[121.385822,24.664294],[121.386108,24.664008],[121.38725,24.663437],[121.387464,24.662937],[121.387393,24.662009],[121.388749,24.662081],[121.389963,24.663009],[121.390962,24.66308],[121.390819,24.66358],[121.391676,24.664079],[121.392747,24.664436],[121.39239,24.665578],[121.392532,24.666078],[121.393032,24.666078],[121.39396,24.666364],[121.394603,24.66615],[121.395602,24.66615],[121.396387,24.667434],[121.397101,24.666935],[121.398172,24.667434],[121.397815,24.66822],[121.398029,24.668862],[121.398029,24.672074],[121.39703,24.672003],[121.395887,24.672289],[121.39446,24.673716],[121.393889,24.673859],[121.393532,24.673431],[121.393175,24.671503],[121.393318,24.671004],[121.392818,24.670718],[121.392104,24.671432],[121.391604,24.671218],[121.390681,24.671128],[121.391367,24.672413],[121.391907,24.673004],[121.391433,24.673351],[121.390992,24.674021],[121.391329,24.675195],[121.391122,24.6757],[121.389414,24.676452],[121.388549,24.677534],[121.387974,24.677757],[121.384989,24.677288],[121.384196,24.677019],[121.383818,24.67724],[121.384109,24.677672],[121.383076,24.678591],[121.382257,24.679735]]]},"properties":{"code":"68000130006","name":"三光里","countyCode":"68000","countyName":"桃園市","townCode":"68000130","townName":"復興區","level":"village","unassigned":false,"note":"","label":[121.3659894528995,24.67497660091037],"bounds":[121.326602,24.63174,121.398172,24.698391],"focusBounds":[121.326602,24.63174,121.398172,24.698391],"color":"#efb44f"}},{"type":"Feature","id":"68000130007","geometry":{"type":"Polygon","coordinates":[[[121.334762,24.800231],[121.331283,24.802767],[121.329268,24.803609],[121.327618,24.803779],[121.322845,24.802117],[121.320279,24.802707],[121.317529,24.804693],[121.316387,24.803478],[121.316198,24.803429],[121.314556,24.80162],[121.314326,24.80158],[121.314177,24.801057],[121.312856,24.798776],[121.312841,24.797918],[121.31243,24.796264],[121.312238,24.793956],[121.310907,24.790344],[121.309979,24.789583],[121.30891,24.789034],[121.308063,24.789044],[121.306636,24.788602],[121.30414,24.772775],[121.302947,24.768324],[121.301153,24.763284],[121.301544,24.763008],[121.301863,24.761481],[121.304142,24.757445],[121.304627,24.756862],[121.305597,24.756083],[121.307673,24.755127],[121.311867,24.755928],[121.314337,24.755922],[121.315855,24.755226],[121.316993,24.753725],[121.317728,24.751622],[121.319075,24.751055],[121.320499,24.750792],[121.32882,24.750327],[121.32979,24.757487],[121.331357,24.760748],[121.341096,24.768594],[121.341923,24.769513],[121.342384,24.770349],[121.342692,24.772085],[121.342953,24.777129],[121.342684,24.779305],[121.340679,24.784332],[121.337487,24.790449],[121.336757,24.792293],[121.33658,24.794218],[121.336769,24.796561],[121.336314,24.7979],[121.334762,24.800231]]]},"properties":{"code":"68000130007","name":"奎輝里","countyCode":"68000","countyName":"桃園市","townCode":"68000130","townName":"復興區","level":"village","unassigned":false,"note":"","label":[121.32266288475967,24.776415207156155],"bounds":[121.301153,24.750327,121.342953,24.804693],"focusBounds":[121.301153,24.750327,121.342953,24.804693],"color":"#78a7e3"}},{"type":"Feature","id":"68000130008","geometry":{"type":"Polygon","coordinates":[[[121.479996,24.673849],[121.479411,24.675152],[121.478554,24.67616],[121.477876,24.677313],[121.477067,24.678318],[121.47596,24.67927],[121.475468,24.68088],[121.475416,24.683653],[121.474198,24.684804],[121.473945,24.685333],[121.473454,24.688513],[121.47304,24.689802],[121.473317,24.69045],[121.474244,24.691676],[121.474793,24.693478],[121.474271,24.695223],[121.474236,24.696102],[121.472291,24.696602],[121.470963,24.696786],[121.470599,24.696751],[121.469823,24.696195],[121.469496,24.696151],[121.466979,24.697732],[121.465833,24.698961],[121.46454,24.69995],[121.463837,24.700868],[121.46255,24.701637],[121.459862,24.702758],[121.456511,24.703249],[121.452976,24.704856],[121.450813,24.705395],[121.450225,24.705675],[121.449549,24.707022],[121.449118,24.708548],[121.448852,24.710359],[121.448792,24.712189],[121.448383,24.712645],[121.447266,24.71335],[121.446603,24.714114],[121.445149,24.714784],[121.444897,24.715152],[121.444132,24.717308],[121.441535,24.72314],[121.440962,24.726083],[121.439942,24.726378],[121.43832,24.726591],[121.437795,24.72735],[121.436789,24.728366],[121.435314,24.729251],[121.434206,24.73013],[121.434152,24.730387],[121.434378,24.731037],[121.435262,24.732636],[121.435375,24.733107],[121.435052,24.734136],[121.433531,24.73609],[121.427899,24.726886],[121.424465,24.722691],[121.421428,24.719575],[121.418132,24.717183],[121.413522,24.715392],[121.411544,24.713836],[121.40996,24.712039],[121.406994,24.707919],[121.404229,24.705222],[121.394661,24.699223],[121.387512,24.692303],[121.38648,24.690473],[121.386607,24.689031],[121.386394,24.687447],[121.383824,24.68195],[121.382257,24.679735],[121.383076,24.678591],[121.384109,24.677672],[121.383818,24.67724],[121.384196,24.677019],[121.384989,24.677288],[121.387974,24.677757],[121.388549,24.677534],[121.389414,24.676452],[121.391122,24.6757],[121.391329,24.675195],[121.390992,24.674021],[121.391433,24.673351],[121.391907,24.673004],[121.391367,24.672413],[121.390681,24.671128],[121.391604,24.671218],[121.392104,24.671432],[121.392818,24.670718],[121.393318,24.671004],[121.393175,24.671503],[121.393532,24.673431],[121.393889,24.673859],[121.39446,24.673716],[121.395887,24.672289],[121.39703,24.672003],[121.398029,24.672074],[121.398029,24.668862],[121.397815,24.66822],[121.398172,24.667434],[121.397101,24.666935],[121.396387,24.667434],[121.395602,24.66615],[121.394603,24.66615],[121.39396,24.666364],[121.393032,24.666078],[121.392532,24.666078],[121.39239,24.665578],[121.392747,24.664436],[121.391676,24.664079],[121.390819,24.66358],[121.390962,24.66308],[121.389963,24.663009],[121.388749,24.662081],[121.387393,24.662009],[121.387464,24.662937],[121.38725,24.663437],[121.386108,24.664008],[121.385822,24.664294],[121.385822,24.664579],[121.384752,24.665436],[121.383752,24.665864],[121.382824,24.665935],[121.382896,24.666506],[121.379592,24.66652],[121.3785,24.664856],[121.377595,24.664027],[121.377648,24.663481],[121.377448,24.663052],[121.377579,24.662729],[121.378252,24.662353],[121.378313,24.661811],[121.378706,24.661597],[121.378966,24.661034],[121.378361,24.659891],[121.37828,24.657644],[121.37923,24.656366],[121.379412,24.654886],[121.379056,24.652705],[121.38116,24.650545],[121.380776,24.649401],[121.379988,24.644114],[121.378477,24.64005],[121.376495,24.637248],[121.374562,24.635578],[121.369086,24.63339],[121.3658,24.63174],[121.366418,24.631791],[121.365497,24.630673],[121.365429,24.628494],[121.364899,24.627438],[121.364783,24.626449],[121.363372,24.623589],[121.363341,24.621777],[121.363062,24.620671],[121.361896,24.620726],[121.361693,24.620581],[121.361163,24.619706],[121.360112,24.618539],[121.359383,24.618086],[121.359022,24.617647],[121.358857,24.617374],[121.358806,24.616679],[121.359535,24.614648],[121.359517,24.613772],[121.36114,24.612452],[121.361314,24.612143],[121.361301,24.609877],[121.36369,24.607878],[121.364018,24.60725],[121.364321,24.605861],[121.363337,24.603783],[121.363331,24.603128],[121.365874,24.600844],[121.366184,24.599987],[121.366798,24.599185],[121.36734,24.598769],[121.369567,24.597878],[121.371161,24.597436],[121.371824,24.597004],[121.37215,24.596422],[121.372211,24.594917],[121.372439,24.594195],[121.372783,24.593747],[121.376493,24.592405],[121.380182,24.590696],[121.381191,24.590364],[121.383044,24.589441],[121.385341,24.587995],[121.386883,24.586694],[121.387208,24.586562],[121.391332,24.586458],[121.393716,24.587104],[121.394762,24.587542],[121.395311,24.588538],[121.395742,24.588933],[121.397062,24.589191],[121.398539,24.590048],[121.399848,24.59035],[121.401697,24.591627],[121.403046,24.591707],[121.403744,24.593001],[121.405194,24.594615],[121.406564,24.595837],[121.406815,24.596444],[121.406721,24.597121],[121.408185,24.598067],[121.408471,24.598981],[121.408912,24.599349],[121.410447,24.600058],[121.411712,24.600391],[121.41229,24.600937],[121.412575,24.601479],[121.412732,24.60255],[121.412666,24.603581],[121.41293,24.603632],[121.413274,24.603463],[121.414554,24.602347],[121.415286,24.601956],[121.415837,24.602258],[121.41622,24.602258],[121.417572,24.601605],[121.417878,24.601063],[121.420117,24.601369],[121.422576,24.602237],[121.423411,24.602737],[121.424405,24.603006],[121.42572,24.604021],[121.425951,24.604869],[121.427586,24.605702],[121.429008,24.609843],[121.429788,24.611273],[121.42981,24.61216],[121.430195,24.612903],[121.430617,24.614509],[121.432252,24.615279],[121.43259,24.615636],[121.4329,24.6163],[121.432921,24.617596],[121.433518,24.618791],[121.434767,24.619384],[121.435256,24.620811],[121.435661,24.621326],[121.435686,24.621549],[121.435297,24.622223],[121.435147,24.623539],[121.434838,24.624455],[121.434927,24.624878],[121.435252,24.625434],[121.435634,24.625605],[121.435694,24.626439],[121.436086,24.627402],[121.436976,24.628655],[121.437733,24.630221],[121.439291,24.632608],[121.439392,24.633456],[121.440028,24.634006],[121.440548,24.635096],[121.443732,24.636356],[121.444515,24.636794],[121.445021,24.637295],[121.445346,24.637909],[121.445633,24.639419],[121.445465,24.640181],[121.444845,24.641052],[121.445077,24.643177],[121.445981,24.644284],[121.448763,24.646014],[121.449156,24.646607],[121.449985,24.648737],[121.451339,24.650918],[121.451261,24.651678],[121.448994,24.652977],[121.447932,24.655106],[121.447613,24.656171],[121.447525,24.657083],[121.447752,24.658367],[121.448573,24.659699],[121.449141,24.661379],[121.449593,24.662222],[121.451535,24.663044],[121.452254,24.663565],[121.453746,24.664225],[121.454429,24.665658],[121.45503,24.667856],[121.455306,24.668319],[121.457332,24.670918],[121.459641,24.673234],[121.460228,24.673192],[121.461136,24.67271],[121.465177,24.672398],[121.466798,24.672428],[121.468632,24.671876],[121.469207,24.671831],[121.47115,24.672471],[121.472382,24.673147],[121.474214,24.673161],[121.477018,24.673823],[121.478351,24.673618],[121.479996,24.673849]]]},"properties":{"code":"68000130008","name":"華陵里","countyCode":"68000","countyName":"桃園市","townCode":"68000130","townName":"復興區","level":"village","unassigned":false,"note":"","label":[121.419613830808,24.651516306704696],"bounds":[121.358806,24.586458,121.479996,24.73609],"focusBounds":[121.358806,24.586458,121.479996,24.73609],"color":"#dd8590"}},{"type":"Feature","id":"68000130009","geometry":{"type":"Polygon","coordinates":[[[121.390719,24.805598],[121.389732,24.807693],[121.389324,24.80798],[121.388843,24.807763],[121.388171,24.807895],[121.387598,24.80919],[121.386927,24.809697],[121.387074,24.810573],[121.386786,24.810926],[121.386124,24.811261],[121.385684,24.811761],[121.385496,24.813098],[121.385136,24.813474],[121.384632,24.813629],[121.384201,24.813979],[121.383843,24.814944],[121.383122,24.814727],[121.382261,24.815192],[121.381823,24.81525],[121.381389,24.815057],[121.381206,24.813822],[121.380879,24.813386],[121.379894,24.812769],[121.378849,24.812739],[121.378173,24.812206],[121.377733,24.811369],[121.377707,24.810439],[121.376867,24.809795],[121.376207,24.808785],[121.375462,24.808595],[121.374702,24.809129],[121.374224,24.809148],[121.373944,24.808769],[121.374201,24.808331],[121.374114,24.807542],[121.373922,24.807399],[121.372555,24.807364],[121.372019,24.807201],[121.371829,24.807039],[121.371918,24.806432],[121.37156,24.806059],[121.370412,24.80593],[121.369524,24.805334],[121.36896,24.805204],[121.368917,24.805621],[121.368495,24.805896],[121.368278,24.806299],[121.368043,24.806288],[121.367513,24.80581],[121.367233,24.805795],[121.366691,24.806713],[121.36342,24.804127],[121.362156,24.802819],[121.360854,24.800648],[121.359571,24.797871],[121.357953,24.795302],[121.351201,24.788503],[121.349614,24.785898],[121.348415,24.783413],[121.348084,24.782216],[121.347788,24.777799],[121.347067,24.775686],[121.345892,24.774352],[121.342692,24.772085],[121.342384,24.770349],[121.341923,24.769513],[121.341096,24.768594],[121.331357,24.760748],[121.32979,24.757487],[121.32882,24.750327],[121.340257,24.750054],[121.341374,24.749356],[121.344262,24.749618],[121.345169,24.748808],[121.349241,24.749358],[121.350423,24.748879],[121.350784,24.748921],[121.351528,24.749494],[121.351991,24.750085],[121.352706,24.751553],[121.353716,24.752987],[121.353553,24.753857],[121.353541,24.756036],[121.351123,24.756105],[121.350509,24.756668],[121.350648,24.757481],[121.351335,24.758104],[121.353938,24.758911],[121.35661,24.759216],[121.357844,24.759901],[121.358051,24.760526],[121.357642,24.761028],[121.356821,24.761529],[121.354496,24.76241],[121.354019,24.762973],[121.353884,24.763786],[121.354435,24.765223],[121.355328,24.76622],[121.356494,24.766782],[121.358344,24.767276],[121.36129,24.76777],[121.362455,24.768205],[121.362936,24.768703],[121.3628,24.769329],[121.361916,24.771331],[121.362194,24.772644],[121.363363,24.77458],[121.363643,24.776455],[121.362762,24.779768],[121.362903,24.781268],[121.36354,24.783109],[121.364213,24.784267],[121.363737,24.785456],[121.364223,24.787705],[121.365322,24.788952],[121.366833,24.79026],[121.368685,24.791131],[121.370745,24.793189],[121.372117,24.793935],[121.373623,24.793807],[121.376248,24.79181],[121.377066,24.790898],[121.378025,24.799861],[121.378646,24.801611],[121.381599,24.804165],[121.383451,24.8051],[121.385303,24.805657],[121.387426,24.805778],[121.390719,24.805598]]]},"properties":{"code":"68000130009","name":"羅浮里","countyCode":"68000","countyName":"桃園市","townCode":"68000130","townName":"復興區","level":"village","unassigned":false,"note":"","label":[121.35583941135839,24.777006349717404],"bounds":[121.32882,24.748808,121.390719,24.81525],"focusBounds":[121.32882,24.748808,121.390719,24.81525],"color":"#a49ad4"}},{"type":"Feature","id":"68000130010","geometry":{"type":"Polygon","coordinates":[[[121.433531,24.73609],[121.429531,24.734736],[121.428444,24.734739],[121.42374,24.735459],[121.423537,24.73669],[121.422246,24.737165],[121.420028,24.738636],[121.419462,24.739818],[121.41874,24.740245],[121.417806,24.739444],[121.416048,24.739309],[121.411381,24.736062],[121.409772,24.734507],[121.409049,24.734793],[121.408325,24.734748],[121.406414,24.735744],[121.404086,24.735421],[121.400113,24.73817],[121.39913,24.738172],[121.397012,24.739171],[121.395771,24.739174],[121.394429,24.740121],[121.393499,24.740503],[121.392829,24.741213],[121.391226,24.74136],[121.389418,24.741931],[121.388331,24.741839],[121.386729,24.742315],[121.382435,24.742278],[121.380571,24.741669],[121.378506,24.742808],[121.376281,24.742578],[121.375141,24.742062],[121.374367,24.742536],[121.369298,24.742878],[121.367388,24.744063],[121.366616,24.745435],[121.36657,24.747466],[121.366003,24.748129],[121.364741,24.748644],[121.363107,24.748468],[121.363047,24.748353],[121.362685,24.752764],[121.361866,24.753642],[121.359536,24.753083],[121.358511,24.75365],[121.355505,24.755781],[121.353541,24.756036],[121.353553,24.753857],[121.353716,24.752987],[121.352706,24.751553],[121.351991,24.750085],[121.351528,24.749494],[121.350784,24.748921],[121.350423,24.748879],[121.349241,24.749358],[121.345169,24.748808],[121.344262,24.749618],[121.341374,24.749356],[121.340257,24.750054],[121.32882,24.750327],[121.320499,24.750792],[121.319075,24.751055],[121.317728,24.751622],[121.316993,24.753725],[121.315855,24.755226],[121.314337,24.755922],[121.311867,24.755928],[121.307673,24.755127],[121.307663,24.754766],[121.307095,24.753819],[121.306776,24.752835],[121.305969,24.752081],[121.305107,24.750201],[121.305551,24.748053],[121.305286,24.746281],[121.302575,24.743812],[121.30113,24.741993],[121.30029,24.739272],[121.300201,24.737721],[121.299197,24.736471],[121.298261,24.734092],[121.29812,24.733232],[121.298282,24.731995],[121.29867,24.73071],[121.30046,24.729836],[121.301469,24.728629],[121.303873,24.726543],[121.305396,24.725993],[121.305721,24.723827],[121.306244,24.722844],[121.306662,24.721597],[121.307619,24.720175],[121.307238,24.716968],[121.306605,24.715179],[121.306407,24.713083],[121.305432,24.711028],[121.304154,24.709775],[121.30328,24.708388],[121.303092,24.707449],[121.303034,24.705719],[121.302882,24.705229],[121.302299,24.704369],[121.30218,24.703876],[121.302421,24.702916],[121.302263,24.701908],[121.301554,24.700265],[121.300358,24.69839],[121.29948,24.696263],[121.299486,24.695566],[121.299948,24.694826],[121.30082,24.69396],[121.301765,24.693484],[121.303215,24.693103],[121.303904,24.692917],[121.306519,24.693931],[121.3074,24.694679],[121.308367,24.695022],[121.309739,24.695909],[121.311718,24.696801],[121.312848,24.697524],[121.314465,24.697996],[121.31547,24.698119],[121.317185,24.698137],[121.31818,24.69799],[121.319029,24.697351],[121.319491,24.69626],[121.320134,24.695858],[121.32103,24.695548],[121.32338,24.69529],[121.324169,24.694972],[121.326602,24.693512],[121.334949,24.697203],[121.338386,24.698056],[121.341001,24.698391],[121.345866,24.697901],[121.351258,24.698008],[121.357174,24.696913],[121.361381,24.696542],[121.365324,24.69569],[121.369526,24.693518],[121.371626,24.692192],[121.373724,24.690264],[121.378177,24.684247],[121.380536,24.681956],[121.382257,24.679735],[121.383824,24.68195],[121.386394,24.687447],[121.386607,24.689031],[121.38648,24.690473],[121.387512,24.692303],[121.394661,24.699223],[121.404229,24.705222],[121.406994,24.707919],[121.40996,24.712039],[121.411544,24.713836],[121.413522,24.715392],[121.418132,24.717183],[121.421428,24.719575],[121.424465,24.722691],[121.427899,24.726886],[121.433531,24.73609]]]},"properties":{"code":"68000130010","name":"高義里","countyCode":"68000","countyName":"桃園市","townCode":"68000130","townName":"復興區","level":"village","unassigned":false,"note":"","label":[121.35117537662137,24.723652048348864],"bounds":[121.29812,24.679735,121.433531,24.756036],"focusBounds":[121.29812,24.679735,121.433531,24.756036],"color":"#a8bf62"}}]}
