{"type":"FeatureCollection","features":[{"type":"Feature","id":"68000090001","geometry":{"type":"Polygon","coordinates":[[[121.229511,24.893378],[121.229082,24.893336],[121.228767,24.893858],[121.228101,24.893007],[121.22788,24.89291],[121.227541,24.893075],[121.227082,24.892665],[121.226237,24.89249],[121.226135,24.892312],[121.226307,24.891524],[121.225798,24.89178],[121.224512,24.891891],[121.223689,24.891893],[121.223215,24.891683],[121.222881,24.891847],[121.222869,24.892041],[121.222601,24.891985],[121.221652,24.890165],[121.221277,24.889728],[121.221463,24.88852],[121.222266,24.88806],[121.222525,24.887504],[121.221754,24.886135],[121.220749,24.885031],[121.220922,24.883597],[121.219961,24.883321],[121.219612,24.882843],[121.219433,24.881372],[121.219607,24.880766],[121.219477,24.880347],[121.218819,24.879621],[121.218206,24.878509],[121.217769,24.878192],[121.217376,24.877635],[121.216675,24.876322],[121.217025,24.876479],[121.217418,24.877118],[121.217942,24.877117],[121.218511,24.87692],[121.218292,24.875227],[121.218768,24.873502],[121.21933,24.873149],[121.220568,24.872934],[121.220889,24.873434],[121.22165,24.87247],[121.222138,24.87234],[121.222352,24.872459],[121.222899,24.87184],[121.223221,24.871174],[121.223203,24.870494],[121.225583,24.871494],[121.22929,24.87261],[121.22986,24.872779],[121.229919,24.875237],[121.230196,24.875137],[121.230556,24.876437],[121.23055,24.877513],[121.231225,24.878205],[121.23365,24.879849],[121.234459,24.880602],[121.236013,24.881428],[121.236557,24.88195],[121.237055,24.882785],[121.237082,24.883237],[121.23688,24.88324],[121.236606,24.884252],[121.236448,24.884271],[121.236065,24.886246],[121.23595,24.88624],[121.234951,24.885884],[121.234307,24.886821],[121.231839,24.888027],[121.231597,24.888463],[121.231309,24.888239],[121.231119,24.888307],[121.231008,24.888609],[121.231184,24.889384],[121.231096,24.889741],[121.230571,24.890354],[121.230104,24.891271],[121.229998,24.892539],[121.229511,24.893378]]]},"properties":{"code":"68000090001","name":"黃唐里","countyCode":"68000","countyName":"桃園市","townCode":"68000090","townName":"龍潭區","level":"village","unassigned":false,"note":"","label":[121.22671406416156,24.882181309870322],"bounds":[121.216675,24.870494,121.237082,24.893858],"focusBounds":[121.216675,24.870494,121.237082,24.893858],"color":"#efb44f"}},{"type":"Feature","id":"68000090002","geometry":{"type":"Polygon","coordinates":[[[121.216675,24.876322],[121.215571,24.874599],[121.214998,24.871585],[121.213771,24.871543],[121.213567,24.874521],[121.213051,24.874124],[121.212471,24.87336],[121.212846,24.871872],[121.211165,24.870687],[121.210826,24.869117],[121.210404,24.868122],[121.210404,24.867585],[121.210151,24.867204],[121.209395,24.866936],[121.209478,24.86636],[121.209226,24.866015],[121.209401,24.86539],[121.209798,24.865159],[121.209892,24.865341],[121.21081,24.864783],[121.211092,24.864818],[121.211209,24.865209],[121.211531,24.865473],[121.213549,24.86589],[121.214632,24.866464],[121.214543,24.866622],[121.215206,24.866941],[121.215118,24.867092],[121.215362,24.867212],[121.215537,24.867119],[121.215782,24.867303],[121.215898,24.867113],[121.216209,24.867272],[121.216622,24.866799],[121.216973,24.865887],[121.216983,24.864986],[121.21726,24.863207],[121.220476,24.864173],[121.220355,24.86446],[121.220622,24.864556],[121.221256,24.864465],[121.222065,24.863956],[121.222124,24.865157],[121.222628,24.86494],[121.221986,24.866782],[121.220687,24.869461],[121.223203,24.870494],[121.223221,24.871174],[121.222899,24.87184],[121.222352,24.872459],[121.222138,24.87234],[121.22165,24.87247],[121.220889,24.873434],[121.220568,24.872934],[121.21933,24.873149],[121.218768,24.873502],[121.218292,24.875227],[121.218511,24.87692],[121.217942,24.877117],[121.217418,24.877118],[121.217025,24.876479],[121.216675,24.876322]]]},"properties":{"code":"68000090002","name":"中山里","countyCode":"68000","countyName":"桃園市","townCode":"68000090","townName":"龍潭區","level":"village","unassigned":false,"note":"","label":[121.21746383959754,24.869875031193004],"bounds":[121.209226,24.863207,121.223221,24.877118],"focusBounds":[121.209226,24.863207,121.223221,24.877118],"color":"#dd8590"}},{"type":"Feature","id":"68000090003","geometry":{"type":"Polygon","coordinates":[[[121.212474,24.89115],[121.21128,24.891323],[121.208842,24.892131],[121.207629,24.893459],[121.206884,24.892449],[121.20519,24.890864],[121.204195,24.889684],[121.203933,24.889581],[121.203932,24.889581],[121.203775,24.888429],[121.203633,24.887999],[121.203448,24.887938],[121.20395,24.886023],[121.204566,24.882243],[121.204898,24.881942],[121.205184,24.881978],[121.205629,24.8815],[121.20853,24.879108],[121.20928,24.880767],[121.209711,24.880775],[121.209718,24.88029],[121.211748,24.88032],[121.212623,24.88878],[121.212659,24.8898],[121.212474,24.89115]]]},"properties":{"code":"68000090003","name":"烏林里","countyCode":"68000","countyName":"桃園市","townCode":"68000090","townName":"龍潭區","level":"village","unassigned":false,"note":"","label":[121.20822283809699,24.88634804267351],"bounds":[121.203448,24.879108,121.212659,24.893459],"focusBounds":[121.203448,24.879108,121.212659,24.893459],"color":"#dd8590"}},{"type":"Feature","id":"68000090004","geometry":{"type":"Polygon","coordinates":[[[121.210416,24.842829],[121.209697,24.84359],[121.209098,24.843573],[121.208785,24.843372],[121.207799,24.842119],[121.204589,24.837039],[121.203739,24.835258],[121.202837,24.832523],[121.197966,24.823233],[121.197051,24.820194],[121.196628,24.819138],[121.196343,24.818855],[121.196171,24.817987],[121.196564,24.817736],[121.196822,24.816788],[121.198922,24.814921],[121.199352,24.815182],[121.199535,24.815097],[121.199749,24.815197],[121.199749,24.815488],[121.199338,24.816129],[121.200177,24.816853],[121.20054,24.81761],[121.200802,24.817814],[121.201756,24.81791],[121.203314,24.817314],[121.203094,24.817015],[121.202338,24.816698],[121.202317,24.81615],[121.202966,24.816143],[121.203207,24.815264],[121.203066,24.814785],[121.203447,24.814128],[121.205559,24.813126],[121.205806,24.81287],[121.205874,24.812429],[121.205628,24.812138],[121.204952,24.812119],[121.204283,24.811915],[121.203424,24.811269],[121.203041,24.810782],[121.202842,24.809915],[121.203561,24.809454],[121.204425,24.808455],[121.204669,24.807248],[121.20543,24.807198],[121.205834,24.807514],[121.206432,24.807083],[121.207646,24.806988],[121.208311,24.807368],[121.208421,24.808185],[121.209352,24.808798],[121.20954,24.809482],[121.210779,24.809766],[121.211609,24.810379],[121.212829,24.810494],[121.214896,24.811971],[121.216177,24.812059],[121.21704,24.812415],[121.218027,24.811985],[121.219588,24.811789],[121.219684,24.810737],[121.218786,24.809538],[121.218724,24.808646],[121.219208,24.807987],[121.219939,24.807438],[121.219603,24.805887],[121.219627,24.804079],[121.220083,24.803433],[121.22086,24.802994],[121.220852,24.802387],[121.221287,24.801675],[121.221141,24.801134],[121.221511,24.799572],[121.221644,24.799367],[121.222121,24.799754],[121.222979,24.799916],[121.225198,24.800946],[121.226087,24.801554],[121.225455,24.804026],[121.225012,24.807109],[121.224381,24.815317],[121.22416,24.823843],[121.223741,24.827318],[121.222989,24.828582],[121.222055,24.831062],[121.22141,24.832225],[121.216664,24.839662],[121.215514,24.841162],[121.215203,24.841142],[121.215091,24.839957],[121.215246,24.839408],[121.215217,24.838495],[121.215011,24.838336],[121.214122,24.838702],[121.213259,24.839992],[121.212185,24.841139],[121.211925,24.841116],[121.211375,24.840563],[121.210811,24.840664],[121.2109,24.841473],[121.210416,24.842829]]]},"properties":{"code":"68000090004","name":"高平里","countyCode":"68000","countyName":"桃園市","townCode":"68000090","townName":"龍潭區","level":"village","unassigned":false,"note":"","label":[121.21270539170817,24.82343059152548],"bounds":[121.196171,24.799367,121.226087,24.84359],"focusBounds":[121.196171,24.799367,121.226087,24.84359],"color":"#a49ad4"}},{"type":"Feature","id":"68000090006","geometry":{"type":"Polygon","coordinates":[[[121.202788,24.87272],[121.202327,24.873435],[121.200102,24.871411],[121.199821,24.870737],[121.197241,24.868925],[121.194982,24.867109],[121.189985,24.86415],[121.193829,24.860858],[121.195043,24.860119],[121.195589,24.859619],[121.195923,24.85942],[121.196928,24.859744],[121.199541,24.860253],[121.199776,24.860559],[121.199207,24.861817],[121.200308,24.861936],[121.201401,24.861832],[121.203934,24.861922],[121.205721,24.862944],[121.207668,24.863643],[121.208124,24.862943],[121.208773,24.863362],[121.209798,24.865159],[121.209401,24.86539],[121.208714,24.865806],[121.207023,24.867517],[121.207738,24.868437],[121.208008,24.869464],[121.207936,24.870583],[121.208274,24.871143],[121.206753,24.872188],[121.203587,24.871497],[121.202788,24.87272]]]},"properties":{"code":"68000090006","name":"凌雲里","countyCode":"68000","countyName":"桃園市","townCode":"68000090","townName":"龍潭區","level":"village","unassigned":false,"note":"","label":[121.20159625503673,24.866404248891055],"bounds":[121.189985,24.85942,121.209798,24.873435],"focusBounds":[121.189985,24.85942,121.209798,24.873435],"color":"#a8bf62"}},{"type":"Feature","id":"68000090007","geometry":{"type":"Polygon","coordinates":[[[121.192635,24.893961],[121.192547,24.894117],[121.192302,24.893528],[121.191839,24.893575],[121.19159,24.893145],[121.19123,24.893452],[121.190912,24.892621],[121.190527,24.892233],[121.19042,24.891538],[121.190119,24.890994],[121.189514,24.890441],[121.188137,24.889661],[121.187716,24.888947],[121.18662,24.888954],[121.185225,24.889895],[121.184677,24.889938],[121.182475,24.890225],[121.181669,24.889466],[121.181008,24.889583],[121.180373,24.889452],[121.179538,24.889523],[121.179186,24.88908],[121.178464,24.888649],[121.177355,24.886648],[121.177839,24.885749],[121.177275,24.885295],[121.177317,24.884303],[121.176876,24.884035],[121.177001,24.882624],[121.175714,24.881994],[121.174723,24.881385],[121.17485,24.879984],[121.175174,24.878626],[121.174919,24.877331],[121.174732,24.87673],[121.17478,24.87604],[121.175304,24.875048],[121.175766,24.874569],[121.179589,24.872405],[121.182149,24.869865],[121.188329,24.865522],[121.189985,24.86415],[121.194982,24.867109],[121.197241,24.868925],[121.199821,24.870737],[121.200102,24.871411],[121.202327,24.873435],[121.201194,24.875141],[121.200488,24.875627],[121.199911,24.876259],[121.199197,24.876291],[121.195214,24.881992],[121.194224,24.882375],[121.194373,24.883156],[121.19525,24.884398],[121.194693,24.885111],[121.195117,24.885842],[121.194946,24.886762],[121.194386,24.88736],[121.194694,24.888136],[121.194679,24.889175],[121.194375,24.890274],[121.195151,24.89056],[121.195327,24.890919],[121.195305,24.891326],[121.194556,24.891841],[121.193961,24.892865],[121.193247,24.892394],[121.192721,24.892406],[121.192675,24.892756],[121.192971,24.893378],[121.192635,24.893961]]]},"properties":{"code":"68000090007","name":"八德里","countyCode":"68000","countyName":"桃園市","townCode":"68000090","townName":"龍潭區","level":"village","unassigned":false,"note":"","label":[121.18664352987297,24.877830183808804],"bounds":[121.174723,24.86415,121.202327,24.894117],"focusBounds":[121.174723,24.86415,121.202327,24.894117],"color":"#68bec9"}},{"type":"Feature","id":"68000090008","geometry":{"type":"Polygon","coordinates":[[[121.173323,24.872429],[121.171748,24.872534],[121.170053,24.872264],[121.167794,24.873569],[121.165392,24.873976],[121.160255,24.873341],[121.159695,24.874177],[121.15869,24.874751],[121.158171,24.875319],[121.158149,24.874823],[121.157917,24.874446],[121.156211,24.874435],[121.15699,24.873554],[121.157218,24.872808],[121.15707,24.872337],[121.15721,24.872274],[121.157661,24.872376],[121.158004,24.871958],[121.158792,24.87047],[121.159629,24.868177],[121.159828,24.866934],[121.160061,24.866427],[121.159988,24.865485],[121.160152,24.864646],[121.160464,24.864532],[121.160369,24.864228],[121.160662,24.864065],[121.160508,24.863969],[121.160507,24.863577],[121.16079,24.863139],[121.160554,24.862951],[121.160078,24.862935],[121.159882,24.862442],[121.160685,24.861747],[121.16067,24.861335],[121.160285,24.860861],[121.160942,24.860374],[121.160732,24.859914],[121.161368,24.859594],[121.161384,24.859469],[121.161165,24.859179],[121.1605,24.858881],[121.160073,24.858456],[121.159507,24.859045],[121.15925,24.859022],[121.159186,24.858751],[121.159595,24.858079],[121.160232,24.857798],[121.159074,24.857921],[121.158974,24.857612],[121.158444,24.857471],[121.157692,24.856954],[121.158099,24.856703],[121.158083,24.856506],[121.156769,24.85614],[121.156508,24.855908],[121.156457,24.855683],[121.156903,24.855364],[121.1569,24.855146],[121.156304,24.853617],[121.156965,24.853279],[121.157059,24.852434],[121.155946,24.851943],[121.156043,24.851275],[121.155733,24.850899],[121.15554,24.849914],[121.155055,24.849792],[121.15409,24.849206],[121.153609,24.848723],[121.15348,24.848406],[121.153561,24.847398],[121.153276,24.847109],[121.152836,24.846164],[121.152092,24.845595],[121.150441,24.844886],[121.14997,24.844362],[121.15198,24.843813],[121.153594,24.844141],[121.154416,24.844059],[121.154615,24.843658],[121.154743,24.8423],[121.155901,24.842119],[121.156422,24.840684],[121.15794,24.839638],[121.158238,24.839208],[121.159417,24.838674],[121.159667,24.837806],[121.16011,24.837363],[121.161688,24.837478],[121.162477,24.836979],[121.163855,24.836762],[121.165811,24.835892],[121.166191,24.836225],[121.166445,24.836208],[121.167475,24.835023],[121.168352,24.834642],[121.168797,24.833984],[121.169106,24.834117],[121.169436,24.834781],[121.169922,24.834806],[121.171379,24.834157],[121.171996,24.834191],[121.173295,24.83373],[121.173938,24.833366],[121.174082,24.832875],[121.1745,24.83232],[121.175599,24.832213],[121.175799,24.832486],[121.177663,24.833534],[121.178066,24.833981],[121.178756,24.835613],[121.177006,24.836581],[121.178372,24.838164],[121.179296,24.838262],[121.177678,24.839444],[121.176545,24.840037],[121.173793,24.841002],[121.17181,24.841287],[121.163266,24.843158],[121.160109,24.844195],[121.158203,24.844309],[121.158062,24.844815],[121.160339,24.845163],[121.160159,24.846707],[121.164537,24.847155],[121.165685,24.846999],[121.166839,24.848165],[121.167313,24.848857],[121.16858,24.850034],[121.170569,24.852905],[121.174711,24.859995],[121.175685,24.861325],[121.175427,24.862255],[121.176138,24.865183],[121.173827,24.866728],[121.175624,24.868911],[121.174887,24.869565],[121.173817,24.871315],[121.173323,24.872429]]]},"properties":{"code":"68000090008","name":"三水里","countyCode":"68000","countyName":"桃園市","townCode":"68000090","townName":"龍潭區","level":"village","unassigned":false,"note":"","label":[121.16784057088957,24.862777598717543],"bounds":[121.14997,24.832213,121.179296,24.875319],"focusBounds":[121.14997,24.832213,121.179296,24.875319],"color":"#df9f6a"}},{"type":"Feature","id":"68000090009","geometry":{"type":"Polygon","coordinates":[[[121.211092,24.864818],[121.21081,24.864783],[121.209892,24.865341],[121.209798,24.865159],[121.208773,24.863362],[121.208124,24.862943],[121.207668,24.863643],[121.205721,24.862944],[121.203934,24.861922],[121.201401,24.861832],[121.200308,24.861936],[121.199207,24.861817],[121.199776,24.860559],[121.199541,24.860253],[121.196928,24.859744],[121.201883,24.85368],[121.201645,24.853077],[121.201886,24.852997],[121.202071,24.853449],[121.207083,24.847174],[121.207888,24.847677],[121.209741,24.84564],[121.210981,24.844072],[121.211384,24.843127],[121.210416,24.842829],[121.2109,24.841473],[121.210811,24.840664],[121.211375,24.840563],[121.211925,24.841116],[121.212185,24.841139],[121.213259,24.839992],[121.214122,24.838702],[121.215011,24.838336],[121.215217,24.838495],[121.215246,24.839408],[121.215091,24.839957],[121.215203,24.841142],[121.215326,24.841764],[121.215903,24.842231],[121.217417,24.842989],[121.21908,24.843577],[121.217458,24.844504],[121.217002,24.84513],[121.216852,24.845652],[121.216501,24.845923],[121.216314,24.846355],[121.215712,24.84685],[121.215451,24.849085],[121.215521,24.850979],[121.215437,24.852109],[121.213675,24.854647],[121.213172,24.854945],[121.213041,24.855569],[121.212336,24.856858],[121.212226,24.85839],[121.211864,24.860507],[121.212203,24.861395],[121.212221,24.862007],[121.212136,24.862569],[121.21186,24.86308],[121.210986,24.864467],[121.211092,24.864818]]]},"properties":{"code":"68000090009","name":"上林里","countyCode":"68000","countyName":"桃園市","townCode":"68000090","townName":"龍潭區","level":"village","unassigned":false,"note":"","label":[121.20870234842462,24.853034864218436],"bounds":[121.196928,24.838336,121.21908,24.865341],"focusBounds":[121.196928,24.838336,121.21908,24.865341],"color":"#c38cb8"}},{"type":"Feature","id":"68000090010","geometry":{"type":"Polygon","coordinates":[[[121.222826,24.861615],[121.21724,24.860242],[121.213605,24.858996],[121.212226,24.85839],[121.212336,24.856858],[121.213041,24.855569],[121.213172,24.854945],[121.213675,24.854647],[121.215437,24.852109],[121.215521,24.850979],[121.217503,24.851806],[121.22101,24.853573],[121.221078,24.853681],[121.220334,24.854389],[121.220014,24.854899],[121.219548,24.85636],[121.220997,24.856983],[121.221798,24.857587],[121.222905,24.858951],[121.223236,24.859621],[121.223966,24.860098],[121.222826,24.861615]]]},"properties":{"code":"68000090010","name":"中正里","countyCode":"68000","countyName":"桃園市","townCode":"68000090","townName":"龍潭區","level":"village","unassigned":false,"note":"","label":[121.21657152129967,24.85678216065451],"bounds":[121.212226,24.850979,121.223966,24.861615],"focusBounds":[121.212226,24.850979,121.223966,24.861615],"color":"#98b69b"}},{"type":"Feature","id":"68000090011","geometry":{"type":"Polygon","coordinates":[[[121.216983,24.864986],[121.216973,24.865887],[121.216622,24.866799],[121.216209,24.867272],[121.215898,24.867113],[121.215782,24.867303],[121.215537,24.867119],[121.215362,24.867212],[121.215118,24.867092],[121.215206,24.866941],[121.214543,24.866622],[121.214632,24.866464],[121.213549,24.86589],[121.211531,24.865473],[121.211209,24.865209],[121.211092,24.864818],[121.210986,24.864467],[121.21186,24.86308],[121.21243,24.863408],[121.212784,24.862802],[121.213671,24.863125],[121.21418,24.863323],[121.214086,24.863568],[121.215705,24.864311],[121.215572,24.864584],[121.216983,24.864986]]]},"properties":{"code":"68000090011","name":"龍潭里","countyCode":"68000","countyName":"桃園市","townCode":"68000090","townName":"龍潭區","level":"village","unassigned":false,"note":"","label":[121.21428057992365,24.864967084083432],"bounds":[121.210986,24.862802,121.216983,24.867303],"focusBounds":[121.210986,24.862802,121.216983,24.867303],"color":"#58b99d"}},{"type":"Feature","id":"68000090012","geometry":{"type":"Polygon","coordinates":[[[121.210416,24.842829],[121.211384,24.843127],[121.210981,24.844072],[121.209741,24.84564],[121.207888,24.847677],[121.207083,24.847174],[121.202071,24.853449],[121.201886,24.852997],[121.201645,24.853077],[121.201883,24.85368],[121.196928,24.859744],[121.195923,24.85942],[121.195589,24.859619],[121.193903,24.858768],[121.194691,24.857632],[121.195501,24.857044],[121.196175,24.854901],[121.197646,24.853062],[121.19815,24.850014],[121.197722,24.84966],[121.197072,24.848393],[121.197016,24.847339],[121.194513,24.845897],[121.19309,24.845475],[121.191338,24.84408],[121.189292,24.84273],[121.188656,24.841957],[121.187758,24.841834],[121.186675,24.842244],[121.186559,24.84191],[121.185584,24.84103],[121.18734,24.839724],[121.186588,24.838737],[121.187587,24.837748],[121.18962,24.836821],[121.190784,24.834636],[121.193646,24.832947],[121.193389,24.832004],[121.190153,24.834087],[121.190069,24.833896],[121.185793,24.837449],[121.185002,24.83764],[121.182384,24.839665],[121.1815,24.839625],[121.181305,24.83905],[121.181725,24.838711],[121.181296,24.838235],[121.180512,24.83885],[121.179296,24.838262],[121.178372,24.838164],[121.177006,24.836581],[121.178756,24.835613],[121.178066,24.833981],[121.177663,24.833534],[121.175799,24.832486],[121.175599,24.832213],[121.176186,24.832133],[121.176304,24.831994],[121.175841,24.831037],[121.174047,24.82886],[121.173666,24.827913],[121.173727,24.827668],[121.175438,24.827603],[121.176319,24.827424],[121.179138,24.826378],[121.183127,24.825052],[121.18591,24.823822],[121.18909,24.822083],[121.189922,24.82138],[121.192425,24.819748],[121.196171,24.817987],[121.196343,24.818855],[121.196628,24.819138],[121.197051,24.820194],[121.197966,24.823233],[121.202837,24.832523],[121.203739,24.835258],[121.204589,24.837039],[121.207799,24.842119],[121.208785,24.843372],[121.209098,24.843573],[121.209697,24.84359],[121.210416,24.842829]]]},"properties":{"code":"68000090012","name":"高原里","countyCode":"68000","countyName":"桃園市","townCode":"68000090","townName":"龍潭區","level":"village","unassigned":false,"note":"","label":[121.19796415940827,24.83911121094579],"bounds":[121.173666,24.817987,121.211384,24.859744],"focusBounds":[121.173666,24.817987,121.211384,24.859744],"color":"#efb44f"}},{"type":"Feature","id":"68000090013","geometry":{"type":"Polygon","coordinates":[[[121.246133,24.859706],[121.245737,24.860008],[121.246402,24.860964],[121.246415,24.862516],[121.247483,24.865858],[121.248865,24.869106],[121.249021,24.870836],[121.24864,24.871395],[121.248947,24.872104],[121.249058,24.873597],[121.248999,24.874957],[121.248817,24.875161],[121.249962,24.877644],[121.250052,24.879125],[121.250838,24.882217],[121.250964,24.883423],[121.250174,24.883793],[121.250839,24.885024],[121.250811,24.885896],[121.250423,24.886765],[121.250008,24.886066],[121.249263,24.886016],[121.248914,24.883431],[121.247717,24.878773],[121.247731,24.877391],[121.247161,24.876285],[121.246788,24.875067],[121.246041,24.874234],[121.245184,24.873615],[121.244459,24.872488],[121.243851,24.872698],[121.243354,24.872592],[121.243105,24.872756],[121.243069,24.873068],[121.243498,24.873228],[121.243884,24.873666],[121.244425,24.874848],[121.243031,24.874306],[121.242664,24.874615],[121.242686,24.874072],[121.241938,24.873234],[121.238886,24.871065],[121.237165,24.870445],[121.235357,24.869441],[121.234941,24.870153],[121.233592,24.86931],[121.232895,24.869053],[121.232568,24.872079],[121.232577,24.873353],[121.232785,24.873361],[121.232789,24.873643],[121.22986,24.872779],[121.22929,24.87261],[121.229297,24.872103],[121.229961,24.870799],[121.230224,24.868537],[121.227264,24.867745],[121.221986,24.866782],[121.222628,24.86494],[121.222124,24.865157],[121.222065,24.863956],[121.222205,24.862986],[121.222826,24.861615],[121.223966,24.860098],[121.225352,24.858723],[121.224602,24.858496],[121.224876,24.857725],[121.228885,24.85292],[121.229702,24.852542],[121.232943,24.852022],[121.235293,24.852147],[121.236375,24.852574],[121.241324,24.856103],[121.245511,24.859091],[121.246133,24.859706]]]},"properties":{"code":"68000090013","name":"九龍里","countyCode":"68000","countyName":"桃園市","townCode":"68000090","townName":"龍潭區","level":"village","unassigned":false,"note":"","label":[121.23405349337331,24.860839795455526],"bounds":[121.221986,24.852022,121.250964,24.886765],"focusBounds":[121.221986,24.852022,121.250964,24.886765],"color":"#78a7e3"}},{"type":"Feature","id":"68000090014","geometry":{"type":"Polygon","coordinates":[[[121.236013,24.881428],[121.234459,24.880602],[121.23365,24.879849],[121.231225,24.878205],[121.23055,24.877513],[121.230556,24.876437],[121.230196,24.875137],[121.229919,24.875237],[121.22986,24.872779],[121.232789,24.873643],[121.233968,24.873987],[121.235084,24.874337],[121.235018,24.874557],[121.235182,24.874596],[121.234925,24.875466],[121.234923,24.87627],[121.235763,24.876288],[121.235839,24.879711],[121.236391,24.880055],[121.23633,24.88104],[121.236013,24.881428]]]},"properties":{"code":"68000090014","name":"中興里","countyCode":"68000","countyName":"桃園市","townCode":"68000090","townName":"龍潭區","level":"village","unassigned":false,"note":"","label":[121.23282320795856,24.87661934477727],"bounds":[121.22986,24.872779,121.236391,24.881428],"focusBounds":[121.22986,24.872779,121.236391,24.881428],"color":"#dd8590"}},{"type":"Feature","id":"68000090015","geometry":{"type":"Polygon","coordinates":[[[121.261295,24.859011],[121.261516,24.859749],[121.261459,24.860021],[121.26105,24.860264],[121.258795,24.8647],[121.257822,24.864287],[121.257411,24.863744],[121.255074,24.862932],[121.254307,24.861686],[121.252579,24.86013],[121.251573,24.860558],[121.250252,24.859416],[121.249994,24.859377],[121.24958,24.859691],[121.249274,24.859666],[121.248699,24.858834],[121.247877,24.858352],[121.247601,24.858692],[121.246133,24.859706],[121.245511,24.859091],[121.241324,24.856103],[121.241333,24.855437],[121.242575,24.853833],[121.242879,24.853065],[121.241789,24.850159],[121.240686,24.84782],[121.237975,24.844495],[121.237561,24.844252],[121.236974,24.844213],[121.236933,24.843764],[121.23651,24.843148],[121.235685,24.840992],[121.236248,24.840839],[121.2362,24.840007],[121.235636,24.837861],[121.235045,24.837528],[121.235925,24.837007],[121.235464,24.836462],[121.235132,24.836639],[121.234281,24.835345],[121.234212,24.833207],[121.234454,24.832964],[121.233983,24.83172],[121.233198,24.830661],[121.233971,24.830548],[121.23445,24.830778],[121.235045,24.830811],[121.236033,24.830541],[121.238545,24.831478],[121.240116,24.831787],[121.24288,24.83266],[121.244125,24.833509],[121.24471,24.834303],[121.24468,24.834912],[121.24527,24.838227],[121.243941,24.842592],[121.243795,24.844042],[121.244163,24.84526],[121.245992,24.847236],[121.248302,24.848115],[121.249012,24.848723],[121.254393,24.851709],[121.257701,24.854832],[121.25828,24.855817],[121.260972,24.858788],[121.26126,24.859304],[121.261295,24.859011]]]},"properties":{"code":"68000090015","name":"佳安里","countyCode":"68000","countyName":"桃園市","townCode":"68000090","townName":"龍潭區","level":"village","unassigned":false,"note":"","label":[121.24759340026978,24.853271460973126],"bounds":[121.233198,24.830541,121.261516,24.8647],"focusBounds":[121.233198,24.830541,121.261516,24.8647],"color":"#a8bf62"}},{"type":"Feature","id":"68000090016","geometry":{"type":"Polygon","coordinates":[[[121.189985,24.86415],[121.188329,24.865522],[121.182149,24.869865],[121.179589,24.872405],[121.175766,24.874569],[121.176086,24.873766],[121.175762,24.873268],[121.17582,24.872938],[121.175571,24.872117],[121.175365,24.872045],[121.173323,24.872429],[121.173817,24.871315],[121.174887,24.869565],[121.175624,24.868911],[121.173827,24.866728],[121.176138,24.865183],[121.175427,24.862255],[121.175685,24.861325],[121.174711,24.859995],[121.170569,24.852905],[121.16858,24.850034],[121.167313,24.848857],[121.166839,24.848165],[121.165685,24.846999],[121.164537,24.847155],[121.160159,24.846707],[121.160339,24.845163],[121.158062,24.844815],[121.158203,24.844309],[121.160109,24.844195],[121.163266,24.843158],[121.17181,24.841287],[121.172433,24.842014],[121.16953,24.844167],[121.176996,24.848076],[121.181861,24.845084],[121.184872,24.8452],[121.184967,24.846307],[121.183163,24.84635],[121.180305,24.849498],[121.182082,24.850465],[121.183918,24.848713],[121.185571,24.85024],[121.185839,24.850293],[121.186235,24.849916],[121.186403,24.849232],[121.188639,24.847337],[121.190036,24.847188],[121.190911,24.84632],[121.191429,24.846072],[121.191479,24.845814],[121.190767,24.844694],[121.191338,24.84408],[121.19309,24.845475],[121.194513,24.845897],[121.197016,24.847339],[121.197072,24.848393],[121.197722,24.84966],[121.19815,24.850014],[121.197646,24.853062],[121.196175,24.854901],[121.195501,24.857044],[121.194691,24.857632],[121.193903,24.858768],[121.195589,24.859619],[121.195043,24.860119],[121.193829,24.860858],[121.189985,24.86415]]]},"properties":{"code":"68000090016","name":"三和里","countyCode":"68000","countyName":"桃園市","townCode":"68000090","townName":"龍潭區","level":"village","unassigned":false,"note":"","label":[121.18348142070721,24.859029215472113],"bounds":[121.158062,24.841287,121.19815,24.874569],"focusBounds":[121.158062,24.841287,121.19815,24.874569],"color":"#c38cb8"}},{"type":"Feature","id":"68000090017","geometry":{"type":"Polygon","coordinates":[[[121.242791,24.829995],[121.24344,24.830791],[121.244454,24.830195],[121.244835,24.830368],[121.245407,24.83102],[121.246073,24.831321],[121.246454,24.831192],[121.249881,24.832315],[121.251691,24.833657],[121.252119,24.833742],[121.253121,24.835086],[121.254073,24.835477],[121.256833,24.835862],[121.259282,24.83602],[121.259864,24.836785],[121.260441,24.838983],[121.261131,24.840336],[121.262061,24.841688],[121.263641,24.843357],[121.264502,24.844509],[121.266088,24.847131],[121.267374,24.848405],[121.26772,24.848937],[121.267815,24.849888],[121.267541,24.851523],[121.265561,24.856094],[121.264888,24.857187],[121.264268,24.859016],[121.263242,24.85865],[121.262658,24.85814],[121.262419,24.858179],[121.262093,24.858678],[121.261295,24.859011],[121.26126,24.859304],[121.260972,24.858788],[121.25828,24.855817],[121.257701,24.854832],[121.254393,24.851709],[121.249012,24.848723],[121.248302,24.848115],[121.245992,24.847236],[121.244163,24.84526],[121.243795,24.844042],[121.243941,24.842592],[121.24527,24.838227],[121.24468,24.834912],[121.24471,24.834303],[121.244125,24.833509],[121.24288,24.83266],[121.240116,24.831787],[121.241074,24.830731],[121.242157,24.830675],[121.242791,24.829995]]]},"properties":{"code":"68000090017","name":"三坑里","countyCode":"68000","countyName":"桃園市","townCode":"68000090","townName":"龍潭區","level":"village","unassigned":false,"note":"","label":[121.25497629717688,24.843931540604444],"bounds":[121.240116,24.829995,121.267815,24.859304],"focusBounds":[121.240116,24.829995,121.267815,24.859304],"color":"#68bec9"}},{"type":"Feature","id":"68000090018","geometry":{"type":"Polygon","coordinates":[[[121.243093,24.808704],[121.243516,24.812248],[121.243791,24.81304],[121.243893,24.814074],[121.245321,24.815754],[121.246398,24.817563],[121.248203,24.819958],[121.249097,24.820805],[121.251677,24.82239],[121.25326,24.824002],[121.25385,24.825678],[121.25453,24.829432],[121.255421,24.831434],[121.256696,24.833407],[121.259282,24.83602],[121.256833,24.835862],[121.254073,24.835477],[121.253121,24.835086],[121.252119,24.833742],[121.251691,24.833657],[121.249881,24.832315],[121.246454,24.831192],[121.246073,24.831321],[121.245407,24.83102],[121.244835,24.830368],[121.244454,24.830195],[121.24344,24.830791],[121.242791,24.829995],[121.241816,24.828872],[121.23978,24.827659],[121.23157,24.824526],[121.230795,24.823823],[121.230972,24.823007],[121.231446,24.8223],[121.231208,24.821813],[121.231207,24.821434],[121.232691,24.819858],[121.232927,24.819314],[121.232925,24.818393],[121.232374,24.817836],[121.232299,24.817363],[121.234175,24.804121],[121.2344,24.804261],[121.23592,24.804224],[121.236396,24.804566],[121.236999,24.804646],[121.238244,24.804653],[121.239777,24.805654],[121.240898,24.805869],[121.241754,24.80649],[121.242261,24.807076],[121.243093,24.808704]]]},"properties":{"code":"68000090018","name":"大平里","countyCode":"68000","countyName":"桃園市","townCode":"68000090","townName":"龍潭區","level":"village","unassigned":false,"note":"","label":[121.23980122083829,24.819901969315794],"bounds":[121.230795,24.804121,121.259282,24.83602],"focusBounds":[121.230795,24.804121,121.259282,24.83602],"color":"#df9f6a"}},{"type":"Feature","id":"68000090019","geometry":{"type":"Polygon","coordinates":[[[121.22946,24.841408],[121.228551,24.84247],[121.227281,24.843436],[121.225502,24.846526],[121.224734,24.846591],[121.223338,24.845767],[121.221492,24.844377],[121.220677,24.844005],[121.21908,24.843577],[121.217417,24.842989],[121.215903,24.842231],[121.215326,24.841764],[121.215203,24.841142],[121.215514,24.841162],[121.216664,24.839662],[121.22141,24.832225],[121.222055,24.831062],[121.222989,24.828582],[121.223741,24.827318],[121.22416,24.823843],[121.224381,24.815317],[121.225012,24.807109],[121.225455,24.804026],[121.226087,24.801554],[121.228489,24.802912],[121.230151,24.803088],[121.231384,24.803702],[121.233237,24.803866],[121.234175,24.804121],[121.232299,24.817363],[121.232374,24.817836],[121.232925,24.818393],[121.232927,24.819314],[121.232691,24.819858],[121.231207,24.821434],[121.231208,24.821813],[121.231446,24.8223],[121.230972,24.823007],[121.230795,24.823823],[121.23157,24.824526],[121.23978,24.827659],[121.241816,24.828872],[121.242791,24.829995],[121.242157,24.830675],[121.241074,24.830731],[121.240116,24.831787],[121.238545,24.831478],[121.236033,24.830541],[121.235045,24.830811],[121.23445,24.830778],[121.233971,24.830548],[121.233198,24.830661],[121.233983,24.83172],[121.234454,24.832964],[121.234212,24.833207],[121.234281,24.835345],[121.235132,24.836639],[121.235464,24.836462],[121.235925,24.837007],[121.235045,24.837528],[121.235636,24.837861],[121.2362,24.840007],[121.236248,24.840839],[121.235685,24.840992],[121.234076,24.836828],[121.233863,24.836952],[121.231545,24.840526],[121.230858,24.840796],[121.229765,24.840843],[121.22946,24.841408]]]},"properties":{"code":"68000090019","name":"三林里","countyCode":"68000","countyName":"桃園市","townCode":"68000090","townName":"龍潭區","level":"village","unassigned":false,"note":"","label":[121.22784336138966,24.834013250572454],"bounds":[121.215203,24.801554,121.242791,24.846591],"focusBounds":[121.215203,24.801554,121.242791,24.846591],"color":"#98b69b"}},{"type":"Feature","id":"68000090020","geometry":{"type":"Polygon","coordinates":[[[121.223203,24.870494],[121.220687,24.869461],[121.221986,24.866782],[121.227264,24.867745],[121.230224,24.868537],[121.229961,24.870799],[121.229297,24.872103],[121.22929,24.87261],[121.225583,24.871494],[121.223203,24.870494]]]},"properties":{"code":"68000090020","name":"永興里","countyCode":"68000","countyName":"桃園市","townCode":"68000090","townName":"龍潭區","level":"village","unassigned":false,"note":"","label":[121.22582583319867,24.86952510085735],"bounds":[121.220687,24.866782,121.230224,24.87261],"focusBounds":[121.220687,24.866782,121.230224,24.87261],"color":"#98b69b"}},{"type":"Feature","id":"68000090021","geometry":{"type":"Polygon","coordinates":[[[121.219546,24.893739],[121.218216,24.893326],[121.217454,24.892893],[121.217019,24.892415],[121.216338,24.892159],[121.214584,24.891571],[121.212474,24.89115],[121.212659,24.8898],[121.212623,24.88878],[121.211748,24.88032],[121.211758,24.878058],[121.212142,24.87743],[121.213089,24.876004],[121.213567,24.874521],[121.213771,24.871543],[121.214998,24.871585],[121.215571,24.874599],[121.216675,24.876322],[121.217376,24.877635],[121.217769,24.878192],[121.218206,24.878509],[121.218819,24.879621],[121.219477,24.880347],[121.219607,24.880766],[121.219433,24.881372],[121.219612,24.882843],[121.219961,24.883321],[121.220922,24.883597],[121.220749,24.885031],[121.221754,24.886135],[121.222525,24.887504],[121.222266,24.88806],[121.221463,24.88852],[121.220717,24.888936],[121.220029,24.891111],[121.220101,24.891766],[121.220651,24.893267],[121.219848,24.893211],[121.219546,24.893739]]]},"properties":{"code":"68000090021","name":"烏樹林里","countyCode":"68000","countyName":"桃園市","townCode":"68000090","townName":"龍潭區","level":"village","unassigned":false,"note":"","label":[121.21631187175163,24.885177147908998],"bounds":[121.211748,24.871543,121.222525,24.893739],"focusBounds":[121.211748,24.871543,121.222525,24.893739],"color":"#58b99d"}},{"type":"Feature","id":"68000090022","geometry":{"type":"Polygon","coordinates":[[[121.211748,24.88032],[121.209718,24.88029],[121.209711,24.880775],[121.20928,24.880767],[121.20853,24.879108],[121.208016,24.877822],[121.207974,24.877158],[121.209919,24.876284],[121.210766,24.877175],[121.212142,24.87743],[121.211758,24.878058],[121.211748,24.88032]]]},"properties":{"code":"68000090022","name":"百年里","countyCode":"68000","countyName":"桃園市","townCode":"68000090","townName":"龍潭區","level":"village","unassigned":false,"note":"","label":[121.21005039834935,24.87859672945214],"bounds":[121.207974,24.876284,121.212142,24.880775],"focusBounds":[121.207974,24.876284,121.212142,24.880775],"color":"#efb44f"}},{"type":"Feature","id":"68000090023","geometry":{"type":"Polygon","coordinates":[[[121.202788,24.87272],[121.203587,24.871497],[121.206753,24.872188],[121.208274,24.871143],[121.207936,24.870583],[121.208008,24.869464],[121.207738,24.868437],[121.207023,24.867517],[121.208714,24.865806],[121.209401,24.86539],[121.209226,24.866015],[121.209478,24.86636],[121.209395,24.866936],[121.210151,24.867204],[121.210404,24.867585],[121.210404,24.868122],[121.210826,24.869117],[121.211165,24.870687],[121.212846,24.871872],[121.212471,24.87336],[121.213051,24.874124],[121.213567,24.874521],[121.213089,24.876004],[121.212142,24.87743],[121.210766,24.877175],[121.209919,24.876284],[121.207974,24.877158],[121.208016,24.877822],[121.20853,24.879108],[121.205629,24.8815],[121.204343,24.877728],[121.203101,24.875346],[121.20321,24.874128],[121.202788,24.87272]]]},"properties":{"code":"68000090023","name":"龍祥里","countyCode":"68000","countyName":"桃園市","townCode":"68000090","townName":"龍潭區","level":"village","unassigned":false,"note":"","label":[121.20942798757257,24.873686380056878],"bounds":[121.202788,24.86539,121.213567,24.8815],"focusBounds":[121.202788,24.86539,121.213567,24.8815],"color":"#78a7e3"}},{"type":"Feature","id":"68000090024","geometry":{"type":"Polygon","coordinates":[[[121.203932,24.889581],[121.203177,24.889174],[121.202798,24.889527],[121.202549,24.889554],[121.199556,24.888947],[121.197486,24.88826],[121.195602,24.887881],[121.19526,24.887864],[121.195123,24.888412],[121.194694,24.888136],[121.194386,24.88736],[121.194946,24.886762],[121.195117,24.885842],[121.194693,24.885111],[121.19525,24.884398],[121.194373,24.883156],[121.194224,24.882375],[121.195214,24.881992],[121.199197,24.876291],[121.199911,24.876259],[121.200488,24.875627],[121.201194,24.875141],[121.202327,24.873435],[121.202788,24.87272],[121.20321,24.874128],[121.203101,24.875346],[121.204343,24.877728],[121.205629,24.8815],[121.205184,24.881978],[121.204898,24.881942],[121.204566,24.882243],[121.20395,24.886023],[121.203448,24.887938],[121.203633,24.887999],[121.203775,24.888429],[121.203932,24.889581]]]},"properties":{"code":"68000090024","name":"聖德里","countyCode":"68000","countyName":"桃園市","townCode":"68000090","townName":"龍潭區","level":"village","unassigned":false,"note":"","label":[121.20015709024939,24.882529186641],"bounds":[121.194224,24.87272,121.205629,24.889581],"focusBounds":[121.194224,24.87272,121.205629,24.889581],"color":"#a49ad4"}},{"type":"Feature","id":"68000090025","geometry":{"type":"Polygon","coordinates":[[[121.216983,24.864986],[121.215572,24.864584],[121.215705,24.864311],[121.214086,24.863568],[121.21418,24.863323],[121.213671,24.863125],[121.212784,24.862802],[121.21243,24.863408],[121.21186,24.86308],[121.212136,24.862569],[121.212221,24.862007],[121.212203,24.861395],[121.211864,24.860507],[121.212226,24.85839],[121.213605,24.858996],[121.21724,24.860242],[121.222826,24.861615],[121.222205,24.862986],[121.222065,24.863956],[121.221256,24.864465],[121.220622,24.864556],[121.220355,24.86446],[121.220476,24.864173],[121.21726,24.863207],[121.216983,24.864986]]]},"properties":{"code":"68000090025","name":"龍星里","countyCode":"68000","countyName":"桃園市","townCode":"68000090","townName":"龍潭區","level":"village","unassigned":false,"note":"","label":[121.2157389498827,24.861930456229846],"bounds":[121.21186,24.85839,121.222826,24.864986],"focusBounds":[121.21186,24.85839,121.222826,24.864986],"color":"#a49ad4"}},{"type":"Feature","id":"68000090026","geometry":{"type":"Polygon","coordinates":[[[121.215521,24.850979],[121.215451,24.849085],[121.215712,24.84685],[121.216314,24.846355],[121.216501,24.845923],[121.216852,24.845652],[121.217002,24.84513],[121.217458,24.844504],[121.21908,24.843577],[121.220677,24.844005],[121.221492,24.844377],[121.223338,24.845767],[121.224734,24.846591],[121.22688,24.847711],[121.226565,24.848242],[121.226332,24.848374],[121.223151,24.85452],[121.223307,24.85614],[121.223158,24.857126],[121.224876,24.857725],[121.224602,24.858496],[121.225352,24.858723],[121.223966,24.860098],[121.223236,24.859621],[121.222905,24.858951],[121.221798,24.857587],[121.220997,24.856983],[121.219548,24.85636],[121.220014,24.854899],[121.220334,24.854389],[121.221078,24.853681],[121.22101,24.853573],[121.217503,24.851806],[121.215521,24.850979]]]},"properties":{"code":"68000090026","name":"上華里","countyCode":"68000","countyName":"桃園市","townCode":"68000090","townName":"龍潭區","level":"village","unassigned":false,"note":"","label":[121.22134373996849,24.849218531705574],"bounds":[121.215451,24.843577,121.22688,24.860098],"focusBounds":[121.215451,24.843577,121.22688,24.860098],"color":"#a8bf62"}},{"type":"Feature","id":"68000090027","geometry":{"type":"Polygon","coordinates":[[[121.234941,24.870153],[121.233968,24.873987],[121.232789,24.873643],[121.232785,24.873361],[121.232577,24.873353],[121.232568,24.872079],[121.232895,24.869053],[121.233592,24.86931],[121.234941,24.870153]]]},"properties":{"code":"68000090027","name":"武漢里","countyCode":"68000","countyName":"桃園市","townCode":"68000090","townName":"龍潭區","level":"village","unassigned":false,"note":"","label":[121.23360666797791,24.87146483689783],"bounds":[121.232568,24.869053,121.234941,24.873987],"focusBounds":[121.232568,24.869053,121.234941,24.873987],"color":"#68bec9"}},{"type":"Feature","id":"68000090028","geometry":{"type":"Polygon","coordinates":[[[121.234941,24.870153],[121.235357,24.869441],[121.237165,24.870445],[121.238886,24.871065],[121.241938,24.873234],[121.242686,24.874072],[121.242664,24.874615],[121.242208,24.875161],[121.241281,24.875477],[121.241293,24.876591],[121.235084,24.874337],[121.233968,24.873987],[121.234941,24.870153]]]},"properties":{"code":"68000090028","name":"東興里","countyCode":"68000","countyName":"桃園市","townCode":"68000090","townName":"龍潭區","level":"village","unassigned":false,"note":"","label":[121.23803339459141,24.873082781470227],"bounds":[121.233968,24.869441,121.242686,24.876591],"focusBounds":[121.233968,24.869441,121.242686,24.876591],"color":"#df9f6a"}},{"type":"Feature","id":"68000090029","geometry":{"type":"Polygon","coordinates":[[[121.241293,24.876591],[121.242917,24.8772],[121.243121,24.87813],[121.243218,24.881791],[121.242962,24.882625],[121.242289,24.882522],[121.241904,24.884369],[121.238827,24.88401],[121.237125,24.884227],[121.237082,24.883237],[121.237055,24.882785],[121.236557,24.88195],[121.236013,24.881428],[121.23633,24.88104],[121.236391,24.880055],[121.235839,24.879711],[121.235763,24.876288],[121.234923,24.87627],[121.234925,24.875466],[121.235182,24.874596],[121.235018,24.874557],[121.235084,24.874337],[121.241293,24.876591]]]},"properties":{"code":"68000090029","name":"北興里","countyCode":"68000","countyName":"桃園市","townCode":"68000090","townName":"龍潭區","level":"village","unassigned":false,"note":"","label":[121.239766778589,24.879841246670832],"bounds":[121.234923,24.874337,121.243218,24.884369],"focusBounds":[121.234923,24.874337,121.243218,24.884369],"color":"#c38cb8"}},{"type":"Feature","id":"68000090030","geometry":{"type":"Polygon","coordinates":[[[121.236974,24.844213],[121.236339,24.844458],[121.233142,24.846905],[121.233154,24.846611],[121.234703,24.844361],[121.22946,24.841408],[121.229765,24.840843],[121.230858,24.840796],[121.231545,24.840526],[121.233863,24.836952],[121.234076,24.836828],[121.235685,24.840992],[121.23651,24.843148],[121.236933,24.843764],[121.236974,24.844213]]]},"properties":{"code":"68000090030","name":"建林里","countyCode":"68000","countyName":"桃園市","townCode":"68000090","townName":"龍潭區","level":"village","unassigned":false,"note":"","label":[121.23352486603207,24.84126836648243],"bounds":[121.22946,24.836828,121.236974,24.846905],"focusBounds":[121.22946,24.836828,121.236974,24.846905],"color":"#efb44f"}},{"type":"Feature","id":"68000090031","geometry":{"type":"Polygon","coordinates":[[[121.224876,24.857725],[121.223158,24.857126],[121.223307,24.85614],[121.223151,24.85452],[121.226332,24.848374],[121.226565,24.848242],[121.22688,24.847711],[121.224734,24.846591],[121.225502,24.846526],[121.227281,24.843436],[121.228551,24.84247],[121.22946,24.841408],[121.234703,24.844361],[121.233154,24.846611],[121.233142,24.846905],[121.236339,24.844458],[121.236974,24.844213],[121.237561,24.844252],[121.237975,24.844495],[121.240686,24.84782],[121.241789,24.850159],[121.242879,24.853065],[121.242575,24.853833],[121.241333,24.855437],[121.241324,24.856103],[121.236375,24.852574],[121.235293,24.852147],[121.232943,24.852022],[121.229702,24.852542],[121.228885,24.85292],[121.224876,24.857725]]]},"properties":{"code":"68000090031","name":"富林里","countyCode":"68000","countyName":"桃園市","townCode":"68000090","townName":"龍潭區","level":"village","unassigned":false,"note":"","label":[121.23029118765018,24.848954978689513],"bounds":[121.223151,24.841408,121.242879,24.857725],"focusBounds":[121.223151,24.841408,121.242879,24.857725],"color":"#58b99d"}},{"type":"Feature","id":"68000090032","geometry":{"type":"Polygon","coordinates":[[[121.244425,24.874848],[121.244377,24.875755],[121.244635,24.876617],[121.244516,24.877317],[121.245059,24.877604],[121.245067,24.878541],[121.245508,24.879306],[121.24529,24.879885],[121.245406,24.880211],[121.245592,24.880251],[121.245515,24.880603],[121.245723,24.880875],[121.245623,24.881373],[121.245242,24.881967],[121.245452,24.883325],[121.246701,24.884383],[121.246495,24.88529],[121.246701,24.886204],[121.246276,24.887939],[121.245961,24.888003],[121.245089,24.887708],[121.244153,24.887786],[121.243427,24.888026],[121.243113,24.888396],[121.242869,24.889088],[121.242235,24.88884],[121.241613,24.890159],[121.240899,24.889533],[121.239513,24.887717],[121.239116,24.887623],[121.238165,24.887866],[121.23755,24.887867],[121.237439,24.887121],[121.235897,24.886933],[121.23595,24.88624],[121.236065,24.886246],[121.236448,24.884271],[121.236606,24.884252],[121.23688,24.88324],[121.237082,24.883237],[121.237125,24.884227],[121.238827,24.88401],[121.241904,24.884369],[121.242289,24.882522],[121.242962,24.882625],[121.243218,24.881791],[121.243121,24.87813],[121.242917,24.8772],[121.241293,24.876591],[121.241281,24.875477],[121.242208,24.875161],[121.242664,24.874615],[121.243031,24.874306],[121.244425,24.874848]]]},"properties":{"code":"68000090032","name":"祥和里","countyCode":"68000","countyName":"桃園市","townCode":"68000090","townName":"龍潭區","level":"village","unassigned":false,"note":"","label":[121.24405811221804,24.885435587340815],"bounds":[121.235897,24.874306,121.246701,24.890159],"focusBounds":[121.235897,24.874306,121.246701,24.890159],"color":"#dd8590"}},{"type":"Feature","id":"68000090033","geometry":{"type":"Polygon","coordinates":[[[121.191338,24.84408],[121.190767,24.844694],[121.191479,24.845814],[121.191429,24.846072],[121.190911,24.84632],[121.190036,24.847188],[121.188639,24.847337],[121.186403,24.849232],[121.186235,24.849916],[121.185839,24.850293],[121.185571,24.85024],[121.183918,24.848713],[121.182082,24.850465],[121.180305,24.849498],[121.183163,24.84635],[121.184967,24.846307],[121.184872,24.8452],[121.181861,24.845084],[121.176996,24.848076],[121.16953,24.844167],[121.172433,24.842014],[121.17181,24.841287],[121.173793,24.841002],[121.176545,24.840037],[121.177678,24.839444],[121.179296,24.838262],[121.180512,24.83885],[121.181296,24.838235],[121.181725,24.838711],[121.181305,24.83905],[121.1815,24.839625],[121.182384,24.839665],[121.185002,24.83764],[121.185793,24.837449],[121.190069,24.833896],[121.190153,24.834087],[121.193389,24.832004],[121.193646,24.832947],[121.190784,24.834636],[121.18962,24.836821],[121.187587,24.837748],[121.186588,24.838737],[121.18734,24.839724],[121.185584,24.84103],[121.186559,24.84191],[121.186675,24.842244],[121.187758,24.841834],[121.188656,24.841957],[121.189292,24.84273],[121.191338,24.84408]]]},"properties":{"code":"68000090033","name":"渴望里","countyCode":"68000","countyName":"桃園市","townCode":"68000090","townName":"龍潭區","level":"village","unassigned":false,"note":"","label":[121.17906818219227,24.84261530679766],"bounds":[121.16953,24.832004,121.193646,24.850465],"focusBounds":[121.16953,24.832004,121.193646,24.850465],"color":"#78a7e3"}}]}
