{"type":"FeatureCollection","features":[{"type":"Feature","id":"68000030001","geometry":{"type":"Polygon","coordinates":[[[121.285019,24.885892],[121.284483,24.884722],[121.28364,24.883805],[121.282397,24.881692],[121.28757,24.879255],[121.288479,24.879219],[121.288753,24.88084],[121.288626,24.880926],[121.288678,24.881545],[121.28872,24.881716],[121.288906,24.881687],[121.289055,24.882585],[121.288804,24.882674],[121.288946,24.883534],[121.288055,24.883657],[121.288038,24.883495],[121.287668,24.88354],[121.287614,24.883098],[121.28632,24.883513],[121.286233,24.883239],[121.285933,24.883287],[121.285955,24.883548],[121.285616,24.88362],[121.285676,24.883777],[121.285368,24.883856],[121.285285,24.885751],[121.285019,24.885892]]]},"properties":{"code":"68000030001","name":"興和里","countyCode":"68000","countyName":"桃園市","townCode":"68000030","townName":"大溪區","level":"village","unassigned":false,"note":"","label":[121.2865257973555,24.88159657125452],"bounds":[121.282397,24.879219,121.289055,24.885892],"focusBounds":[121.282397,24.879219,121.289055,24.885892],"color":"#dd8590"}},{"type":"Feature","id":"68000030002","geometry":{"type":"Polygon","coordinates":[[[121.289235,24.884688],[121.288804,24.885465],[121.288247,24.88604],[121.286821,24.887288],[121.285819,24.887759],[121.28501,24.886165],[121.285019,24.885892],[121.285285,24.885751],[121.285368,24.883856],[121.285676,24.883777],[121.285616,24.88362],[121.285955,24.883548],[121.285933,24.883287],[121.286233,24.883239],[121.28632,24.883513],[121.287614,24.883098],[121.287668,24.88354],[121.288038,24.883495],[121.288055,24.883657],[121.288946,24.883534],[121.289058,24.883687],[121.289212,24.883634],[121.28935,24.884478],[121.289235,24.884688]]]},"properties":{"code":"68000030002","name":"福仁里","countyCode":"68000","countyName":"桃園市","townCode":"68000030","townName":"大溪區","level":"village","unassigned":false,"note":"","label":[121.28693859814969,24.88500159095844],"bounds":[121.28501,24.883098,121.28935,24.887759],"focusBounds":[121.28501,24.883098,121.28935,24.887759],"color":"#a49ad4"}},{"type":"Feature","id":"68000030003","geometry":{"type":"Polygon","coordinates":[[[121.289212,24.883634],[121.289058,24.883687],[121.288946,24.883534],[121.288804,24.882674],[121.289055,24.882585],[121.288906,24.881687],[121.28872,24.881716],[121.288678,24.881545],[121.288626,24.880926],[121.288753,24.88084],[121.288479,24.879219],[121.288405,24.878958],[121.288907,24.87882],[121.288851,24.878664],[121.291291,24.877168],[121.291022,24.876891],[121.29298,24.875673],[121.293042,24.875397],[121.292902,24.875273],[121.293114,24.874783],[121.292943,24.874338],[121.293468,24.87394],[121.29386,24.874059],[121.294202,24.873975],[121.294263,24.873616],[121.293893,24.873299],[121.294347,24.873057],[121.294569,24.873941],[121.295227,24.873842],[121.295478,24.873555],[121.295698,24.873641],[121.29632,24.873454],[121.297318,24.874679],[121.296769,24.87504],[121.297259,24.875593],[121.297822,24.876602],[121.298221,24.876301],[121.29845,24.876529],[121.298452,24.878584],[121.298242,24.878766],[121.297977,24.878563],[121.297871,24.878875],[121.297625,24.878598],[121.297397,24.878659],[121.297505,24.879126],[121.297399,24.879237],[121.298143,24.8809],[121.297312,24.880718],[121.296893,24.880897],[121.295892,24.880359],[121.295358,24.87974],[121.289212,24.883634]]]},"properties":{"code":"68000030003","name":"一心里","countyCode":"68000","countyName":"桃園市","townCode":"68000030","townName":"大溪區","level":"village","unassigned":false,"note":"","label":[121.29346808265117,24.87812383788471],"bounds":[121.288405,24.873057,121.298452,24.883687],"focusBounds":[121.288405,24.873057,121.298452,24.883687],"color":"#a8bf62"}},{"type":"Feature","id":"68000030004","geometry":{"type":"Polygon","coordinates":[[[121.288479,24.879219],[121.28757,24.879255],[121.282397,24.881692],[121.280274,24.87808],[121.27814,24.875035],[121.281469,24.872794],[121.281654,24.872248],[121.281644,24.871128],[121.282455,24.870719],[121.282844,24.870214],[121.282772,24.869874],[121.282586,24.869874],[121.282626,24.869297],[121.282924,24.868928],[121.282746,24.868512],[121.282865,24.86782],[121.282629,24.867462],[121.282935,24.867123],[121.282577,24.866642],[121.282083,24.866537],[121.28192,24.866191],[121.282079,24.865842],[121.282451,24.865571],[121.282632,24.865034],[121.282643,24.86484],[121.282354,24.864585],[121.282575,24.863765],[121.282526,24.862581],[121.283244,24.861541],[121.283321,24.861081],[121.285758,24.859444],[121.285889,24.859731],[121.286404,24.859454],[121.288612,24.860249],[121.289405,24.860742],[121.289729,24.861204],[121.289888,24.861177],[121.290755,24.862021],[121.291188,24.862695],[121.292212,24.86595],[121.292719,24.866589],[121.29106,24.86738],[121.291374,24.868256],[121.291433,24.869876],[121.293423,24.869776],[121.293559,24.870904],[121.293272,24.87158],[121.29359,24.872265],[121.294241,24.872781],[121.294347,24.873057],[121.293893,24.873299],[121.294263,24.873616],[121.294202,24.873975],[121.29386,24.874059],[121.293468,24.87394],[121.292943,24.874338],[121.293114,24.874783],[121.292902,24.875273],[121.293042,24.875397],[121.29298,24.875673],[121.291022,24.876891],[121.291291,24.877168],[121.288851,24.878664],[121.288907,24.87882],[121.288405,24.878958],[121.288479,24.879219]]]},"properties":{"code":"68000030004","name":"一德里","countyCode":"68000","countyName":"桃園市","townCode":"68000030","townName":"大溪區","level":"village","unassigned":false,"note":"","label":[121.28713179448899,24.87327229304182],"bounds":[121.27814,24.859444,121.294347,24.881692],"focusBounds":[121.27814,24.859444,121.294347,24.881692],"color":"#68bec9"}},{"type":"Feature","id":"68000030005","geometry":{"type":"Polygon","coordinates":[[[121.308001,24.891429],[121.30762,24.891427],[121.307307,24.891746],[121.307487,24.892013],[121.307383,24.892323],[121.305781,24.893341],[121.305914,24.893846],[121.304399,24.894218],[121.30461,24.894517],[121.30468,24.895159],[121.30643,24.896218],[121.306958,24.896341],[121.307478,24.89681],[121.307525,24.897066],[121.307362,24.897279],[121.306746,24.897658],[121.30684,24.898096],[121.308452,24.89902],[121.309735,24.89831],[121.310976,24.898469],[121.311839,24.898346],[121.313157,24.897109],[121.31385,24.897206],[121.314853,24.896618],[121.315286,24.897097],[121.315409,24.897708],[121.31526,24.899467],[121.314881,24.901293],[121.31396,24.902909],[121.312885,24.904178],[121.312349,24.905443],[121.312121,24.906567],[121.312882,24.910023],[121.305229,24.907879],[121.302022,24.905933],[121.301182,24.905396],[121.299869,24.903922],[121.300713,24.902165],[121.300787,24.90118],[121.300551,24.900057],[121.299625,24.899287],[121.296541,24.897959],[121.294305,24.896769],[121.290601,24.893404],[121.28738,24.889596],[121.286227,24.888573],[121.285819,24.887759],[121.286821,24.887288],[121.288247,24.88604],[121.288804,24.885465],[121.289235,24.884688],[121.289772,24.885176],[121.290984,24.88513],[121.2915,24.885373],[121.294212,24.886029],[121.294265,24.88585],[121.294869,24.88613],[121.296415,24.887301],[121.296071,24.887735],[121.2965,24.888627],[121.296985,24.888948],[121.297783,24.888448],[121.298795,24.888554],[121.298808,24.888366],[121.3005,24.888433],[121.302737,24.888069],[121.30455,24.88738],[121.305982,24.886441],[121.308122,24.887651],[121.307745,24.888403],[121.307882,24.888876],[121.3077,24.889245],[121.308001,24.891429]]]},"properties":{"code":"68000030005","name":"月眉里","countyCode":"68000","countyName":"桃園市","townCode":"68000030","townName":"大溪區","level":"village","unassigned":false,"note":"","label":[121.29944682992672,24.893800412917606],"bounds":[121.285819,24.884688,121.315409,24.910023],"focusBounds":[121.285819,24.884688,121.315409,24.910023],"color":"#df9f6a"}},{"type":"Feature","id":"68000030006","geometry":{"type":"Polygon","coordinates":[[[121.326097,24.908677],[121.326206,24.909181],[121.326018,24.909395],[121.325038,24.909515],[121.324434,24.909926],[121.323818,24.909804],[121.323587,24.909909],[121.323129,24.911286],[121.32314,24.911647],[121.322592,24.911865],[121.322453,24.912588],[121.321521,24.913228],[121.320294,24.913545],[121.319583,24.914943],[121.317602,24.916345],[121.316469,24.912494],[121.315677,24.911266],[121.314828,24.910566],[121.312882,24.910023],[121.312121,24.906567],[121.312349,24.905443],[121.312885,24.904178],[121.31396,24.902909],[121.314881,24.901293],[121.31526,24.899467],[121.315409,24.897708],[121.315286,24.897097],[121.314853,24.896618],[121.31385,24.897206],[121.313157,24.897109],[121.311839,24.898346],[121.310976,24.898469],[121.309735,24.89831],[121.308452,24.89902],[121.30684,24.898096],[121.306746,24.897658],[121.307362,24.897279],[121.307525,24.897066],[121.307478,24.89681],[121.306958,24.896341],[121.30643,24.896218],[121.30468,24.895159],[121.30461,24.894517],[121.304399,24.894218],[121.305914,24.893846],[121.305781,24.893341],[121.307383,24.892323],[121.307487,24.892013],[121.307307,24.891746],[121.30762,24.891427],[121.308001,24.891429],[121.308669,24.891447],[121.30888,24.891614],[121.309059,24.892292],[121.308672,24.892369],[121.308438,24.892612],[121.308403,24.892942],[121.308825,24.893165],[121.309791,24.893136],[121.310226,24.893363],[121.311135,24.893335],[121.311287,24.893105],[121.311833,24.892958],[121.312618,24.893217],[121.311098,24.891273],[121.310125,24.889436],[121.310586,24.889164],[121.31146,24.887419],[121.313915,24.887141],[121.314319,24.886012],[121.315263,24.886437],[121.316354,24.886689],[121.317844,24.884764],[121.318029,24.883919],[121.318558,24.883716],[121.318625,24.883532],[121.317907,24.883124],[121.318136,24.882602],[121.318022,24.882225],[121.318447,24.881757],[121.320296,24.881963],[121.321065,24.881892],[121.323448,24.880061],[121.32844,24.874712],[121.330892,24.870912],[121.332423,24.867819],[121.334081,24.863339],[121.338786,24.865561],[121.344469,24.866949],[121.345054,24.866952],[121.345391,24.867868],[121.345919,24.868157],[121.347885,24.868302],[121.348193,24.868631],[121.349377,24.868758],[121.349806,24.869431],[121.350576,24.870089],[121.351981,24.870446],[121.353118,24.871102],[121.353837,24.872359],[121.353865,24.872633],[121.354449,24.873466],[121.35424,24.87397],[121.353689,24.874484],[121.353404,24.874979],[121.353526,24.876463],[121.352769,24.876714],[121.352081,24.876758],[121.350584,24.878585],[121.349683,24.878782],[121.348576,24.878618],[121.347244,24.878683],[121.346234,24.879245],[121.345741,24.87988],[121.345576,24.881835],[121.345256,24.882699],[121.34538,24.883333],[121.344938,24.884182],[121.344732,24.885764],[121.344218,24.886377],[121.34341,24.886873],[121.342598,24.887222],[121.341374,24.88746],[121.34114,24.887993],[121.341117,24.888626],[121.341535,24.889131],[121.341685,24.889955],[121.341578,24.89024],[121.34206,24.890796],[121.34178,24.891365],[121.342126,24.892591],[121.340531,24.892322],[121.340256,24.892569],[121.339254,24.892932],[121.338991,24.89325],[121.338551,24.893363],[121.337551,24.89268],[121.336883,24.892582],[121.33655,24.892296],[121.335462,24.892236],[121.335135,24.891706],[121.334409,24.89177],[121.33376,24.891524],[121.333339,24.891731],[121.33349,24.892282],[121.333364,24.893005],[121.333188,24.893205],[121.33225,24.89336],[121.332076,24.893513],[121.332708,24.895106],[121.332713,24.895516],[121.333379,24.896239],[121.333237,24.898233],[121.333755,24.898796],[121.333459,24.899287],[121.332892,24.89944],[121.332324,24.899817],[121.331947,24.899899],[121.331719,24.899763],[121.331333,24.898828],[121.330694,24.898328],[121.330565,24.897776],[121.329099,24.897308],[121.328501,24.896695],[121.32817,24.896086],[121.327834,24.895919],[121.327273,24.895897],[121.326634,24.895978],[121.326604,24.896254],[121.326281,24.896667],[121.325564,24.897254],[121.322447,24.898557],[121.321262,24.899943],[121.320322,24.900196],[121.321494,24.901429],[121.3215,24.901679],[121.321899,24.902318],[121.321747,24.903027],[121.321898,24.903599],[121.323457,24.904284],[121.324027,24.904712],[121.325518,24.906206],[121.325899,24.906916],[121.326215,24.907193],[121.326014,24.908002],[121.326179,24.90821],[121.326097,24.908677]]]},"properties":{"code":"68000030006","name":"永福里","countyCode":"68000","countyName":"桃園市","townCode":"68000030","townName":"大溪區","level":"village","unassigned":false,"note":"","label":[121.33366834578527,24.88264880034061],"bounds":[121.304399,24.863339,121.354449,24.916345],"focusBounds":[121.304399,24.863339,121.354449,24.916345],"color":"#c38cb8"}},{"type":"Feature","id":"68000030007","geometry":{"type":"Polygon","coordinates":[[[121.345054,24.866952],[121.344469,24.866949],[121.338786,24.865561],[121.334081,24.863339],[121.332423,24.867819],[121.330892,24.870912],[121.32844,24.874712],[121.323448,24.880061],[121.321065,24.881892],[121.320296,24.881963],[121.318447,24.881757],[121.318022,24.882225],[121.318136,24.882602],[121.317907,24.883124],[121.318625,24.883532],[121.318558,24.883716],[121.318029,24.883919],[121.317844,24.884764],[121.316354,24.886689],[121.315263,24.886437],[121.314319,24.886012],[121.313915,24.887141],[121.31146,24.887419],[121.310586,24.889164],[121.310125,24.889436],[121.311098,24.891273],[121.312618,24.893217],[121.311833,24.892958],[121.311287,24.893105],[121.311135,24.893335],[121.310226,24.893363],[121.309791,24.893136],[121.308825,24.893165],[121.308403,24.892942],[121.308438,24.892612],[121.308672,24.892369],[121.309059,24.892292],[121.30888,24.891614],[121.308669,24.891447],[121.308001,24.891429],[121.3077,24.889245],[121.307882,24.888876],[121.307745,24.888403],[121.308122,24.887651],[121.305982,24.886441],[121.30455,24.88738],[121.302737,24.888069],[121.3005,24.888433],[121.300844,24.887493],[121.300996,24.88561],[121.299988,24.884197],[121.300225,24.883199],[121.299548,24.883322],[121.298649,24.883031],[121.298649,24.882175],[121.298143,24.8809],[121.297399,24.879237],[121.297505,24.879126],[121.297397,24.878659],[121.297625,24.878598],[121.297871,24.878875],[121.297977,24.878563],[121.298242,24.878766],[121.298452,24.878584],[121.29845,24.876529],[121.298221,24.876301],[121.297822,24.876602],[121.297259,24.875593],[121.296769,24.87504],[121.297318,24.874679],[121.29632,24.873454],[121.295698,24.873641],[121.295478,24.873555],[121.295227,24.873842],[121.294569,24.873941],[121.294347,24.873057],[121.294241,24.872781],[121.29359,24.872265],[121.293272,24.87158],[121.293559,24.870904],[121.293423,24.869776],[121.291433,24.869876],[121.291374,24.868256],[121.29106,24.86738],[121.292719,24.866589],[121.292212,24.86595],[121.291188,24.862695],[121.290755,24.862021],[121.289888,24.861177],[121.29327,24.859179],[121.293881,24.859957],[121.294706,24.859461],[121.294592,24.859298],[121.29561,24.859175],[121.295985,24.860257],[121.297362,24.860047],[121.298019,24.859685],[121.296529,24.857261],[121.297936,24.856829],[121.299312,24.856468],[121.30118,24.856611],[121.304237,24.856431],[121.305315,24.856187],[121.30646,24.855745],[121.307967,24.854924],[121.309246,24.854563],[121.320388,24.853145],[121.321607,24.853462],[121.33022,24.853843],[121.331202,24.854139],[121.332184,24.854633],[121.338305,24.860291],[121.342243,24.864559],[121.3441,24.866047],[121.345285,24.866792],[121.345054,24.866952]]]},"properties":{"code":"68000030007","name":"美華里","countyCode":"68000","countyName":"桃園市","townCode":"68000030","townName":"大溪區","level":"village","unassigned":false,"note":"","label":[121.31360965380273,24.868084055127774],"bounds":[121.289888,24.853145,121.345285,24.893363],"focusBounds":[121.289888,24.853145,121.345285,24.893363],"color":"#98b69b"}},{"type":"Feature","id":"68000030008","geometry":{"type":"Polygon","coordinates":[[[121.289888,24.861177],[121.289729,24.861204],[121.289405,24.860742],[121.288612,24.860249],[121.286404,24.859454],[121.285889,24.859731],[121.285758,24.859444],[121.285429,24.858998],[121.284377,24.856531],[121.284812,24.855738],[121.285431,24.853721],[121.285257,24.853031],[121.285173,24.850433],[121.284296,24.850182],[121.283735,24.849729],[121.283343,24.846877],[121.282635,24.846684],[121.282004,24.845579],[121.280372,24.843767],[121.279951,24.843014],[121.279792,24.842502],[121.279744,24.840669],[121.279912,24.839392],[121.279733,24.839399],[121.278424,24.838507],[121.278239,24.838155],[121.278427,24.837133],[121.277644,24.836663],[121.275189,24.836214],[121.274816,24.835447],[121.274592,24.835912],[121.274762,24.83705],[121.274538,24.837255],[121.273444,24.83379],[121.273325,24.831202],[121.273775,24.829339],[121.274565,24.82799],[121.275584,24.827058],[121.277964,24.826122],[121.283402,24.825195],[121.284153,24.825726],[121.285894,24.826368],[121.291145,24.827724],[121.29832,24.832082],[121.302383,24.834259],[121.304248,24.835408],[121.305448,24.836498],[121.306383,24.83765],[121.307005,24.838964],[121.309333,24.84711],[121.310692,24.849572],[121.312879,24.850897],[121.314843,24.851687],[121.320388,24.853145],[121.309246,24.854563],[121.307967,24.854924],[121.30646,24.855745],[121.305315,24.856187],[121.304237,24.856431],[121.30118,24.856611],[121.299312,24.856468],[121.297936,24.856829],[121.296529,24.857261],[121.298019,24.859685],[121.297362,24.860047],[121.295985,24.860257],[121.29561,24.859175],[121.294592,24.859298],[121.294706,24.859461],[121.293881,24.859957],[121.29327,24.859179],[121.289888,24.861177]]]},"properties":{"code":"68000030008","name":"福安里","countyCode":"68000","countyName":"桃園市","townCode":"68000030","townName":"大溪區","level":"village","unassigned":false,"note":"","label":[121.29329038274379,24.841976929075688],"bounds":[121.273325,24.825195,121.320388,24.861204],"focusBounds":[121.273325,24.825195,121.320388,24.861204],"color":"#58b99d"}},{"type":"Feature","id":"68000030009","geometry":{"type":"Polygon","coordinates":[[[121.321058,24.822029],[121.313701,24.831199],[121.311746,24.834187],[121.309243,24.835985],[121.307005,24.838964],[121.306383,24.83765],[121.305448,24.836498],[121.304248,24.835408],[121.302383,24.834259],[121.29832,24.832082],[121.291145,24.827724],[121.285894,24.826368],[121.284153,24.825726],[121.283402,24.825195],[121.28241,24.824495],[121.280861,24.823791],[121.263705,24.817762],[121.249258,24.812139],[121.243998,24.808979],[121.248016,24.809719],[121.249723,24.809863],[121.25229,24.810674],[121.2532,24.81067],[121.254029,24.809956],[121.255428,24.807467],[121.256405,24.806369],[121.257298,24.805938],[121.2588,24.805836],[121.26052,24.805038],[121.262893,24.805099],[121.264023,24.805424],[121.264583,24.805767],[121.265542,24.806797],[121.265871,24.80757],[121.265865,24.809125],[121.264878,24.811828],[121.26464,24.813001],[121.264663,24.813715],[121.265162,24.814147],[121.266219,24.814514],[121.268606,24.81493],[121.274904,24.815141],[121.2756,24.815305],[121.277627,24.816335],[121.278958,24.816717],[121.280087,24.816638],[121.28325,24.815753],[121.28476,24.816191],[121.286033,24.816249],[121.286697,24.81593],[121.288682,24.814042],[121.292016,24.812147],[121.295214,24.809723],[121.297041,24.809211],[121.29909,24.808325],[121.300737,24.808088],[121.302073,24.808268],[121.302868,24.808581],[121.303413,24.808875],[121.304672,24.809996],[121.305754,24.809821],[121.307804,24.808668],[121.31195,24.805487],[121.315328,24.803725],[121.316198,24.803429],[121.316387,24.803478],[121.317529,24.804693],[121.319949,24.806786],[121.321863,24.808106],[121.322036,24.808411],[121.321909,24.809331],[121.322136,24.810769],[121.321694,24.813562],[121.321123,24.814441],[121.319961,24.817565],[121.318994,24.818449],[121.319172,24.818793],[121.319511,24.818976],[121.319657,24.81939],[121.320008,24.819498],[121.321184,24.820381],[121.320725,24.821261],[121.321058,24.822029]]]},"properties":{"code":"68000030009","name":"復興里","countyCode":"68000","countyName":"桃園市","townCode":"68000030","townName":"大溪區","level":"village","unassigned":false,"note":"","label":[121.30201961585658,24.821162369692836],"bounds":[121.243998,24.803429,121.322136,24.838964],"focusBounds":[121.243998,24.803429,121.322136,24.838964],"color":"#efb44f"}},{"type":"Feature","id":"68000030010","geometry":{"type":"Polygon","coordinates":[[[121.307005,24.838964],[121.309243,24.835985],[121.311746,24.834187],[121.313701,24.831199],[121.321058,24.822029],[121.321311,24.822158],[121.321794,24.822128],[121.322652,24.821539],[121.323902,24.821523],[121.324152,24.820491],[121.324582,24.820165],[121.325077,24.820172],[121.325396,24.820533],[121.325473,24.821204],[121.325734,24.821751],[121.327564,24.822153],[121.328074,24.822454],[121.32753,24.82302],[121.327569,24.823667],[121.327258,24.824376],[121.327545,24.824887],[121.328193,24.825085],[121.329167,24.824504],[121.329259,24.825219],[121.330654,24.825478],[121.33136,24.825055],[121.33172,24.825039],[121.331746,24.825295],[121.331413,24.826003],[121.332499,24.826472],[121.332879,24.826995],[121.33363,24.827449],[121.333561,24.827654],[121.33321,24.827696],[121.331272,24.827597],[121.330423,24.827939],[121.330409,24.828148],[121.330804,24.828696],[121.330922,24.830346],[121.330675,24.830776],[121.331365,24.831232],[121.330476,24.832695],[121.330386,24.833986],[121.330731,24.834544],[121.330772,24.835249],[121.331525,24.835997],[121.332196,24.837847],[121.332385,24.83902],[121.331988,24.840045],[121.332161,24.840614],[121.331891,24.841566],[121.332956,24.841339],[121.33315,24.841457],[121.333143,24.842641],[121.332839,24.843022],[121.332824,24.843828],[121.33304,24.844359],[121.334318,24.844881],[121.335847,24.844932],[121.336054,24.845509],[121.336208,24.847004],[121.336911,24.848136],[121.337272,24.84841],[121.338059,24.848402],[121.3386,24.848771],[121.338856,24.848746],[121.33888,24.848544],[121.339086,24.848505],[121.340186,24.848728],[121.34042,24.848972],[121.341831,24.848578],[121.342949,24.848771],[121.344242,24.849447],[121.345512,24.849738],[121.346212,24.850114],[121.346957,24.850183],[121.347639,24.849934],[121.347627,24.850761],[121.347863,24.850945],[121.348281,24.850736],[121.348335,24.850361],[121.348113,24.849772],[121.348521,24.848564],[121.348723,24.848353],[121.349062,24.848371],[121.349917,24.848788],[121.350379,24.848768],[121.350335,24.849009],[121.349799,24.849412],[121.349858,24.849648],[121.351628,24.849171],[121.352735,24.849119],[121.352882,24.849189],[121.352885,24.84942],[121.351843,24.850054],[121.351864,24.850605],[121.352082,24.850674],[121.352733,24.850268],[121.353345,24.85059],[121.353627,24.851713],[121.354331,24.852308],[121.354735,24.853306],[121.355384,24.853577],[121.355975,24.853382],[121.356656,24.8536],[121.356938,24.853176],[121.357268,24.853093],[121.357881,24.853148],[121.358127,24.853374],[121.358147,24.853854],[121.357838,24.854454],[121.356479,24.854553],[121.355572,24.855056],[121.355676,24.855298],[121.355575,24.855494],[121.355025,24.855747],[121.354117,24.856841],[121.353744,24.85825],[121.353372,24.858698],[121.351437,24.859363],[121.350687,24.859276],[121.349488,24.859692],[121.348354,24.86073],[121.348211,24.86141],[121.347341,24.862072],[121.347364,24.862977],[121.346822,24.863524],[121.346343,24.865597],[121.345285,24.866792],[121.3441,24.866047],[121.342243,24.864559],[121.338305,24.860291],[121.332184,24.854633],[121.331202,24.854139],[121.33022,24.853843],[121.321607,24.853462],[121.320388,24.853145],[121.314843,24.851687],[121.312879,24.850897],[121.310692,24.849572],[121.309333,24.84711],[121.307005,24.838964]]]},"properties":{"code":"68000030010","name":"新峰里","countyCode":"68000","countyName":"桃園市","townCode":"68000030","townName":"大溪區","level":"village","unassigned":false,"note":"","label":[121.32163446792636,24.84243431923345],"bounds":[121.307005,24.820165,121.358147,24.866792],"focusBounds":[121.307005,24.820165,121.358147,24.866792],"color":"#78a7e3"}},{"type":"Feature","id":"68000030011","geometry":{"type":"Polygon","coordinates":[[[121.264888,24.857187],[121.265561,24.856094],[121.267541,24.851523],[121.267815,24.849888],[121.26772,24.848937],[121.267374,24.848405],[121.267953,24.848172],[121.270565,24.847795],[121.27283,24.848058],[121.273865,24.84832],[121.274266,24.848573],[121.275291,24.849524],[121.274988,24.852602],[121.27525,24.853141],[121.27891,24.855595],[121.279048,24.856661],[121.279292,24.856878],[121.28046,24.857176],[121.281142,24.856923],[121.281458,24.856546],[121.282155,24.857417],[121.282613,24.857551],[121.282794,24.858629],[121.283337,24.859265],[121.283313,24.859807],[121.283491,24.860292],[121.283321,24.861081],[121.283244,24.861541],[121.282526,24.862581],[121.282575,24.863765],[121.282354,24.864585],[121.282643,24.86484],[121.282632,24.865034],[121.282451,24.865571],[121.282079,24.865842],[121.28192,24.866191],[121.282083,24.866537],[121.282577,24.866642],[121.282935,24.867123],[121.282629,24.867462],[121.282865,24.86782],[121.282746,24.868512],[121.282924,24.868928],[121.282626,24.869297],[121.282586,24.869874],[121.282772,24.869874],[121.282844,24.870214],[121.282455,24.870719],[121.281644,24.871128],[121.281654,24.872248],[121.281469,24.872794],[121.27814,24.875035],[121.277417,24.874091],[121.276636,24.872528],[121.275739,24.871654],[121.272095,24.869059],[121.270172,24.868795],[121.269307,24.868328],[121.268947,24.867925],[121.268732,24.867372],[121.268152,24.866469],[121.267927,24.866445],[121.267486,24.865591],[121.26754,24.864421],[121.267371,24.863988],[121.266866,24.863701],[121.266312,24.862719],[121.266102,24.861489],[121.265686,24.860971],[121.265001,24.858941],[121.265242,24.858197],[121.26498,24.857987],[121.264888,24.857187]]]},"properties":{"code":"68000030011","name":"康安里","countyCode":"68000","countyName":"桃園市","townCode":"68000030","townName":"大溪區","level":"village","unassigned":false,"note":"","label":[121.27409902844006,24.86160295534959],"bounds":[121.264888,24.847795,121.283491,24.875035],"focusBounds":[121.264888,24.847795,121.283491,24.875035],"color":"#dd8590"}},{"type":"Feature","id":"68000030012","geometry":{"type":"Polygon","coordinates":[[[121.285758,24.859444],[121.283321,24.861081],[121.283491,24.860292],[121.283313,24.859807],[121.283337,24.859265],[121.282794,24.858629],[121.282613,24.857551],[121.282155,24.857417],[121.281458,24.856546],[121.281142,24.856923],[121.28046,24.857176],[121.279292,24.856878],[121.279048,24.856661],[121.27891,24.855595],[121.27525,24.853141],[121.274988,24.852602],[121.275291,24.849524],[121.274266,24.848573],[121.273865,24.84832],[121.27283,24.848058],[121.270565,24.847795],[121.267953,24.848172],[121.267374,24.848405],[121.266088,24.847131],[121.264502,24.844509],[121.263641,24.843357],[121.262061,24.841688],[121.261131,24.840336],[121.260441,24.838983],[121.259864,24.836785],[121.259282,24.83602],[121.256696,24.833407],[121.255421,24.831434],[121.25453,24.829432],[121.25385,24.825678],[121.25326,24.824002],[121.251677,24.82239],[121.249097,24.820805],[121.248203,24.819958],[121.246398,24.817563],[121.245321,24.815754],[121.243893,24.814074],[121.243791,24.81304],[121.243516,24.812248],[121.243093,24.808704],[121.243176,24.808728],[121.243998,24.808979],[121.249258,24.812139],[121.263705,24.817762],[121.280861,24.823791],[121.28241,24.824495],[121.283402,24.825195],[121.277964,24.826122],[121.275584,24.827058],[121.274565,24.82799],[121.273775,24.829339],[121.273325,24.831202],[121.273444,24.83379],[121.274538,24.837255],[121.274762,24.83705],[121.274592,24.835912],[121.274816,24.835447],[121.275189,24.836214],[121.277644,24.836663],[121.278427,24.837133],[121.278239,24.838155],[121.278424,24.838507],[121.279733,24.839399],[121.279912,24.839392],[121.279744,24.840669],[121.279792,24.842502],[121.279951,24.843014],[121.280372,24.843767],[121.282004,24.845579],[121.282635,24.846684],[121.283343,24.846877],[121.283735,24.849729],[121.284296,24.850182],[121.285173,24.850433],[121.285257,24.853031],[121.285431,24.853721],[121.284812,24.855738],[121.284377,24.856531],[121.285429,24.858998],[121.285758,24.859444]]]},"properties":{"code":"68000030012","name":"義和里","countyCode":"68000","countyName":"桃園市","townCode":"68000030","townName":"大溪區","level":"village","unassigned":false,"note":"","label":[121.26450368014649,24.828374203069334],"bounds":[121.243093,24.808704,121.285758,24.861081],"focusBounds":[121.243093,24.808704,121.285758,24.861081],"color":"#a49ad4"}},{"type":"Feature","id":"68000030013","geometry":{"type":"Polygon","coordinates":[[[121.272762,24.879792],[121.273618,24.879198],[121.263578,24.869948],[121.265253,24.869421],[121.265667,24.869162],[121.266659,24.869071],[121.266756,24.869018],[121.26638,24.868496],[121.266393,24.868215],[121.268732,24.867372],[121.268947,24.867925],[121.269307,24.868328],[121.270172,24.868795],[121.272095,24.869059],[121.275739,24.871654],[121.276636,24.872528],[121.277417,24.874091],[121.27814,24.875035],[121.280274,24.87808],[121.282397,24.881692],[121.28364,24.883805],[121.284483,24.884722],[121.285019,24.885892],[121.28501,24.886165],[121.285819,24.887759],[121.286227,24.888573],[121.28738,24.889596],[121.290601,24.893404],[121.294305,24.896769],[121.296541,24.897959],[121.299625,24.899287],[121.300551,24.900057],[121.300787,24.90118],[121.300713,24.902165],[121.299869,24.903922],[121.301182,24.905396],[121.302022,24.905933],[121.31267,24.922079],[121.311925,24.923323],[121.312709,24.923757],[121.313122,24.923325],[121.315424,24.925165],[121.313675,24.927437],[121.313393,24.927046],[121.312665,24.927518],[121.312179,24.927253],[121.310506,24.92817],[121.309398,24.928966],[121.30902,24.929036],[121.308875,24.929177],[121.309179,24.929257],[121.309071,24.929433],[121.308867,24.929534],[121.308325,24.929335],[121.307198,24.931214],[121.304227,24.92848],[121.301737,24.926305],[121.299079,24.924561],[121.298243,24.924176],[121.297165,24.925038],[121.29649,24.924049],[121.296623,24.923932],[121.298075,24.92285],[121.29755,24.921986],[121.296954,24.921429],[121.296581,24.920081],[121.295247,24.917622],[121.294268,24.916031],[121.293104,24.91512],[121.292012,24.913702],[121.290855,24.910402],[121.289618,24.909522],[121.289577,24.909066],[121.288846,24.908521],[121.287725,24.907156],[121.287802,24.904142],[121.288352,24.903315],[121.288356,24.901519],[121.287266,24.898474],[121.285583,24.895105],[121.28452,24.89473],[121.283261,24.894595],[121.281398,24.89402],[121.281515,24.894891],[121.282084,24.896267],[121.281496,24.896343],[121.280563,24.896435],[121.279779,24.895603],[121.279008,24.896144],[121.277002,24.893956],[121.276685,24.89409],[121.2761,24.893846],[121.27433,24.892185],[121.273771,24.891121],[121.273139,24.890319],[121.272866,24.889764],[121.272478,24.88939],[121.274707,24.889151],[121.276525,24.890127],[121.275922,24.889033],[121.275132,24.888375],[121.275721,24.887321],[121.274075,24.885024],[121.274258,24.883339],[121.275057,24.882363],[121.272762,24.879792]]]},"properties":{"code":"68000030013","name":"瑞興里","countyCode":"68000","countyName":"桃園市","townCode":"68000030","townName":"大溪區","level":"village","unassigned":false,"note":"","label":[121.29380151304537,24.90481044289507],"bounds":[121.263578,24.867372,121.315424,24.931214],"focusBounds":[121.263578,24.867372,121.315424,24.931214],"color":"#a8bf62"}},{"type":"Feature","id":"68000030014","geometry":{"type":"Polygon","coordinates":[[[121.327375,24.929026],[121.32471,24.928678],[121.322058,24.92804],[121.322503,24.929414],[121.323159,24.930687],[121.32322,24.931279],[121.321926,24.932329],[121.321694,24.932288],[121.321513,24.932015],[121.321226,24.932064],[121.320792,24.932789],[121.320841,24.933389],[121.320708,24.933669],[121.320272,24.933687],[121.320156,24.933539],[121.320062,24.93398],[121.319834,24.93419],[121.31815,24.934794],[121.315781,24.938473],[121.313056,24.936246],[121.307198,24.931214],[121.308325,24.929335],[121.308867,24.929534],[121.309071,24.929433],[121.309179,24.929257],[121.308875,24.929177],[121.30902,24.929036],[121.309398,24.928966],[121.310506,24.92817],[121.312179,24.927253],[121.312665,24.927518],[121.313393,24.927046],[121.313675,24.927437],[121.315424,24.925165],[121.313122,24.923325],[121.312709,24.923757],[121.311925,24.923323],[121.31267,24.922079],[121.302022,24.905933],[121.305229,24.907879],[121.312882,24.910023],[121.314828,24.910566],[121.315677,24.911266],[121.316469,24.912494],[121.317602,24.916345],[121.320317,24.918826],[121.321382,24.920337],[121.324755,24.923433],[121.326202,24.92397],[121.327367,24.924617],[121.327959,24.924741],[121.330268,24.924996],[121.334247,24.924724],[121.33518,24.92492],[121.33627,24.925533],[121.338225,24.926946],[121.339782,24.928499],[121.337567,24.928598],[121.335847,24.928995],[121.334774,24.929553],[121.333675,24.929823],[121.330985,24.929598],[121.327375,24.929026]]]},"properties":{"code":"68000030014","name":"中新里","countyCode":"68000","countyName":"桃園市","townCode":"68000030","townName":"大溪區","level":"village","unassigned":false,"note":"","label":[121.31964586658356,24.92451873423892],"bounds":[121.302022,24.905933,121.339782,24.938473],"focusBounds":[121.302022,24.905933,121.339782,24.938473],"color":"#68bec9"}},{"type":"Feature","id":"68000030015","geometry":{"type":"Polygon","coordinates":[[[121.294203,24.924352],[121.294421,24.924572],[121.294265,24.924656],[121.29404,24.924529],[121.293939,24.924654],[121.292743,24.924481],[121.289862,24.923017],[121.289784,24.922791],[121.290027,24.92215],[121.292428,24.919641],[121.295247,24.917622],[121.296581,24.920081],[121.296954,24.921429],[121.29755,24.921986],[121.298075,24.92285],[121.296623,24.923932],[121.296298,24.923615],[121.296227,24.923268],[121.295682,24.923601],[121.295274,24.922884],[121.293346,24.920672],[121.291874,24.921934],[121.294203,24.924352]]]},"properties":{"code":"68000030015","name":"仁義里","countyCode":"68000","countyName":"桃園市","townCode":"68000030","townName":"大溪區","level":"village","unassigned":false,"note":"","label":[121.29469330352013,24.919930028783874],"bounds":[121.289784,24.917622,121.298075,24.924656],"focusBounds":[121.289784,24.917622,121.298075,24.924656],"color":"#df9f6a"}},{"type":"Feature","id":"68000030016","geometry":{"type":"Polygon","coordinates":[[[121.294203,24.924352],[121.291874,24.921934],[121.293346,24.920672],[121.295274,24.922884],[121.295682,24.923601],[121.295736,24.923736],[121.295406,24.923919],[121.294905,24.924113],[121.294798,24.923897],[121.294203,24.924352]]]},"properties":{"code":"68000030016","name":"僑愛里","countyCode":"68000","countyName":"桃園市","townCode":"68000030","townName":"大溪區","level":"village","unassigned":false,"note":"","label":[121.29381560782943,24.92258021209522],"bounds":[121.291874,24.920672,121.295736,24.924352],"focusBounds":[121.291874,24.920672,121.295736,24.924352],"color":"#c38cb8"}},{"type":"Feature","id":"68000030017","geometry":{"type":"Polygon","coordinates":[[[121.281092,24.921133],[121.278012,24.9201],[121.277324,24.920381],[121.276501,24.920456],[121.276845,24.921069],[121.277448,24.921486],[121.277315,24.9227],[121.276806,24.923076],[121.276841,24.924042],[121.276481,24.924189],[121.275759,24.925622],[121.275562,24.925663],[121.275276,24.926157],[121.274311,24.925123],[121.27373,24.923453],[121.27323,24.922807],[121.272052,24.922454],[121.271504,24.921722],[121.271714,24.920814],[121.272034,24.920265],[121.271954,24.919329],[121.271655,24.918869],[121.27208,24.917283],[121.2713,24.916995],[121.270957,24.916671],[121.2709,24.916138],[121.270307,24.91521],[121.270396,24.91476],[121.270243,24.914471],[121.270525,24.914061],[121.270933,24.913844],[121.271065,24.913883],[121.271228,24.914542],[121.272425,24.914564],[121.272969,24.912219],[121.274,24.909572],[121.274016,24.908755],[121.274641,24.906476],[121.275433,24.90544],[121.275822,24.905375],[121.277337,24.90616],[121.279295,24.90682],[121.281544,24.905658],[121.283341,24.907871],[121.283859,24.909039],[121.284144,24.909733],[121.285049,24.914557],[121.284261,24.914676],[121.285752,24.915775],[121.285458,24.917008],[121.287353,24.917182],[121.287717,24.916956],[121.287948,24.917126],[121.288463,24.917114],[121.290666,24.917753],[121.291261,24.918026],[121.292428,24.919641],[121.290027,24.92215],[121.289784,24.922791],[121.289862,24.923017],[121.288231,24.922196],[121.28519,24.920983],[121.283587,24.920255],[121.282696,24.920192],[121.281878,24.921006],[121.281092,24.921133]]]},"properties":{"code":"68000030017","name":"仁善里","countyCode":"68000","countyName":"桃園市","townCode":"68000030","townName":"大溪區","level":"village","unassigned":false,"note":"","label":[121.27843993770482,24.914395742177852],"bounds":[121.270243,24.905375,121.292428,24.926157],"focusBounds":[121.270243,24.905375,121.292428,24.926157],"color":"#98b69b"}},{"type":"Feature","id":"68000030018","geometry":{"type":"Polygon","coordinates":[[[121.270933,24.913844],[121.270788,24.913413],[121.271008,24.912776],[121.270893,24.912614],[121.271257,24.912409],[121.271593,24.912493],[121.271753,24.911835],[121.271374,24.911879],[121.27123,24.911737],[121.271207,24.911053],[121.271889,24.909976],[121.27162,24.909529],[121.271358,24.908126],[121.270723,24.907574],[121.270556,24.907177],[121.270532,24.906671],[121.271105,24.90556],[121.271017,24.904504],[121.270662,24.90379],[121.270701,24.903289],[121.270364,24.902791],[121.271864,24.902595],[121.275243,24.901546],[121.275659,24.901306],[121.276687,24.899739],[121.277484,24.898849],[121.278701,24.898846],[121.280738,24.899922],[121.281615,24.89987],[121.281783,24.900044],[121.280146,24.901868],[121.28082,24.903765],[121.282749,24.903339],[121.283363,24.904869],[121.281544,24.905658],[121.279295,24.90682],[121.277337,24.90616],[121.275822,24.905375],[121.275433,24.90544],[121.274641,24.906476],[121.274016,24.908755],[121.274,24.909572],[121.272969,24.912219],[121.272425,24.914564],[121.271228,24.914542],[121.271065,24.913883],[121.270933,24.913844]]]},"properties":{"code":"68000030018","name":"仁愛里","countyCode":"68000","countyName":"桃園市","townCode":"68000030","townName":"大溪區","level":"village","unassigned":false,"note":"","label":[121.27754633369477,24.903130344864437],"bounds":[121.270364,24.898846,121.283363,24.914564],"focusBounds":[121.270364,24.898846,121.283363,24.914564],"color":"#58b99d"}},{"type":"Feature","id":"68000030019","geometry":{"type":"Polygon","coordinates":[[[121.283859,24.909039],[121.283341,24.907871],[121.281544,24.905658],[121.283363,24.904869],[121.282749,24.903339],[121.28082,24.903765],[121.280146,24.901868],[121.281783,24.900044],[121.281615,24.89987],[121.280738,24.899922],[121.278701,24.898846],[121.277484,24.898849],[121.279023,24.897142],[121.279833,24.898158],[121.280167,24.898354],[121.281791,24.898649],[121.284589,24.898546],[121.284,24.899599],[121.283814,24.900972],[121.283924,24.901653],[121.284365,24.903418],[121.285542,24.906408],[121.2866,24.907865],[121.283859,24.909039]]]},"properties":{"code":"68000030019","name":"仁武里","countyCode":"68000","countyName":"桃園市","townCode":"68000030","townName":"大溪區","level":"village","unassigned":false,"note":"","label":[121.28228051239243,24.901865576437803],"bounds":[121.277484,24.897142,121.2866,24.909039],"focusBounds":[121.277484,24.897142,121.2866,24.909039],"color":"#efb44f"}},{"type":"Feature","id":"68000030020","geometry":{"type":"Polygon","coordinates":[[[121.266286,24.89099],[121.264967,24.891572],[121.265874,24.887195],[121.265001,24.886751],[121.263784,24.886721],[121.263996,24.88597],[121.264455,24.885885],[121.264303,24.884862],[121.264608,24.884492],[121.263786,24.883545],[121.264701,24.883239],[121.264757,24.882976],[121.265712,24.882244],[121.268233,24.88426],[121.269836,24.88548],[121.270227,24.886924],[121.270003,24.888514],[121.270135,24.889303],[121.27042,24.889732],[121.272513,24.891139],[121.272249,24.892424],[121.269599,24.891985],[121.26839,24.890051],[121.266286,24.89099]]]},"properties":{"code":"68000030020","name":"員林里","countyCode":"68000","countyName":"桃園市","townCode":"68000030","townName":"大溪區","level":"village","unassigned":false,"note":"","label":[121.2679670597913,24.887540563721007],"bounds":[121.263784,24.882244,121.272513,24.892424],"focusBounds":[121.263784,24.882244,121.272513,24.892424],"color":"#78a7e3"}},{"type":"Feature","id":"68000030021","geometry":{"type":"Polygon","coordinates":[[[121.275276,24.926157],[121.27615,24.927957],[121.275115,24.928171],[121.274552,24.927713],[121.273492,24.927431],[121.273675,24.928428],[121.273585,24.929482],[121.273535,24.929451],[121.272567,24.927996],[121.27159,24.927237],[121.270852,24.92627],[121.270236,24.925965],[121.269831,24.924569],[121.268368,24.923928],[121.268215,24.923457],[121.268317,24.922806],[121.268082,24.92238],[121.26806,24.921801],[121.267084,24.92106],[121.26578,24.920587],[121.265688,24.919783],[121.26409,24.919053],[121.262946,24.917564],[121.262482,24.917275],[121.260933,24.916971],[121.258891,24.91664],[121.257716,24.916597],[121.256614,24.916018],[121.256593,24.915633],[121.257144,24.914828],[121.256931,24.913695],[121.254153,24.911128],[121.253989,24.910827],[121.253923,24.909997],[121.253088,24.90888],[121.252984,24.908495],[121.253353,24.907051],[121.253155,24.906145],[121.253243,24.905793],[121.253123,24.905482],[121.252756,24.905209],[121.252523,24.903403],[121.252824,24.902158],[121.252749,24.90162],[121.252475,24.901128],[121.252619,24.900299],[121.252378,24.898938],[121.252448,24.898339],[121.252288,24.897965],[121.250696,24.896147],[121.249563,24.892845],[121.249263,24.886016],[121.250008,24.886066],[121.250423,24.886765],[121.250704,24.886968],[121.252983,24.887477],[121.25443,24.887401],[121.255539,24.886949],[121.257076,24.886069],[121.260467,24.885429],[121.261168,24.885044],[121.261794,24.8844],[121.26305,24.883734],[121.263786,24.883545],[121.264608,24.884492],[121.264303,24.884862],[121.264455,24.885885],[121.263996,24.88597],[121.263784,24.886721],[121.265001,24.886751],[121.265874,24.887195],[121.264967,24.891572],[121.266286,24.89099],[121.266524,24.891693],[121.266002,24.892236],[121.266252,24.892464],[121.266274,24.893856],[121.266908,24.895456],[121.267823,24.895272],[121.268343,24.895892],[121.268669,24.895986],[121.269057,24.89725],[121.270137,24.897986],[121.270418,24.898885],[121.270222,24.899522],[121.269592,24.900378],[121.271864,24.902595],[121.270364,24.902791],[121.270701,24.903289],[121.270662,24.90379],[121.271017,24.904504],[121.271105,24.90556],[121.270532,24.906671],[121.270556,24.907177],[121.270723,24.907574],[121.271358,24.908126],[121.27162,24.909529],[121.271889,24.909976],[121.271207,24.911053],[121.27123,24.911737],[121.271374,24.911879],[121.271753,24.911835],[121.271593,24.912493],[121.271257,24.912409],[121.270893,24.912614],[121.271008,24.912776],[121.270788,24.913413],[121.270933,24.913844],[121.270525,24.914061],[121.270243,24.914471],[121.270396,24.91476],[121.270307,24.91521],[121.2709,24.916138],[121.270957,24.916671],[121.2713,24.916995],[121.27208,24.917283],[121.271655,24.918869],[121.271954,24.919329],[121.272034,24.920265],[121.271714,24.920814],[121.271504,24.921722],[121.272052,24.922454],[121.27323,24.922807],[121.27373,24.923453],[121.274311,24.925123],[121.275276,24.926157]]]},"properties":{"code":"68000030021","name":"南興里","countyCode":"68000","countyName":"桃園市","townCode":"68000030","townName":"大溪區","level":"village","unassigned":false,"note":"","label":[121.26167326455334,24.903875509781816],"bounds":[121.249263,24.883545,121.27615,24.929482],"focusBounds":[121.249263,24.883545,121.27615,24.929482],"color":"#dd8590"}},{"type":"Feature","id":"68000030022","geometry":{"type":"Polygon","coordinates":[[[121.246133,24.859706],[121.247601,24.858692],[121.247877,24.858352],[121.248699,24.858834],[121.249274,24.859666],[121.24958,24.859691],[121.249994,24.859377],[121.250252,24.859416],[121.251573,24.860558],[121.252579,24.86013],[121.254307,24.861686],[121.255074,24.862932],[121.257411,24.863744],[121.257822,24.864287],[121.258795,24.8647],[121.26105,24.860264],[121.261459,24.860021],[121.261516,24.859749],[121.261295,24.859011],[121.262093,24.858678],[121.262419,24.858179],[121.262658,24.85814],[121.263242,24.85865],[121.264268,24.859016],[121.264888,24.857187],[121.26498,24.857987],[121.265242,24.858197],[121.265001,24.858941],[121.265686,24.860971],[121.266102,24.861489],[121.266312,24.862719],[121.266866,24.863701],[121.267371,24.863988],[121.26754,24.864421],[121.267486,24.865591],[121.267927,24.866445],[121.268152,24.866469],[121.268732,24.867372],[121.266393,24.868215],[121.26638,24.868496],[121.266756,24.869018],[121.266659,24.869071],[121.265667,24.869162],[121.265253,24.869421],[121.263578,24.869948],[121.273618,24.879198],[121.272762,24.879792],[121.269361,24.876564],[121.264927,24.880226],[121.265712,24.882244],[121.264757,24.882976],[121.264701,24.883239],[121.263786,24.883545],[121.26305,24.883734],[121.261794,24.8844],[121.261168,24.885044],[121.260467,24.885429],[121.257076,24.886069],[121.255539,24.886949],[121.25443,24.887401],[121.252983,24.887477],[121.250704,24.886968],[121.250423,24.886765],[121.250811,24.885896],[121.250839,24.885024],[121.250174,24.883793],[121.250964,24.883423],[121.250838,24.882217],[121.250052,24.879125],[121.249962,24.877644],[121.248817,24.875161],[121.248999,24.874957],[121.249058,24.873597],[121.248947,24.872104],[121.24864,24.871395],[121.249021,24.870836],[121.248865,24.869106],[121.247483,24.865858],[121.246415,24.862516],[121.246402,24.860964],[121.245737,24.860008],[121.246133,24.859706]]]},"properties":{"code":"68000030022","name":"瑞源里","countyCode":"68000","countyName":"桃園市","townCode":"68000030","townName":"大溪區","level":"village","unassigned":false,"note":"","label":[121.25675988388373,24.873616431676375],"bounds":[121.245737,24.857187,121.273618,24.887477],"focusBounds":[121.245737,24.857187,121.273618,24.887477],"color":"#a49ad4"}},{"type":"Feature","id":"68000030023","geometry":{"type":"Polygon","coordinates":[[[121.272513,24.891139],[121.27042,24.889732],[121.270135,24.889303],[121.270003,24.888514],[121.270227,24.886924],[121.269836,24.88548],[121.268233,24.88426],[121.274258,24.883339],[121.274075,24.885024],[121.275721,24.887321],[121.275132,24.888375],[121.275922,24.889033],[121.276525,24.890127],[121.274707,24.889151],[121.272478,24.88939],[121.272866,24.889764],[121.273139,24.890319],[121.272852,24.89056],[121.273033,24.891081],[121.272787,24.891316],[121.272513,24.891139]]]},"properties":{"code":"68000030023","name":"光明里","countyCode":"68000","countyName":"桃園市","townCode":"68000030","townName":"大溪區","level":"village","unassigned":false,"note":"","label":[121.27246908755964,24.886984141329417],"bounds":[121.268233,24.883339,121.276525,24.891316],"focusBounds":[121.268233,24.883339,121.276525,24.891316],"color":"#68bec9"}},{"type":"Feature","id":"68000030024","geometry":{"type":"Polygon","coordinates":[[[121.274258,24.883339],[121.268233,24.88426],[121.265712,24.882244],[121.264927,24.880226],[121.269361,24.876564],[121.272762,24.879792],[121.275057,24.882363],[121.274258,24.883339]]]},"properties":{"code":"68000030024","name":"三元里","countyCode":"68000","countyName":"桃園市","townCode":"68000030","townName":"大溪區","level":"village","unassigned":false,"note":"","label":[121.26920094589089,24.88086454426291],"bounds":[121.264927,24.876564,121.275057,24.88426],"focusBounds":[121.264927,24.876564,121.275057,24.88426],"color":"#df9f6a"}},{"type":"Feature","id":"68000030025","geometry":{"type":"Polygon","coordinates":[[[121.3005,24.888433],[121.298808,24.888366],[121.298795,24.888554],[121.297783,24.888448],[121.296985,24.888948],[121.2965,24.888627],[121.296071,24.887735],[121.296415,24.887301],[121.294869,24.88613],[121.294265,24.88585],[121.294212,24.886029],[121.2915,24.885373],[121.290984,24.88513],[121.289772,24.885176],[121.289235,24.884688],[121.28935,24.884478],[121.289212,24.883634],[121.295358,24.87974],[121.295892,24.880359],[121.296893,24.880897],[121.297312,24.880718],[121.298143,24.8809],[121.298649,24.882175],[121.298649,24.883031],[121.299548,24.883322],[121.300225,24.883199],[121.299988,24.884197],[121.300996,24.88561],[121.300844,24.887493],[121.3005,24.888433]]]},"properties":{"code":"68000030025","name":"田心里","countyCode":"68000","countyName":"桃園市","townCode":"68000030","townName":"大溪區","level":"village","unassigned":false,"note":"","label":[121.29575291321729,24.883498634344548],"bounds":[121.289212,24.87974,121.300996,24.888948],"focusBounds":[121.289212,24.87974,121.300996,24.888948],"color":"#c38cb8"}},{"type":"Feature","id":"68000030026","geometry":{"type":"Polygon","coordinates":[[[121.281496,24.896343],[121.282084,24.896267],[121.281515,24.894891],[121.281398,24.89402],[121.283261,24.894595],[121.28452,24.89473],[121.285583,24.895105],[121.287266,24.898474],[121.288356,24.901519],[121.288352,24.903315],[121.287802,24.904142],[121.287725,24.907156],[121.288846,24.908521],[121.289577,24.909066],[121.289618,24.909522],[121.287849,24.908636],[121.287017,24.908448],[121.2866,24.907865],[121.285542,24.906408],[121.284365,24.903418],[121.283924,24.901653],[121.283814,24.900972],[121.284,24.899599],[121.284589,24.898546],[121.281791,24.898649],[121.281496,24.896343]]]},"properties":{"code":"68000030026","name":"仁文里","countyCode":"68000","countyName":"桃園市","townCode":"68000030","townName":"大溪區","level":"village","unassigned":false,"note":"","label":[121.28609428904446,24.901461667152184],"bounds":[121.281398,24.89402,121.289618,24.909522],"focusBounds":[121.281398,24.89402,121.289618,24.909522],"color":"#c38cb8"}},{"type":"Feature","id":"68000030027","geometry":{"type":"Polygon","coordinates":[[[121.266286,24.89099],[121.26839,24.890051],[121.269599,24.891985],[121.272249,24.892424],[121.272513,24.891139],[121.272787,24.891316],[121.273033,24.891081],[121.272852,24.89056],[121.273139,24.890319],[121.273771,24.891121],[121.27433,24.892185],[121.2761,24.893846],[121.276685,24.89409],[121.277002,24.893956],[121.279008,24.896144],[121.279779,24.895603],[121.280563,24.896435],[121.281496,24.896343],[121.281791,24.898649],[121.280167,24.898354],[121.279833,24.898158],[121.279023,24.897142],[121.277484,24.898849],[121.276687,24.899739],[121.275659,24.901306],[121.275243,24.901546],[121.271864,24.902595],[121.269592,24.900378],[121.270222,24.899522],[121.270418,24.898885],[121.270137,24.897986],[121.269057,24.89725],[121.268669,24.895986],[121.268343,24.895892],[121.267823,24.895272],[121.266908,24.895456],[121.266274,24.893856],[121.266252,24.892464],[121.266002,24.892236],[121.266524,24.891693],[121.266286,24.89099]]]},"properties":{"code":"68000030027","name":"仁和里","countyCode":"68000","countyName":"桃園市","townCode":"68000030","townName":"大溪區","level":"village","unassigned":false,"note":"","label":[121.27311070767637,24.895916559114657],"bounds":[121.266002,24.890051,121.281791,24.902595],"focusBounds":[121.266002,24.890051,121.281791,24.902595],"color":"#98b69b"}},{"type":"Feature","id":"68000030028","geometry":{"type":"Polygon","coordinates":[[[121.295247,24.917622],[121.292428,24.919641],[121.291261,24.918026],[121.290666,24.917753],[121.288463,24.917114],[121.287948,24.917126],[121.287717,24.916956],[121.287353,24.917182],[121.285458,24.917008],[121.285752,24.915775],[121.284261,24.914676],[121.285049,24.914557],[121.284144,24.909733],[121.283859,24.909039],[121.2866,24.907865],[121.287017,24.908448],[121.287849,24.908636],[121.289618,24.909522],[121.290855,24.910402],[121.292012,24.913702],[121.293104,24.91512],[121.294268,24.916031],[121.295247,24.917622]]]},"properties":{"code":"68000030028","name":"仁美里","countyCode":"68000","countyName":"桃園市","townCode":"68000030","townName":"大溪區","level":"village","unassigned":false,"note":"","label":[121.28833751273518,24.913516248517638],"bounds":[121.283859,24.907865,121.295247,24.919641],"focusBounds":[121.283859,24.907865,121.295247,24.919641],"color":"#58b99d"}}]}
