{"type":"FeatureCollection","features":[{"type":"Feature","id":"68000080001","geometry":{"type":"Polygon","coordinates":[[[121.284672,24.930854],[121.284193,24.93107],[121.283572,24.931006],[121.283288,24.930422],[121.282767,24.92908],[121.284459,24.929158],[121.284491,24.92661],[121.284768,24.924777],[121.287726,24.924976],[121.28746,24.928531],[121.289707,24.928649],[121.289492,24.929797],[121.288565,24.929604],[121.288389,24.930507],[121.288023,24.930401],[121.287915,24.930589],[121.286531,24.930632],[121.286374,24.930294],[121.284754,24.930159],[121.284827,24.930491],[121.284672,24.930854]]]},"properties":{"code":"68000080001","name":"興仁里","countyCode":"68000","countyName":"桃園市","townCode":"68000080","townName":"八德區","level":"village","unassigned":false,"note":"","label":[121.28606873764797,24.92819740345997],"bounds":[121.282767,24.924777,121.289707,24.93107],"focusBounds":[121.282767,24.924777,121.289707,24.93107],"color":"#98b69b"}},{"type":"Feature","id":"68000080002","geometry":{"type":"Polygon","coordinates":[[[121.284672,24.930854],[121.28526,24.93204],[121.286235,24.932861],[121.287614,24.93489],[121.284869,24.936104],[121.285242,24.938878],[121.285079,24.940106],[121.281119,24.938004],[121.281107,24.930973],[121.282019,24.930907],[121.283288,24.930422],[121.283572,24.931006],[121.284193,24.93107],[121.284672,24.930854]]]},"properties":{"code":"68000080002","name":"福興里","countyCode":"68000","countyName":"桃園市","townCode":"68000080","townName":"八德區","level":"village","unassigned":false,"note":"","label":[121.283591133071,24.93404665657113],"bounds":[121.281107,24.930422,121.287614,24.940106],"focusBounds":[121.281107,24.930422,121.287614,24.940106],"color":"#58b99d"}},{"type":"Feature","id":"68000080003","geometry":{"type":"Polygon","coordinates":[[[121.287726,24.924976],[121.293114,24.925308],[121.293078,24.925613],[121.293681,24.926543],[121.293471,24.926892],[121.293756,24.927095],[121.293563,24.927591],[121.293869,24.928878],[121.293724,24.929102],[121.293826,24.929612],[121.293701,24.929771],[121.294344,24.930761],[121.29429,24.93138],[121.29378,24.931312],[121.293801,24.932035],[121.293535,24.932306],[121.292721,24.933038],[121.291502,24.932628],[121.291615,24.932247],[121.289292,24.931869],[121.289492,24.929797],[121.289707,24.928649],[121.28746,24.928531],[121.287726,24.924976]]]},"properties":{"code":"68000080003","name":"瑞豐里","countyCode":"68000","countyName":"桃園市","townCode":"68000080","townName":"八德區","level":"village","unassigned":false,"note":"","label":[121.29171291699535,24.928567013903262],"bounds":[121.28746,24.924976,121.294344,24.933038],"focusBounds":[121.28746,24.924976,121.294344,24.933038],"color":"#efb44f"}},{"type":"Feature","id":"68000080004","geometry":{"type":"Polygon","coordinates":[[[121.300607,24.933401],[121.302918,24.934895],[121.302764,24.935435],[121.302395,24.935777],[121.302275,24.936503],[121.301348,24.936535],[121.300685,24.936165],[121.300366,24.936646],[121.29841,24.936099],[121.298459,24.935545],[121.293867,24.933915],[121.294119,24.932407],[121.293535,24.932306],[121.293801,24.932035],[121.29378,24.931312],[121.29429,24.93138],[121.294344,24.930761],[121.29734,24.931353],[121.300607,24.933401]]]},"properties":{"code":"68000080004","name":"瑞發里","countyCode":"68000","countyName":"桃園市","townCode":"68000080","townName":"八德區","level":"village","unassigned":false,"note":"","label":[121.29795542201693,24.933765689197763],"bounds":[121.293535,24.930761,121.302918,24.936646],"focusBounds":[121.293535,24.930761,121.302918,24.936646],"color":"#a49ad4"}},{"type":"Feature","id":"68000080005","geometry":{"type":"Polygon","coordinates":[[[121.294344,24.930761],[121.293701,24.929771],[121.293826,24.929612],[121.293724,24.929102],[121.293869,24.928878],[121.293563,24.927591],[121.293756,24.927095],[121.293471,24.926892],[121.293681,24.926543],[121.293078,24.925613],[121.293114,24.925308],[121.287726,24.924976],[121.284768,24.924777],[121.28519,24.920983],[121.288231,24.922196],[121.289862,24.923017],[121.292743,24.924481],[121.293939,24.924654],[121.29404,24.924529],[121.294265,24.924656],[121.294421,24.924572],[121.294203,24.924352],[121.294798,24.923897],[121.294905,24.924113],[121.295406,24.923919],[121.295736,24.923736],[121.295682,24.923601],[121.296227,24.923268],[121.296298,24.923615],[121.296623,24.923932],[121.29649,24.924049],[121.297165,24.925038],[121.298243,24.924176],[121.299079,24.924561],[121.299424,24.925219],[121.299536,24.928258],[121.296948,24.928546],[121.29734,24.931353],[121.294344,24.930761]]]},"properties":{"code":"68000080005","name":"瑞德里","countyCode":"68000","countyName":"桃園市","townCode":"68000080","townName":"八德區","level":"village","unassigned":false,"note":"","label":[121.29578531177157,24.926620612467385],"bounds":[121.284768,24.920983,121.299536,24.931353],"focusBounds":[121.284768,24.920983,121.299536,24.931353],"color":"#dd8590"}},{"type":"Feature","id":"68000080006","geometry":{"type":"Polygon","coordinates":[[[121.304227,24.92848],[121.300607,24.933401],[121.29734,24.931353],[121.296948,24.928546],[121.299536,24.928258],[121.299424,24.925219],[121.299079,24.924561],[121.301737,24.926305],[121.304227,24.92848]]]},"properties":{"code":"68000080006","name":"瑞祥里","countyCode":"68000","countyName":"桃園市","townCode":"68000080","townName":"八德區","level":"village","unassigned":false,"note":"","label":[121.30036543949633,24.93015443719094],"bounds":[121.296948,24.924561,121.304227,24.933401],"focusBounds":[121.296948,24.924561,121.304227,24.933401],"color":"#68bec9"}},{"type":"Feature","id":"68000080007","geometry":{"type":"Polygon","coordinates":[[[121.275576,24.948368],[121.275138,24.946624],[121.275274,24.943261],[121.275696,24.94194],[121.275656,24.941606],[121.277411,24.942025],[121.280075,24.945006],[121.283539,24.948033],[121.286404,24.950472],[121.291188,24.953065],[121.292279,24.954724],[121.292078,24.955363],[121.2914,24.956053],[121.291153,24.956629],[121.291196,24.957372],[121.291044,24.957984],[121.291301,24.958913],[121.291219,24.959572],[121.280167,24.960787],[121.27935,24.960708],[121.279551,24.959689],[121.279393,24.958146],[121.279525,24.957441],[121.278667,24.956556],[121.27729,24.955947],[121.277115,24.955717],[121.277396,24.954441],[121.276505,24.952531],[121.276537,24.95217],[121.275576,24.948368]]]},"properties":{"code":"68000080007","name":"廣興里","countyCode":"68000","countyName":"桃園市","townCode":"68000080","townName":"八德區","level":"village","unassigned":false,"note":"","label":[121.28209850522163,24.953284839563693],"bounds":[121.275138,24.941606,121.292279,24.960787],"focusBounds":[121.275138,24.941606,121.292279,24.960787],"color":"#a8bf62"}},{"type":"Feature","id":"68000080008","geometry":{"type":"Polygon","coordinates":[[[121.29129,24.961971],[121.291263,24.961876],[121.289567,24.961911],[121.287272,24.962823],[121.284637,24.962774],[121.279326,24.962224],[121.27935,24.960708],[121.280167,24.960787],[121.291219,24.959572],[121.291301,24.958913],[121.291044,24.957984],[121.291196,24.957372],[121.291153,24.956629],[121.2914,24.956053],[121.292078,24.955363],[121.292279,24.954724],[121.292523,24.955134],[121.294261,24.95951],[121.295117,24.96117],[121.293877,24.961598],[121.29129,24.961971]]]},"properties":{"code":"68000080008","name":"廣隆里","countyCode":"68000","countyName":"桃園市","townCode":"68000080","townName":"八德區","level":"village","unassigned":false,"note":"","label":[121.28704278701437,24.961425134666726],"bounds":[121.279326,24.954724,121.295117,24.962823],"focusBounds":[121.279326,24.954724,121.295117,24.962823],"color":"#68bec9"}},{"type":"Feature","id":"68000080009","geometry":{"type":"Polygon","coordinates":[[[121.275576,24.948368],[121.27456,24.948093],[121.273503,24.947135],[121.272746,24.947035],[121.272127,24.947278],[121.271508,24.9472],[121.270757,24.947429],[121.270723,24.948106],[121.269169,24.948976],[121.268593,24.949654],[121.267742,24.949906],[121.267654,24.947717],[121.26639,24.947854],[121.266019,24.947217],[121.263297,24.937654],[121.262203,24.935876],[121.263075,24.936205],[121.263338,24.93601],[121.26342,24.935714],[121.263638,24.935663],[121.26382,24.934892],[121.26444,24.934507],[121.26398,24.93351],[121.2644,24.933295],[121.263877,24.932306],[121.264313,24.932257],[121.264932,24.931854],[121.265681,24.931088],[121.266299,24.930724],[121.26736,24.930399],[121.268951,24.930477],[121.273535,24.929451],[121.273585,24.929482],[121.274479,24.930372],[121.274479,24.930691],[121.27503,24.931689],[121.275402,24.932016],[121.274694,24.932193],[121.274711,24.932333],[121.274955,24.933245],[121.275196,24.93356],[121.275993,24.936613],[121.275933,24.9378],[121.276269,24.938192],[121.276511,24.939372],[121.276465,24.940115],[121.276227,24.941251],[121.275656,24.941606],[121.275696,24.94194],[121.275274,24.943261],[121.275138,24.946624],[121.275576,24.948368]]]},"properties":{"code":"68000080009","name":"竹園里","countyCode":"68000","countyName":"桃園市","townCode":"68000080","townName":"八德區","level":"village","unassigned":false,"note":"","label":[121.26984569733419,24.93862349427076],"bounds":[121.262203,24.929451,121.276511,24.949906],"focusBounds":[121.262203,24.929451,121.276511,24.949906],"color":"#df9f6a"}},{"type":"Feature","id":"68000080010","geometry":{"type":"Polygon","coordinates":[[[121.273535,24.929451],[121.268951,24.930477],[121.26736,24.930399],[121.266299,24.930724],[121.265681,24.931088],[121.264932,24.931854],[121.264313,24.932257],[121.263877,24.932306],[121.2644,24.933295],[121.26398,24.93351],[121.26444,24.934507],[121.26382,24.934892],[121.263638,24.935663],[121.26342,24.935714],[121.263338,24.93601],[121.263075,24.936205],[121.262203,24.935876],[121.26177,24.93522],[121.260368,24.934223],[121.260477,24.934169],[121.260356,24.933199],[121.260669,24.93184],[121.26044,24.93051],[121.25957,24.927615],[121.260127,24.927365],[121.259062,24.925046],[121.258413,24.924844],[121.257719,24.923962],[121.257372,24.923969],[121.256934,24.922919],[121.254944,24.924254],[121.251816,24.921653],[121.253225,24.920034],[121.254389,24.918987],[121.255069,24.918608],[121.255341,24.918154],[121.255727,24.915822],[121.254591,24.914079],[121.253805,24.911738],[121.253251,24.910792],[121.252903,24.909487],[121.253088,24.90888],[121.253923,24.909997],[121.253989,24.910827],[121.254153,24.911128],[121.256931,24.913695],[121.257144,24.914828],[121.256593,24.915633],[121.256614,24.916018],[121.257716,24.916597],[121.258891,24.91664],[121.260933,24.916971],[121.262482,24.917275],[121.262946,24.917564],[121.26409,24.919053],[121.265688,24.919783],[121.26578,24.920587],[121.267084,24.92106],[121.26806,24.921801],[121.268082,24.92238],[121.268317,24.922806],[121.268215,24.923457],[121.268368,24.923928],[121.269831,24.924569],[121.270236,24.925965],[121.270852,24.92627],[121.27159,24.927237],[121.272567,24.927996],[121.273535,24.929451]]]},"properties":{"code":"68000080010","name":"霄裡里","countyCode":"68000","countyName":"桃園市","townCode":"68000080","townName":"八德區","level":"village","unassigned":false,"note":"","label":[121.26380148851888,24.9248301346994],"bounds":[121.251816,24.90888,121.273535,24.936205],"focusBounds":[121.251816,24.90888,121.273535,24.936205],"color":"#c38cb8"}},{"type":"Feature","id":"68000080011","geometry":{"type":"Polygon","coordinates":[[[121.284148,24.970016],[121.281343,24.969897],[121.276596,24.97138],[121.275279,24.971402],[121.27531,24.971186],[121.272996,24.971147],[121.273054,24.969025],[121.271824,24.967452],[121.271237,24.967009],[121.271787,24.964958],[121.273739,24.964523],[121.273683,24.962409],[121.27414,24.962518],[121.274142,24.96235],[121.274419,24.962353],[121.275355,24.962508],[121.276296,24.963609],[121.276147,24.964635],[121.276642,24.964747],[121.276746,24.96427],[121.277738,24.963798],[121.277595,24.964239],[121.278665,24.96428],[121.278619,24.964668],[121.279556,24.965941],[121.28035,24.965818],[121.280748,24.966271],[121.282174,24.967173],[121.283238,24.969313],[121.284148,24.970016]]]},"properties":{"code":"68000080011","name":"茄苳里","countyCode":"68000","countyName":"桃園市","townCode":"68000080","townName":"八德區","level":"village","unassigned":false,"note":"","label":[121.27628646022384,24.968025944691377],"bounds":[121.271237,24.96235,121.284148,24.971402],"focusBounds":[121.271237,24.96235,121.284148,24.971402],"color":"#98b69b"}},{"type":"Feature","id":"68000080012","geometry":{"type":"Polygon","coordinates":[[[121.271876,24.978074],[121.271297,24.977645],[121.270125,24.976759],[121.27035,24.976052],[121.272561,24.974876],[121.27303,24.975452],[121.273184,24.975959],[121.273655,24.976159],[121.274206,24.975905],[121.275672,24.976419],[121.275892,24.975633],[121.278123,24.975916],[121.278456,24.977229],[121.278276,24.977897],[121.271876,24.978074]]]},"properties":{"code":"68000080012","name":"高明里","countyCode":"68000","countyName":"桃園市","townCode":"68000080","townName":"八德區","level":"village","unassigned":false,"note":"","label":[121.27427764865894,24.97696877663276],"bounds":[121.270125,24.974876,121.278456,24.978074],"focusBounds":[121.270125,24.974876,121.278456,24.978074],"color":"#58b99d"}},{"type":"Feature","id":"68000080013","geometry":{"type":"Polygon","coordinates":[[[121.29129,24.961971],[121.291041,24.962893],[121.290475,24.963215],[121.289521,24.964476],[121.288741,24.964806],[121.288462,24.965115],[121.287294,24.970604],[121.285935,24.970162],[121.284102,24.970174],[121.284148,24.970016],[121.283238,24.969313],[121.282174,24.967173],[121.280748,24.966271],[121.28035,24.965818],[121.279556,24.965941],[121.278619,24.964668],[121.278665,24.96428],[121.277595,24.964239],[121.277738,24.963798],[121.276746,24.96427],[121.276642,24.964747],[121.276147,24.964635],[121.276296,24.963609],[121.275355,24.962508],[121.274419,24.962353],[121.274142,24.96235],[121.27414,24.962518],[121.273683,24.962409],[121.273739,24.964523],[121.271787,24.964958],[121.269948,24.965481],[121.269252,24.965369],[121.268128,24.964893],[121.26745,24.965025],[121.266625,24.964672],[121.265383,24.964616],[121.265374,24.964506],[121.265602,24.96358],[121.264878,24.961845],[121.264585,24.960694],[121.264324,24.960426],[121.264948,24.957531],[121.265794,24.956173],[121.266311,24.954175],[121.266838,24.953076],[121.266769,24.952267],[121.26681,24.949942],[121.26639,24.947854],[121.267654,24.947717],[121.267742,24.949906],[121.268593,24.949654],[121.269169,24.948976],[121.270723,24.948106],[121.270757,24.947429],[121.271508,24.9472],[121.272127,24.947278],[121.272746,24.947035],[121.273503,24.947135],[121.27456,24.948093],[121.275576,24.948368],[121.276537,24.95217],[121.276505,24.952531],[121.277396,24.954441],[121.277115,24.955717],[121.27729,24.955947],[121.278667,24.956556],[121.279525,24.957441],[121.279393,24.958146],[121.279551,24.959689],[121.27935,24.960708],[121.279326,24.962224],[121.284637,24.962774],[121.287272,24.962823],[121.289567,24.961911],[121.291263,24.961876],[121.29129,24.961971]]]},"properties":{"code":"68000080013","name":"白鷺里","countyCode":"68000","countyName":"桃園市","townCode":"68000080","townName":"八德區","level":"village","unassigned":false,"note":"","label":[121.27161474074798,24.956723113434407],"bounds":[121.264324,24.947035,121.29129,24.970604],"focusBounds":[121.264324,24.947035,121.29129,24.970604],"color":"#78a7e3"}},{"type":"Feature","id":"68000080014","geometry":{"type":"Polygon","coordinates":[[[121.318405,24.969234],[121.315607,24.970747],[121.314656,24.970688],[121.31424,24.96898],[121.314564,24.966377],[121.31334,24.96559],[121.312184,24.964164],[121.31097,24.964304],[121.310473,24.964052],[121.312179,24.96312],[121.311645,24.962086],[121.310591,24.962545],[121.310105,24.962527],[121.310124,24.962407],[121.308373,24.961801],[121.307844,24.961415],[121.307067,24.960336],[121.306676,24.960337],[121.306647,24.95758],[121.308742,24.958165],[121.31035,24.957854],[121.311959,24.957086],[121.312452,24.957182],[121.313514,24.957069],[121.31379,24.95759],[121.314107,24.957776],[121.314481,24.95778],[121.314923,24.95766],[121.315732,24.95694],[121.316123,24.956077],[121.31665,24.956417],[121.319563,24.959489],[121.319937,24.960132],[121.320035,24.960813],[121.32103,24.962407],[121.323039,24.96484],[121.321286,24.967056],[121.319754,24.968337],[121.318405,24.969234]]]},"properties":{"code":"68000080014","name":"大湳里","countyCode":"68000","countyName":"桃園市","townCode":"68000080","townName":"八德區","level":"village","unassigned":false,"note":"","label":[121.31621357149125,24.962532169542477],"bounds":[121.306647,24.956077,121.323039,24.970747],"focusBounds":[121.306647,24.956077,121.323039,24.970747],"color":"#78a7e3"}},{"type":"Feature","id":"68000080015","geometry":{"type":"Polygon","coordinates":[[[121.31665,24.956417],[121.316123,24.956077],[121.315732,24.95694],[121.314923,24.95766],[121.314481,24.95778],[121.314107,24.957776],[121.31379,24.95759],[121.313514,24.957069],[121.312452,24.957182],[121.311959,24.957086],[121.312124,24.956661],[121.31299,24.954271],[121.312761,24.953951],[121.31299,24.953131],[121.313836,24.952159],[121.318718,24.948122],[121.317847,24.947273],[121.318718,24.946323],[121.31909,24.946494],[121.319481,24.946192],[121.32057,24.94652],[121.324352,24.943379],[121.327859,24.944268],[121.330136,24.944481],[121.331024,24.944928],[121.331517,24.945403],[121.331616,24.945778],[121.331122,24.946204],[121.329742,24.946861],[121.328028,24.949035],[121.328202,24.954491],[121.328094,24.955211],[121.323725,24.952019],[121.322867,24.952874],[121.322098,24.953406],[121.320394,24.953933],[121.319155,24.954849],[121.317613,24.955494],[121.31665,24.956417]]]},"properties":{"code":"68000080015","name":"大安里","countyCode":"68000","countyName":"桃園市","townCode":"68000080","townName":"八德區","level":"village","unassigned":false,"note":"","label":[121.32168453615867,24.949564461182582],"bounds":[121.311959,24.943379,121.331616,24.95778],"focusBounds":[121.311959,24.943379,121.331616,24.95778],"color":"#dd8590"}},{"type":"Feature","id":"68000080016","geometry":{"type":"Polygon","coordinates":[[[121.311959,24.957086],[121.31035,24.957854],[121.308742,24.958165],[121.306647,24.95758],[121.306177,24.957531],[121.305619,24.954566],[121.305261,24.954849],[121.304601,24.956013],[121.303914,24.956035],[121.303201,24.95628],[121.30255,24.95476],[121.302574,24.954513],[121.302701,24.954034],[121.303511,24.954028],[121.303834,24.953287],[121.303707,24.952828],[121.302868,24.95283],[121.302799,24.952683],[121.301372,24.952541],[121.301173,24.950521],[121.301244,24.949395],[121.301047,24.948405],[121.301521,24.948088],[121.300731,24.947313],[121.301913,24.94632],[121.302501,24.947065],[121.304054,24.947307],[121.304591,24.947557],[121.30491,24.946499],[121.304567,24.945484],[121.304562,24.943478],[121.305839,24.943541],[121.306266,24.942671],[121.307686,24.943724],[121.308234,24.94372],[121.308575,24.943623],[121.309773,24.94251],[121.310253,24.942614],[121.310536,24.941997],[121.311069,24.942179],[121.311647,24.942106],[121.31378,24.943589],[121.314124,24.944547],[121.313547,24.944979],[121.313049,24.945699],[121.312708,24.945869],[121.31229,24.946971],[121.311976,24.94738],[121.311005,24.948371],[121.309891,24.948459],[121.308979,24.949849],[121.310092,24.951305],[121.310944,24.9534],[121.311947,24.95651],[121.312124,24.956661],[121.311959,24.957086]]]},"properties":{"code":"68000080016","name":"大興里","countyCode":"68000","countyName":"桃園市","townCode":"68000080","townName":"八德區","level":"village","unassigned":false,"note":"","label":[121.30610179719791,24.950676061844675],"bounds":[121.300731,24.941997,121.314124,24.958165],"focusBounds":[121.300731,24.941997,121.314124,24.958165],"color":"#a49ad4"}},{"type":"Feature","id":"68000080017","geometry":{"type":"Polygon","coordinates":[[[121.29889,24.955562],[121.299235,24.957584],[121.296193,24.956727],[121.292747,24.955254],[121.292984,24.954295],[121.29889,24.955562]]]},"properties":{"code":"68000080017","name":"大和里","countyCode":"68000","countyName":"桃園市","townCode":"68000080","townName":"八德區","level":"village","unassigned":false,"note":"","label":[121.29630952770185,24.95588454455538],"bounds":[121.292747,24.954295,121.299235,24.957584],"focusBounds":[121.292747,24.954295,121.299235,24.957584],"color":"#a8bf62"}},{"type":"Feature","id":"68000080018","geometry":{"type":"Polygon","coordinates":[[[121.297651,24.960072],[121.295361,24.961465],[121.295117,24.96117],[121.294261,24.95951],[121.296208,24.959438],[121.297834,24.958837],[121.297651,24.960072]]]},"properties":{"code":"68000080018","name":"大同里","countyCode":"68000","countyName":"桃園市","townCode":"68000080","townName":"八德區","level":"village","unassigned":false,"note":"","label":[121.29590551387983,24.96021030592256],"bounds":[121.294261,24.958837,121.297834,24.961465],"focusBounds":[121.294261,24.958837,121.297834,24.961465],"color":"#c38cb8"}},{"type":"Feature","id":"68000080019","geometry":{"type":"Polygon","coordinates":[[[121.294261,24.95951],[121.292523,24.955134],[121.292747,24.955254],[121.296193,24.956727],[121.299235,24.957584],[121.299239,24.957611],[121.299406,24.958576],[121.297834,24.958837],[121.296208,24.959438],[121.294261,24.95951]]]},"properties":{"code":"68000080019","name":"大成里","countyCode":"68000","countyName":"桃園市","townCode":"68000080","townName":"八德區","level":"village","unassigned":false,"note":"","label":[121.29538984693414,24.957926203650654],"bounds":[121.292523,24.955134,121.299406,24.95951],"focusBounds":[121.292523,24.955134,121.299406,24.95951],"color":"#df9f6a"}},{"type":"Feature","id":"68000080020","geometry":{"type":"Polygon","coordinates":[[[121.304096,24.964383],[121.303584,24.965041],[121.303385,24.965755],[121.303168,24.965715],[121.302648,24.96514],[121.300682,24.9656],[121.300499,24.964734],[121.30009,24.962658],[121.303818,24.962059],[121.304096,24.964383]]]},"properties":{"code":"68000080020","name":"大義里","countyCode":"68000","countyName":"桃園市","townCode":"68000080","townName":"八德區","level":"village","unassigned":false,"note":"","label":[121.30217912527284,24.963786157439266],"bounds":[121.30009,24.962059,121.304096,24.965755],"focusBounds":[121.30009,24.962059,121.304096,24.965755],"color":"#58b99d"}},{"type":"Feature","id":"68000080021","geometry":{"type":"Polygon","coordinates":[[[121.299239,24.957611],[121.300499,24.957617],[121.303615,24.957692],[121.305142,24.95749],[121.303818,24.962059],[121.30009,24.962658],[121.299899,24.961729],[121.299406,24.958576],[121.299239,24.957611]]]},"properties":{"code":"68000080021","name":"大忠里","countyCode":"68000","countyName":"桃園市","townCode":"68000080","townName":"八德區","level":"village","unassigned":false,"note":"","label":[121.30200611981275,24.960001663589964],"bounds":[121.299239,24.95749,121.305142,24.962658],"focusBounds":[121.299239,24.95749,121.305142,24.962658],"color":"#98b69b"}},{"type":"Feature","id":"68000080022","geometry":{"type":"Polygon","coordinates":[[[121.302042,24.972533],[121.302413,24.973648],[121.302407,24.974372],[121.302545,24.974349],[121.302304,24.974646],[121.302381,24.975824],[121.303587,24.978224],[121.301728,24.978762],[121.300814,24.978991],[121.300544,24.978885],[121.299565,24.976185],[121.29793,24.976617],[121.297397,24.976213],[121.296526,24.97662],[121.295713,24.975416],[121.295441,24.973643],[121.296153,24.973389],[121.297762,24.973664],[121.300095,24.973379],[121.302042,24.972533]]]},"properties":{"code":"68000080022","name":"大福里","countyCode":"68000","countyName":"桃園市","townCode":"68000080","townName":"八德區","level":"village","unassigned":false,"note":"","label":[121.30054890126648,24.97492340946667],"bounds":[121.295441,24.972533,121.303587,24.978991],"focusBounds":[121.295441,24.972533,121.303587,24.978991],"color":"#58b99d"}},{"type":"Feature","id":"68000080023","geometry":{"type":"Polygon","coordinates":[[[121.302545,24.974349],[121.302407,24.974372],[121.302413,24.973648],[121.302042,24.972533],[121.301716,24.971518],[121.301163,24.968001],[121.30294,24.968053],[121.303396,24.966958],[121.303385,24.965755],[121.303584,24.965041],[121.304096,24.964383],[121.305448,24.964324],[121.306771,24.964445],[121.30692,24.973623],[121.306025,24.973654],[121.305451,24.973014],[121.305209,24.972977],[121.303394,24.97422],[121.302545,24.974349]]]},"properties":{"code":"68000080023","name":"大勇里","countyCode":"68000","countyName":"桃園市","townCode":"68000080","townName":"八德區","level":"village","unassigned":false,"note":"","label":[121.3042385516565,24.970325208268743],"bounds":[121.301163,24.964324,121.30692,24.974372],"focusBounds":[121.301163,24.964324,121.30692,24.974372],"color":"#efb44f"}},{"type":"Feature","id":"68000080024","geometry":{"type":"Polygon","coordinates":[[[121.310536,24.941997],[121.310253,24.942614],[121.309773,24.94251],[121.308575,24.943623],[121.308234,24.94372],[121.307686,24.943724],[121.306266,24.942671],[121.305839,24.943541],[121.304562,24.943478],[121.302537,24.94368],[121.29965,24.942499],[121.298505,24.939502],[121.298668,24.937234],[121.299888,24.937355],[121.300226,24.937094],[121.300366,24.936646],[121.300685,24.936165],[121.301348,24.936535],[121.302275,24.936503],[121.302395,24.935777],[121.302764,24.935435],[121.302918,24.934895],[121.300607,24.933401],[121.304227,24.92848],[121.307198,24.931214],[121.313056,24.936246],[121.310761,24.94046],[121.310042,24.939763],[121.310059,24.940434],[121.310536,24.941997]]]},"properties":{"code":"68000080024","name":"大信里","countyCode":"68000","countyName":"桃園市","townCode":"68000080","townName":"八德區","level":"village","unassigned":false,"note":"","label":[121.3063500928025,24.937831113155966],"bounds":[121.298505,24.92848,121.313056,24.943724],"focusBounds":[121.298505,24.92848,121.313056,24.943724],"color":"#78a7e3"}},{"type":"Feature","id":"68000080025","geometry":{"type":"Polygon","coordinates":[[[121.300499,24.957617],[121.299239,24.957611],[121.299235,24.957584],[121.29889,24.955562],[121.298125,24.950934],[121.297673,24.948093],[121.300111,24.947109],[121.300731,24.947313],[121.301521,24.948088],[121.301047,24.948405],[121.301244,24.949395],[121.301173,24.950521],[121.301372,24.952541],[121.300499,24.952564],[121.300346,24.955624],[121.300267,24.956024],[121.299868,24.956135],[121.300117,24.957133],[121.300557,24.957109],[121.300499,24.957617]]]},"properties":{"code":"68000080025","name":"大華里","countyCode":"68000","countyName":"桃園市","townCode":"68000080","townName":"八德區","level":"village","unassigned":false,"note":"","label":[121.2996606417931,24.951343478091857],"bounds":[121.297673,24.947109,121.301521,24.957617],"focusBounds":[121.297673,24.947109,121.301521,24.957617],"color":"#dd8590"}},{"type":"Feature","id":"68000080026","geometry":{"type":"Polygon","coordinates":[[[121.319136,24.972442],[121.318825,24.972565],[121.318524,24.972348],[121.318674,24.971654],[121.318277,24.97065],[121.31819,24.970196],[121.318405,24.969234],[121.319754,24.968337],[121.321286,24.967056],[121.323039,24.96484],[121.323097,24.96493],[121.323681,24.964626],[121.325437,24.966161],[121.325472,24.966466],[121.325257,24.966697],[121.325642,24.967272],[121.325582,24.967716],[121.325972,24.967934],[121.325524,24.9685],[121.326257,24.968625],[121.326814,24.968919],[121.326362,24.970132],[121.326708,24.970258],[121.326593,24.971203],[121.325764,24.971095],[121.325702,24.971444],[121.324738,24.971098],[121.324041,24.971109],[121.32403,24.971301],[121.323867,24.971244],[121.323875,24.97101],[121.323334,24.970857],[121.323292,24.970342],[121.32244,24.970878],[121.321849,24.970983],[121.320609,24.970595],[121.320492,24.970417],[121.32062,24.970114],[121.320326,24.970073],[121.320157,24.970326],[121.320168,24.970923],[121.320378,24.971318],[121.319136,24.972442]]]},"properties":{"code":"68000080026","name":"大仁里","countyCode":"68000","countyName":"桃園市","townCode":"68000080","townName":"八德區","level":"village","unassigned":false,"note":"","label":[121.3233622495704,24.9680243603237],"bounds":[121.31819,24.964626,121.326814,24.972565],"focusBounds":[121.31819,24.964626,121.326814,24.972565],"color":"#a49ad4"}},{"type":"Feature","id":"68000080027","geometry":{"type":"Polygon","coordinates":[[[121.299694,24.966732],[121.298746,24.966444],[121.296643,24.966536],[121.296595,24.965722],[121.294951,24.965824],[121.295247,24.965311],[121.295368,24.963934],[121.295881,24.96379],[121.296063,24.963533],[121.295942,24.963244],[121.295617,24.963343],[121.295301,24.963192],[121.295341,24.962209],[121.295778,24.962001],[121.296739,24.963349],[121.298418,24.962842],[121.297991,24.962326],[121.298079,24.961804],[121.298867,24.961943],[121.298957,24.961665],[121.299899,24.961729],[121.30009,24.962658],[121.300499,24.964734],[121.299694,24.966732]]]},"properties":{"code":"68000080027","name":"大智里","countyCode":"68000","countyName":"桃園市","townCode":"68000080","townName":"八德區","level":"village","unassigned":false,"note":"","label":[121.29822160332455,24.96468404739104],"bounds":[121.294951,24.961665,121.300499,24.966732],"focusBounds":[121.294951,24.961665,121.300499,24.966732],"color":"#a8bf62"}},{"type":"Feature","id":"68000080028","geometry":{"type":"Polygon","coordinates":[[[121.300366,24.936646],[121.300226,24.937094],[121.299888,24.937355],[121.298668,24.937234],[121.298505,24.939502],[121.29965,24.942499],[121.298777,24.94445],[121.29791,24.944305],[121.297606,24.945204],[121.297402,24.945236],[121.297424,24.946512],[121.296997,24.94637],[121.295956,24.945115],[121.295949,24.944892],[121.295414,24.944949],[121.294726,24.944919],[121.29398,24.941641],[121.293546,24.937523],[121.293867,24.933915],[121.298459,24.935545],[121.29841,24.936099],[121.300366,24.936646]]]},"properties":{"code":"68000080028","name":"瑞泰里","countyCode":"68000","countyName":"桃園市","townCode":"68000080","townName":"八德區","level":"village","unassigned":false,"note":"","label":[121.29613534296347,24.939635775504655],"bounds":[121.293546,24.933915,121.300366,24.946512],"focusBounds":[121.293546,24.933915,121.300366,24.946512],"color":"#68bec9"}},{"type":"Feature","id":"68000080029","geometry":{"type":"Polygon","coordinates":[[[121.298125,24.950934],[121.296423,24.951355],[121.295544,24.949627],[121.295364,24.94897],[121.294812,24.948294],[121.2953,24.94783],[121.295212,24.946785],[121.295414,24.944949],[121.295949,24.944892],[121.295956,24.945115],[121.296997,24.94637],[121.297424,24.946512],[121.297673,24.948093],[121.298125,24.950934]]]},"properties":{"code":"68000080029","name":"大昌里","countyCode":"68000","countyName":"桃園市","townCode":"68000080","townName":"八德區","level":"village","unassigned":false,"note":"","label":[121.29647153826907,24.948350322932065],"bounds":[121.294812,24.944892,121.298125,24.951355],"focusBounds":[121.294812,24.944892,121.298125,24.951355],"color":"#df9f6a"}},{"type":"Feature","id":"68000080030","geometry":{"type":"Polygon","coordinates":[[[121.302042,24.972533],[121.300095,24.973379],[121.297762,24.973664],[121.296153,24.973389],[121.295441,24.973643],[121.295007,24.973264],[121.295119,24.971933],[121.294886,24.971635],[121.294916,24.970924],[121.294709,24.970573],[121.297527,24.969412],[121.298855,24.968646],[121.299694,24.966732],[121.300499,24.964734],[121.300682,24.9656],[121.301163,24.968001],[121.301716,24.971518],[121.302042,24.972533]]]},"properties":{"code":"68000080030","name":"大正里","countyCode":"68000","countyName":"桃園市","townCode":"68000080","townName":"八德區","level":"village","unassigned":false,"note":"","label":[121.29904820739402,24.971189175461976],"bounds":[121.294709,24.964734,121.302042,24.973664],"focusBounds":[121.294709,24.964734,121.302042,24.973664],"color":"#c38cb8"}},{"type":"Feature","id":"68000080031","geometry":{"type":"Polygon","coordinates":[[[121.313535,24.972061],[121.312611,24.972729],[121.311815,24.971941],[121.311408,24.972329],[121.310456,24.972763],[121.310392,24.973316],[121.3107,24.974981],[121.310179,24.975302],[121.309304,24.975492],[121.307912,24.973496],[121.30772,24.972798],[121.307244,24.973532],[121.30692,24.973623],[121.306771,24.964445],[121.306726,24.962314],[121.306676,24.960337],[121.307067,24.960336],[121.307844,24.961415],[121.308373,24.961801],[121.310124,24.962407],[121.310105,24.962527],[121.310591,24.962545],[121.311645,24.962086],[121.312179,24.96312],[121.310473,24.964052],[121.31097,24.964304],[121.312184,24.964164],[121.31334,24.96559],[121.314564,24.966377],[121.31424,24.96898],[121.314656,24.970688],[121.315607,24.970747],[121.318405,24.969234],[121.31819,24.970196],[121.318277,24.97065],[121.317978,24.970996],[121.317212,24.970827],[121.317209,24.971689],[121.315147,24.972021],[121.314713,24.971171],[121.31439,24.970965],[121.314241,24.971155],[121.314351,24.971649],[121.313535,24.972061]]]},"properties":{"code":"68000080031","name":"大強里","countyCode":"68000","countyName":"桃園市","townCode":"68000080","townName":"八德區","level":"village","unassigned":false,"note":"","label":[121.31055427570789,24.96813892604203],"bounds":[121.306676,24.960336,121.318405,24.975492],"focusBounds":[121.306676,24.960336,121.318405,24.975492],"color":"#58b99d"}},{"type":"Feature","id":"68000080032","geometry":{"type":"Polygon","coordinates":[[[121.328464,24.96587],[121.327757,24.965505],[121.327174,24.96495],[121.32675,24.965406],[121.325437,24.966161],[121.323681,24.964626],[121.323097,24.96493],[121.323039,24.96484],[121.32103,24.962407],[121.320035,24.960813],[121.319937,24.960132],[121.319563,24.959489],[121.31665,24.956417],[121.317613,24.955494],[121.319155,24.954849],[121.320394,24.953933],[121.322098,24.953406],[121.322867,24.952874],[121.323725,24.952019],[121.328094,24.955211],[121.328744,24.957822],[121.328868,24.959572],[121.329083,24.960309],[121.3291,24.962072],[121.328756,24.963902],[121.32805,24.965452],[121.328464,24.96587]]]},"properties":{"code":"68000080032","name":"大發里","countyCode":"68000","countyName":"桃園市","townCode":"68000080","townName":"八德區","level":"village","unassigned":false,"note":"","label":[121.32412194556765,24.958660559747578],"bounds":[121.31665,24.952019,121.3291,24.966161],"focusBounds":[121.31665,24.952019,121.3291,24.966161],"color":"#58b99d"}},{"type":"Feature","id":"68000080033","geometry":{"type":"Polygon","coordinates":[[[121.328297,24.972602],[121.328209,24.972835],[121.327862,24.972812],[121.325702,24.971444],[121.325764,24.971095],[121.326593,24.971203],[121.326708,24.970258],[121.326362,24.970132],[121.326814,24.968919],[121.326257,24.968625],[121.325524,24.9685],[121.325972,24.967934],[121.325582,24.967716],[121.325642,24.967272],[121.325257,24.966697],[121.325472,24.966466],[121.325437,24.966161],[121.32675,24.965406],[121.327174,24.96495],[121.327757,24.965505],[121.328464,24.96587],[121.329806,24.966893],[121.329381,24.967458],[121.329181,24.96737],[121.328852,24.967884],[121.327556,24.967123],[121.327249,24.966726],[121.326934,24.966589],[121.327469,24.967462],[121.328535,24.968356],[121.32881,24.969436],[121.32882,24.969884],[121.32833,24.970933],[121.32858,24.971501],[121.328297,24.972602]]]},"properties":{"code":"68000080033","name":"大明里","countyCode":"68000","countyName":"桃園市","townCode":"68000080","townName":"八德區","level":"village","unassigned":false,"note":"","label":[121.32774453893116,24.96959548497958],"bounds":[121.325257,24.96495,121.329806,24.972835],"focusBounds":[121.325257,24.96495,121.329806,24.972835],"color":"#efb44f"}},{"type":"Feature","id":"68000080034","geometry":{"type":"Polygon","coordinates":[[[121.324352,24.943379],[121.32057,24.94652],[121.319481,24.946192],[121.31909,24.946494],[121.318718,24.946323],[121.317847,24.947273],[121.318718,24.948122],[121.313836,24.952159],[121.31299,24.953131],[121.312761,24.953951],[121.31299,24.954271],[121.312124,24.956661],[121.311947,24.95651],[121.310944,24.9534],[121.310092,24.951305],[121.308979,24.949849],[121.309891,24.948459],[121.311005,24.948371],[121.311976,24.94738],[121.31229,24.946971],[121.312708,24.945869],[121.313049,24.945699],[121.313547,24.944979],[121.314124,24.944547],[121.31378,24.943589],[121.311647,24.942106],[121.311069,24.942179],[121.310536,24.941997],[121.310059,24.940434],[121.310042,24.939763],[121.310761,24.94046],[121.313056,24.936246],[121.315781,24.938473],[121.318528,24.940218],[121.324352,24.943379]]]},"properties":{"code":"68000080034","name":"大竹里","countyCode":"68000","countyName":"桃園市","townCode":"68000080","townName":"八德區","level":"village","unassigned":false,"note":"","label":[121.31719831052584,24.943327659289952],"bounds":[121.308979,24.936246,121.324352,24.956661],"focusBounds":[121.308979,24.936246,121.324352,24.956661],"color":"#a8bf62"}},{"type":"Feature","id":"68000080035","geometry":{"type":"Polygon","coordinates":[[[121.299899,24.961729],[121.298957,24.961665],[121.299085,24.961121],[121.297541,24.96087],[121.297651,24.960072],[121.297834,24.958837],[121.299406,24.958576],[121.299899,24.961729]]]},"properties":{"code":"68000080035","name":"大慶里","countyCode":"68000","countyName":"桃園市","townCode":"68000080","townName":"八德區","level":"village","unassigned":false,"note":"","label":[121.29866275808834,24.96007806058217],"bounds":[121.297541,24.958576,121.299899,24.961729],"focusBounds":[121.297541,24.958576,121.299899,24.961729],"color":"#dd8590"}},{"type":"Feature","id":"68000080036","geometry":{"type":"Polygon","coordinates":[[[121.306726,24.962314],[121.305979,24.962333],[121.305704,24.962633],[121.304578,24.96263],[121.304503,24.962214],[121.303818,24.962059],[121.305142,24.95749],[121.306177,24.957531],[121.306647,24.95758],[121.306676,24.960337],[121.306726,24.962314]]]},"properties":{"code":"68000080036","name":"大千里","countyCode":"68000","countyName":"桃園市","townCode":"68000080","townName":"八德區","level":"village","unassigned":false,"note":"","label":[121.30552641109983,24.960235317261045],"bounds":[121.303818,24.95749,121.306726,24.962633],"focusBounds":[121.303818,24.95749,121.306726,24.962633],"color":"#a8bf62"}},{"type":"Feature","id":"68000080037","geometry":{"type":"Polygon","coordinates":[[[121.303385,24.965755],[121.303396,24.966958],[121.30294,24.968053],[121.301163,24.968001],[121.300682,24.9656],[121.302648,24.96514],[121.303168,24.965715],[121.303385,24.965755]]]},"properties":{"code":"68000080037","name":"大榮里","countyCode":"68000","countyName":"桃園市","townCode":"68000080","townName":"八德區","level":"village","unassigned":false,"note":"","label":[121.30213321001733,24.966645055915976],"bounds":[121.300682,24.96514,121.303396,24.968053],"focusBounds":[121.300682,24.96514,121.303396,24.968053],"color":"#a8bf62"}},{"type":"Feature","id":"68000080038","geometry":{"type":"Polygon","coordinates":[[[121.282689,24.987041],[121.280559,24.985954],[121.279655,24.985709],[121.278132,24.984715],[121.277448,24.983978],[121.275827,24.982749],[121.275547,24.981978],[121.274718,24.980823],[121.272065,24.978986],[121.270856,24.978245],[121.271297,24.977645],[121.271876,24.978074],[121.274268,24.97976],[121.275889,24.980728],[121.27726,24.98133],[121.277405,24.981183],[121.277468,24.979704],[121.27793,24.979008],[121.278276,24.977897],[121.282049,24.977791],[121.282315,24.978242],[121.282312,24.97863],[121.281453,24.979728],[121.281675,24.980331],[121.28252,24.981338],[121.282501,24.982903],[121.281961,24.983747],[121.282499,24.98414],[121.283138,24.984912],[121.283309,24.98545],[121.283205,24.986171],[121.282689,24.987041]]]},"properties":{"code":"68000080038","name":"茄明里","countyCode":"68000","countyName":"桃園市","townCode":"68000080","townName":"八德區","level":"village","unassigned":false,"note":"","label":[121.27970890155483,24.98235619464341],"bounds":[121.270856,24.977645,121.283309,24.987041],"focusBounds":[121.270856,24.977645,121.283309,24.987041],"color":"#68bec9"}},{"type":"Feature","id":"68000080039","geometry":{"type":"Polygon","coordinates":[[[121.278276,24.977897],[121.27793,24.979008],[121.277468,24.979704],[121.277405,24.981183],[121.27726,24.98133],[121.275889,24.980728],[121.274268,24.97976],[121.271876,24.978074],[121.278276,24.977897]]]},"properties":{"code":"68000080039","name":"高城里","countyCode":"68000","countyName":"桃園市","townCode":"68000080","townName":"八德區","level":"village","unassigned":false,"note":"","label":[121.27617673839211,24.97925918216619],"bounds":[121.271876,24.977897,121.278276,24.98133],"focusBounds":[121.271876,24.977897,121.278276,24.98133],"color":"#df9f6a"}},{"type":"Feature","id":"68000080040","geometry":{"type":"Polygon","coordinates":[[[121.296423,24.951355],[121.293226,24.952142],[121.292714,24.950096],[121.294163,24.949929],[121.293384,24.948884],[121.292234,24.948968],[121.291254,24.947517],[121.28885,24.945477],[121.288893,24.945286],[121.287331,24.94456],[121.286936,24.944184],[121.286828,24.943193],[121.286992,24.942838],[121.286748,24.941154],[121.287407,24.940439],[121.28776,24.939715],[121.287854,24.938978],[121.287737,24.938581],[121.288101,24.937962],[121.288218,24.937429],[121.288099,24.937069],[121.288336,24.936504],[121.289219,24.936267],[121.289292,24.931869],[121.291615,24.932247],[121.291502,24.932628],[121.292721,24.933038],[121.293535,24.932306],[121.294119,24.932407],[121.293867,24.933915],[121.293546,24.937523],[121.29398,24.941641],[121.294726,24.944919],[121.295414,24.944949],[121.295212,24.946785],[121.2953,24.94783],[121.294812,24.948294],[121.295364,24.94897],[121.295544,24.949627],[121.296423,24.951355]]]},"properties":{"code":"68000080040","name":"瑞興里","countyCode":"68000","countyName":"桃園市","townCode":"68000080","townName":"八德區","level":"village","unassigned":false,"note":"","label":[121.29061586999654,24.942169060258585],"bounds":[121.286748,24.931869,121.296423,24.952142],"focusBounds":[121.286748,24.931869,121.296423,24.952142],"color":"#c38cb8"}},{"type":"Feature","id":"68000080041","geometry":{"type":"Polygon","coordinates":[[[121.305142,24.95749],[121.303615,24.957692],[121.300499,24.957617],[121.300557,24.957109],[121.300117,24.957133],[121.299868,24.956135],[121.300267,24.956024],[121.300346,24.955624],[121.300499,24.952564],[121.301372,24.952541],[121.302799,24.952683],[121.302868,24.95283],[121.303707,24.952828],[121.303834,24.953287],[121.303511,24.954028],[121.302701,24.954034],[121.302574,24.954513],[121.30255,24.95476],[121.303201,24.95628],[121.303914,24.956035],[121.304601,24.956013],[121.305261,24.954849],[121.305619,24.954566],[121.306177,24.957531],[121.305142,24.95749]]]},"properties":{"code":"68000080041","name":"大愛里","countyCode":"68000","countyName":"桃園市","townCode":"68000080","townName":"八德區","level":"village","unassigned":false,"note":"","label":[121.30169015645285,24.9561907918009],"bounds":[121.299868,24.952541,121.306177,24.957692],"focusBounds":[121.299868,24.952541,121.306177,24.957692],"color":"#58b99d"}},{"type":"Feature","id":"68000080042","geometry":{"type":"Polygon","coordinates":[[[121.299694,24.966732],[121.298855,24.968646],[121.297527,24.969412],[121.294709,24.970573],[121.294115,24.968805],[121.293729,24.968701],[121.293683,24.967614],[121.294683,24.966516],[121.294951,24.965824],[121.296595,24.965722],[121.296643,24.966536],[121.298746,24.966444],[121.299694,24.966732]]]},"properties":{"code":"68000080042","name":"大宏里","countyCode":"68000","countyName":"桃園市","townCode":"68000080","townName":"八德區","level":"village","unassigned":false,"note":"","label":[121.29630488768824,24.96817132857948],"bounds":[121.293683,24.965722,121.299694,24.970573],"focusBounds":[121.293683,24.965722,121.299694,24.970573],"color":"#58b99d"}},{"type":"Feature","id":"68000080043","geometry":{"type":"Polygon","coordinates":[[[121.304096,24.964383],[121.303818,24.962059],[121.304503,24.962214],[121.304578,24.96263],[121.305704,24.962633],[121.305979,24.962333],[121.306726,24.962314],[121.306771,24.964445],[121.305448,24.964324],[121.304096,24.964383]]]},"properties":{"code":"68000080043","name":"大漢里","countyCode":"68000","countyName":"桃園市","townCode":"68000080","townName":"八德區","level":"village","unassigned":false,"note":"","label":[121.30534922150694,24.963480152385635],"bounds":[121.303818,24.962059,121.306771,24.964445],"focusBounds":[121.303818,24.962059,121.306771,24.964445],"color":"#78a7e3"}},{"type":"Feature","id":"68000080044","geometry":{"type":"Polygon","coordinates":[[[121.292984,24.954295],[121.292747,24.955254],[121.292523,24.955134],[121.292279,24.954724],[121.291188,24.953065],[121.286404,24.950472],[121.283539,24.948033],[121.280075,24.945006],[121.277411,24.942025],[121.275656,24.941606],[121.276227,24.941251],[121.276465,24.940115],[121.276511,24.939372],[121.276269,24.938192],[121.275933,24.9378],[121.275993,24.936613],[121.281119,24.938004],[121.285079,24.940106],[121.286748,24.941154],[121.286992,24.942838],[121.286828,24.943193],[121.286936,24.944184],[121.287331,24.94456],[121.288893,24.945286],[121.28885,24.945477],[121.291254,24.947517],[121.292234,24.948968],[121.293384,24.948884],[121.294163,24.949929],[121.292714,24.950096],[121.293226,24.952142],[121.292984,24.954295]]]},"properties":{"code":"68000080044","name":"廣德里","countyCode":"68000","countyName":"桃園市","townCode":"68000080","townName":"八德區","level":"village","unassigned":false,"note":"","label":[121.28325116733255,24.94303794977746],"bounds":[121.275656,24.936613,121.294163,24.955254],"focusBounds":[121.275656,24.936613,121.294163,24.955254],"color":"#78a7e3"}},{"type":"Feature","id":"68000080045","geometry":{"type":"Polygon","coordinates":[[[121.254944,24.924254],[121.256934,24.922919],[121.257372,24.923969],[121.257719,24.923962],[121.258413,24.924844],[121.259062,24.925046],[121.260127,24.927365],[121.25957,24.927615],[121.26044,24.93051],[121.260669,24.93184],[121.260356,24.933199],[121.260477,24.934169],[121.260368,24.934223],[121.258851,24.933255],[121.2588,24.932736],[121.259216,24.930631],[121.258351,24.930507],[121.258256,24.930224],[121.258204,24.930402],[121.257971,24.92978],[121.256633,24.927578],[121.256232,24.926414],[121.255748,24.925267],[121.254944,24.924254]]]},"properties":{"code":"68000080045","name":"龍友里","countyCode":"68000","countyName":"桃園市","townCode":"68000080","townName":"八德區","level":"village","unassigned":false,"note":"","label":[121.25810873816644,24.926912376861946],"bounds":[121.254944,24.922919,121.260669,24.934223],"focusBounds":[121.254944,24.922919,121.260669,24.934223],"color":"#dd8590"}},{"type":"Feature","id":"68000080046","geometry":{"type":"Polygon","coordinates":[[[121.298957,24.961665],[121.298867,24.961943],[121.298079,24.961804],[121.297991,24.962326],[121.298418,24.962842],[121.296739,24.963349],[121.295778,24.962001],[121.295341,24.962209],[121.295361,24.961465],[121.297651,24.960072],[121.297541,24.96087],[121.299085,24.961121],[121.298957,24.961665]]]},"properties":{"code":"68000080046","name":"陸光里","countyCode":"68000","countyName":"桃園市","townCode":"68000080","townName":"八德區","level":"village","unassigned":false,"note":"","label":[121.296968000263,24.961798371020105],"bounds":[121.295341,24.960072,121.299085,24.963349],"focusBounds":[121.295341,24.960072,121.299085,24.963349],"color":"#a49ad4"}},{"type":"Feature","id":"68000080047","geometry":{"type":"Polygon","coordinates":[[[121.271297,24.977645],[121.270856,24.978245],[121.269783,24.977837],[121.268518,24.976745],[121.267149,24.975858],[121.266829,24.975459],[121.265234,24.974447],[121.265047,24.974163],[121.265068,24.973654],[121.263637,24.973261],[121.263655,24.973037],[121.264191,24.972707],[121.264568,24.970373],[121.263327,24.969992],[121.265234,24.968307],[121.26495,24.967161],[121.265374,24.965625],[121.265383,24.964616],[121.266625,24.964672],[121.26745,24.965025],[121.268128,24.964893],[121.269252,24.965369],[121.269948,24.965481],[121.271787,24.964958],[121.271237,24.967009],[121.271824,24.967452],[121.273054,24.969025],[121.272996,24.971147],[121.27531,24.971186],[121.275279,24.971402],[121.276596,24.97138],[121.281343,24.969897],[121.284148,24.970016],[121.284102,24.970174],[121.283698,24.971305],[121.282586,24.972919],[121.281536,24.974053],[121.281087,24.975071],[121.281146,24.975719],[121.28163,24.976497],[121.281703,24.977194],[121.282049,24.977791],[121.278276,24.977897],[121.278456,24.977229],[121.278123,24.975916],[121.275892,24.975633],[121.275672,24.976419],[121.274206,24.975905],[121.273655,24.976159],[121.273184,24.975959],[121.27303,24.975452],[121.272561,24.974876],[121.27035,24.976052],[121.270125,24.976759],[121.271297,24.977645]]]},"properties":{"code":"68000080047","name":"永豐里","countyCode":"68000","countyName":"桃園市","townCode":"68000080","townName":"八德區","level":"village","unassigned":false,"note":"","label":[121.26878936626669,24.971547983550163],"bounds":[121.263327,24.964616,121.284148,24.978245],"focusBounds":[121.263327,24.964616,121.284148,24.978245],"color":"#a8bf62"}},{"type":"Feature","id":"68000080048","geometry":{"type":"Polygon","coordinates":[[[121.300731,24.947313],[121.300111,24.947109],[121.297673,24.948093],[121.297424,24.946512],[121.297402,24.945236],[121.297606,24.945204],[121.29791,24.944305],[121.298777,24.94445],[121.29965,24.942499],[121.302537,24.94368],[121.304562,24.943478],[121.304567,24.945484],[121.30491,24.946499],[121.304591,24.947557],[121.304054,24.947307],[121.302501,24.947065],[121.301913,24.94632],[121.300731,24.947313]]]},"properties":{"code":"68000080048","name":"大順里","countyCode":"68000","countyName":"桃園市","townCode":"68000080","townName":"八德區","level":"village","unassigned":false,"note":"","label":[121.30075990366959,24.94490637069635],"bounds":[121.297402,24.942499,121.30491,24.948093],"focusBounds":[121.297402,24.942499,121.30491,24.948093],"color":"#c38cb8"}},{"type":"Feature","id":"68000080049","geometry":{"type":"Polygon","coordinates":[[[121.289292,24.931869],[121.289219,24.936267],[121.288336,24.936504],[121.288099,24.937069],[121.288218,24.937429],[121.288101,24.937962],[121.287737,24.938581],[121.287854,24.938978],[121.28776,24.939715],[121.287407,24.940439],[121.286748,24.941154],[121.285079,24.940106],[121.285242,24.938878],[121.284869,24.936104],[121.287614,24.93489],[121.286235,24.932861],[121.28526,24.93204],[121.284672,24.930854],[121.284827,24.930491],[121.284754,24.930159],[121.286374,24.930294],[121.286531,24.930632],[121.287915,24.930589],[121.288023,24.930401],[121.288389,24.930507],[121.288565,24.929604],[121.289492,24.929797],[121.289292,24.931869]]]},"properties":{"code":"68000080049","name":"福元里","countyCode":"68000","countyName":"桃園市","townCode":"68000080","townName":"八德區","level":"village","unassigned":false,"note":"","label":[121.28655291325231,24.937100039741747],"bounds":[121.284672,24.929604,121.289492,24.941154],"focusBounds":[121.284672,24.929604,121.289492,24.941154],"color":"#df9f6a"}},{"type":"Feature","id":"68000080050","geometry":{"type":"Polygon","coordinates":[[[121.281107,24.930973],[121.281119,24.938004],[121.275993,24.936613],[121.275196,24.93356],[121.274955,24.933245],[121.274711,24.932333],[121.274694,24.932193],[121.275402,24.932016],[121.27503,24.931689],[121.274479,24.930691],[121.274479,24.930372],[121.273585,24.929482],[121.273675,24.928428],[121.273492,24.927431],[121.274552,24.927713],[121.275115,24.928171],[121.27615,24.927957],[121.275276,24.926157],[121.275562,24.925663],[121.275759,24.925622],[121.276481,24.924189],[121.276841,24.924042],[121.276806,24.923076],[121.277315,24.9227],[121.277448,24.921486],[121.276845,24.921069],[121.276501,24.920456],[121.277324,24.920381],[121.278012,24.9201],[121.281092,24.921133],[121.281466,24.922465],[121.281448,24.922619],[121.281095,24.922798],[121.281107,24.930973]]]},"properties":{"code":"68000080050","name":"福德里","countyCode":"68000","countyName":"桃園市","townCode":"68000080","townName":"八德區","level":"village","unassigned":false,"note":"","label":[121.27817566599018,24.930046894645123],"bounds":[121.273492,24.9201,121.281466,24.938004],"focusBounds":[121.273492,24.9201,121.281466,24.938004],"color":"#c38cb8"}},{"type":"Feature","id":"68000080051","geometry":{"type":"Polygon","coordinates":[[[121.283288,24.930422],[121.282019,24.930907],[121.281107,24.930973],[121.281095,24.922798],[121.281448,24.922619],[121.281466,24.922465],[121.281092,24.921133],[121.281878,24.921006],[121.282696,24.920192],[121.283587,24.920255],[121.28519,24.920983],[121.284768,24.924777],[121.284491,24.92661],[121.284459,24.929158],[121.282767,24.92908],[121.283288,24.930422]]]},"properties":{"code":"68000080051","name":"興中里","countyCode":"68000","countyName":"桃園市","townCode":"68000080","townName":"八德區","level":"village","unassigned":false,"note":"","label":[121.28288362278232,24.92511343738812],"bounds":[121.281092,24.920192,121.28519,24.930973],"focusBounds":[121.281092,24.920192,121.28519,24.930973],"color":"#efb44f"}},{"type":"Feature","id":"68000080052","geometry":{"type":"Polygon","coordinates":[[[121.298125,24.950934],[121.29889,24.955562],[121.292984,24.954295],[121.293226,24.952142],[121.296423,24.951355],[121.298125,24.950934]]]},"properties":{"code":"68000080052","name":"大盛里","countyCode":"68000","countyName":"桃園市","townCode":"68000080","townName":"八德區","level":"village","unassigned":false,"note":"","label":[121.29619400915735,24.953197502026242],"bounds":[121.292984,24.950934,121.29889,24.955562],"focusBounds":[121.292984,24.950934,121.29889,24.955562],"color":"#58b99d"}}]}
