{"type":"FeatureCollection","features":[{"type":"Feature","id":"09020010","geometry":{"type":"MultiPolygon","coordinates":[[[[118.339385,24.390518],[118.33896,24.389304],[118.339745,24.389969],[118.339385,24.390518]]],[[[118.346024,24.408046],[118.346358,24.408725],[118.345662,24.408954],[118.345386,24.40838],[118.346024,24.408046]]],[[[118.344575,24.411256],[118.334642,24.419091],[118.329176,24.413948],[118.325292,24.42181],[118.32508,24.425987],[118.32859,24.426141],[118.330402,24.432468],[118.326281,24.432799],[118.324589,24.432393],[118.326516,24.434321],[118.323219,24.436663],[118.326404,24.440075],[118.328273,24.441273],[118.325844,24.444111],[118.325145,24.44353],[118.323713,24.444866],[118.320376,24.442166],[118.32062,24.441447],[118.319749,24.440604],[118.31695,24.438912],[118.315338,24.440498],[118.314711,24.439824],[118.313853,24.44041],[118.312523,24.43767],[118.311923,24.437462],[118.309502,24.437425],[118.307429,24.438144],[118.303003,24.441572],[118.302961,24.438483],[118.302207,24.436247],[118.29845,24.429586],[118.292077,24.421438],[118.290918,24.418846],[118.288172,24.418063],[118.281525,24.417262],[118.280395,24.416335],[118.280859,24.415196],[118.279441,24.41477],[118.27889,24.415132],[118.278116,24.414405],[118.278005,24.412891],[118.280287,24.41149],[118.280489,24.41197],[118.280605,24.410508],[118.284384,24.40864],[118.28482,24.40765],[118.286214,24.407171],[118.286705,24.406443],[118.289764,24.405092],[118.291266,24.40336],[118.290642,24.401987],[118.292846,24.401158],[118.295609,24.399158],[118.29545,24.398403],[118.296477,24.397354],[118.295721,24.396258],[118.296317,24.396435],[118.295935,24.395708],[118.296708,24.395867],[118.297006,24.395404],[118.297593,24.395843],[118.301459,24.396274],[118.304863,24.395807],[118.305528,24.395365],[118.305206,24.394706],[118.306293,24.394442],[118.306356,24.393235],[118.30872,24.391872],[118.308808,24.390872],[118.309423,24.391126],[118.309224,24.390227],[118.310916,24.389788],[118.312668,24.390448],[118.314633,24.389557],[118.315138,24.39004],[118.316599,24.388112],[118.318236,24.388416],[118.319165,24.387641],[118.31996,24.38576],[118.320037,24.386106],[118.322234,24.385575],[118.322922,24.3864],[118.323312,24.3857],[118.325008,24.388037],[118.326035,24.387899],[118.326109,24.387255],[118.326861,24.387654],[118.326887,24.387161],[118.327351,24.387361],[118.327568,24.386964],[118.328759,24.388414],[118.329244,24.387757],[118.330601,24.388307],[118.331257,24.389683],[118.334238,24.391087],[118.338709,24.404529],[118.341235,24.408756],[118.344575,24.411256]]]]},"properties":{"code":"09020010","name":"金城鎮","countyCode":"09020","countyName":"金門縣","townCode":"09020010","townName":"金城鎮","level":"town","unassigned":false,"note":"","label":[118.31115066775126,24.412149970946917],"bounds":[118.278005,24.385575,118.346358,24.444866],"focusBounds":[118.278005,24.385575,118.346358,24.444866],"color":"#a49ad4","childCount":9}},{"type":"Feature","id":"09020020","geometry":{"type":"MultiPolygon","coordinates":[[[[118.397375,24.522734],[118.396621,24.523389],[118.396201,24.522921],[118.396935,24.522336],[118.397375,24.522734]]],[[[118.396668,24.524127],[118.396796,24.524918],[118.39628,24.524605],[118.396668,24.524127]]],[[[118.439065,24.524741],[118.438919,24.52524],[118.436591,24.524063],[118.434713,24.522339],[118.435756,24.521968],[118.439076,24.523445],[118.439065,24.524741]]],[[[118.468903,24.457698],[118.465429,24.462725],[118.4655,24.463763],[118.464028,24.467694],[118.464112,24.471097],[118.463223,24.474997],[118.463434,24.47659],[118.464326,24.476463],[118.465075,24.47702],[118.465292,24.478279],[118.466197,24.479223],[118.468993,24.480445],[118.468519,24.482214],[118.469115,24.482954],[118.468942,24.48368],[118.461947,24.48426],[118.458624,24.48701],[118.455113,24.492804],[118.455802,24.49586],[118.454955,24.497561],[118.453438,24.498837],[118.451722,24.499392],[118.450742,24.501023],[118.449556,24.504659],[118.450627,24.509906],[118.450115,24.510999],[118.445878,24.511516],[118.43566,24.51448],[118.434196,24.515779],[118.432703,24.518454],[118.431542,24.521945],[118.433412,24.522715],[118.433583,24.525006],[118.43167,24.524815],[118.429529,24.525278],[118.428983,24.525985],[118.429325,24.527381],[118.425813,24.528345],[118.42413,24.527668],[118.421749,24.529632],[118.419189,24.530439],[118.414456,24.528309],[118.41313,24.52967],[118.410858,24.530557],[118.41131,24.532144],[118.409271,24.533983],[118.407311,24.534228],[118.40593,24.532606],[118.405704,24.531765],[118.40737,24.531452],[118.407666,24.530072],[118.405605,24.52747],[118.40377,24.527231],[118.400051,24.528604],[118.397707,24.528106],[118.396526,24.525733],[118.399653,24.525448],[118.400277,24.524715],[118.400766,24.522223],[118.396846,24.51955],[118.394319,24.516233],[118.393912,24.514187],[118.392037,24.511607],[118.388611,24.509893],[118.386886,24.509844],[118.384452,24.508768],[118.383739,24.502695],[118.385707,24.493592],[118.384808,24.492228],[118.380731,24.491247],[118.380166,24.487658],[118.37906,24.485043],[118.371968,24.479072],[118.377044,24.468699],[118.382469,24.461553],[118.386583,24.459371],[118.389466,24.460402],[118.39211,24.459104],[118.394459,24.454694],[118.395794,24.453719],[118.403205,24.456561],[118.403022,24.456981],[118.405227,24.457858],[118.405693,24.459358],[118.408745,24.459326],[118.409461,24.458788],[118.411515,24.460906],[118.414853,24.462895],[118.416134,24.463449],[118.417215,24.463515],[118.417553,24.463087],[118.418253,24.46344],[118.418848,24.464257],[118.421346,24.465353],[118.422335,24.466898],[118.42364,24.467371],[118.424397,24.468311],[118.42494,24.467895],[118.425109,24.468939],[118.426563,24.470305],[118.433025,24.470911],[118.435342,24.466363],[118.446024,24.454391],[118.455169,24.44663],[118.459716,24.448457],[118.462258,24.450262],[118.463746,24.452785],[118.465685,24.453485],[118.468903,24.457698]]]]},"properties":{"code":"09020020","name":"金沙鎮","countyCode":"09020","countyName":"金門縣","townCode":"09020020","townName":"金沙鎮","level":"town","unassigned":false,"note":"","label":[118.41565273416545,24.49604419096668],"bounds":[118.371968,24.44663,118.469115,24.534228],"focusBounds":[118.371968,24.44663,118.469115,24.534228],"color":"#a8bf62","childCount":9}},{"type":"Feature","id":"09020030","geometry":{"type":"MultiPolygon","coordinates":[[[[118.440031,24.409565],[118.439289,24.409576],[118.439785,24.40911],[118.440031,24.409565]]],[[[118.457595,24.414338],[118.456924,24.414618],[118.456116,24.414235],[118.45617,24.412807],[118.456945,24.412806],[118.457325,24.413387],[118.457399,24.412504],[118.459238,24.412689],[118.458807,24.414094],[118.457595,24.414338]]],[[[118.45784,24.415373],[118.458425,24.416249],[118.457405,24.41571],[118.45784,24.415373]]],[[[118.460135,24.415787],[118.460621,24.416699],[118.45937,24.416925],[118.458883,24.415608],[118.460135,24.415787]]],[[[118.505554,24.428167],[118.50375,24.428244],[118.503879,24.42629],[118.505658,24.426672],[118.505977,24.427322],[118.505554,24.428167]]],[[[118.468903,24.457698],[118.465685,24.453485],[118.463746,24.452785],[118.462258,24.450262],[118.459716,24.448457],[118.455169,24.44663],[118.446024,24.454391],[118.435342,24.466363],[118.433025,24.470911],[118.426563,24.470305],[118.425109,24.468939],[118.42494,24.467895],[118.424397,24.468311],[118.42364,24.467371],[118.422335,24.466898],[118.421346,24.465353],[118.418848,24.464257],[118.418253,24.46344],[118.417553,24.463087],[118.417215,24.463515],[118.416134,24.463449],[118.414853,24.462895],[118.411515,24.460906],[118.409461,24.458788],[118.408745,24.459326],[118.405693,24.459358],[118.405227,24.457858],[118.403022,24.456981],[118.403205,24.456561],[118.395794,24.453719],[118.394459,24.454694],[118.39211,24.459104],[118.389466,24.460402],[118.386583,24.459371],[118.382469,24.461553],[118.377044,24.468699],[118.371968,24.479072],[118.365828,24.473749],[118.366408,24.461636],[118.366878,24.460901],[118.368071,24.460479],[118.36748,24.459299],[118.367829,24.457914],[118.367214,24.45771],[118.36732,24.457154],[118.365209,24.453661],[118.360493,24.447983],[118.360342,24.445822],[118.361339,24.441986],[118.363865,24.437946],[118.361344,24.436916],[118.360524,24.432183],[118.358833,24.430278],[118.360573,24.426503],[118.372831,24.43192],[118.385595,24.435094],[118.387158,24.435263],[118.387967,24.434482],[118.390575,24.435398],[118.392357,24.435233],[118.39504,24.43587],[118.397164,24.434834],[118.3993,24.435508],[118.402612,24.434981],[118.403209,24.43451],[118.403242,24.433576],[118.404399,24.433702],[118.40629,24.432531],[118.408215,24.432179],[118.40901,24.430373],[118.409016,24.42869],[118.409859,24.431802],[118.410981,24.431422],[118.410124,24.430484],[118.410606,24.429197],[118.409218,24.42757],[118.410511,24.428563],[118.412639,24.428528],[118.413693,24.427155],[118.415097,24.427508],[118.418184,24.427024],[118.427465,24.423891],[118.431329,24.420097],[118.433017,24.416473],[118.431667,24.415115],[118.430829,24.412663],[118.427713,24.412178],[118.425596,24.410956],[118.427951,24.411995],[118.430206,24.41224],[118.429092,24.410368],[118.430989,24.409521],[118.432306,24.409788],[118.430033,24.40857],[118.427516,24.408362],[118.426246,24.409331],[118.427201,24.408182],[118.426167,24.406833],[118.429345,24.407289],[118.430529,24.406809],[118.431526,24.407407],[118.430852,24.407739],[118.431657,24.408043],[118.432491,24.407476],[118.434569,24.407572],[118.43582,24.408079],[118.435776,24.408841],[118.436723,24.40906],[118.43754,24.41015],[118.441016,24.411225],[118.442725,24.411245],[118.443101,24.410728],[118.443848,24.411575],[118.444712,24.411551],[118.445012,24.412585],[118.445771,24.412123],[118.44612,24.412641],[118.446794,24.412397],[118.445816,24.413272],[118.445873,24.413859],[118.446408,24.414404],[118.447498,24.413934],[118.44729,24.414538],[118.448364,24.415501],[118.449702,24.415949],[118.450257,24.41536],[118.453025,24.415378],[118.45282,24.416556],[118.45436,24.417204],[118.454956,24.416269],[118.45546,24.417578],[118.456041,24.417788],[118.455379,24.419393],[118.456752,24.420392],[118.457743,24.42405],[118.457029,24.425217],[118.457323,24.426015],[118.45858,24.42598],[118.460535,24.423675],[118.46056,24.42447],[118.462258,24.425824],[118.462444,24.427233],[118.463056,24.426809],[118.464072,24.427299],[118.465286,24.428707],[118.465092,24.429496],[118.464547,24.429775],[118.464022,24.429139],[118.463855,24.429677],[118.466076,24.430382],[118.466521,24.431583],[118.463819,24.433457],[118.463462,24.435853],[118.462127,24.435412],[118.460497,24.43628],[118.460684,24.437612],[118.461474,24.438472],[118.462853,24.438038],[118.463185,24.438646],[118.462439,24.439574],[118.462649,24.440172],[118.465439,24.44184],[118.467713,24.441889],[118.468431,24.441356],[118.46813,24.440455],[118.468712,24.440512],[118.468192,24.440132],[118.470615,24.439752],[118.470633,24.440221],[118.469744,24.440096],[118.471082,24.440518],[118.471225,24.441279],[118.470626,24.441142],[118.471095,24.44159],[118.472672,24.441513],[118.472161,24.442283],[118.472831,24.442903],[118.472284,24.443055],[118.473778,24.444934],[118.474202,24.449564],[118.475377,24.450031],[118.477465,24.449519],[118.478167,24.450258],[118.476732,24.451678],[118.476202,24.453279],[118.473155,24.453563],[118.472061,24.454786],[118.470344,24.45522],[118.468903,24.457698]]]]},"properties":{"code":"09020030","name":"金湖鎮","countyCode":"09020","countyName":"金門縣","townCode":"09020030","townName":"金湖鎮","level":"town","unassigned":false,"note":"","label":[118.42194330138346,24.44602076659721],"bounds":[118.358833,24.406809,118.505977,24.479072],"focusBounds":[118.358833,24.406809,118.505977,24.479072],"color":"#68bec9","childCount":8}},{"type":"Feature","id":"09020040","geometry":{"type":"Polygon","coordinates":[[[118.365828,24.473749],[118.363123,24.471673],[118.356638,24.471015],[118.350439,24.471656],[118.345524,24.474405],[118.341409,24.474341],[118.338687,24.474983],[118.334581,24.476971],[118.330201,24.480001],[118.326989,24.48304],[118.324282,24.487713],[118.320392,24.491485],[118.318165,24.493157],[118.312872,24.495524],[118.310466,24.496016],[118.305703,24.495436],[118.299783,24.493684],[118.296541,24.49187],[118.294542,24.491343],[118.29274,24.48992],[118.289701,24.485978],[118.286556,24.4789],[118.285994,24.477073],[118.286222,24.474825],[118.289104,24.470894],[118.288455,24.470671],[118.288464,24.46992],[118.291166,24.468175],[118.29535,24.462359],[118.295923,24.460559],[118.295554,24.456],[118.296448,24.453983],[118.299437,24.45126],[118.300959,24.448703],[118.30219,24.446198],[118.303003,24.441572],[118.307429,24.438144],[118.309502,24.437425],[118.311923,24.437462],[118.312523,24.43767],[118.313853,24.44041],[118.314711,24.439824],[118.315338,24.440498],[118.31695,24.438912],[118.319749,24.440604],[118.32062,24.441447],[118.320376,24.442166],[118.323713,24.444866],[118.325145,24.44353],[118.325844,24.444111],[118.328273,24.441273],[118.326404,24.440075],[118.323219,24.436663],[118.326516,24.434321],[118.324589,24.432393],[118.326281,24.432799],[118.330402,24.432468],[118.32859,24.426141],[118.32508,24.425987],[118.325292,24.42181],[118.329176,24.413948],[118.334642,24.419091],[118.344575,24.411256],[118.34604,24.412929],[118.34614,24.414112],[118.347719,24.414959],[118.348284,24.418374],[118.350361,24.420551],[118.352765,24.421388],[118.353981,24.423074],[118.360573,24.426503],[118.358833,24.430278],[118.360524,24.432183],[118.361344,24.436916],[118.363865,24.437946],[118.361339,24.441986],[118.360342,24.445822],[118.360493,24.447983],[118.365209,24.453661],[118.36732,24.457154],[118.367214,24.45771],[118.367829,24.457914],[118.36748,24.459299],[118.368071,24.460479],[118.366878,24.460901],[118.366408,24.461636],[118.365828,24.473749]]]},"properties":{"code":"09020040","name":"金寧鄉","countyCode":"09020","countyName":"金門縣","townCode":"09020040","townName":"金寧鄉","level":"town","unassigned":false,"note":"","label":[118.3218427297811,24.462984771922294],"bounds":[118.285994,24.411256,118.368071,24.496016],"focusBounds":[118.285994,24.411256,118.368071,24.496016],"color":"#df9f6a","childCount":6}},{"type":"Feature","id":"09020050","geometry":{"type":"MultiPolygon","coordinates":[[[[118.233816,24.162771],[118.232888,24.163184],[118.232433,24.160768],[118.234555,24.160255],[118.235063,24.162575],[118.233816,24.162771]]],[[[118.138289,24.374449],[118.1388,24.374985],[118.138186,24.375001],[118.138289,24.374449]]],[[[118.142044,24.378347],[118.141737,24.378706],[118.141561,24.377799],[118.142612,24.37763],[118.142684,24.378231],[118.142044,24.378347]]],[[[118.145567,24.378926],[118.143682,24.378496],[118.144712,24.375477],[118.145165,24.376514],[118.144795,24.377407],[118.145724,24.377719],[118.145567,24.378926]]],[[[118.160377,24.378554],[118.163263,24.381317],[118.158263,24.382184],[118.154335,24.383736],[118.15346,24.383749],[118.151366,24.382328],[118.153029,24.380203],[118.154631,24.379214],[118.154987,24.378315],[118.156852,24.377202],[118.157183,24.37797],[118.159706,24.378104],[118.160377,24.378554]]],[[[118.162617,24.394904],[118.16101,24.395603],[118.159832,24.394943],[118.159219,24.393236],[118.161764,24.389988],[118.161826,24.387329],[118.165771,24.386839],[118.16899,24.384209],[118.172794,24.386331],[118.173312,24.387193],[118.17256,24.388218],[118.171913,24.387599],[118.170992,24.389617],[118.169541,24.390121],[118.166481,24.389608],[118.165216,24.390109],[118.163632,24.393755],[118.164215,24.395244],[118.162617,24.394904]]],[[[118.194303,24.39716],[118.194281,24.398013],[118.193692,24.398134],[118.191591,24.397457],[118.191489,24.397002],[118.192096,24.396261],[118.193457,24.39624],[118.193764,24.395336],[118.194322,24.395317],[118.195129,24.395825],[118.194148,24.396205],[118.193823,24.396749],[118.194303,24.39716]]],[[[118.229932,24.404617],[118.228373,24.404258],[118.229045,24.402889],[118.231598,24.403075],[118.230466,24.404628],[118.229932,24.404617]]],[[[118.198712,24.436452],[118.199629,24.437151],[118.199236,24.437515],[118.197917,24.437136],[118.198712,24.436452]]],[[[118.212906,24.451934],[118.21085,24.45159],[118.211625,24.451366],[118.212906,24.451934]]],[[[118.210328,24.453578],[118.210549,24.45424],[118.20986,24.454395],[118.208751,24.453441],[118.20921,24.453312],[118.208943,24.452768],[118.210496,24.453099],[118.210328,24.453578]]],[[[118.227067,24.455458],[118.227626,24.455821],[118.225909,24.455757],[118.227067,24.455458]]],[[[118.24886,24.45636],[118.245939,24.456183],[118.243425,24.455011],[118.241373,24.456054],[118.238334,24.455251],[118.235443,24.453769],[118.233372,24.453678],[118.230532,24.452051],[118.227304,24.44787],[118.224221,24.439725],[118.22385,24.436615],[118.221046,24.432476],[118.219462,24.431387],[118.216806,24.428066],[118.216563,24.426234],[118.217329,24.42446],[118.217372,24.420764],[118.215514,24.416031],[118.214566,24.414836],[118.21465,24.413579],[118.216374,24.413069],[118.213866,24.411848],[118.212099,24.412801],[118.211568,24.41248],[118.212285,24.411005],[118.213551,24.410345],[118.21352,24.409771],[118.215345,24.409335],[118.218908,24.409574],[118.222089,24.40879],[118.223526,24.407799],[118.223679,24.406409],[118.224895,24.40516],[118.225966,24.405046],[118.227514,24.407841],[118.229261,24.408278],[118.232291,24.412748],[118.233176,24.413314],[118.237752,24.414859],[118.240549,24.414652],[118.241833,24.413852],[118.24111,24.413076],[118.241491,24.411258],[118.243635,24.413348],[118.245351,24.413635],[118.250046,24.418256],[118.248713,24.419409],[118.249917,24.421591],[118.254643,24.424882],[118.256133,24.425341],[118.258452,24.425078],[118.25816,24.423432],[118.258889,24.422956],[118.258315,24.423488],[118.25856,24.424664],[118.259744,24.424481],[118.260535,24.423092],[118.259296,24.422119],[118.260305,24.422657],[118.262133,24.422223],[118.26308,24.422532],[118.262656,24.423545],[118.263081,24.424495],[118.265079,24.425365],[118.264983,24.426019],[118.266319,24.428126],[118.265823,24.430137],[118.267293,24.433909],[118.266377,24.43467],[118.269834,24.438245],[118.268187,24.439693],[118.269169,24.445983],[118.265786,24.446779],[118.263688,24.448208],[118.262171,24.449534],[118.26005,24.452751],[118.258055,24.454034],[118.255288,24.455184],[118.250124,24.455763],[118.24886,24.45636]]],[[[118.277686,24.45381],[118.27479,24.456724],[118.272053,24.458041],[118.269203,24.454242],[118.268828,24.452484],[118.272398,24.453352],[118.27636,24.452282],[118.277686,24.45381]]]]},"properties":{"code":"09020050","name":"烈嶼鄉","countyCode":"09020","countyName":"金門縣","townCode":"09020050","townName":"烈嶼鄉","level":"town","unassigned":false,"note":"","label":[118.24078890340813,24.43520086080055],"bounds":[118.138186,24.160255,118.277686,24.458041],"focusBounds":[118.138186,24.160255,118.277686,24.458041],"color":"#c38cb8","childCount":12}},{"type":"Feature","id":"09020060","geometry":{"type":"MultiPolygon","coordinates":[[[[119.474055,24.985979],[119.472717,24.987222],[119.467816,24.98439],[119.46564,24.982409],[119.465361,24.981403],[119.465989,24.97995],[119.472781,24.9776],[119.473629,24.977608],[119.476206,24.979378],[119.477566,24.980896],[119.47896,24.983946],[119.478882,24.985881],[119.477497,24.986418],[119.475118,24.98575],[119.474055,24.985979]]],[[[119.458337,24.989464],[119.458009,24.992354],[119.455801,24.994962],[119.444788,24.999614],[119.443447,24.998717],[119.443287,24.996683],[119.445448,24.99362],[119.44635,24.991549],[119.446682,24.988396],[119.447675,24.987497],[119.451201,24.987555],[119.456879,24.985243],[119.458365,24.987313],[119.458337,24.989464]]]]},"properties":{"code":"09020060","name":"烏坵鄉","countyCode":"09020","countyName":"金門縣","townCode":"09020060","townName":"烏坵鄉","level":"town","unassigned":false,"note":"","label":[119.45116897115861,24.99223677995909],"bounds":[119.443287,24.9776,119.47896,24.999614],"focusBounds":[119.443287,24.9776,119.47896,24.999614],"color":"#98b69b","childCount":2}}]}
