{"type":"FeatureCollection","features":[{"type":"Feature","id":"10008010","geometry":{"type":"Polygon","coordinates":[[[120.734473,23.949258],[120.732444,23.951444],[120.730125,23.952072],[120.72989,23.953057],[120.726934,23.955552],[120.726241,23.955518],[120.72617,23.954838],[120.724488,23.953727],[120.724151,23.952075],[120.723224,23.951621],[120.720046,23.952504],[120.718676,23.953512],[120.716766,23.95358],[120.715449,23.954494],[120.712858,23.954913],[120.711843,23.954185],[120.7106,23.954924],[120.710392,23.956861],[120.709107,23.958387],[120.706296,23.959414],[120.704636,23.958937],[120.701826,23.960759],[120.701643,23.962923],[120.70002,23.965454],[120.698,23.964461],[120.697067,23.962511],[120.695235,23.962064],[120.693344,23.960527],[120.692264,23.961095],[120.690484,23.959747],[120.690321,23.960262],[120.688398,23.959844],[120.687069,23.960459],[120.686988,23.961213],[120.685995,23.961265],[120.684986,23.958615],[120.685318,23.957986],[120.683464,23.957789],[120.683912,23.956885],[120.683594,23.956206],[120.680917,23.955648],[120.68034,23.952264],[120.674122,23.9496],[120.671864,23.946287],[120.671842,23.945045],[120.671227,23.944768],[120.668367,23.945958],[120.664527,23.945972],[120.662387,23.947761],[120.662215,23.950185],[120.661598,23.951105],[120.660131,23.952158],[120.657587,23.952344],[120.654643,23.95571],[120.648619,23.960351],[120.646853,23.963377],[120.644224,23.962081],[120.642659,23.958272],[120.636745,23.952695],[120.635408,23.952245],[120.634343,23.953999],[120.631487,23.955597],[120.631127,23.956297],[120.629658,23.956109],[120.627128,23.95652],[120.626947,23.955654],[120.627778,23.955848],[120.628089,23.955359],[120.62981,23.955211],[120.629402,23.954557],[120.631622,23.954777],[120.632783,23.954392],[120.633845,23.953365],[120.634073,23.95226],[120.631564,23.953484],[120.629382,23.952123],[120.628015,23.95266],[120.627593,23.95177],[120.634656,23.943708],[120.633366,23.942881],[120.630829,23.9448],[120.630166,23.944282],[120.630721,23.943798],[120.630142,23.942998],[120.636391,23.93772],[120.637659,23.935433],[120.635486,23.937445],[120.635361,23.936909],[120.634664,23.936991],[120.634104,23.936086],[120.632777,23.935645],[120.632139,23.932874],[120.630987,23.932156],[120.630408,23.932592],[120.629723,23.931171],[120.628498,23.931369],[120.627823,23.931082],[120.628505,23.930162],[120.630983,23.929338],[120.631384,23.928732],[120.631957,23.928916],[120.631786,23.92832],[120.632751,23.928394],[120.633769,23.927222],[120.633139,23.926596],[120.635501,23.926243],[120.637411,23.924084],[120.636944,23.923456],[120.637188,23.921805],[120.635322,23.921655],[120.636554,23.920092],[120.636456,23.919369],[120.634971,23.920094],[120.634771,23.919249],[120.633538,23.919581],[120.6347,23.918857],[120.635092,23.9179],[120.633896,23.91781],[120.634383,23.916947],[120.634154,23.916201],[120.633271,23.915996],[120.634048,23.915581],[120.633339,23.915176],[120.634714,23.913117],[120.633059,23.914201],[120.633562,23.91243],[120.632538,23.912507],[120.633368,23.911762],[120.632603,23.911506],[120.632601,23.910879],[120.629813,23.911179],[120.629403,23.910813],[120.629949,23.910344],[120.631772,23.910446],[120.63301,23.9096],[120.631694,23.909277],[120.631553,23.908662],[120.630513,23.908632],[120.630665,23.908213],[120.631847,23.90841],[120.634222,23.907669],[120.633287,23.907235],[120.633284,23.906175],[120.632126,23.906751],[120.632647,23.905788],[120.632198,23.904353],[120.633032,23.904212],[120.632163,23.903383],[120.631369,23.903431],[120.631571,23.902823],[120.633079,23.902901],[120.634034,23.901643],[120.634926,23.901454],[120.633713,23.900373],[120.633806,23.89964],[120.634435,23.89955],[120.635065,23.898599],[120.634859,23.897823],[120.634047,23.897702],[120.634362,23.896748],[120.632941,23.896722],[120.632761,23.896272],[120.633142,23.895575],[120.63418,23.895239],[120.634227,23.894377],[120.63376,23.894091],[120.634405,23.893548],[120.633141,23.893196],[120.632238,23.892161],[120.634102,23.891832],[120.632269,23.890425],[120.632715,23.88976],[120.632117,23.889428],[120.630353,23.889814],[120.627308,23.889503],[120.629422,23.8891],[120.632237,23.888984],[120.633152,23.888512],[120.635292,23.889595],[120.636163,23.889281],[120.636341,23.888345],[120.637068,23.888852],[120.639107,23.88818],[120.639536,23.889015],[120.641145,23.888623],[120.641927,23.887751],[120.641893,23.888665],[120.642561,23.888868],[120.644835,23.887067],[120.647719,23.886079],[120.648954,23.886601],[120.652794,23.884504],[120.661676,23.882127],[120.666941,23.883056],[120.669742,23.882491],[120.669855,23.881955],[120.671365,23.881561],[120.67652,23.881579],[120.683153,23.880409],[120.696288,23.884865],[120.698966,23.886584],[120.700328,23.886767],[120.700911,23.887727],[120.703021,23.889042],[120.704044,23.887732],[120.706221,23.889095],[120.708657,23.888978],[120.70918,23.88818],[120.714549,23.890291],[120.716781,23.888558],[120.719191,23.882958],[120.723113,23.880842],[120.724619,23.878609],[120.727505,23.880846],[120.724269,23.883236],[120.724725,23.884927],[120.724264,23.890509],[120.721869,23.891058],[120.717544,23.893672],[120.710559,23.894146],[120.707092,23.895903],[120.707975,23.897583],[120.71211,23.899511],[120.715015,23.906086],[120.717178,23.907229],[120.717433,23.908746],[120.716742,23.911543],[120.719379,23.913911],[120.720448,23.914166],[120.719154,23.915103],[120.718268,23.915077],[120.718222,23.91614],[120.716933,23.916198],[120.71727,23.917728],[120.71782,23.917749],[120.717104,23.919267],[120.715751,23.920021],[120.714688,23.919429],[120.714118,23.920327],[120.71326,23.920247],[120.713032,23.92114],[120.71227,23.920661],[120.712275,23.920059],[120.711233,23.920831],[120.713224,23.922003],[120.714154,23.921339],[120.716119,23.920999],[120.719185,23.922782],[120.719492,23.923973],[120.722114,23.923937],[120.723385,23.927635],[120.725888,23.930659],[120.728738,23.929464],[120.729482,23.928337],[120.734758,23.929625],[120.734192,23.935602],[120.732973,23.936259],[120.732338,23.938935],[120.733025,23.939789],[120.732979,23.940664],[120.732593,23.942196],[120.731787,23.942869],[120.733733,23.945429],[120.733532,23.947237],[120.733904,23.949023],[120.734473,23.949258]]]},"properties":{"code":"10008010","name":"南投市","countyCode":"10008","countyName":"南投縣","townCode":"10008010","townName":"南投市","level":"town","unassigned":false,"note":"","label":[120.67983207359651,23.913440018198017],"bounds":[120.626947,23.878609,120.734758,23.965454],"focusBounds":[120.626947,23.878609,120.734758,23.965454],"color":"#58b99d","childCount":34}},{"type":"Feature","id":"10008020","geometry":{"type":"Polygon","coordinates":[[[120.943658,24.053042],[120.940929,24.053221],[120.940338,24.052837],[120.940701,24.051298],[120.939633,24.049384],[120.939461,24.046187],[120.937206,24.044656],[120.93341,24.045203],[120.93372,24.045854],[120.932175,24.04745],[120.930562,24.045593],[120.92991,24.045804],[120.928733,24.045205],[120.928421,24.046173],[120.927854,24.046345],[120.928095,24.047173],[120.926826,24.048245],[120.92693,24.05017],[120.924564,24.047871],[120.917845,24.048088],[120.914521,24.04447],[120.913949,24.042131],[120.912829,24.042244],[120.911174,24.043617],[120.910086,24.042891],[120.908223,24.043123],[120.905946,24.04031],[120.90396,24.041402],[120.903386,24.041196],[120.902903,24.039707],[120.903918,24.036552],[120.903089,24.035144],[120.901862,24.03516],[120.902401,24.032033],[120.902065,24.029868],[120.900313,24.029385],[120.899258,24.027183],[120.896008,24.024306],[120.896153,24.023395],[120.89542,24.022801],[120.891826,24.02227],[120.888751,24.01918],[120.890163,24.013753],[120.890753,24.013093],[120.891619,24.012613],[120.893294,24.012724],[120.895253,24.011749],[120.897033,24.011713],[120.897919,24.010989],[120.898187,24.009851],[120.899897,24.011131],[120.900674,24.010408],[120.901682,24.010461],[120.90208,24.009635],[120.901533,24.007588],[120.901819,24.006322],[120.904241,24.003978],[120.906685,24.002563],[120.909615,24.003328],[120.908379,24.000722],[120.907025,23.999713],[120.907555,23.998599],[120.906463,23.996534],[120.904198,23.993833],[120.904007,23.99086],[120.903327,23.989739],[120.906077,23.983948],[120.906532,23.976849],[120.905515,23.975763],[120.907773,23.971209],[120.905831,23.970851],[120.904848,23.971263],[120.903118,23.970421],[120.902189,23.971835],[120.899566,23.97213],[120.898478,23.97064],[120.894991,23.968964],[120.893817,23.969392],[120.89271,23.968877],[120.89226,23.969365],[120.890806,23.969173],[120.889452,23.967712],[120.887961,23.967383],[120.885348,23.964867],[120.884061,23.962386],[120.88502,23.960453],[120.88416,23.958204],[120.882623,23.957849],[120.881487,23.954852],[120.879214,23.953098],[120.879496,23.949862],[120.88063,23.948247],[120.87862,23.943276],[120.878528,23.939443],[120.879722,23.932563],[120.878953,23.930858],[120.879435,23.929309],[120.878988,23.92757],[120.879714,23.925095],[120.883243,23.92581],[120.887252,23.925016],[120.887574,23.927201],[120.888977,23.928367],[120.890739,23.928646],[120.891344,23.931181],[120.893254,23.933139],[120.894224,23.932314],[120.897696,23.931386],[120.90053,23.92768],[120.904411,23.926726],[120.906209,23.923342],[120.909326,23.922786],[120.912481,23.924518],[120.914159,23.926299],[120.916796,23.9279],[120.918164,23.927575],[120.919558,23.928005],[120.920425,23.927619],[120.9218,23.925573],[120.928601,23.923401],[120.931631,23.924555],[120.932707,23.926873],[120.934149,23.928433],[120.935848,23.929506],[120.937391,23.929769],[120.93814,23.931133],[120.939931,23.931059],[120.943826,23.933136],[120.944949,23.933072],[120.945601,23.932236],[120.948348,23.931436],[120.95219,23.932156],[120.953974,23.931646],[120.95443,23.930131],[120.955888,23.929177],[120.956842,23.929362],[120.95803,23.928316],[120.960404,23.930694],[120.96131,23.930208],[120.965296,23.930368],[120.967003,23.928207],[120.965249,23.928329],[120.964459,23.927625],[120.965407,23.925788],[120.965465,23.923353],[120.966896,23.922769],[120.967482,23.921821],[120.967381,23.918188],[120.968485,23.917623],[120.971169,23.917573],[120.973167,23.915182],[120.975163,23.913983],[120.975704,23.912752],[120.978815,23.911469],[120.979633,23.909869],[120.982041,23.90782],[120.984623,23.907167],[120.986038,23.904887],[120.983236,23.903671],[120.984253,23.900701],[120.986067,23.900216],[120.991144,23.895526],[120.991089,23.896604],[120.987251,23.902311],[120.986555,23.904947],[120.987017,23.906572],[120.986047,23.907576],[120.982202,23.908621],[120.98293,23.90976],[120.981391,23.910347],[120.985483,23.912423],[120.987332,23.911548],[120.988601,23.910227],[120.988992,23.910979],[120.988615,23.91275],[120.987207,23.914394],[120.986281,23.914516],[120.985045,23.916605],[120.981931,23.91887],[120.982414,23.919958],[120.983836,23.921177],[120.985601,23.91998],[120.986816,23.921521],[120.988305,23.920393],[120.989401,23.921288],[120.989611,23.92288],[120.990931,23.923132],[120.991925,23.924551],[120.992775,23.924342],[120.997631,23.925397],[120.998294,23.924012],[121.001947,23.92388],[121.003017,23.920818],[121.003357,23.91634],[121.003934,23.914955],[121.005383,23.912793],[121.006742,23.911934],[121.008117,23.908156],[121.009989,23.90764],[121.008201,23.910593],[121.008119,23.920868],[121.010615,23.920988],[121.008533,23.922237],[121.008606,23.924234],[121.011972,23.928201],[121.01415,23.928465],[121.016202,23.929416],[121.016816,23.930955],[121.016411,23.93271],[121.01465,23.933136],[121.01315,23.9311],[121.010386,23.930108],[121.008094,23.927241],[121.006816,23.926646],[121.005262,23.927003],[121.004147,23.925885],[121.002396,23.926929],[121.001246,23.927034],[120.999721,23.929165],[120.998327,23.929208],[120.997937,23.929916],[120.996691,23.93045],[121.000133,23.933357],[121.001683,23.935838],[121.005159,23.93954],[121.007076,23.940031],[121.010039,23.939543],[121.011971,23.940719],[121.014443,23.94513],[121.013095,23.946849],[121.008175,23.946415],[121.005249,23.947439],[121.004585,23.948497],[121.004123,23.952388],[121.001932,23.954046],[121.001359,23.955796],[121.002599,23.957062],[121.001715,23.957432],[121.001876,23.958748],[121.002756,23.959074],[121.004209,23.958769],[121.00549,23.959894],[121.003117,23.96071],[121.001927,23.962603],[121.002547,23.963458],[121.00156,23.964301],[121.002157,23.966848],[121.003374,23.967015],[121.00494,23.966299],[121.006282,23.966305],[121.005905,23.964811],[121.0069,23.963843],[121.008053,23.964148],[121.007916,23.965545],[121.009849,23.966261],[121.011367,23.967626],[121.015595,23.96838],[121.017025,23.968134],[121.01766,23.96625],[121.018948,23.965435],[121.020452,23.96217],[121.024525,23.957549],[121.026257,23.957214],[121.027723,23.955367],[121.029164,23.949882],[121.030384,23.947353],[121.030935,23.94406],[121.033083,23.945126],[121.036324,23.945104],[121.039101,23.94373],[121.043165,23.943722],[121.044816,23.942998],[121.046099,23.943557],[121.046775,23.946997],[121.04953,23.949993],[121.048785,23.954455],[121.052053,23.957352],[121.053958,23.961211],[121.056457,23.96407],[121.05429,23.966817],[121.05337,23.969703],[121.057203,23.968869],[121.059152,23.971473],[121.061325,23.971825],[121.062202,23.975352],[121.064579,23.976705],[121.06609,23.978327],[121.067159,23.981101],[121.069463,23.983528],[121.068505,23.984543],[121.067181,23.989215],[121.065735,23.991661],[121.062394,23.993691],[121.061385,23.994908],[121.058363,23.996075],[121.057603,23.999223],[121.058685,24.001436],[121.056559,24.004816],[121.052978,24.002985],[121.052116,24.001175],[121.050593,24.000134],[121.049684,23.997998],[121.045943,23.998925],[121.041638,23.998689],[121.039303,23.999463],[121.033992,23.998899],[121.031744,23.999925],[121.026201,24.003963],[121.023952,24.00262],[121.02029,24.001757],[121.019197,24.000491],[121.015158,23.999952],[121.008911,24.000345],[121.005831,24.003391],[121.003224,24.007346],[121.004001,24.010662],[121.006495,24.014194],[121.005815,24.017303],[121.003213,24.020096],[121.00218,24.020556],[120.999074,24.019488],[120.996173,24.020449],[120.990911,24.020205],[120.989638,24.022381],[120.987011,24.024723],[120.983702,24.02653],[120.981806,24.029488],[120.981237,24.031472],[120.976352,24.032829],[120.974472,24.0308],[120.971473,24.030895],[120.965202,24.0344],[120.965016,24.038339],[120.962834,24.039904],[120.959092,24.044824],[120.957067,24.045363],[120.954466,24.044921],[120.95391,24.046051],[120.952053,24.046707],[120.950804,24.047811],[120.950073,24.049444],[120.944689,24.04965],[120.943658,24.053042]]]},"properties":{"code":"10008020","name":"埔里鎮","countyCode":"10008","countyName":"南投縣","townCode":"10008020","townName":"埔里鎮","level":"town","unassigned":false,"note":"","label":[120.95601610707132,23.983040951448235],"bounds":[120.878528,23.895526,121.069463,24.053221],"focusBounds":[120.878528,23.895526,121.069463,24.053221],"color":"#58b99d","childCount":33}},{"type":"Feature","id":"10008030","geometry":{"type":"Polygon","coordinates":[[[120.834768,23.970479],[120.834995,23.971367],[120.833201,23.975298],[120.834282,23.980658],[120.83552,23.983716],[120.834588,23.985522],[120.832561,23.986589],[120.830868,23.992629],[120.828032,23.993907],[120.826958,23.99292],[120.825299,23.994864],[120.823514,23.994816],[120.822413,23.993603],[120.8193,23.998392],[120.814721,24.000726],[120.812916,24.000712],[120.811562,24.001437],[120.808253,24.001865],[120.809884,24.007329],[120.806707,24.008425],[120.803438,24.008553],[120.802582,24.01084],[120.79995,24.013004],[120.798602,24.015378],[120.794914,24.016279],[120.794126,24.015815],[120.792714,24.016196],[120.788728,24.015414],[120.786146,24.015745],[120.784343,24.016977],[120.781699,24.017782],[120.781912,24.01814],[120.779527,24.02011],[120.7755,24.018789],[120.773388,24.015811],[120.771356,24.014339],[120.771134,24.011445],[120.770355,24.010598],[120.770979,24.009768],[120.770562,24.009074],[120.767777,24.009151],[120.762675,24.006257],[120.759817,24.006473],[120.757974,24.006095],[120.757557,24.004898],[120.75618,24.004516],[120.755896,24.003531],[120.754501,24.003398],[120.754323,24.002712],[120.753246,24.002343],[120.751035,24.002826],[120.748742,24.00101],[120.747603,23.999148],[120.74599,23.998556],[120.74365,24.002169],[120.731731,24.009003],[120.719242,24.009659],[120.706383,24.005191],[120.694883,24.007118],[120.685996,24.010472],[120.678646,24.014031],[120.675994,24.010712],[120.67457,24.010454],[120.67426,24.010832],[120.672572,24.01024],[120.670644,24.010623],[120.67009,24.009959],[120.671827,24.009525],[120.673698,24.008083],[120.672581,24.005847],[120.671705,24.006483],[120.670365,24.006286],[120.667584,24.006909],[120.666155,24.007744],[120.66359,24.008096],[120.650986,24.0085],[120.64942,24.008081],[120.64732,24.008421],[120.646201,24.009149],[120.643389,24.00831],[120.642474,24.008957],[120.641483,24.008064],[120.640348,24.005729],[120.638095,24.007404],[120.638201,24.003756],[120.636117,23.998411],[120.636828,23.994512],[120.637781,23.993574],[120.644654,23.990105],[120.650093,23.984921],[120.650048,23.982943],[120.646315,23.973241],[120.646961,23.971532],[120.646853,23.963377],[120.648619,23.960351],[120.654643,23.95571],[120.657587,23.952344],[120.660131,23.952158],[120.661598,23.951105],[120.662215,23.950185],[120.662387,23.947761],[120.664527,23.945972],[120.668367,23.945958],[120.671227,23.944768],[120.671842,23.945045],[120.671864,23.946287],[120.674122,23.9496],[120.68034,23.952264],[120.680917,23.955648],[120.683594,23.956206],[120.683912,23.956885],[120.683464,23.957789],[120.685318,23.957986],[120.684986,23.958615],[120.685995,23.961265],[120.686988,23.961213],[120.687069,23.960459],[120.688398,23.959844],[120.690321,23.960262],[120.690484,23.959747],[120.692264,23.961095],[120.693344,23.960527],[120.695235,23.962064],[120.697067,23.962511],[120.698,23.964461],[120.70002,23.965454],[120.701643,23.962923],[120.701826,23.960759],[120.704636,23.958937],[120.706296,23.959414],[120.709107,23.958387],[120.710392,23.956861],[120.7106,23.954924],[120.711843,23.954185],[120.712858,23.954913],[120.715449,23.954494],[120.716766,23.95358],[120.718676,23.953512],[120.720046,23.952504],[120.723224,23.951621],[120.724151,23.952075],[120.724488,23.953727],[120.72617,23.954838],[120.726241,23.955518],[120.726934,23.955552],[120.72989,23.953057],[120.730125,23.952072],[120.732444,23.951444],[120.734473,23.949258],[120.738395,23.948282],[120.740168,23.950075],[120.739521,23.951208],[120.73983,23.951902],[120.742791,23.951087],[120.741489,23.95378],[120.742361,23.956027],[120.7427,23.955513],[120.744281,23.955747],[120.746609,23.954861],[120.747708,23.955062],[120.748186,23.954362],[120.749224,23.954237],[120.748852,23.956386],[120.749748,23.956359],[120.749798,23.957248],[120.751071,23.957611],[120.750769,23.960441],[120.751613,23.961002],[120.752459,23.960564],[120.75399,23.961683],[120.754729,23.961185],[120.75572,23.962864],[120.7571,23.962189],[120.758508,23.964376],[120.760664,23.964458],[120.763827,23.967853],[120.767073,23.967666],[120.767037,23.965624],[120.770314,23.964572],[120.770023,23.962401],[120.772871,23.960817],[120.7733,23.959568],[120.775204,23.957621],[120.775317,23.955803],[120.77589,23.955517],[120.77796,23.956008],[120.778768,23.958797],[120.780705,23.959584],[120.782374,23.958179],[120.784177,23.958283],[120.785146,23.956525],[120.78622,23.956238],[120.787298,23.956527],[120.78812,23.958245],[120.789243,23.95919],[120.791043,23.959378],[120.79322,23.960841],[120.794602,23.959767],[120.798061,23.960313],[120.802906,23.963088],[120.803133,23.96458],[120.804716,23.966131],[120.805122,23.968155],[120.805991,23.96917],[120.807991,23.970724],[120.810927,23.971628],[120.811441,23.970035],[120.812011,23.969759],[120.815123,23.970043],[120.817084,23.969394],[120.81912,23.96958],[120.821342,23.96855],[120.823587,23.969505],[120.828323,23.968908],[120.831519,23.970244],[120.834768,23.970479]]]},"properties":{"code":"10008030","name":"草屯鎮","countyCode":"10008","countyName":"南投縣","townCode":"10008030","townName":"草屯鎮","level":"town","unassigned":false,"note":"","label":[120.72214090220837,23.980895984823327],"bounds":[120.636117,23.944768,120.83552,24.02011],"focusBounds":[120.636117,23.944768,120.83552,24.02011],"color":"#78a7e3","childCount":27}},{"type":"Feature","id":"10008040","geometry":{"type":"Polygon","coordinates":[[[120.763941,23.816947],[120.761516,23.817766],[120.758145,23.820188],[120.756019,23.820686],[120.754699,23.822352],[120.751216,23.824213],[120.746487,23.82616],[120.739435,23.827735],[120.727998,23.834023],[120.72524,23.831665],[120.718623,23.828942],[120.710406,23.823809],[120.703034,23.814173],[120.696828,23.807293],[120.692573,23.804645],[120.686713,23.80199],[120.683801,23.80134],[120.680132,23.801664],[120.674924,23.799724],[120.666808,23.793666],[120.66378,23.792142],[120.658137,23.791041],[120.642342,23.785692],[120.640374,23.786048],[120.642433,23.781699],[120.648477,23.773275],[120.655698,23.755022],[120.655973,23.753762],[120.65463,23.748311],[120.65436,23.741992],[120.654469,23.73979],[120.655843,23.735119],[120.655431,23.734516],[120.654603,23.734461],[120.650898,23.736169],[120.649947,23.735708],[120.647863,23.736038],[120.646302,23.735571],[120.64444,23.736585],[120.642069,23.730643],[120.640237,23.730804],[120.639844,23.729017],[120.640149,23.72767],[120.63971,23.726214],[120.640157,23.725166],[120.641348,23.724527],[120.640938,23.723592],[120.641683,23.722281],[120.640413,23.719391],[120.640773,23.718555],[120.640182,23.716241],[120.640487,23.715303],[120.639746,23.714477],[120.640665,23.714277],[120.640682,23.713755],[120.638985,23.710576],[120.640195,23.710002],[120.639718,23.708777],[120.64043,23.708177],[120.640376,23.706915],[120.641492,23.705524],[120.643095,23.705308],[120.645673,23.703205],[120.645289,23.701923],[120.64341,23.699702],[120.645704,23.695902],[120.645446,23.695355],[120.646596,23.692806],[120.646598,23.691737],[120.645517,23.690076],[120.645929,23.689447],[120.645713,23.687212],[120.646989,23.686574],[120.646245,23.684776],[120.648276,23.682857],[120.647662,23.682012],[120.648017,23.681011],[120.647586,23.679526],[120.646046,23.677129],[120.646528,23.675869],[120.646052,23.67503],[120.646968,23.674327],[120.646931,23.672707],[120.644976,23.671708],[120.644366,23.668378],[120.644393,23.667606],[120.642934,23.666239],[120.641336,23.665663],[120.640365,23.663975],[120.64006,23.660986],[120.639289,23.660675],[120.636833,23.65692],[120.636921,23.65543],[120.634971,23.651573],[120.635098,23.649711],[120.636352,23.648244],[120.634808,23.647008],[120.635207,23.642862],[120.633467,23.641014],[120.631789,23.640195],[120.631645,23.638792],[120.629077,23.635165],[120.630013,23.633869],[120.630162,23.632637],[120.628713,23.63001],[120.629896,23.627438],[120.630448,23.623149],[120.631019,23.62174],[120.633542,23.619214],[120.635412,23.619879],[120.638735,23.624742],[120.640933,23.625841],[120.642975,23.628159],[120.643871,23.628247],[120.645082,23.630938],[120.646684,23.631007],[120.649087,23.629837],[120.653003,23.629506],[120.653595,23.628824],[120.652544,23.624558],[120.652423,23.622745],[120.652923,23.621865],[120.651449,23.616106],[120.653896,23.615682],[120.658353,23.613833],[120.661203,23.61047],[120.664512,23.611118],[120.667901,23.609412],[120.669136,23.60934],[120.675476,23.610264],[120.677778,23.611049],[120.68359,23.610874],[120.685472,23.61284],[120.685383,23.615477],[120.686058,23.618209],[120.691319,23.620353],[120.692778,23.619964],[120.696447,23.620094],[120.70199,23.617452],[120.705029,23.617268],[120.706883,23.618688],[120.708816,23.618661],[120.713838,23.620793],[120.714152,23.622808],[120.713045,23.627811],[120.715591,23.629363],[120.718371,23.629956],[120.723087,23.622532],[120.724115,23.621769],[120.725614,23.621716],[120.726938,23.619966],[120.728436,23.619652],[120.730676,23.618274],[120.731296,23.614366],[120.730865,23.610807],[120.735859,23.609547],[120.737398,23.609632],[120.739399,23.610355],[120.741365,23.61227],[120.744388,23.612665],[120.746355,23.612478],[120.74748,23.611164],[120.749215,23.612201],[120.750918,23.614451],[120.753562,23.614816],[120.758081,23.612488],[120.764282,23.612237],[120.766899,23.609764],[120.769413,23.608371],[120.77005,23.606055],[120.774576,23.605205],[120.776534,23.604028],[120.778311,23.602033],[120.783129,23.600737],[120.78745,23.60127],[120.790871,23.600944],[120.794917,23.597248],[120.798074,23.597444],[120.801091,23.596625],[120.803329,23.596646],[120.805124,23.598617],[120.809791,23.598688],[120.811259,23.600134],[120.813792,23.60095],[120.815843,23.603869],[120.818237,23.604204],[120.817254,23.605774],[120.818145,23.607977],[120.821673,23.608988],[120.821732,23.610483],[120.825204,23.612745],[120.823865,23.614291],[120.823232,23.618393],[120.819563,23.619719],[120.816453,23.623191],[120.81686,23.624835],[120.816183,23.625059],[120.816026,23.625737],[120.81663,23.627293],[120.816102,23.629312],[120.814584,23.630647],[120.814185,23.63288],[120.814549,23.636093],[120.813796,23.637655],[120.813633,23.641232],[120.809149,23.644371],[120.808119,23.646024],[120.804608,23.647118],[120.803939,23.649489],[120.800037,23.649279],[120.794255,23.652232],[120.790786,23.654629],[120.787426,23.656073],[120.784786,23.655141],[120.78281,23.655487],[120.780149,23.654988],[120.776796,23.658033],[120.770836,23.659498],[120.769284,23.663892],[120.769482,23.666787],[120.768482,23.668877],[120.769081,23.671707],[120.768144,23.672866],[120.764472,23.673906],[120.764222,23.675479],[120.762522,23.677163],[120.762607,23.679086],[120.757965,23.679041],[120.756824,23.680957],[120.752,23.68301],[120.747228,23.685997],[120.743815,23.688908],[120.741475,23.689643],[120.739159,23.691304],[120.738535,23.69327],[120.736811,23.695852],[120.735324,23.696036],[120.734085,23.698122],[120.732857,23.698551],[120.73228,23.699863],[120.731276,23.700468],[120.732366,23.702473],[120.734978,23.704526],[120.735164,23.706101],[120.736649,23.709213],[120.734458,23.712942],[120.733143,23.713706],[120.73286,23.714571],[120.734222,23.71658],[120.734042,23.718642],[120.735361,23.720256],[120.735321,23.722293],[120.735959,23.723022],[120.735208,23.723944],[120.736392,23.72515],[120.736538,23.726088],[120.735094,23.726472],[120.733254,23.728465],[120.734923,23.730577],[120.73555,23.733799],[120.733792,23.736052],[120.730616,23.736966],[120.732125,23.739493],[120.731722,23.739765],[120.728761,23.73909],[120.728096,23.739631],[120.729629,23.74165],[120.731084,23.741717],[120.733009,23.742941],[120.73486,23.742302],[120.735311,23.744287],[120.737504,23.744145],[120.737521,23.745413],[120.739961,23.746046],[120.739676,23.7468],[120.740361,23.747092],[120.742234,23.750186],[120.741288,23.749895],[120.740595,23.75047],[120.740054,23.753717],[120.739504,23.754399],[120.736735,23.754914],[120.735893,23.756783],[120.733146,23.756404],[120.732108,23.756878],[120.731401,23.758309],[120.730064,23.759313],[120.730438,23.760685],[120.73001,23.761087],[120.729007,23.760995],[120.727433,23.759521],[120.725149,23.759711],[120.723904,23.762971],[120.722845,23.764142],[120.72099,23.765994],[120.716844,23.768048],[120.713695,23.77149],[120.713825,23.773243],[120.719609,23.775164],[120.720145,23.776026],[120.720132,23.778033],[120.721159,23.779282],[120.722672,23.778505],[120.723669,23.779152],[120.725043,23.778791],[120.726063,23.779619],[120.73061,23.779007],[120.731835,23.780715],[120.731442,23.781754],[120.731861,23.783616],[120.735356,23.784338],[120.735845,23.783978],[120.738362,23.784584],[120.739235,23.784245],[120.74146,23.78456],[120.741874,23.784909],[120.741617,23.786317],[120.743887,23.786839],[120.744335,23.788196],[120.745498,23.789145],[120.747489,23.789204],[120.749167,23.790047],[120.751096,23.789537],[120.753116,23.79038],[120.753419,23.792078],[120.756809,23.793746],[120.757505,23.794664],[120.757576,23.796221],[120.760111,23.798681],[120.760402,23.80057],[120.759352,23.801518],[120.759281,23.802957],[120.756577,23.803796],[120.756223,23.805542],[120.758085,23.806787],[120.758962,23.806829],[120.75999,23.80796],[120.760975,23.810635],[120.762304,23.811831],[120.763941,23.816947]]]},"properties":{"code":"10008040","name":"竹山鎮","countyCode":"10008","countyName":"南投縣","townCode":"10008040","townName":"竹山鎮","level":"town","unassigned":false,"note":"","label":[120.69524221744302,23.67326148870189],"bounds":[120.628713,23.596625,120.825204,23.834023],"focusBounds":[120.628713,23.596625,120.825204,23.834023],"color":"#78a7e3","childCount":28}},{"type":"Feature","id":"10008050","geometry":{"type":"Polygon","coordinates":[[[120.842072,23.855366],[120.840645,23.856244],[120.838034,23.854831],[120.837332,23.855709],[120.83584,23.856321],[120.833972,23.8565],[120.831903,23.856034],[120.830335,23.856507],[120.827162,23.855256],[120.825986,23.853558],[120.82482,23.85304],[120.818941,23.854992],[120.817541,23.853598],[120.814714,23.852897],[120.813519,23.851341],[120.811675,23.850201],[120.808958,23.851598],[120.805595,23.850695],[120.803302,23.851271],[120.798567,23.851214],[120.795164,23.852477],[120.792486,23.85028],[120.790743,23.850141],[120.785896,23.852758],[120.782471,23.850852],[120.779681,23.85122],[120.776885,23.850374],[120.778907,23.849273],[120.778566,23.848659],[120.774129,23.847437],[120.774201,23.846323],[120.773389,23.845291],[120.772007,23.845487],[120.770462,23.846849],[120.768169,23.84681],[120.766577,23.848984],[120.764854,23.848281],[120.763372,23.850119],[120.761111,23.849658],[120.759046,23.852601],[120.756976,23.852195],[120.756793,23.854308],[120.755733,23.855752],[120.755163,23.85579],[120.754639,23.858301],[120.752798,23.857903],[120.751328,23.858909],[120.749759,23.85899],[120.748209,23.857649],[120.746872,23.85734],[120.745421,23.858623],[120.742629,23.858461],[120.741104,23.859736],[120.737694,23.859667],[120.737206,23.858754],[120.736741,23.858378],[120.736465,23.855438],[120.734979,23.855275],[120.734368,23.854326],[120.734556,23.853151],[120.733305,23.852076],[120.728324,23.850826],[120.727201,23.851062],[120.72542,23.850066],[120.726673,23.845887],[120.728424,23.845022],[120.730884,23.841101],[120.731736,23.841146],[120.732471,23.840439],[120.731714,23.83921],[120.731861,23.838191],[120.728705,23.835431],[120.727998,23.834023],[120.739435,23.827735],[120.746487,23.82616],[120.751216,23.824213],[120.754699,23.822352],[120.756019,23.820686],[120.758145,23.820188],[120.761516,23.817766],[120.763941,23.816947],[120.766587,23.815764],[120.768723,23.815607],[120.772403,23.816034],[120.775047,23.817841],[120.781173,23.818288],[120.785642,23.817159],[120.799467,23.815499],[120.807003,23.815916],[120.811433,23.817712],[120.817267,23.820328],[120.826596,23.820984],[120.82819,23.821513],[120.829168,23.823242],[120.829779,23.830826],[120.831186,23.831817],[120.832289,23.835121],[120.83463,23.838178],[120.836577,23.838834],[120.839335,23.838261],[120.842291,23.839331],[120.843757,23.839162],[120.844118,23.838279],[120.844764,23.838106],[120.846774,23.83967],[120.847672,23.84232],[120.84526,23.842541],[120.844868,23.84329],[120.844029,23.84351],[120.843972,23.84453],[120.844761,23.845805],[120.844071,23.846126],[120.843336,23.848494],[120.841251,23.850654],[120.842179,23.852421],[120.841692,23.853887],[120.842072,23.855366]]]},"properties":{"code":"10008050","name":"集集鎮","countyCode":"10008","countyName":"南投縣","townCode":"10008050","townName":"集集鎮","level":"town","unassigned":false,"note":"","label":[120.79022831007731,23.833513587782697],"bounds":[120.72542,23.815499,120.847672,23.859736],"focusBounds":[120.72542,23.815499,120.847672,23.859736],"color":"#dd8590","childCount":11}},{"type":"Feature","id":"10008060","geometry":{"type":"Polygon","coordinates":[[[120.727505,23.880846],[120.724619,23.878609],[120.723113,23.880842],[120.719191,23.882958],[120.716781,23.888558],[120.714549,23.890291],[120.70918,23.88818],[120.708657,23.888978],[120.706221,23.889095],[120.704044,23.887732],[120.703021,23.889042],[120.700911,23.887727],[120.700328,23.886767],[120.698966,23.886584],[120.696288,23.884865],[120.683153,23.880409],[120.67652,23.881579],[120.671365,23.881561],[120.669855,23.881955],[120.669742,23.882491],[120.666941,23.883056],[120.661676,23.882127],[120.652794,23.884504],[120.648954,23.886601],[120.647719,23.886079],[120.644835,23.887067],[120.642561,23.888868],[120.641893,23.888665],[120.641927,23.887751],[120.641145,23.888623],[120.639536,23.889015],[120.639107,23.88818],[120.637068,23.888852],[120.636341,23.888345],[120.636163,23.889281],[120.635292,23.889595],[120.633152,23.888512],[120.632237,23.888984],[120.629422,23.8891],[120.62957,23.886705],[120.628952,23.885866],[120.629587,23.884625],[120.628197,23.883446],[120.62746,23.883508],[120.626357,23.879932],[120.62672,23.879497],[120.624825,23.877069],[120.625767,23.875244],[120.625807,23.873464],[120.624657,23.871629],[120.623783,23.871474],[120.624221,23.870588],[120.62396,23.868924],[120.62155,23.869833],[120.621251,23.868597],[120.620159,23.868713],[120.620653,23.866335],[120.620059,23.865509],[120.620662,23.863636],[120.622087,23.863501],[120.622755,23.863029],[120.622494,23.86254],[120.623548,23.861968],[120.62326,23.860971],[120.62224,23.860121],[120.623077,23.860457],[120.624456,23.859763],[120.62424,23.859173],[120.624868,23.858469],[120.626032,23.858472],[120.625447,23.857707],[120.626517,23.858597],[120.626678,23.857501],[120.627821,23.857398],[120.626308,23.856213],[120.626267,23.85475],[120.625248,23.855182],[120.626272,23.854119],[120.625956,23.852076],[120.624495,23.852262],[120.624869,23.850978],[120.623756,23.850294],[120.623444,23.848898],[120.622958,23.849861],[120.622709,23.848704],[120.621794,23.849592],[120.619434,23.849618],[120.620675,23.849086],[120.619664,23.848641],[120.623343,23.848121],[120.623599,23.847067],[120.622835,23.846508],[120.621601,23.846581],[120.621862,23.846028],[120.621251,23.845638],[120.621087,23.844404],[120.61941,23.844162],[120.618371,23.844622],[120.619649,23.843513],[120.61832,23.84306],[120.61829,23.842585],[120.619783,23.842423],[120.618321,23.841415],[120.616076,23.841186],[120.615557,23.840607],[120.616769,23.840144],[120.61634,23.839419],[120.617438,23.838756],[120.616778,23.83799],[120.617177,23.837625],[120.618596,23.839475],[120.618453,23.840379],[120.62085,23.841657],[120.622138,23.840852],[120.620937,23.84021],[120.620938,23.839364],[120.623011,23.839971],[120.621877,23.838766],[120.622245,23.838661],[120.623973,23.839678],[120.626125,23.841918],[120.626087,23.84114],[120.626778,23.84083],[120.626324,23.840521],[120.626506,23.839883],[120.628116,23.838458],[120.629057,23.838676],[120.628229,23.837849],[120.625562,23.837653],[120.624924,23.836594],[120.629978,23.837345],[120.629961,23.83686],[120.628273,23.835822],[120.631059,23.835644],[120.629105,23.834402],[120.632193,23.834605],[120.633647,23.834089],[120.628437,23.832047],[120.624244,23.831749],[120.623914,23.830767],[120.622961,23.830364],[120.623595,23.829485],[120.624306,23.829427],[120.626281,23.830866],[120.628131,23.831206],[120.630513,23.832428],[120.630878,23.832243],[120.63042,23.831195],[120.633393,23.832963],[120.635282,23.833211],[120.637054,23.83279],[120.637315,23.832048],[120.63845,23.831412],[120.636047,23.831645],[120.634353,23.831113],[120.637196,23.830555],[120.636783,23.829997],[120.638185,23.828917],[120.636771,23.828037],[120.636018,23.828483],[120.636045,23.827916],[120.63748,23.827322],[120.639455,23.827417],[120.639133,23.826667],[120.637727,23.826382],[120.639914,23.825752],[120.640009,23.825106],[120.637022,23.825854],[120.633864,23.825841],[120.636352,23.825539],[120.636602,23.824809],[120.639192,23.824563],[120.637823,23.823702],[120.63874,23.822633],[120.637761,23.821779],[120.639602,23.822083],[120.64048,23.821395],[120.639955,23.821114],[120.639931,23.820327],[120.641689,23.819823],[120.644588,23.817551],[120.647976,23.816638],[120.650065,23.814362],[120.650917,23.812505],[120.655605,23.81281],[120.658654,23.814526],[120.662445,23.815374],[120.66505,23.815036],[120.664733,23.81631],[120.667587,23.8166],[120.667983,23.817345],[120.669936,23.818521],[120.67137,23.818711],[120.671889,23.819407],[120.672589,23.81918],[120.6744,23.820061],[120.676355,23.819287],[120.678819,23.816295],[120.67798,23.814076],[120.678984,23.805943],[120.682461,23.806077],[120.683413,23.805418],[120.683801,23.80134],[120.686713,23.80199],[120.692573,23.804645],[120.696828,23.807293],[120.703034,23.814173],[120.710406,23.823809],[120.718623,23.828942],[120.72524,23.831665],[120.727998,23.834023],[120.728705,23.835431],[120.731861,23.838191],[120.731714,23.83921],[120.732471,23.840439],[120.731736,23.841146],[120.730884,23.841101],[120.728424,23.845022],[120.726673,23.845887],[120.72542,23.850066],[120.727201,23.851062],[120.728324,23.850826],[120.733305,23.852076],[120.734556,23.853151],[120.734368,23.854326],[120.734979,23.855275],[120.736465,23.855438],[120.736741,23.858378],[120.737206,23.858754],[120.736712,23.859878],[120.733728,23.861437],[120.734605,23.863684],[120.733146,23.865815],[120.732698,23.86808],[120.731137,23.869424],[120.731554,23.871821],[120.731037,23.87312],[120.729198,23.875668],[120.727239,23.876272],[120.726961,23.876822],[120.72668,23.878851],[120.727505,23.880846]]]},"properties":{"code":"10008060","name":"名間鄉","countyCode":"10008","countyName":"南投縣","townCode":"10008060","townName":"名間鄉","level":"town","unassigned":false,"note":"","label":[120.67625717609138,23.850451667426015],"bounds":[120.615557,23.80134,120.737206,23.890291],"focusBounds":[120.615557,23.80134,120.737206,23.890291],"color":"#a49ad4","childCount":23}},{"type":"Feature","id":"10008070","geometry":{"type":"Polygon","coordinates":[[[120.811433,23.817712],[120.807003,23.815916],[120.799467,23.815499],[120.785642,23.817159],[120.781173,23.818288],[120.775047,23.817841],[120.772403,23.816034],[120.768723,23.815607],[120.766587,23.815764],[120.763941,23.816947],[120.762304,23.811831],[120.760975,23.810635],[120.75999,23.80796],[120.758962,23.806829],[120.758085,23.806787],[120.756223,23.805542],[120.756577,23.803796],[120.759281,23.802957],[120.759352,23.801518],[120.760402,23.80057],[120.760111,23.798681],[120.757576,23.796221],[120.757505,23.794664],[120.756809,23.793746],[120.753419,23.792078],[120.753116,23.79038],[120.751096,23.789537],[120.749167,23.790047],[120.747489,23.789204],[120.745498,23.789145],[120.744335,23.788196],[120.743887,23.786839],[120.741617,23.786317],[120.741874,23.784909],[120.74146,23.78456],[120.739235,23.784245],[120.738362,23.784584],[120.735845,23.783978],[120.735356,23.784338],[120.731861,23.783616],[120.731442,23.781754],[120.731835,23.780715],[120.73061,23.779007],[120.726063,23.779619],[120.725043,23.778791],[120.723669,23.779152],[120.722672,23.778505],[120.721159,23.779282],[120.720132,23.778033],[120.720145,23.776026],[120.719609,23.775164],[120.713825,23.773243],[120.713695,23.77149],[120.716844,23.768048],[120.72099,23.765994],[120.722845,23.764142],[120.723904,23.762971],[120.725149,23.759711],[120.727433,23.759521],[120.729007,23.760995],[120.73001,23.761087],[120.730438,23.760685],[120.730064,23.759313],[120.731401,23.758309],[120.732108,23.756878],[120.733146,23.756404],[120.735893,23.756783],[120.736735,23.754914],[120.739504,23.754399],[120.740054,23.753717],[120.740595,23.75047],[120.741288,23.749895],[120.742234,23.750186],[120.740361,23.747092],[120.739676,23.7468],[120.739961,23.746046],[120.737521,23.745413],[120.737504,23.744145],[120.735311,23.744287],[120.73486,23.742302],[120.733009,23.742941],[120.731084,23.741717],[120.729629,23.74165],[120.728096,23.739631],[120.728761,23.73909],[120.731722,23.739765],[120.732125,23.739493],[120.730616,23.736966],[120.733792,23.736052],[120.73555,23.733799],[120.734923,23.730577],[120.733254,23.728465],[120.735094,23.726472],[120.736538,23.726088],[120.736392,23.72515],[120.735208,23.723944],[120.735959,23.723022],[120.735321,23.722293],[120.735361,23.720256],[120.734042,23.718642],[120.734222,23.71658],[120.73286,23.714571],[120.733143,23.713706],[120.734458,23.712942],[120.736649,23.709213],[120.735164,23.706101],[120.734978,23.704526],[120.732366,23.702473],[120.731276,23.700468],[120.73228,23.699863],[120.732857,23.698551],[120.734085,23.698122],[120.735324,23.696036],[120.736811,23.695852],[120.738535,23.69327],[120.739159,23.691304],[120.741475,23.689643],[120.743815,23.688908],[120.747228,23.685997],[120.752,23.68301],[120.756824,23.680957],[120.757965,23.679041],[120.762607,23.679086],[120.762522,23.677163],[120.764222,23.675479],[120.764472,23.673906],[120.768144,23.672866],[120.769081,23.671707],[120.768482,23.668877],[120.769482,23.666787],[120.769284,23.663892],[120.770836,23.659498],[120.776796,23.658033],[120.780149,23.654988],[120.78281,23.655487],[120.784786,23.655141],[120.787426,23.656073],[120.790786,23.654629],[120.794255,23.652232],[120.800037,23.649279],[120.803939,23.649489],[120.805947,23.650944],[120.806811,23.653231],[120.808228,23.653956],[120.808841,23.656273],[120.808307,23.658718],[120.808663,23.66863],[120.808196,23.670986],[120.808686,23.673695],[120.808221,23.67479],[120.809177,23.677655],[120.811042,23.678762],[120.812887,23.681509],[120.822022,23.690667],[120.825346,23.69176],[120.824699,23.692855],[120.825312,23.695088],[120.830058,23.697982],[120.829857,23.699464],[120.828623,23.70036],[120.828074,23.701974],[120.829424,23.703596],[120.832154,23.70556],[120.832256,23.706455],[120.831369,23.707278],[120.832908,23.70901],[120.833975,23.709568],[120.837738,23.709548],[120.83984,23.710843],[120.840934,23.71079],[120.837776,23.713514],[120.836181,23.713703],[120.833207,23.715704],[120.832158,23.71916],[120.829869,23.721646],[120.828888,23.725222],[120.829446,23.728087],[120.827864,23.732182],[120.828597,23.735146],[120.830314,23.737151],[120.829976,23.739139],[120.830499,23.743306],[120.830025,23.7482],[120.831392,23.75021],[120.833142,23.751076],[120.834719,23.753709],[120.834219,23.754443],[120.834098,23.757256],[120.832935,23.757659],[120.832483,23.758668],[120.832888,23.762626],[120.829738,23.764676],[120.828645,23.764477],[120.825972,23.765097],[120.824976,23.76594],[120.823031,23.769821],[120.817733,23.771177],[120.815669,23.772953],[120.816369,23.777637],[120.815327,23.779286],[120.815366,23.781966],[120.813671,23.789545],[120.813633,23.79194],[120.814798,23.794125],[120.812966,23.79505],[120.813111,23.796594],[120.811731,23.797777],[120.811494,23.79893],[120.810281,23.799644],[120.812731,23.805777],[120.815391,23.808514],[120.817188,23.808954],[120.817472,23.81022],[120.817076,23.811169],[120.814016,23.811302],[120.813153,23.811875],[120.811433,23.817712]]]},"properties":{"code":"10008070","name":"鹿谷鄉","countyCode":"10008","countyName":"南投縣","townCode":"10008070","townName":"鹿谷鄉","level":"town","unassigned":false,"note":"","label":[120.78275238532079,23.72941163800806],"bounds":[120.713695,23.649279,120.840934,23.818288],"focusBounds":[120.713695,23.649279,120.840934,23.818288],"color":"#a8bf62","childCount":13}},{"type":"Feature","id":"10008080","geometry":{"type":"Polygon","coordinates":[[[120.834768,23.970479],[120.831519,23.970244],[120.828323,23.968908],[120.823587,23.969505],[120.821342,23.96855],[120.81912,23.96958],[120.817084,23.969394],[120.815123,23.970043],[120.812011,23.969759],[120.811441,23.970035],[120.810927,23.971628],[120.807991,23.970724],[120.805991,23.96917],[120.805122,23.968155],[120.804716,23.966131],[120.803133,23.96458],[120.802906,23.963088],[120.798061,23.960313],[120.794602,23.959767],[120.79322,23.960841],[120.791043,23.959378],[120.789243,23.95919],[120.78812,23.958245],[120.787298,23.956527],[120.78622,23.956238],[120.785146,23.956525],[120.784177,23.958283],[120.782374,23.958179],[120.780705,23.959584],[120.778768,23.958797],[120.77796,23.956008],[120.77589,23.955517],[120.775317,23.955803],[120.775204,23.957621],[120.7733,23.959568],[120.772871,23.960817],[120.770023,23.962401],[120.770314,23.964572],[120.767037,23.965624],[120.767073,23.967666],[120.763827,23.967853],[120.760664,23.964458],[120.758508,23.964376],[120.7571,23.962189],[120.75572,23.962864],[120.754729,23.961185],[120.75399,23.961683],[120.752459,23.960564],[120.751613,23.961002],[120.750769,23.960441],[120.751071,23.957611],[120.749798,23.957248],[120.749748,23.956359],[120.748852,23.956386],[120.749224,23.954237],[120.748186,23.954362],[120.747708,23.955062],[120.746609,23.954861],[120.744281,23.955747],[120.7427,23.955513],[120.742361,23.956027],[120.741489,23.95378],[120.742791,23.951087],[120.73983,23.951902],[120.739521,23.951208],[120.740168,23.950075],[120.738395,23.948282],[120.734473,23.949258],[120.733904,23.949023],[120.733532,23.947237],[120.733733,23.945429],[120.731787,23.942869],[120.732593,23.942196],[120.732979,23.940664],[120.733025,23.939789],[120.732338,23.938935],[120.732973,23.936259],[120.734192,23.935602],[120.734758,23.929625],[120.729482,23.928337],[120.728738,23.929464],[120.725888,23.930659],[120.723385,23.927635],[120.722114,23.923937],[120.719492,23.923973],[120.719185,23.922782],[120.716119,23.920999],[120.714154,23.921339],[120.713224,23.922003],[120.711233,23.920831],[120.712275,23.920059],[120.71227,23.920661],[120.713032,23.92114],[120.71326,23.920247],[120.714118,23.920327],[120.714688,23.919429],[120.715751,23.920021],[120.717104,23.919267],[120.71782,23.917749],[120.71727,23.917728],[120.716933,23.916198],[120.718222,23.91614],[120.718268,23.915077],[120.719154,23.915103],[120.720448,23.914166],[120.719379,23.913911],[120.716742,23.911543],[120.717433,23.908746],[120.717178,23.907229],[120.715015,23.906086],[120.71211,23.899511],[120.707975,23.897583],[120.707092,23.895903],[120.710559,23.894146],[120.717544,23.893672],[120.721869,23.891058],[120.724264,23.890509],[120.724725,23.884927],[120.724269,23.883236],[120.727505,23.880846],[120.72668,23.878851],[120.726961,23.876822],[120.727239,23.876272],[120.729198,23.875668],[120.731037,23.87312],[120.731554,23.871821],[120.731137,23.869424],[120.732698,23.86808],[120.733146,23.865815],[120.734605,23.863684],[120.733728,23.861437],[120.736712,23.859878],[120.737206,23.858754],[120.737694,23.859667],[120.741104,23.859736],[120.742629,23.858461],[120.745421,23.858623],[120.746872,23.85734],[120.748209,23.857649],[120.749759,23.85899],[120.751328,23.858909],[120.752798,23.857903],[120.754639,23.858301],[120.755163,23.85579],[120.755733,23.855752],[120.756793,23.854308],[120.756976,23.852195],[120.759046,23.852601],[120.761111,23.849658],[120.763372,23.850119],[120.764854,23.848281],[120.766577,23.848984],[120.768169,23.84681],[120.770462,23.846849],[120.772007,23.845487],[120.773389,23.845291],[120.774201,23.846323],[120.774129,23.847437],[120.778566,23.848659],[120.778907,23.849273],[120.776885,23.850374],[120.779681,23.85122],[120.782471,23.850852],[120.785896,23.852758],[120.790743,23.850141],[120.792486,23.85028],[120.795164,23.852477],[120.798567,23.851214],[120.803302,23.851271],[120.805595,23.850695],[120.808958,23.851598],[120.811675,23.850201],[120.813519,23.851341],[120.814714,23.852897],[120.817541,23.853598],[120.818941,23.854992],[120.82482,23.85304],[120.825986,23.853558],[120.827162,23.855256],[120.830335,23.856507],[120.831903,23.856034],[120.833972,23.8565],[120.83584,23.856321],[120.837332,23.855709],[120.838034,23.854831],[120.840645,23.856244],[120.842072,23.855366],[120.843273,23.856285],[120.843874,23.857609],[120.846871,23.857715],[120.847963,23.859131],[120.847699,23.862845],[120.849179,23.868106],[120.848628,23.870198],[120.847167,23.87214],[120.847154,23.873737],[120.848212,23.875799],[120.84763,23.877037],[120.848079,23.878315],[120.846915,23.879965],[120.848703,23.880576],[120.851558,23.88294],[120.853633,23.882641],[120.852831,23.885548],[120.853116,23.887381],[120.854953,23.89014],[120.853367,23.89143],[120.853056,23.892615],[120.85224,23.892836],[120.851467,23.894104],[120.852148,23.896749],[120.849817,23.897712],[120.850025,23.899404],[120.848951,23.90357],[120.846796,23.904921],[120.844401,23.90513],[120.844051,23.906065],[120.8453,23.907996],[120.846721,23.909028],[120.846915,23.910116],[120.843759,23.915068],[120.842734,23.915662],[120.844545,23.917482],[120.843546,23.920268],[120.842497,23.920919],[120.842973,23.923172],[120.843634,23.923629],[120.842592,23.924918],[120.842564,23.927799],[120.843159,23.929621],[120.842442,23.930806],[120.841815,23.934317],[120.838869,23.935065],[120.837624,23.936098],[120.828832,23.937176],[120.828272,23.939971],[120.829628,23.942077],[120.829106,23.945575],[120.829419,23.947392],[120.827173,23.949226],[120.827689,23.953865],[120.828476,23.954091],[120.829886,23.953444],[120.831766,23.955823],[120.833852,23.955654],[120.83573,23.956349],[120.836893,23.95828],[120.836043,23.9604],[120.836107,23.962883],[120.835396,23.964265],[120.836774,23.967454],[120.834768,23.970479]]]},"properties":{"code":"10008080","name":"中寮鄉","countyCode":"10008","countyName":"南投縣","townCode":"10008080","townName":"中寮鄉","level":"town","unassigned":false,"note":"","label":[120.78601876057141,23.904608937346374],"bounds":[120.707092,23.845291,120.854953,23.971628],"focusBounds":[120.707092,23.845291,120.854953,23.971628],"color":"#68bec9","childCount":18}},{"type":"Feature","id":"10008090","geometry":{"type":"Polygon","coordinates":[[[120.991144,23.895526],[120.986067,23.900216],[120.984253,23.900701],[120.983236,23.903671],[120.986038,23.904887],[120.984623,23.907167],[120.982041,23.90782],[120.979633,23.909869],[120.978815,23.911469],[120.975704,23.912752],[120.975163,23.913983],[120.973167,23.915182],[120.971169,23.917573],[120.968485,23.917623],[120.967381,23.918188],[120.967482,23.921821],[120.966896,23.922769],[120.965465,23.923353],[120.965407,23.925788],[120.964459,23.927625],[120.965249,23.928329],[120.967003,23.928207],[120.965296,23.930368],[120.96131,23.930208],[120.960404,23.930694],[120.95803,23.928316],[120.956842,23.929362],[120.955888,23.929177],[120.95443,23.930131],[120.953974,23.931646],[120.95219,23.932156],[120.948348,23.931436],[120.945601,23.932236],[120.944949,23.933072],[120.943826,23.933136],[120.939931,23.931059],[120.93814,23.931133],[120.937391,23.929769],[120.935848,23.929506],[120.934149,23.928433],[120.932707,23.926873],[120.931631,23.924555],[120.928601,23.923401],[120.9218,23.925573],[120.920425,23.927619],[120.919558,23.928005],[120.918164,23.927575],[120.916796,23.9279],[120.914159,23.926299],[120.912481,23.924518],[120.909326,23.922786],[120.906209,23.923342],[120.904411,23.926726],[120.90053,23.92768],[120.897696,23.931386],[120.894224,23.932314],[120.893254,23.933139],[120.891344,23.931181],[120.890739,23.928646],[120.888977,23.928367],[120.887574,23.927201],[120.887252,23.925016],[120.883243,23.92581],[120.879714,23.925095],[120.879578,23.920517],[120.878004,23.920194],[120.878102,23.919147],[120.876656,23.918112],[120.875892,23.916653],[120.876955,23.914695],[120.875991,23.91224],[120.877364,23.910126],[120.870484,23.908449],[120.867549,23.908322],[120.865724,23.907479],[120.868219,23.904017],[120.867906,23.903491],[120.868572,23.902429],[120.868518,23.901054],[120.869341,23.900107],[120.86849,23.898328],[120.869688,23.897026],[120.86895,23.895807],[120.869871,23.895609],[120.869559,23.893869],[120.870825,23.892168],[120.87039,23.8911],[120.871471,23.889422],[120.871573,23.887164],[120.874305,23.885534],[120.874902,23.881548],[120.873471,23.880905],[120.873351,23.879253],[120.873929,23.878564],[120.876443,23.878655],[120.877712,23.878084],[120.8733,23.873246],[120.87214,23.871233],[120.872586,23.870385],[120.874419,23.869878],[120.87146,23.865624],[120.871687,23.861509],[120.869743,23.858908],[120.87047,23.855396],[120.871535,23.853653],[120.87139,23.851771],[120.870475,23.850865],[120.871799,23.849955],[120.872767,23.848244],[120.874187,23.847903],[120.87551,23.846579],[120.877135,23.846561],[120.88101,23.844774],[120.882202,23.843244],[120.883093,23.84036],[120.881483,23.837612],[120.878095,23.836649],[120.876203,23.835403],[120.876095,23.834159],[120.874415,23.83303],[120.872994,23.828709],[120.871998,23.827795],[120.872089,23.826377],[120.867877,23.82262],[120.869589,23.816404],[120.870882,23.816041],[120.872055,23.814179],[120.873499,23.813196],[120.874721,23.813817],[120.879033,23.812991],[120.881628,23.813116],[120.884618,23.810618],[120.887807,23.809892],[120.893816,23.810563],[120.89696,23.812465],[120.898256,23.813992],[120.902121,23.812553],[120.903705,23.812853],[120.905531,23.812492],[120.907695,23.816015],[120.910961,23.816881],[120.910697,23.819209],[120.913069,23.821115],[120.913938,23.824391],[120.913811,23.826439],[120.916305,23.827759],[120.920713,23.827296],[120.922347,23.827544],[120.924782,23.828835],[120.92876,23.828746],[120.933411,23.829453],[120.935316,23.83425],[120.934242,23.836642],[120.937335,23.83767],[120.938616,23.839047],[120.93932,23.843513],[120.941139,23.843066],[120.94254,23.844694],[120.945388,23.845158],[120.947698,23.84322],[120.948798,23.84556],[120.950021,23.846356],[120.948626,23.850501],[120.949059,23.85268],[120.952808,23.851946],[120.952012,23.850125],[120.952674,23.848434],[120.95588,23.846345],[120.958401,23.845812],[120.963759,23.838317],[120.967617,23.842088],[120.970216,23.840418],[120.97639,23.837896],[120.981457,23.838609],[120.983115,23.839626],[120.984871,23.83895],[120.992515,23.839386],[120.993158,23.847394],[120.992734,23.853049],[120.993237,23.855332],[120.994944,23.858615],[120.988998,23.867748],[120.987256,23.871599],[120.982626,23.874871],[120.981871,23.879176],[120.980193,23.883531],[120.986753,23.885431],[120.990376,23.885109],[120.98997,23.886811],[120.988527,23.887872],[120.988331,23.890312],[120.991144,23.895526]]]},"properties":{"code":"10008090","name":"魚池鄉","countyCode":"10008","countyName":"南投縣","townCode":"10008090","townName":"魚池鄉","level":"town","unassigned":false,"note":"","label":[120.92050512073847,23.880840046955505],"bounds":[120.865724,23.809892,120.994944,23.933139],"focusBounds":[120.865724,23.809892,120.994944,23.933139],"color":"#df9f6a","childCount":13}},{"type":"Feature","id":"10008100","geometry":{"type":"Polygon","coordinates":[[[120.943658,24.053042],[120.943968,24.054503],[120.943424,24.056963],[120.944348,24.058288],[120.943957,24.062021],[120.945137,24.062869],[120.946924,24.062536],[120.950345,24.062832],[120.949085,24.063275],[120.949271,24.064011],[120.947765,24.065671],[120.945885,24.066634],[120.94408,24.067073],[120.941477,24.066392],[120.94035,24.066983],[120.938527,24.070281],[120.938772,24.071048],[120.937526,24.074242],[120.938604,24.074742],[120.938994,24.076002],[120.943503,24.081298],[120.944511,24.081061],[120.945253,24.081648],[120.946863,24.086602],[120.94547,24.091077],[120.944495,24.091126],[120.943946,24.090631],[120.943598,24.092691],[120.944479,24.093192],[120.942967,24.094616],[120.944208,24.096573],[120.94444,24.098938],[120.946113,24.103064],[120.949834,24.105559],[120.949875,24.10731],[120.950864,24.109537],[120.953187,24.113635],[120.955528,24.115997],[120.955808,24.119573],[120.957047,24.124182],[120.951906,24.127252],[120.949726,24.12782],[120.948381,24.124939],[120.943952,24.122435],[120.939571,24.118279],[120.934958,24.115255],[120.932554,24.112581],[120.927146,24.111724],[120.925267,24.110526],[120.922664,24.109739],[120.919306,24.107346],[120.914554,24.107573],[120.913545,24.108925],[120.911214,24.108777],[120.909563,24.10923],[120.907205,24.110595],[120.906706,24.112645],[120.905028,24.11443],[120.896158,24.116453],[120.89195,24.11608],[120.89074,24.115384],[120.89017,24.114209],[120.89108,24.11223],[120.894217,24.110542],[120.893685,24.108659],[120.894204,24.106554],[120.89102,24.101724],[120.891273,24.097703],[120.889542,24.09642],[120.885874,24.095409],[120.884952,24.093009],[120.882007,24.088325],[120.880311,24.088574],[120.879148,24.085652],[120.878017,24.085028],[120.878155,24.086233],[120.876861,24.091192],[120.878191,24.093498],[120.879092,24.098251],[120.881499,24.100578],[120.880448,24.103172],[120.880891,24.103944],[120.88014,24.104292],[120.880257,24.105313],[120.879307,24.105939],[120.878874,24.107716],[120.879143,24.109303],[120.877521,24.109871],[120.875165,24.112973],[120.874132,24.113534],[120.874021,24.115014],[120.872733,24.115971],[120.872451,24.116836],[120.869589,24.117105],[120.868867,24.117601],[120.867365,24.116291],[120.864432,24.115368],[120.858481,24.116258],[120.857213,24.117299],[120.857131,24.119366],[120.856362,24.120038],[120.856183,24.121528],[120.85397,24.124426],[120.853182,24.124607],[120.850355,24.124522],[120.848388,24.1238],[120.84485,24.124526],[120.842584,24.122564],[120.842124,24.120682],[120.838651,24.119067],[120.837728,24.11787],[120.836276,24.11695],[120.835521,24.114299],[120.834489,24.11305],[120.834547,24.110621],[120.83406,24.109457],[120.83456,24.107834],[120.834025,24.106614],[120.830318,24.102588],[120.832408,24.09964],[120.832438,24.098262],[120.829904,24.094957],[120.828659,24.094676],[120.828375,24.093945],[120.828086,24.086898],[120.82891,24.083554],[120.828259,24.078166],[120.8293,24.071509],[120.825954,24.071233],[120.823361,24.070558],[120.822431,24.069821],[120.8207,24.0698],[120.819246,24.068465],[120.816351,24.068463],[120.814457,24.069895],[120.812496,24.067626],[120.811866,24.066069],[120.809181,24.066257],[120.80799,24.06537],[120.806881,24.063996],[120.807282,24.062862],[120.806667,24.061074],[120.804883,24.059144],[120.804307,24.057271],[120.803292,24.056262],[120.803419,24.052359],[120.802621,24.051656],[120.800884,24.051376],[120.801413,24.050496],[120.800653,24.048647],[120.796594,24.042807],[120.797535,24.041678],[120.796556,24.040311],[120.795303,24.039546],[120.794322,24.03764],[120.791694,24.035262],[120.791524,24.033538],[120.792922,24.032482],[120.791741,24.031783],[120.791601,24.030742],[120.78947,24.031228],[120.786062,24.029248],[120.785466,24.028629],[120.785877,24.027944],[120.784699,24.02747],[120.785018,24.025625],[120.784646,24.024079],[120.783029,24.024714],[120.782923,24.023674],[120.779859,24.021246],[120.779527,24.02011],[120.781912,24.01814],[120.781699,24.017782],[120.784343,24.016977],[120.786146,24.015745],[120.788728,24.015414],[120.792714,24.016196],[120.794126,24.015815],[120.794914,24.016279],[120.798602,24.015378],[120.79995,24.013004],[120.802582,24.01084],[120.803438,24.008553],[120.806707,24.008425],[120.809884,24.007329],[120.808253,24.001865],[120.811562,24.001437],[120.812916,24.000712],[120.814721,24.000726],[120.8193,23.998392],[120.822413,23.993603],[120.823514,23.994816],[120.825299,23.994864],[120.826958,23.99292],[120.828032,23.993907],[120.830868,23.992629],[120.832561,23.986589],[120.834588,23.985522],[120.83552,23.983716],[120.834282,23.980658],[120.833201,23.975298],[120.834995,23.971367],[120.834768,23.970479],[120.836774,23.967454],[120.835396,23.964265],[120.836107,23.962883],[120.836043,23.9604],[120.836893,23.95828],[120.83573,23.956349],[120.833852,23.955654],[120.831766,23.955823],[120.829886,23.953444],[120.828476,23.954091],[120.827689,23.953865],[120.827173,23.949226],[120.829419,23.947392],[120.829106,23.945575],[120.829628,23.942077],[120.828272,23.939971],[120.828832,23.937176],[120.837624,23.936098],[120.838869,23.935065],[120.841815,23.934317],[120.842442,23.930806],[120.843159,23.929621],[120.842564,23.927799],[120.842592,23.924918],[120.843634,23.923629],[120.842973,23.923172],[120.842497,23.920919],[120.843546,23.920268],[120.844545,23.917482],[120.842734,23.915662],[120.843759,23.915068],[120.846915,23.910116],[120.846721,23.909028],[120.8453,23.907996],[120.844051,23.906065],[120.844401,23.90513],[120.846796,23.904921],[120.848951,23.90357],[120.850025,23.899404],[120.849817,23.897712],[120.852148,23.896749],[120.851467,23.894104],[120.85224,23.892836],[120.853056,23.892615],[120.856293,23.895532],[120.858307,23.895828],[120.860101,23.896844],[120.861041,23.899373],[120.862338,23.900573],[120.86267,23.904227],[120.863615,23.905179],[120.864195,23.90709],[120.865724,23.907479],[120.867549,23.908322],[120.870484,23.908449],[120.877364,23.910126],[120.875991,23.91224],[120.876955,23.914695],[120.875892,23.916653],[120.876656,23.918112],[120.878102,23.919147],[120.878004,23.920194],[120.879578,23.920517],[120.879714,23.925095],[120.878988,23.92757],[120.879435,23.929309],[120.878953,23.930858],[120.879722,23.932563],[120.878528,23.939443],[120.87862,23.943276],[120.88063,23.948247],[120.879496,23.949862],[120.879214,23.953098],[120.881487,23.954852],[120.882623,23.957849],[120.88416,23.958204],[120.88502,23.960453],[120.884061,23.962386],[120.885348,23.964867],[120.887961,23.967383],[120.889452,23.967712],[120.890806,23.969173],[120.89226,23.969365],[120.89271,23.968877],[120.893817,23.969392],[120.894991,23.968964],[120.898478,23.97064],[120.899566,23.97213],[120.902189,23.971835],[120.903118,23.970421],[120.904848,23.971263],[120.905831,23.970851],[120.907773,23.971209],[120.905515,23.975763],[120.906532,23.976849],[120.906077,23.983948],[120.903327,23.989739],[120.904007,23.99086],[120.904198,23.993833],[120.906463,23.996534],[120.907555,23.998599],[120.907025,23.999713],[120.908379,24.000722],[120.909615,24.003328],[120.906685,24.002563],[120.904241,24.003978],[120.901819,24.006322],[120.901533,24.007588],[120.90208,24.009635],[120.901682,24.010461],[120.900674,24.010408],[120.899897,24.011131],[120.898187,24.009851],[120.897919,24.010989],[120.897033,24.011713],[120.895253,24.011749],[120.893294,24.012724],[120.891619,24.012613],[120.890753,24.013093],[120.890163,24.013753],[120.888751,24.01918],[120.891826,24.02227],[120.89542,24.022801],[120.896153,24.023395],[120.896008,24.024306],[120.899258,24.027183],[120.900313,24.029385],[120.902065,24.029868],[120.902401,24.032033],[120.901862,24.03516],[120.903089,24.035144],[120.903918,24.036552],[120.902903,24.039707],[120.903386,24.041196],[120.90396,24.041402],[120.905946,24.04031],[120.908223,24.043123],[120.910086,24.042891],[120.911174,24.043617],[120.912829,24.042244],[120.913949,24.042131],[120.914521,24.04447],[120.917845,24.048088],[120.924564,24.047871],[120.92693,24.05017],[120.926826,24.048245],[120.928095,24.047173],[120.927854,24.046345],[120.928421,24.046173],[120.928733,24.045205],[120.92991,24.045804],[120.930562,24.045593],[120.932175,24.04745],[120.93372,24.045854],[120.93341,24.045203],[120.937206,24.044656],[120.939461,24.046187],[120.939633,24.049384],[120.940701,24.051298],[120.940338,24.052837],[120.940929,24.053221],[120.943658,24.053042]]]},"properties":{"code":"10008100","name":"國姓鄉","countyCode":"10008","countyName":"南投縣","townCode":"10008100","townName":"國姓鄉","level":"town","unassigned":false,"note":"","label":[120.86153395375639,24.04803338477935],"bounds":[120.779527,23.892615,120.957047,24.12782],"focusBounds":[120.779527,23.892615,120.957047,24.12782],"color":"#c38cb8","childCount":13}},{"type":"Feature","id":"10008110","geometry":{"type":"Polygon","coordinates":[[[120.933411,23.829453],[120.92876,23.828746],[120.924782,23.828835],[120.922347,23.827544],[120.920713,23.827296],[120.916305,23.827759],[120.913811,23.826439],[120.913938,23.824391],[120.913069,23.821115],[120.910697,23.819209],[120.910961,23.816881],[120.907695,23.816015],[120.905531,23.812492],[120.903705,23.812853],[120.902121,23.812553],[120.898256,23.813992],[120.89696,23.812465],[120.893816,23.810563],[120.887807,23.809892],[120.884618,23.810618],[120.881628,23.813116],[120.879033,23.812991],[120.874721,23.813817],[120.873499,23.813196],[120.872055,23.814179],[120.870882,23.816041],[120.869589,23.816404],[120.867877,23.82262],[120.872089,23.826377],[120.871998,23.827795],[120.872994,23.828709],[120.874415,23.83303],[120.876095,23.834159],[120.876203,23.835403],[120.878095,23.836649],[120.881483,23.837612],[120.883093,23.84036],[120.882202,23.843244],[120.88101,23.844774],[120.877135,23.846561],[120.87551,23.846579],[120.874187,23.847903],[120.872767,23.848244],[120.871799,23.849955],[120.870475,23.850865],[120.87139,23.851771],[120.871535,23.853653],[120.87047,23.855396],[120.869743,23.858908],[120.871687,23.861509],[120.87146,23.865624],[120.874419,23.869878],[120.872586,23.870385],[120.87214,23.871233],[120.8733,23.873246],[120.877712,23.878084],[120.876443,23.878655],[120.873929,23.878564],[120.873351,23.879253],[120.873471,23.880905],[120.874902,23.881548],[120.874305,23.885534],[120.871573,23.887164],[120.871471,23.889422],[120.87039,23.8911],[120.870825,23.892168],[120.869559,23.893869],[120.869871,23.895609],[120.86895,23.895807],[120.869688,23.897026],[120.86849,23.898328],[120.869341,23.900107],[120.868518,23.901054],[120.868572,23.902429],[120.867906,23.903491],[120.868219,23.904017],[120.865724,23.907479],[120.864195,23.90709],[120.863615,23.905179],[120.86267,23.904227],[120.862338,23.900573],[120.861041,23.899373],[120.860101,23.896844],[120.858307,23.895828],[120.856293,23.895532],[120.853056,23.892615],[120.853367,23.89143],[120.854953,23.89014],[120.853116,23.887381],[120.852831,23.885548],[120.853633,23.882641],[120.851558,23.88294],[120.848703,23.880576],[120.846915,23.879965],[120.848079,23.878315],[120.84763,23.877037],[120.848212,23.875799],[120.847154,23.873737],[120.847167,23.87214],[120.848628,23.870198],[120.849179,23.868106],[120.847699,23.862845],[120.847963,23.859131],[120.846871,23.857715],[120.843874,23.857609],[120.843273,23.856285],[120.842072,23.855366],[120.841692,23.853887],[120.842179,23.852421],[120.841251,23.850654],[120.843336,23.848494],[120.844071,23.846126],[120.844761,23.845805],[120.843972,23.84453],[120.844029,23.84351],[120.844868,23.84329],[120.84526,23.842541],[120.847672,23.84232],[120.846774,23.83967],[120.844764,23.838106],[120.844118,23.838279],[120.843757,23.839162],[120.842291,23.839331],[120.839335,23.838261],[120.836577,23.838834],[120.83463,23.838178],[120.832289,23.835121],[120.831186,23.831817],[120.829779,23.830826],[120.829168,23.823242],[120.82819,23.821513],[120.826596,23.820984],[120.817267,23.820328],[120.811433,23.817712],[120.813153,23.811875],[120.814016,23.811302],[120.817076,23.811169],[120.817472,23.81022],[120.817188,23.808954],[120.815391,23.808514],[120.812731,23.805777],[120.810281,23.799644],[120.811494,23.79893],[120.811731,23.797777],[120.813111,23.796594],[120.812966,23.79505],[120.814798,23.794125],[120.813633,23.79194],[120.813671,23.789545],[120.815366,23.781966],[120.815327,23.779286],[120.816369,23.777637],[120.815669,23.772953],[120.817733,23.771177],[120.823031,23.769821],[120.824976,23.76594],[120.825972,23.765097],[120.828645,23.764477],[120.829738,23.764676],[120.832888,23.762626],[120.832483,23.758668],[120.832935,23.757659],[120.834098,23.757256],[120.834219,23.754443],[120.834719,23.753709],[120.833142,23.751076],[120.831392,23.75021],[120.830025,23.7482],[120.830499,23.743306],[120.829976,23.739139],[120.830314,23.737151],[120.828597,23.735146],[120.827864,23.732182],[120.829446,23.728087],[120.828888,23.725222],[120.829869,23.721646],[120.832158,23.71916],[120.833207,23.715704],[120.836181,23.713703],[120.837776,23.713514],[120.840934,23.71079],[120.845418,23.712178],[120.845376,23.716592],[120.851944,23.717144],[120.853525,23.718809],[120.859701,23.721684],[120.863049,23.724437],[120.865241,23.723576],[120.868032,23.724085],[120.868753,23.723609],[120.86904,23.721727],[120.869671,23.721289],[120.87623,23.721204],[120.877173,23.719547],[120.879662,23.719032],[120.883075,23.722093],[120.885378,23.723146],[120.886975,23.725187],[120.889041,23.726476],[120.889307,23.72748],[120.887631,23.731735],[120.885309,23.732524],[120.883836,23.735454],[120.882723,23.738755],[120.882639,23.74253],[120.880471,23.744102],[120.879204,23.74693],[120.880026,23.750395],[120.879755,23.751968],[120.881786,23.760063],[120.883636,23.762797],[120.883598,23.764019],[120.88248,23.766045],[120.87953,23.767345],[120.877311,23.772205],[120.877502,23.773332],[120.875838,23.774488],[120.874357,23.776697],[120.873182,23.779194],[120.873557,23.783382],[120.874481,23.784071],[120.879142,23.783611],[120.883548,23.784191],[120.887377,23.785791],[120.889171,23.78602],[120.896876,23.786269],[120.900723,23.785332],[120.907169,23.785782],[120.908913,23.787179],[120.908615,23.789592],[120.909209,23.790858],[120.910886,23.792392],[120.913238,23.793051],[120.916939,23.792035],[120.920729,23.78923],[120.928879,23.788169],[120.931444,23.787099],[120.932529,23.786027],[120.933061,23.786206],[120.936467,23.791932],[120.936948,23.797793],[120.934164,23.798062],[120.933354,23.798936],[120.933206,23.805634],[120.934202,23.806942],[120.934258,23.807898],[120.93311,23.809304],[120.93298,23.811243],[120.934471,23.812728],[120.932962,23.817237],[120.93284,23.82167],[120.933819,23.824734],[120.932573,23.826874],[120.933411,23.829453]]]},"properties":{"code":"10008110","name":"水里鄉","countyCode":"10008","countyName":"南投縣","townCode":"10008110","townName":"水里鄉","level":"town","unassigned":false,"note":"","label":[120.84547009148629,23.79506631185184],"bounds":[120.810281,23.71079,120.936948,23.907479],"focusBounds":[120.810281,23.71079,120.936948,23.907479],"color":"#98b69b","childCount":19}},{"type":"Feature","id":"10008120","geometry":{"type":"Polygon","coordinates":[[[121.234914,23.818114],[121.230954,23.817722],[121.229219,23.817968],[121.227819,23.818831],[121.22591,23.818528],[121.222417,23.819511],[121.221061,23.822404],[121.220913,23.826437],[121.218695,23.830067],[121.220037,23.832423],[121.220401,23.836687],[121.218097,23.838725],[121.214589,23.839438],[121.212078,23.842383],[121.20959,23.844313],[121.204531,23.845375],[121.20303,23.846315],[121.20161,23.848102],[121.199689,23.848583],[121.197499,23.851051],[121.192157,23.851907],[121.186347,23.851578],[121.179407,23.853412],[121.176214,23.856459],[121.168791,23.860704],[121.158634,23.8627],[121.155938,23.864478],[121.154492,23.864804],[121.154109,23.863819],[121.154384,23.861712],[121.151469,23.857651],[121.151651,23.856476],[121.150739,23.855019],[121.150402,23.851385],[121.147863,23.848711],[121.14106,23.846134],[121.136609,23.841832],[121.132368,23.839284],[121.127346,23.838943],[121.123051,23.837426],[121.119777,23.837146],[121.11568,23.834035],[121.112324,23.833595],[121.110927,23.831251],[121.112427,23.825114],[121.112318,23.821849],[121.108452,23.820218],[121.105131,23.819746],[121.100996,23.818365],[121.097732,23.816958],[121.095279,23.814769],[121.088852,23.815478],[121.085965,23.814269],[121.07946,23.813775],[121.07367,23.811462],[121.070003,23.811353],[121.068366,23.809513],[121.067403,23.80914],[121.063304,23.809893],[121.05856,23.810022],[121.055307,23.811649],[121.047046,23.811819],[121.041892,23.81382],[121.038576,23.814241],[121.037669,23.815925],[121.0364,23.816483],[121.034492,23.81631],[121.029766,23.818],[121.027674,23.817847],[121.025757,23.818843],[121.023324,23.818988],[121.018997,23.820523],[121.013242,23.82062],[121.011085,23.824607],[121.010172,23.824415],[121.00437,23.825674],[121.000203,23.832725],[120.99845,23.834376],[120.996525,23.837336],[120.992515,23.839386],[120.984871,23.83895],[120.983115,23.839626],[120.981457,23.838609],[120.97639,23.837896],[120.970216,23.840418],[120.967617,23.842088],[120.963759,23.838317],[120.958401,23.845812],[120.95588,23.846345],[120.952674,23.848434],[120.952012,23.850125],[120.952808,23.851946],[120.949059,23.85268],[120.948626,23.850501],[120.950021,23.846356],[120.948798,23.84556],[120.947698,23.84322],[120.945388,23.845158],[120.94254,23.844694],[120.941139,23.843066],[120.93932,23.843513],[120.938616,23.839047],[120.937335,23.83767],[120.934242,23.836642],[120.935316,23.83425],[120.933411,23.829453],[120.932573,23.826874],[120.933819,23.824734],[120.93284,23.82167],[120.932962,23.817237],[120.934471,23.812728],[120.93298,23.811243],[120.93311,23.809304],[120.934258,23.807898],[120.934202,23.806942],[120.933206,23.805634],[120.933354,23.798936],[120.934164,23.798062],[120.936948,23.797793],[120.936467,23.791932],[120.933061,23.786206],[120.932529,23.786027],[120.931444,23.787099],[120.928879,23.788169],[120.920729,23.78923],[120.916939,23.792035],[120.913238,23.793051],[120.910886,23.792392],[120.909209,23.790858],[120.908615,23.789592],[120.908913,23.787179],[120.907169,23.785782],[120.900723,23.785332],[120.896876,23.786269],[120.889171,23.78602],[120.887377,23.785791],[120.883548,23.784191],[120.879142,23.783611],[120.874481,23.784071],[120.873557,23.783382],[120.873182,23.779194],[120.874357,23.776697],[120.875838,23.774488],[120.877502,23.773332],[120.877311,23.772205],[120.87953,23.767345],[120.88248,23.766045],[120.883598,23.764019],[120.883636,23.762797],[120.881786,23.760063],[120.879755,23.751968],[120.880026,23.750395],[120.879204,23.74693],[120.880471,23.744102],[120.882639,23.74253],[120.882723,23.738755],[120.883836,23.735454],[120.885309,23.732524],[120.887631,23.731735],[120.889307,23.72748],[120.889041,23.726476],[120.886975,23.725187],[120.885378,23.723146],[120.883075,23.722093],[120.879662,23.719032],[120.877173,23.719547],[120.87623,23.721204],[120.869671,23.721289],[120.86904,23.721727],[120.868753,23.723609],[120.868032,23.724085],[120.865241,23.723576],[120.863049,23.724437],[120.859701,23.721684],[120.853525,23.718809],[120.851944,23.717144],[120.845376,23.716592],[120.845418,23.712178],[120.840934,23.71079],[120.83984,23.710843],[120.837738,23.709548],[120.833975,23.709568],[120.832908,23.70901],[120.831369,23.707278],[120.832256,23.706455],[120.832154,23.70556],[120.829424,23.703596],[120.828074,23.701974],[120.828623,23.70036],[120.829857,23.699464],[120.830058,23.697982],[120.825312,23.695088],[120.824699,23.692855],[120.825346,23.69176],[120.822022,23.690667],[120.812887,23.681509],[120.811042,23.678762],[120.809177,23.677655],[120.808221,23.67479],[120.808686,23.673695],[120.808196,23.670986],[120.808663,23.66863],[120.808307,23.658718],[120.808841,23.656273],[120.808228,23.653956],[120.806811,23.653231],[120.805947,23.650944],[120.803939,23.649489],[120.804608,23.647118],[120.808119,23.646024],[120.809149,23.644371],[120.813633,23.641232],[120.813796,23.637655],[120.814549,23.636093],[120.814185,23.63288],[120.814584,23.630647],[120.816102,23.629312],[120.81663,23.627293],[120.816026,23.625737],[120.816183,23.625059],[120.81686,23.624835],[120.816453,23.623191],[120.819563,23.619719],[120.823232,23.618393],[120.823865,23.614291],[120.825204,23.612745],[120.821732,23.610483],[120.821673,23.608988],[120.818145,23.607977],[120.817254,23.605774],[120.818237,23.604204],[120.815843,23.603869],[120.813792,23.60095],[120.818315,23.599059],[120.818612,23.598242],[120.817122,23.59634],[120.817048,23.595191],[120.81867,23.593714],[120.819019,23.592188],[120.820692,23.589537],[120.823705,23.587159],[120.825527,23.586367],[120.824628,23.585317],[120.824692,23.584202],[120.823493,23.583974],[120.821618,23.582142],[120.821566,23.579902],[120.820226,23.578692],[120.819906,23.577679],[120.819626,23.574531],[120.821897,23.57091],[120.821111,23.570146],[120.821527,23.568478],[120.819924,23.564517],[120.820627,23.5624],[120.815882,23.557368],[120.814148,23.556242],[120.814046,23.555405],[120.815903,23.553666],[120.815864,23.553109],[120.814481,23.55173],[120.811494,23.551054],[120.811288,23.549427],[120.808833,23.54586],[120.808177,23.542133],[120.808325,23.539299],[120.80897,23.537609],[120.808637,23.535971],[120.810288,23.535185],[120.811609,23.533709],[120.817969,23.523686],[120.820349,23.521482],[120.819114,23.519534],[120.81977,23.517496],[120.819556,23.515581],[120.820134,23.514144],[120.823045,23.511359],[120.82283,23.508623],[120.824068,23.505278],[120.822851,23.498671],[120.825314,23.495309],[120.825304,23.489709],[120.826181,23.488514],[120.827076,23.483381],[120.827898,23.482147],[120.829896,23.480728],[120.832643,23.474731],[120.838973,23.471218],[120.842092,23.473258],[120.844085,23.47281],[120.847011,23.473009],[120.849145,23.472092],[120.854202,23.473303],[120.856224,23.473424],[120.858126,23.472847],[120.8632,23.47355],[120.866689,23.472298],[120.868339,23.470625],[120.873095,23.468527],[120.880026,23.467622],[120.881899,23.468289],[120.882058,23.470013],[120.884138,23.473141],[120.884269,23.474308],[120.886177,23.475373],[120.896498,23.475895],[120.899838,23.475375],[120.901952,23.476081],[120.908054,23.475822],[120.910212,23.47623],[120.915089,23.474632],[120.917483,23.475693],[120.91875,23.474949],[120.920922,23.474928],[120.926496,23.47296],[120.930963,23.470664],[120.932381,23.471131],[120.93465,23.473113],[120.937568,23.473054],[120.939327,23.472133],[120.942262,23.469322],[120.947519,23.467123],[120.952202,23.467719],[120.954798,23.469114],[120.957515,23.469503],[120.961387,23.470767],[120.965217,23.470701],[120.967109,23.471713],[120.968467,23.471227],[120.970631,23.469042],[120.980537,23.469214],[120.984602,23.46657],[120.999693,23.462167],[121.003815,23.462956],[121.007447,23.462785],[121.010428,23.459599],[121.011718,23.457171],[121.014949,23.454278],[121.015855,23.451609],[121.015024,23.449777],[121.012867,23.448757],[121.010746,23.446652],[121.010421,23.44507],[121.010581,23.441244],[121.014141,23.437925],[121.015268,23.43541],[121.019358,23.43631],[121.022117,23.439026],[121.026519,23.439153],[121.02866,23.441608],[121.031422,23.442212],[121.033142,23.443323],[121.033762,23.444177],[121.033528,23.44544],[121.034954,23.44606],[121.037541,23.446457],[121.039701,23.447859],[121.043964,23.448957],[121.046465,23.450872],[121.051817,23.450802],[121.053273,23.45321],[121.053241,23.455439],[121.054528,23.457379],[121.055912,23.459279],[121.058351,23.460275],[121.058928,23.461942],[121.051307,23.46431],[121.049652,23.467833],[121.044411,23.470122],[121.042603,23.471876],[121.039515,23.473164],[121.038896,23.474083],[121.043088,23.478048],[121.04497,23.48054],[121.046923,23.4814],[121.047353,23.482176],[121.048553,23.482415],[121.050117,23.48653],[121.053612,23.487829],[121.05412,23.490115],[121.052799,23.493677],[121.054097,23.495603],[121.055102,23.496128],[121.057245,23.496188],[121.062167,23.499536],[121.062981,23.503837],[121.066138,23.50631],[121.066099,23.507967],[121.06876,23.514767],[121.068458,23.518447],[121.075377,23.517333],[121.083074,23.514631],[121.088105,23.514046],[121.091851,23.514517],[121.093268,23.517779],[121.097363,23.521646],[121.101023,23.521245],[121.102223,23.519685],[121.103674,23.51893],[121.107037,23.519461],[121.110799,23.519061],[121.115488,23.520234],[121.116584,23.521369],[121.117698,23.521643],[121.120452,23.520995],[121.126351,23.517047],[121.128789,23.518498],[121.131128,23.517485],[121.132255,23.515106],[121.135262,23.514961],[121.138335,23.520592],[121.144399,23.525595],[121.147171,23.527246],[121.150758,23.526534],[121.151099,23.527046],[121.150756,23.528812],[121.149511,23.531002],[121.146876,23.534106],[121.148083,23.53567],[121.148446,23.539529],[121.15106,23.545175],[121.148053,23.552402],[121.146117,23.55437],[121.14803,23.556576],[121.149953,23.557349],[121.151877,23.560474],[121.153345,23.55989],[121.157143,23.559556],[121.158017,23.564049],[121.160341,23.567828],[121.160352,23.569764],[121.158417,23.569801],[121.155113,23.570863],[121.153602,23.571532],[121.15215,23.573159],[121.152018,23.581657],[121.153392,23.586778],[121.15557,23.587051],[121.15819,23.585731],[121.160509,23.587035],[121.166746,23.587142],[121.16987,23.586318],[121.171396,23.584142],[121.175012,23.58382],[121.176879,23.582693],[121.178044,23.582637],[121.178827,23.583122],[121.180006,23.587458],[121.17973,23.590032],[121.182044,23.590943],[121.183474,23.593164],[121.189409,23.594812],[121.190301,23.597189],[121.193962,23.600499],[121.194561,23.600524],[121.200125,23.596402],[121.201728,23.596787],[121.202763,23.59611],[121.206229,23.595788],[121.208125,23.598242],[121.21002,23.598631],[121.213349,23.600305],[121.214625,23.605232],[121.215944,23.607268],[121.217323,23.614697],[121.219955,23.616927],[121.221388,23.620223],[121.223555,23.62298],[121.22473,23.626818],[121.224955,23.629696],[121.22401,23.632931],[121.224119,23.638855],[121.227848,23.645382],[121.230249,23.647987],[121.230456,23.65019],[121.231228,23.651562],[121.230687,23.653546],[121.231594,23.654936],[121.231927,23.657879],[121.235199,23.661113],[121.235839,23.662521],[121.235955,23.670772],[121.234783,23.673588],[121.232635,23.676294],[121.232447,23.677466],[121.234279,23.680959],[121.236,23.682342],[121.237521,23.685292],[121.239432,23.686973],[121.23937,23.694686],[121.241212,23.698464],[121.239323,23.70019],[121.240985,23.7051],[121.241208,23.708733],[121.239266,23.710964],[121.238848,23.713515],[121.239519,23.716279],[121.237785,23.72007],[121.239408,23.724347],[121.235767,23.724638],[121.233573,23.72783],[121.233106,23.730129],[121.232267,23.729531],[121.230993,23.730123],[121.22967,23.73008],[121.229764,23.732892],[121.228577,23.735084],[121.22885,23.744516],[121.230076,23.747184],[121.233322,23.7482],[121.232516,23.750601],[121.230656,23.750995],[121.229306,23.752269],[121.225082,23.751786],[121.223212,23.752684],[121.221398,23.752756],[121.218645,23.756384],[121.217295,23.757008],[121.213402,23.75747],[121.210967,23.761112],[121.206483,23.762637],[121.20867,23.765846],[121.206747,23.76724],[121.204651,23.772399],[121.206006,23.772649],[121.206973,23.775103],[121.208676,23.77593],[121.212191,23.775686],[121.212966,23.776908],[121.218421,23.779835],[121.219545,23.781796],[121.223654,23.782397],[121.226293,23.783674],[121.228346,23.785223],[121.230401,23.787967],[121.230332,23.790278],[121.227273,23.791094],[121.226621,23.792444],[121.226578,23.79609],[121.225507,23.798235],[121.226055,23.802278],[121.226578,23.804579],[121.22791,23.805335],[121.227601,23.808609],[121.229256,23.808833],[121.230329,23.81016],[121.232127,23.810364],[121.234522,23.812088],[121.234914,23.818114]]]},"properties":{"code":"10008120","name":"信義鄉","countyCode":"10008","countyName":"南投縣","townCode":"10008120","townName":"信義鄉","level":"town","unassigned":false,"note":"","label":[121.021373784411,23.654105106487805],"bounds":[120.803939,23.43541,121.241212,23.864804],"focusBounds":[120.803939,23.43541,121.241212,23.864804],"color":"#58b99d","childCount":15}},{"type":"Feature","id":"10008130","geometry":{"type":"Polygon","coordinates":[[[121.34302,24.223554],[121.339751,24.226318],[121.335686,24.228589],[121.333171,24.229826],[121.331679,24.229875],[121.330226,24.231155],[121.326498,24.232528],[121.324444,24.233007],[121.322074,24.232061],[121.319653,24.231869],[121.316453,24.234389],[121.313521,24.235028],[121.308567,24.234904],[121.306201,24.233771],[121.303894,24.233682],[121.302519,24.236327],[121.301172,24.236693],[121.298749,24.235614],[121.298028,24.233995],[121.298777,24.233202],[121.295458,24.232498],[121.294103,24.229684],[121.293135,24.229164],[121.291022,24.230153],[121.290064,24.229703],[121.288885,24.230161],[121.285889,24.229093],[121.284277,24.229547],[121.283679,24.230651],[121.282835,24.231038],[121.280827,24.230608],[121.280035,24.229766],[121.277637,24.231967],[121.276778,24.235531],[121.274082,24.235602],[121.273493,24.236447],[121.27255,24.236091],[121.270725,24.236635],[121.268919,24.237916],[121.2685,24.239949],[121.26592,24.241104],[121.266388,24.242424],[121.265419,24.245668],[121.264658,24.245874],[121.258796,24.245117],[121.256812,24.244404],[121.254653,24.242838],[121.251226,24.237993],[121.247132,24.22822],[121.245004,24.225268],[121.244165,24.222495],[121.240741,24.221707],[121.237956,24.219708],[121.235901,24.221247],[121.232509,24.222309],[121.230413,24.223527],[121.230771,24.226052],[121.228344,24.225933],[121.228342,24.224706],[121.219427,24.229204],[121.21581,24.225347],[121.212671,24.224216],[121.208237,24.221704],[121.204671,24.222139],[121.201566,24.221645],[121.198428,24.222894],[121.196343,24.223],[121.192317,24.219041],[121.191559,24.216586],[121.188509,24.214915],[121.185191,24.214451],[121.181457,24.212049],[121.178879,24.213615],[121.177685,24.215729],[121.173492,24.220326],[121.167644,24.225392],[121.16666,24.223646],[121.164374,24.221787],[121.16407,24.219851],[121.160985,24.215184],[121.158427,24.214584],[121.156521,24.214736],[121.15143,24.212882],[121.14789,24.212912],[121.146151,24.208924],[121.143206,24.205853],[121.142694,24.202003],[121.141365,24.199649],[121.136358,24.196338],[121.132275,24.196901],[121.129261,24.196052],[121.12721,24.196771],[121.122951,24.196028],[121.118754,24.197211],[121.113412,24.196845],[121.111317,24.197707],[121.108419,24.198011],[121.105541,24.197159],[121.104204,24.195959],[121.101692,24.195635],[121.10129,24.194714],[121.09633,24.19207],[121.094412,24.190148],[121.093988,24.187885],[121.091066,24.184816],[121.091348,24.18273],[121.084879,24.175923],[121.080959,24.175424],[121.080811,24.17462],[121.075254,24.170195],[121.07242,24.16987],[121.070164,24.168392],[121.069704,24.167364],[121.066337,24.165515],[121.0646,24.163021],[121.061354,24.163251],[121.059402,24.162781],[121.058828,24.160316],[121.05795,24.159234],[121.05266,24.154796],[121.051977,24.155096],[121.050554,24.158347],[121.047586,24.160024],[121.044144,24.159661],[121.042909,24.15861],[121.038046,24.158176],[121.03577,24.15307],[121.035696,24.150914],[121.033335,24.148582],[121.031,24.149336],[121.03122,24.153526],[121.030082,24.15506],[121.029767,24.157346],[121.02776,24.159556],[121.027358,24.158739],[121.024901,24.157967],[121.019543,24.158714],[121.015511,24.156007],[121.013358,24.15352],[121.012248,24.153325],[121.011837,24.1516],[121.01037,24.150119],[121.009715,24.148305],[121.008169,24.14704],[121.007071,24.144794],[121.007554,24.143782],[121.006807,24.140944],[121.004615,24.137686],[121.00325,24.13353],[121.000361,24.132284],[120.999554,24.127762],[120.998259,24.126712],[120.996418,24.126714],[120.992025,24.125254],[120.991602,24.124201],[120.99202,24.121055],[120.98923,24.118829],[120.985427,24.120222],[120.98371,24.119161],[120.979277,24.118327],[120.975535,24.116886],[120.974146,24.11922],[120.971163,24.120242],[120.96121,24.120152],[120.957047,24.124182],[120.955808,24.119573],[120.955528,24.115997],[120.953187,24.113635],[120.950864,24.109537],[120.949875,24.10731],[120.949834,24.105559],[120.946113,24.103064],[120.94444,24.098938],[120.944208,24.096573],[120.942967,24.094616],[120.944479,24.093192],[120.943598,24.092691],[120.943946,24.090631],[120.944495,24.091126],[120.94547,24.091077],[120.946863,24.086602],[120.945253,24.081648],[120.944511,24.081061],[120.943503,24.081298],[120.938994,24.076002],[120.938604,24.074742],[120.937526,24.074242],[120.938772,24.071048],[120.938527,24.070281],[120.94035,24.066983],[120.941477,24.066392],[120.94408,24.067073],[120.945885,24.066634],[120.947765,24.065671],[120.949271,24.064011],[120.949085,24.063275],[120.950345,24.062832],[120.946924,24.062536],[120.945137,24.062869],[120.943957,24.062021],[120.944348,24.058288],[120.943424,24.056963],[120.943968,24.054503],[120.943658,24.053042],[120.944689,24.04965],[120.950073,24.049444],[120.950804,24.047811],[120.952053,24.046707],[120.95391,24.046051],[120.954466,24.044921],[120.957067,24.045363],[120.959092,24.044824],[120.962834,24.039904],[120.965016,24.038339],[120.965202,24.0344],[120.971473,24.030895],[120.974472,24.0308],[120.976352,24.032829],[120.981237,24.031472],[120.981806,24.029488],[120.983702,24.02653],[120.987011,24.024723],[120.989638,24.022381],[120.990911,24.020205],[120.996173,24.020449],[120.999074,24.019488],[121.00218,24.020556],[121.003213,24.020096],[121.005815,24.017303],[121.006495,24.014194],[121.004001,24.010662],[121.003224,24.007346],[121.005831,24.003391],[121.008911,24.000345],[121.015158,23.999952],[121.019197,24.000491],[121.02029,24.001757],[121.023952,24.00262],[121.026201,24.003963],[121.031744,23.999925],[121.033992,23.998899],[121.039303,23.999463],[121.041638,23.998689],[121.045943,23.998925],[121.049684,23.997998],[121.050593,24.000134],[121.052116,24.001175],[121.052978,24.002985],[121.056559,24.004816],[121.058685,24.001436],[121.057603,23.999223],[121.058363,23.996075],[121.061385,23.994908],[121.062394,23.993691],[121.065735,23.991661],[121.067181,23.989215],[121.068505,23.984543],[121.069463,23.983528],[121.067159,23.981101],[121.06609,23.978327],[121.064579,23.976705],[121.062202,23.975352],[121.061325,23.971825],[121.059152,23.971473],[121.057203,23.968869],[121.05337,23.969703],[121.05429,23.966817],[121.056457,23.96407],[121.053958,23.961211],[121.052053,23.957352],[121.048785,23.954455],[121.04953,23.949993],[121.046775,23.946997],[121.046099,23.943557],[121.044816,23.942998],[121.043165,23.943722],[121.039101,23.94373],[121.036324,23.945104],[121.033083,23.945126],[121.030935,23.94406],[121.030384,23.947353],[121.029164,23.949882],[121.027723,23.955367],[121.026257,23.957214],[121.024525,23.957549],[121.020452,23.96217],[121.018948,23.965435],[121.01766,23.96625],[121.017025,23.968134],[121.015595,23.96838],[121.011367,23.967626],[121.009849,23.966261],[121.007916,23.965545],[121.008053,23.964148],[121.0069,23.963843],[121.005905,23.964811],[121.006282,23.966305],[121.00494,23.966299],[121.003374,23.967015],[121.002157,23.966848],[121.00156,23.964301],[121.002547,23.963458],[121.001927,23.962603],[121.003117,23.96071],[121.00549,23.959894],[121.004209,23.958769],[121.002756,23.959074],[121.001876,23.958748],[121.001715,23.957432],[121.002599,23.957062],[121.001359,23.955796],[121.001932,23.954046],[121.004123,23.952388],[121.004585,23.948497],[121.005249,23.947439],[121.008175,23.946415],[121.013095,23.946849],[121.014443,23.94513],[121.011971,23.940719],[121.010039,23.939543],[121.007076,23.940031],[121.005159,23.93954],[121.001683,23.935838],[121.000133,23.933357],[120.996691,23.93045],[120.997937,23.929916],[120.998327,23.929208],[120.999721,23.929165],[121.001246,23.927034],[121.002396,23.926929],[121.004147,23.925885],[121.005262,23.927003],[121.006816,23.926646],[121.008094,23.927241],[121.010386,23.930108],[121.01315,23.9311],[121.01465,23.933136],[121.016411,23.93271],[121.016816,23.930955],[121.016202,23.929416],[121.01415,23.928465],[121.011972,23.928201],[121.008606,23.924234],[121.008533,23.922237],[121.010615,23.920988],[121.008119,23.920868],[121.008201,23.910593],[121.009989,23.90764],[121.008117,23.908156],[121.006742,23.911934],[121.005383,23.912793],[121.003934,23.914955],[121.003357,23.91634],[121.003017,23.920818],[121.001947,23.92388],[120.998294,23.924012],[120.997631,23.925397],[120.992775,23.924342],[120.991925,23.924551],[120.990931,23.923132],[120.989611,23.92288],[120.989401,23.921288],[120.988305,23.920393],[120.986816,23.921521],[120.985601,23.91998],[120.983836,23.921177],[120.982414,23.919958],[120.981931,23.91887],[120.985045,23.916605],[120.986281,23.914516],[120.987207,23.914394],[120.988615,23.91275],[120.988992,23.910979],[120.988601,23.910227],[120.987332,23.911548],[120.985483,23.912423],[120.981391,23.910347],[120.98293,23.90976],[120.982202,23.908621],[120.986047,23.907576],[120.987017,23.906572],[120.986555,23.904947],[120.987251,23.902311],[120.991089,23.896604],[120.991144,23.895526],[120.988331,23.890312],[120.988527,23.887872],[120.98997,23.886811],[120.990376,23.885109],[120.986753,23.885431],[120.980193,23.883531],[120.981871,23.879176],[120.982626,23.874871],[120.987256,23.871599],[120.988998,23.867748],[120.994944,23.858615],[120.993237,23.855332],[120.992734,23.853049],[120.993158,23.847394],[120.992515,23.839386],[120.996525,23.837336],[120.99845,23.834376],[121.000203,23.832725],[121.00437,23.825674],[121.010172,23.824415],[121.011085,23.824607],[121.013242,23.82062],[121.018997,23.820523],[121.023324,23.818988],[121.025757,23.818843],[121.027674,23.817847],[121.029766,23.818],[121.034492,23.81631],[121.0364,23.816483],[121.037669,23.815925],[121.038576,23.814241],[121.041892,23.81382],[121.047046,23.811819],[121.055307,23.811649],[121.05856,23.810022],[121.063304,23.809893],[121.067403,23.80914],[121.068366,23.809513],[121.070003,23.811353],[121.07367,23.811462],[121.07946,23.813775],[121.085965,23.814269],[121.088852,23.815478],[121.095279,23.814769],[121.097732,23.816958],[121.100996,23.818365],[121.105131,23.819746],[121.108452,23.820218],[121.112318,23.821849],[121.112427,23.825114],[121.110927,23.831251],[121.112324,23.833595],[121.11568,23.834035],[121.119777,23.837146],[121.123051,23.837426],[121.127346,23.838943],[121.132368,23.839284],[121.136609,23.841832],[121.14106,23.846134],[121.147863,23.848711],[121.150402,23.851385],[121.150739,23.855019],[121.151651,23.856476],[121.151469,23.857651],[121.154384,23.861712],[121.154109,23.863819],[121.154492,23.864804],[121.155938,23.864478],[121.158634,23.8627],[121.168791,23.860704],[121.176214,23.856459],[121.179407,23.853412],[121.186347,23.851578],[121.192157,23.851907],[121.197499,23.851051],[121.199689,23.848583],[121.20161,23.848102],[121.20303,23.846315],[121.204531,23.845375],[121.20959,23.844313],[121.212078,23.842383],[121.214589,23.839438],[121.218097,23.838725],[121.220401,23.836687],[121.220037,23.832423],[121.218695,23.830067],[121.220913,23.826437],[121.221061,23.822404],[121.222417,23.819511],[121.22591,23.818528],[121.227819,23.818831],[121.229219,23.817968],[121.230954,23.817722],[121.234914,23.818114],[121.237873,23.821383],[121.239134,23.821863],[121.237147,23.823512],[121.236677,23.825213],[121.238113,23.829625],[121.237731,23.832493],[121.239126,23.836354],[121.239423,23.840423],[121.243481,23.844985],[121.244518,23.848913],[121.248924,23.852132],[121.248684,23.853657],[121.250216,23.856779],[121.249967,23.85982],[121.250498,23.860969],[121.252143,23.861302],[121.252921,23.862955],[121.253036,23.867895],[121.256939,23.869456],[121.258151,23.87251],[121.261674,23.872284],[121.265252,23.872905],[121.262927,23.8795],[121.263372,23.881224],[121.265318,23.883031],[121.268451,23.883753],[121.267583,23.886045],[121.267413,23.889],[121.265508,23.891242],[121.266044,23.894197],[121.265178,23.896719],[121.266536,23.898411],[121.26244,23.89908],[121.262699,23.900143],[121.261062,23.902602],[121.266271,23.907266],[121.270433,23.906497],[121.274453,23.907318],[121.275251,23.908133],[121.276108,23.910119],[121.27538,23.912055],[121.275458,23.914912],[121.276295,23.916221],[121.275244,23.917427],[121.275068,23.918584],[121.276515,23.923163],[121.274557,23.926517],[121.273422,23.928777],[121.274601,23.929998],[121.27485,23.931542],[121.273749,23.933748],[121.273857,23.93622],[121.272057,23.938345],[121.273963,23.941585],[121.273526,23.944143],[121.274334,23.94564],[121.272851,23.946621],[121.271752,23.948505],[121.274705,23.951446],[121.275817,23.955865],[121.275173,23.960101],[121.276259,23.963406],[121.27791,23.965833],[121.275617,23.968359],[121.27508,23.971874],[121.273567,23.975252],[121.265119,23.97532],[121.26423,23.97598],[121.261427,23.981798],[121.261141,23.987229],[121.259951,23.990237],[121.260112,23.992324],[121.264176,23.998101],[121.265575,24.001248],[121.270051,24.006711],[121.269565,24.008012],[121.270314,24.010015],[121.271379,24.011382],[121.271787,24.013118],[121.273791,24.015169],[121.273959,24.016278],[121.276316,24.020152],[121.27661,24.024615],[121.278656,24.026821],[121.280182,24.030601],[121.281856,24.032146],[121.282434,24.034688],[121.285661,24.039533],[121.285627,24.044948],[121.284915,24.046666],[121.284977,24.04857],[121.282612,24.051278],[121.283208,24.054267],[121.28482,24.055331],[121.286473,24.057959],[121.288146,24.058903],[121.289426,24.058891],[121.290519,24.060342],[121.293548,24.061692],[121.295544,24.06378],[121.298636,24.06169],[121.299888,24.062174],[121.302329,24.066349],[121.30606,24.069504],[121.306438,24.070872],[121.308192,24.073307],[121.317932,24.079699],[121.323132,24.084941],[121.323297,24.086544],[121.321148,24.088872],[121.319189,24.092767],[121.318948,24.09501],[121.322332,24.099488],[121.325658,24.102463],[121.326472,24.106001],[121.326288,24.1083],[121.326931,24.110261],[121.328166,24.111645],[121.328495,24.114409],[121.324997,24.116083],[121.315662,24.116494],[121.311626,24.12019],[121.303542,24.124579],[121.299825,24.129211],[121.296689,24.131136],[121.295864,24.132443],[121.284809,24.134714],[121.281369,24.135873],[121.282206,24.140101],[121.284222,24.145851],[121.28468,24.152289],[121.283225,24.153837],[121.28103,24.154493],[121.280335,24.157866],[121.281978,24.158194],[121.286203,24.157077],[121.2878,24.15721],[121.288352,24.157739],[121.287876,24.172024],[121.286073,24.176651],[121.286612,24.177634],[121.29299,24.177202],[121.296445,24.178325],[121.298788,24.180092],[121.30708,24.180332],[121.31103,24.183249],[121.315787,24.185172],[121.317367,24.188109],[121.319916,24.191236],[121.322711,24.19171],[121.324178,24.194675],[121.32562,24.196125],[121.328248,24.196465],[121.330698,24.197763],[121.335811,24.19911],[121.338252,24.199244],[121.34086,24.19846],[121.343756,24.199144],[121.345086,24.199953],[121.349438,24.199775],[121.34931,24.203726],[121.348333,24.20719],[121.349378,24.210438],[121.347866,24.21258],[121.34302,24.223554]]]},"properties":{"code":"10008130","name":"仁愛鄉","countyCode":"10008","countyName":"南投縣","townCode":"10008130","townName":"仁愛鄉","level":"town","unassigned":false,"note":"","label":[121.16093998766225,24.073934198541593],"bounds":[120.937526,23.80914,121.349438,24.245874],"focusBounds":[120.937526,23.80914,121.349438,24.245874],"color":"#78a7e3","childCount":16}}]}
