{"type":"FeatureCollection","features":[{"type":"Feature","id":"10007010","geometry":{"type":"Polygon","coordinates":[[[120.581812,24.109544],[120.576625,24.109584],[120.572749,24.108295],[120.565599,24.109817],[120.558031,24.112542],[120.553694,24.112808],[120.549604,24.113925],[120.547976,24.110414],[120.547907,24.108809],[120.545902,24.109481],[120.545879,24.107857],[120.545415,24.107859],[120.54466,24.104401],[120.545044,24.103372],[120.543893,24.103931],[120.543183,24.101476],[120.542489,24.100763],[120.541677,24.100935],[120.541318,24.100119],[120.541126,24.097733],[120.541955,24.095053],[120.537624,24.092887],[120.536952,24.092786],[120.536841,24.093303],[120.535137,24.093153],[120.535208,24.091625],[120.532928,24.09159],[120.532953,24.090529],[120.525607,24.090165],[120.524438,24.086134],[120.521993,24.08394],[120.518492,24.083748],[120.515546,24.086309],[120.512781,24.08624],[120.513416,24.085109],[120.515053,24.084029],[120.517449,24.079728],[120.513732,24.081268],[120.509689,24.0815],[120.509243,24.077827],[120.508158,24.077729],[120.506332,24.078618],[120.504394,24.078313],[120.502347,24.078798],[120.50061,24.078171],[120.499807,24.076301],[120.503671,24.072901],[120.503689,24.072141],[120.502857,24.071228],[120.503906,24.068864],[120.506621,24.067121],[120.506591,24.061018],[120.504228,24.061019],[120.503883,24.059553],[120.504626,24.057023],[120.506602,24.055452],[120.506926,24.054587],[120.506896,24.053677],[120.505567,24.052308],[120.506673,24.051252],[120.51107,24.054956],[120.514822,24.052475],[120.51742,24.052179],[120.519171,24.05614],[120.520369,24.054388],[120.522649,24.053531],[120.522579,24.052535],[120.529492,24.05193],[120.533232,24.051858],[120.533292,24.052908],[120.534121,24.053145],[120.534274,24.054354],[120.545288,24.053922],[120.548699,24.054723],[120.550191,24.054001],[120.552207,24.050699],[120.554544,24.050995],[120.556255,24.04936],[120.558158,24.049359],[120.561139,24.051456],[120.563244,24.051982],[120.564017,24.053595],[120.566683,24.055127],[120.567819,24.055464],[120.569309,24.05517],[120.570774,24.056269],[120.572554,24.056326],[120.57385,24.054072],[120.57516,24.054396],[120.575473,24.053668],[120.576616,24.053441],[120.578087,24.054405],[120.580629,24.052421],[120.58069,24.05175],[120.583121,24.051808],[120.584901,24.051294],[120.585203,24.049931],[120.588106,24.047116],[120.586893,24.046025],[120.587138,24.044797],[120.587848,24.044081],[120.588884,24.043997],[120.589956,24.042671],[120.592087,24.041342],[120.591994,24.039771],[120.592835,24.037791],[120.606089,24.043608],[120.611133,24.043926],[120.612917,24.043169],[120.616202,24.043312],[120.620725,24.045865],[120.623937,24.046011],[120.625798,24.046719],[120.6245,24.048235],[120.623431,24.052119],[120.625691,24.057026],[120.625347,24.068949],[120.62399,24.071481],[120.622275,24.072595],[120.620147,24.072548],[120.618658,24.075092],[120.614944,24.085041],[120.614901,24.089988],[120.613417,24.095311],[120.613241,24.098121],[120.612487,24.099189],[120.612493,24.102566],[120.609032,24.102075],[120.608035,24.10272],[120.602613,24.102947],[120.601181,24.10459],[120.599961,24.105185],[120.595083,24.104874],[120.588363,24.10623],[120.585789,24.107397],[120.583635,24.109507],[120.581812,24.109544]]]},"properties":{"code":"10007010","name":"彰化市","countyCode":"10007","countyName":"彰化縣","townCode":"10007010","townName":"彰化市","level":"town","unassigned":false,"note":"","label":[120.56817399539484,24.08233136993367],"bounds":[120.499807,24.037791,120.625798,24.113925],"focusBounds":[120.499807,24.037791,120.625798,24.113925],"color":"#a49ad4","childCount":73}},{"type":"Feature","id":"10007020","geometry":{"type":"Polygon","coordinates":[[[120.477406,24.102456],[120.475998,24.102272],[120.473858,24.102963],[120.472097,24.104996],[120.469471,24.106071],[120.467441,24.105952],[120.466774,24.108101],[120.46267,24.108645],[120.462969,24.109371],[120.464615,24.108767],[120.46633,24.109215],[120.463317,24.115604],[120.459082,24.1187],[120.456852,24.119514],[120.456504,24.122062],[120.452233,24.126552],[120.443947,24.12657],[120.441435,24.125207],[120.436093,24.124072],[120.433272,24.124954],[120.429611,24.123979],[120.398444,24.123669],[120.39726,24.121091],[120.396833,24.117493],[120.395842,24.116735],[120.394853,24.114832],[120.394441,24.114939],[120.39466,24.114572],[120.393445,24.112938],[120.392934,24.113046],[120.393283,24.112721],[120.392073,24.111094],[120.391592,24.111241],[120.391892,24.11085],[120.390638,24.109165],[120.390153,24.109349],[120.390524,24.109011],[120.389529,24.107674],[120.38899,24.107943],[120.389413,24.107517],[120.388423,24.106187],[120.387899,24.106446],[120.38828,24.10601],[120.37955,24.09429],[120.380202,24.092692],[120.380025,24.094491],[120.381818,24.096854],[120.386346,24.097043],[120.385996,24.09362],[120.38492,24.091897],[120.384808,24.089165],[120.384171,24.087672],[120.375453,24.083015],[120.370825,24.081691],[120.365584,24.081492],[120.36337,24.080848],[120.36117,24.076288],[120.359194,24.074277],[120.354854,24.072505],[120.351314,24.071871],[120.347775,24.069617],[120.345261,24.066779],[120.342086,24.060128],[120.339572,24.059368],[120.341221,24.057441],[120.342443,24.053808],[120.356972,24.055752],[120.372875,24.057134],[120.388782,24.057738],[120.404693,24.057564],[120.410563,24.05992],[120.417101,24.056648],[120.418925,24.05661],[120.418912,24.054776],[120.420869,24.053283],[120.421732,24.053372],[120.424308,24.055437],[120.426598,24.055442],[120.428418,24.056154],[120.430708,24.051969],[120.433644,24.048186],[120.43928,24.045129],[120.440659,24.042736],[120.442348,24.04226],[120.443399,24.040386],[120.444936,24.040171],[120.444968,24.042302],[120.443439,24.044482],[120.439975,24.045992],[120.441396,24.04859],[120.439678,24.04907],[120.438527,24.053699],[120.440704,24.053013],[120.441562,24.053997],[120.443939,24.05355],[120.44781,24.053669],[120.452623,24.052342],[120.463112,24.052271],[120.465066,24.051354],[120.467156,24.051826],[120.468205,24.050085],[120.471911,24.048238],[120.478838,24.046525],[120.47976,24.048373],[120.480296,24.053317],[120.479735,24.053999],[120.478485,24.05701],[120.480824,24.057284],[120.480792,24.057788],[120.481762,24.05738],[120.481715,24.068362],[120.479541,24.070923],[120.479493,24.072251],[120.482432,24.072273],[120.489546,24.074663],[120.490837,24.074302],[120.492766,24.077234],[120.491895,24.078383],[120.490156,24.078964],[120.488538,24.081137],[120.489679,24.085785],[120.489631,24.087566],[120.491313,24.089247],[120.490408,24.090535],[120.488585,24.09083],[120.48854,24.092407],[120.487921,24.092622],[120.487849,24.093332],[120.488607,24.094223],[120.486547,24.094839],[120.486037,24.097646],[120.48486,24.097646],[120.484446,24.098969],[120.4807,24.098714],[120.478619,24.099826],[120.477406,24.102456]]]},"properties":{"code":"10007020","name":"鹿港鎮","countyCode":"10007","countyName":"彰化縣","townCode":"10007020","townName":"鹿港鎮","level":"town","unassigned":false,"note":"","label":[120.42754494276866,24.089885467313103],"bounds":[120.339572,24.040171,120.492766,24.12657],"focusBounds":[120.339572,24.040171,120.492766,24.12657],"color":"#a49ad4","childCount":31}},{"type":"Feature","id":"10007030","geometry":{"type":"Polygon","coordinates":[[[120.549604,24.113925],[120.545231,24.116622],[120.540922,24.123659],[120.534108,24.125557],[120.532746,24.126366],[120.523686,24.139455],[120.523288,24.140949],[120.525247,24.144265],[120.525805,24.149019],[120.519713,24.161481],[120.516559,24.160331],[120.513116,24.157058],[120.509305,24.155114],[120.509546,24.15215],[120.504011,24.151734],[120.50155,24.150764],[120.501474,24.149533],[120.502412,24.148556],[120.504547,24.148726],[120.506284,24.147993],[120.506223,24.145573],[120.503682,24.135733],[120.501499,24.132115],[120.486482,24.138186],[120.48637,24.140557],[120.485768,24.141633],[120.483943,24.142218],[120.482843,24.141562],[120.482017,24.140204],[120.481776,24.135499],[120.48325,24.127116],[120.486633,24.123063],[120.485471,24.121579],[120.484645,24.11903],[120.483326,24.118852],[120.482704,24.117762],[120.482607,24.116207],[120.482122,24.116062],[120.480476,24.112598],[120.480832,24.111571],[120.478754,24.110354],[120.478678,24.108145],[120.479269,24.107332],[120.478404,24.106962],[120.478703,24.105847],[120.47795,24.105314],[120.479184,24.104894],[120.478911,24.103283],[120.480236,24.103596],[120.4803,24.103033],[120.479596,24.102327],[120.478713,24.103172],[120.477522,24.102926],[120.477406,24.102456],[120.478619,24.099826],[120.4807,24.098714],[120.484446,24.098969],[120.48486,24.097646],[120.486037,24.097646],[120.486547,24.094839],[120.488607,24.094223],[120.487849,24.093332],[120.487921,24.092622],[120.48854,24.092407],[120.488585,24.09083],[120.490408,24.090535],[120.491313,24.089247],[120.489631,24.087566],[120.489679,24.085785],[120.488538,24.081137],[120.490156,24.078964],[120.491895,24.078383],[120.492766,24.077234],[120.494548,24.077084],[120.498202,24.077781],[120.499807,24.076301],[120.50061,24.078171],[120.502347,24.078798],[120.504394,24.078313],[120.506332,24.078618],[120.508158,24.077729],[120.509243,24.077827],[120.509689,24.0815],[120.513732,24.081268],[120.517449,24.079728],[120.515053,24.084029],[120.513416,24.085109],[120.512781,24.08624],[120.515546,24.086309],[120.518492,24.083748],[120.521993,24.08394],[120.524438,24.086134],[120.525607,24.090165],[120.532953,24.090529],[120.532928,24.09159],[120.535208,24.091625],[120.535137,24.093153],[120.536841,24.093303],[120.536952,24.092786],[120.537624,24.092887],[120.541955,24.095053],[120.541126,24.097733],[120.541318,24.100119],[120.541677,24.100935],[120.542489,24.100763],[120.543183,24.101476],[120.543893,24.103931],[120.545044,24.103372],[120.54466,24.104401],[120.545415,24.107859],[120.545879,24.107857],[120.545902,24.109481],[120.547907,24.108809],[120.547976,24.110414],[120.549604,24.113925]]]},"properties":{"code":"10007030","name":"和美鎮","countyCode":"10007","countyName":"彰化縣","townCode":"10007030","townName":"和美鎮","level":"town","unassigned":false,"note":"","label":[120.51365685146436,24.11207194709645],"bounds":[120.477406,24.076301,120.549604,24.161481],"focusBounds":[120.477406,24.076301,120.549604,24.161481],"color":"#a8bf62","childCount":32}},{"type":"Feature","id":"10007040","geometry":{"type":"Polygon","coordinates":[[[120.482017,24.140204],[120.476247,24.141486],[120.474761,24.1427],[120.474251,24.14105],[120.468372,24.142719],[120.468648,24.143616],[120.466196,24.146268],[120.466419,24.147089],[120.465613,24.148186],[120.4591,24.146776],[120.455725,24.147316],[120.455487,24.145619],[120.451052,24.146857],[120.450804,24.147591],[120.439665,24.155916],[120.440588,24.156995],[120.433292,24.165145],[120.424736,24.177594],[120.423373,24.176134],[120.42117,24.175628],[120.418326,24.173671],[120.416393,24.170479],[120.414874,24.160803],[120.415,24.157557],[120.410445,24.15674],[120.408348,24.155705],[120.408208,24.154296],[120.41173,24.15331],[120.412792,24.152233],[120.412705,24.15111],[120.410243,24.147601],[120.409014,24.142658],[120.407119,24.139557],[120.402639,24.138682],[120.400834,24.136922],[120.399991,24.135289],[120.399704,24.133055],[120.401193,24.129932],[120.401144,24.128969],[120.400183,24.127877],[120.399287,24.124777],[120.398444,24.123669],[120.429611,24.123979],[120.433272,24.124954],[120.436093,24.124072],[120.441435,24.125207],[120.443947,24.12657],[120.452233,24.126552],[120.456504,24.122062],[120.456852,24.119514],[120.459082,24.1187],[120.463317,24.115604],[120.46633,24.109215],[120.464615,24.108767],[120.462969,24.109371],[120.46267,24.108645],[120.466774,24.108101],[120.467441,24.105952],[120.469471,24.106071],[120.472097,24.104996],[120.473858,24.102963],[120.475998,24.102272],[120.477406,24.102456],[120.477522,24.102926],[120.478713,24.103172],[120.479596,24.102327],[120.4803,24.103033],[120.480236,24.103596],[120.478911,24.103283],[120.479184,24.104894],[120.47795,24.105314],[120.478703,24.105847],[120.478404,24.106962],[120.479269,24.107332],[120.478678,24.108145],[120.478754,24.110354],[120.480832,24.111571],[120.480476,24.112598],[120.482122,24.116062],[120.482607,24.116207],[120.482704,24.117762],[120.483326,24.118852],[120.484645,24.11903],[120.485471,24.121579],[120.486633,24.123063],[120.48325,24.127116],[120.481776,24.135499],[120.482017,24.140204]]]},"properties":{"code":"10007040","name":"線西鄉","countyCode":"10007","countyName":"彰化縣","townCode":"10007040","townName":"線西鄉","level":"town","unassigned":false,"note":"","label":[120.43395130984213,24.14056656636853],"bounds":[120.398444,24.102272,120.486633,24.177594],"focusBounds":[120.398444,24.102272,120.486633,24.177594],"color":"#68bec9","childCount":8}},{"type":"Feature","id":"10007050","geometry":{"type":"Polygon","coordinates":[[[120.45656,24.207183],[120.456552,24.206476],[120.456469,24.206901],[120.453511,24.203639],[120.453168,24.202037],[120.450662,24.197876],[120.447114,24.194322],[120.443957,24.18894],[120.442354,24.188485],[120.439164,24.18573],[120.432706,24.186651],[120.429735,24.184513],[120.424715,24.1833],[120.424386,24.181858],[120.42616,24.179685],[120.424736,24.177594],[120.433292,24.165145],[120.440588,24.156995],[120.439665,24.155916],[120.450804,24.147591],[120.451052,24.146857],[120.455487,24.145619],[120.455725,24.147316],[120.4591,24.146776],[120.465613,24.148186],[120.466419,24.147089],[120.466196,24.146268],[120.468648,24.143616],[120.468372,24.142719],[120.474251,24.14105],[120.474761,24.1427],[120.476247,24.141486],[120.482017,24.140204],[120.482843,24.141562],[120.483943,24.142218],[120.485768,24.141633],[120.48637,24.140557],[120.486482,24.138186],[120.501499,24.132115],[120.503682,24.135733],[120.506223,24.145573],[120.506284,24.147993],[120.504547,24.148726],[120.502412,24.148556],[120.501474,24.149533],[120.50155,24.150764],[120.504011,24.151734],[120.509546,24.15215],[120.509305,24.155114],[120.513116,24.157058],[120.516559,24.160331],[120.519713,24.161481],[120.517306,24.165794],[120.512611,24.176958],[120.508111,24.187164],[120.504388,24.191143],[120.45656,24.207183]]]},"properties":{"code":"10007050","name":"伸港鄉","countyCode":"10007","countyName":"彰化縣","townCode":"10007050","townName":"伸港鄉","level":"town","unassigned":false,"note":"","label":[120.47325761551473,24.17362421035135],"bounds":[120.424386,24.132115,120.519713,24.207183],"focusBounds":[120.424386,24.132115,120.519713,24.207183],"color":"#df9f6a","childCount":14}},{"type":"Feature","id":"10007060","geometry":{"type":"Polygon","coordinates":[[[120.479735,24.053999],[120.480296,24.053317],[120.47976,24.048373],[120.478838,24.046525],[120.471911,24.048238],[120.468205,24.050085],[120.467156,24.051826],[120.465066,24.051354],[120.463112,24.052271],[120.452623,24.052342],[120.44781,24.053669],[120.443939,24.05355],[120.441562,24.053997],[120.440704,24.053013],[120.438527,24.053699],[120.439678,24.04907],[120.441396,24.04859],[120.439975,24.045992],[120.443439,24.044482],[120.444968,24.042302],[120.444936,24.040171],[120.443399,24.040386],[120.442348,24.04226],[120.440659,24.042736],[120.43928,24.045129],[120.433644,24.048186],[120.430708,24.051969],[120.428418,24.056154],[120.426598,24.055442],[120.424308,24.055437],[120.421732,24.053372],[120.420869,24.053283],[120.418912,24.054776],[120.418925,24.05661],[120.417101,24.056648],[120.410563,24.05992],[120.404693,24.057564],[120.388782,24.057738],[120.372875,24.057134],[120.356972,24.055752],[120.342443,24.053808],[120.341854,24.047892],[120.35818,24.042333],[120.374103,24.037691],[120.377581,24.029789],[120.378563,24.029223],[120.37894,24.027886],[120.38152,24.026579],[120.384561,24.020901],[120.385596,24.019885],[120.385609,24.017048],[120.387611,24.015964],[120.387554,24.013714],[120.388294,24.013227],[120.388501,24.012102],[120.388187,24.01106],[120.390596,24.010326],[120.389744,24.00795],[120.390102,24.007247],[120.392011,24.006695],[120.395323,24.00439],[120.398246,24.003085],[120.403981,24.002951],[120.405118,24.002281],[120.406002,23.99979],[120.408814,23.998725],[120.410219,23.998357],[120.412571,23.996403],[120.411876,23.997953],[120.417934,23.996922],[120.424938,23.993673],[120.425465,23.99856],[120.423537,23.998722],[120.423845,24.000533],[120.425821,24.000335],[120.426384,24.005011],[120.429034,24.004792],[120.429933,24.008798],[120.426959,24.011113],[120.427786,24.013663],[120.435102,24.01929],[120.435451,24.022871],[120.441783,24.024007],[120.442301,24.02657],[120.443629,24.025496],[120.44481,24.023381],[120.446886,24.023807],[120.448633,24.022336],[120.449129,24.021186],[120.451991,24.021074],[120.45196,24.019051],[120.454338,24.017456],[120.45625,24.016493],[120.459139,24.016463],[120.459777,24.015704],[120.459345,24.01467],[120.461822,24.012808],[120.462861,24.012537],[120.46476,24.013106],[120.467952,24.012609],[120.472353,24.013061],[120.473091,24.012408],[120.474826,24.012062],[120.477416,24.011887],[120.479058,24.012373],[120.481191,24.011892],[120.482473,24.010948],[120.486346,24.011012],[120.491904,24.009428],[120.494589,24.005872],[120.494929,24.006339],[120.496041,24.005508],[120.493596,24.00948],[120.497446,24.010856],[120.495756,24.012257],[120.494072,24.011646],[120.494786,24.014376],[120.495727,24.015482],[120.4897,24.020522],[120.485003,24.023037],[120.48354,24.024388],[120.482248,24.02471],[120.480469,24.026476],[120.48396,24.027891],[120.49003,24.028024],[120.490011,24.029119],[120.491672,24.028959],[120.491534,24.02978],[120.488294,24.032302],[120.488002,24.033323],[120.484884,24.035164],[120.485465,24.036067],[120.48476,24.03631],[120.482851,24.040138],[120.48397,24.040217],[120.483933,24.041025],[120.485597,24.041193],[120.485036,24.042536],[120.484041,24.0421],[120.483896,24.0439],[120.487868,24.04408],[120.488171,24.044545],[120.489193,24.044287],[120.48903,24.047019],[120.483692,24.046723],[120.483559,24.049369],[120.482009,24.049236],[120.481627,24.054088],[120.479735,24.053999]]]},"properties":{"code":"10007060","name":"福興鄉","countyCode":"10007","countyName":"彰化縣","townCode":"10007060","townName":"福興鄉","level":"town","unassigned":false,"note":"","label":[120.4086524249037,24.02896997414444],"bounds":[120.341854,23.993673,120.497446,24.05992],"focusBounds":[120.341854,23.993673,120.497446,24.05992],"color":"#c38cb8","childCount":22}},{"type":"Feature","id":"10007070","geometry":{"type":"Polygon","coordinates":[[[120.499807,24.076301],[120.498202,24.077781],[120.494548,24.077084],[120.492766,24.077234],[120.490837,24.074302],[120.489546,24.074663],[120.482432,24.072273],[120.479493,24.072251],[120.479541,24.070923],[120.481715,24.068362],[120.481762,24.05738],[120.480792,24.057788],[120.480824,24.057284],[120.478485,24.05701],[120.479735,24.053999],[120.481627,24.054088],[120.482009,24.049236],[120.483559,24.049369],[120.483692,24.046723],[120.48903,24.047019],[120.489193,24.044287],[120.488171,24.044545],[120.487868,24.04408],[120.483896,24.0439],[120.484041,24.0421],[120.485036,24.042536],[120.485597,24.041193],[120.483933,24.041025],[120.48397,24.040217],[120.482851,24.040138],[120.48476,24.03631],[120.485465,24.036067],[120.484884,24.035164],[120.488002,24.033323],[120.488294,24.032302],[120.491534,24.02978],[120.491672,24.028959],[120.490011,24.029119],[120.49003,24.028024],[120.48396,24.027891],[120.480469,24.026476],[120.482248,24.02471],[120.48354,24.024388],[120.485003,24.023037],[120.4897,24.020522],[120.495727,24.015482],[120.494786,24.014376],[120.494072,24.011646],[120.495756,24.012257],[120.497446,24.010856],[120.493596,24.00948],[120.496041,24.005508],[120.494929,24.006339],[120.494589,24.005872],[120.494528,24.003737],[120.496108,24.000127],[120.499385,23.995875],[120.5016,23.993833],[120.503394,23.99328],[120.50307,23.992325],[120.501101,23.991764],[120.503283,23.991691],[120.505683,23.990794],[120.50823,23.991405],[120.509088,23.993188],[120.509925,23.993382],[120.510569,23.992935],[120.511723,23.993683],[120.512968,23.992619],[120.514151,23.992781],[120.516866,23.993512],[120.516406,23.995131],[120.517456,23.995334],[120.51735,23.995889],[120.521336,23.996231],[120.521051,23.998793],[120.523647,23.99897],[120.523821,24.001122],[120.524744,24.000744],[120.526642,24.001048],[120.527038,24.003965],[120.526379,24.004649],[120.526394,24.006823],[120.525512,24.00785],[120.528486,24.006559],[120.52947,24.008649],[120.529113,24.009326],[120.529569,24.009472],[120.528777,24.010947],[120.535099,24.01164],[120.534843,24.012841],[120.531673,24.01799],[120.529197,24.017434],[120.528536,24.017816],[120.528401,24.019103],[120.526462,24.01862],[120.52627,24.020438],[120.525009,24.020799],[120.524889,24.021338],[120.525513,24.021601],[120.525034,24.023343],[120.526015,24.023612],[120.525625,24.025917],[120.52457,24.026586],[120.524108,24.027695],[120.523866,24.030653],[120.52292,24.032179],[120.521807,24.032505],[120.521387,24.03355],[120.521722,24.035543],[120.520639,24.036059],[120.520602,24.044399],[120.51742,24.052179],[120.514822,24.052475],[120.51107,24.054956],[120.506673,24.051252],[120.505567,24.052308],[120.506896,24.053677],[120.506926,24.054587],[120.506602,24.055452],[120.504626,24.057023],[120.503883,24.059553],[120.504228,24.061019],[120.506591,24.061018],[120.506621,24.067121],[120.503906,24.068864],[120.502857,24.071228],[120.503689,24.072141],[120.503671,24.072901],[120.499807,24.076301]]]},"properties":{"code":"10007070","name":"秀水鄉","countyCode":"10007","countyName":"彰化縣","townCode":"10007070","townName":"秀水鄉","level":"town","unassigned":false,"note":"","label":[120.50606549167209,24.032938934482143],"bounds":[120.478485,23.990794,120.535099,24.077781],"focusBounds":[120.478485,23.990794,120.535099,24.077781],"color":"#98b69b","childCount":14}},{"type":"Feature","id":"10007080","geometry":{"type":"Polygon","coordinates":[[[120.592835,24.037791],[120.591994,24.039771],[120.592087,24.041342],[120.589956,24.042671],[120.588884,24.043997],[120.587848,24.044081],[120.587138,24.044797],[120.586893,24.046025],[120.588106,24.047116],[120.585203,24.049931],[120.584901,24.051294],[120.583121,24.051808],[120.58069,24.05175],[120.580629,24.052421],[120.578087,24.054405],[120.576616,24.053441],[120.575473,24.053668],[120.57516,24.054396],[120.57385,24.054072],[120.572554,24.056326],[120.570774,24.056269],[120.569309,24.05517],[120.567819,24.055464],[120.566683,24.055127],[120.564017,24.053595],[120.563244,24.051982],[120.561139,24.051456],[120.558158,24.049359],[120.556255,24.04936],[120.554544,24.050995],[120.552207,24.050699],[120.550191,24.054001],[120.548699,24.054723],[120.545288,24.053922],[120.534274,24.054354],[120.534121,24.053145],[120.533292,24.052908],[120.533232,24.051858],[120.529492,24.05193],[120.522579,24.052535],[120.522649,24.053531],[120.520369,24.054388],[120.519171,24.05614],[120.51742,24.052179],[120.520602,24.044399],[120.520639,24.036059],[120.521722,24.035543],[120.521387,24.03355],[120.521807,24.032505],[120.52292,24.032179],[120.523866,24.030653],[120.524108,24.027695],[120.52457,24.026586],[120.525625,24.025917],[120.526015,24.023612],[120.525034,24.023343],[120.525513,24.021601],[120.524889,24.021338],[120.525009,24.020799],[120.52627,24.020438],[120.526462,24.01862],[120.528401,24.019103],[120.528536,24.017816],[120.529197,24.017434],[120.531673,24.01799],[120.534843,24.012841],[120.537409,24.013517],[120.538169,24.012819],[120.541878,24.011832],[120.545971,24.00809],[120.549273,24.008326],[120.552131,24.007759],[120.553361,24.00637],[120.554341,24.002509],[120.555136,24.002003],[120.574336,24.004693],[120.575671,24.005624],[120.578802,24.005651],[120.582708,24.007395],[120.585384,24.009472],[120.586699,24.00873],[120.588148,24.008646],[120.590143,24.010486],[120.592555,24.01004],[120.59375,24.011131],[120.597204,24.009519],[120.599094,24.009364],[120.602786,24.010438],[120.604367,24.010222],[120.605104,24.009593],[120.603891,24.011906],[120.602613,24.012871],[120.601917,24.014593],[120.600733,24.015425],[120.599718,24.01837],[120.597631,24.021071],[120.597228,24.023222],[120.595447,24.024455],[120.59496,24.028213],[120.595512,24.029033],[120.595194,24.032683],[120.594814,24.033402],[120.592226,24.034958],[120.591965,24.035817],[120.592736,24.036593],[120.592835,24.037791]]]},"properties":{"code":"10007080","name":"花壇鄉","countyCode":"10007","countyName":"彰化縣","townCode":"10007080","townName":"花壇鄉","level":"town","unassigned":false,"note":"","label":[120.56332820342337,24.02765449214149],"bounds":[120.51742,24.002003,120.605104,24.056326],"focusBounds":[120.51742,24.002003,120.605104,24.056326],"color":"#58b99d","childCount":18}},{"type":"Feature","id":"10007090","geometry":{"type":"Polygon","coordinates":[[[120.655717,24.030684],[120.65181,24.028514],[120.646559,24.03394],[120.645161,24.034298],[120.644438,24.032309],[120.646175,24.028335],[120.64626,24.026901],[120.644643,24.025878],[120.641925,24.027367],[120.640267,24.027281],[120.637537,24.028529],[120.636146,24.03105],[120.633987,24.03108],[120.628658,24.02962],[120.62532,24.030082],[120.624179,24.031608],[120.624229,24.033371],[120.628113,24.03835],[120.627627,24.040389],[120.626018,24.04162],[120.625798,24.046719],[120.623937,24.046011],[120.620725,24.045865],[120.616202,24.043312],[120.612917,24.043169],[120.611133,24.043926],[120.606089,24.043608],[120.592835,24.037791],[120.592736,24.036593],[120.591965,24.035817],[120.592226,24.034958],[120.594814,24.033402],[120.595194,24.032683],[120.595512,24.029033],[120.59496,24.028213],[120.595447,24.024455],[120.597228,24.023222],[120.597631,24.021071],[120.599718,24.01837],[120.600733,24.015425],[120.601917,24.014593],[120.602613,24.012871],[120.603891,24.011906],[120.605104,24.009593],[120.604477,24.008647],[120.60302,24.00853],[120.603109,24.007949],[120.604064,24.007504],[120.603502,24.00746],[120.603537,24.006278],[120.604259,24.005207],[120.606308,24.004093],[120.606254,24.003351],[120.607733,24.001975],[120.609335,23.998729],[120.606431,23.9996],[120.606189,23.999158],[120.608633,23.998081],[120.609618,23.996847],[120.60929,23.995391],[120.610105,23.99487],[120.610067,23.995738],[120.610455,23.995662],[120.611413,23.994334],[120.610707,23.994347],[120.609954,23.993021],[120.607987,23.993701],[120.608879,23.992767],[120.608874,23.991779],[120.609374,23.992164],[120.610357,23.991921],[120.610819,23.990783],[120.608791,23.990147],[120.60764,23.987324],[120.6078,23.986328],[120.609251,23.985646],[120.609751,23.985782],[120.6094,23.986521],[120.611687,23.98376],[120.611612,23.984746],[120.609944,23.986858],[120.611077,23.987309],[120.611384,23.985802],[120.613022,23.98445],[120.612948,23.983341],[120.613504,23.983271],[120.61436,23.984256],[120.615793,23.984006],[120.616444,23.983139],[120.615992,23.982367],[120.617324,23.981675],[120.617147,23.980216],[120.619691,23.978761],[120.619492,23.976123],[120.621057,23.974614],[120.619832,23.974444],[120.622455,23.971892],[120.624643,23.968025],[120.623106,23.969394],[120.623328,23.968279],[120.621514,23.967782],[120.623303,23.967715],[120.625163,23.965284],[120.624355,23.965313],[120.62456,23.964607],[120.628166,23.962907],[120.628668,23.961319],[120.626809,23.962134],[120.62745,23.960993],[120.628524,23.960656],[120.628805,23.959734],[120.627662,23.959985],[120.627437,23.95918],[120.625379,23.959346],[120.626828,23.95855],[120.628563,23.958634],[120.629648,23.957755],[120.629658,23.956109],[120.631127,23.956297],[120.631487,23.955597],[120.634343,23.953999],[120.635408,23.952245],[120.636745,23.952695],[120.642659,23.958272],[120.644224,23.962081],[120.646853,23.963377],[120.646961,23.971532],[120.646315,23.973241],[120.650048,23.982943],[120.650093,23.984921],[120.644654,23.990105],[120.637781,23.993574],[120.636828,23.994512],[120.636117,23.998411],[120.638201,24.003756],[120.638095,24.007404],[120.640348,24.005729],[120.641483,24.008064],[120.642474,24.008957],[120.643389,24.00831],[120.646201,24.009149],[120.64732,24.008421],[120.64942,24.008081],[120.650986,24.0085],[120.66359,24.008096],[120.666155,24.007744],[120.667584,24.006909],[120.670365,24.006286],[120.671705,24.006483],[120.672581,24.005847],[120.673698,24.008083],[120.671827,24.009525],[120.67009,24.009959],[120.670644,24.010623],[120.672572,24.01024],[120.67426,24.010832],[120.67457,24.010454],[120.675994,24.010712],[120.678646,24.014031],[120.664782,24.023287],[120.663493,24.024966],[120.660914,24.025891],[120.655717,24.030684]]]},"properties":{"code":"10007090","name":"芬園鄉","countyCode":"10007","countyName":"彰化縣","townCode":"10007090","townName":"芬園鄉","level":"town","unassigned":false,"note":"","label":[120.62227544714328,24.01292909786581],"bounds":[120.591965,23.952245,120.678646,24.046719],"focusBounds":[120.591965,23.952245,120.678646,24.046719],"color":"#efb44f","childCount":15}},{"type":"Feature","id":"10007100","geometry":{"type":"Polygon","coordinates":[[[120.608791,23.990147],[120.604772,23.990087],[120.601549,23.98678],[120.600106,23.986303],[120.598315,23.984858],[120.593381,23.98287],[120.589529,23.979811],[120.587818,23.980571],[120.575917,23.978618],[120.578043,23.975444],[120.576005,23.975681],[120.571228,23.973831],[120.570165,23.973738],[120.569237,23.974306],[120.568032,23.973103],[120.562619,23.972458],[120.562729,23.97589],[120.562216,23.978052],[120.562928,23.979436],[120.562598,23.980217],[120.555901,23.979309],[120.553794,23.978611],[120.553783,23.978099],[120.550503,23.977625],[120.550357,23.977063],[120.548917,23.976446],[120.549507,23.974767],[120.547182,23.975495],[120.546596,23.971926],[120.545251,23.971169],[120.544012,23.968413],[120.544976,23.965148],[120.547615,23.962829],[120.550779,23.962203],[120.557873,23.95862],[120.561624,23.958936],[120.56331,23.957244],[120.563479,23.952353],[120.565857,23.950618],[120.563063,23.945756],[120.562064,23.946269],[120.560794,23.945237],[120.561507,23.937979],[120.563488,23.938456],[120.564198,23.936442],[120.565398,23.936607],[120.565713,23.935167],[120.567307,23.935153],[120.567395,23.934428],[120.569698,23.934434],[120.575383,23.933295],[120.576202,23.934597],[120.576302,23.936267],[120.576709,23.936146],[120.578936,23.92758],[120.581142,23.92326],[120.589688,23.924941],[120.592355,23.928041],[120.593385,23.930583],[120.592843,23.933207],[120.598279,23.933865],[120.598348,23.934721],[120.601735,23.935525],[120.606993,23.933823],[120.609695,23.934657],[120.610383,23.934165],[120.61547,23.933987],[120.616672,23.933048],[120.623848,23.930837],[120.628498,23.931369],[120.629723,23.931171],[120.630408,23.932592],[120.630987,23.932156],[120.632139,23.932874],[120.632777,23.935645],[120.634104,23.936086],[120.634664,23.936991],[120.635361,23.936909],[120.635486,23.937445],[120.637659,23.935433],[120.636391,23.93772],[120.630142,23.942998],[120.630721,23.943798],[120.630166,23.944282],[120.630829,23.9448],[120.633366,23.942881],[120.634656,23.943708],[120.627593,23.95177],[120.628015,23.95266],[120.629382,23.952123],[120.631564,23.953484],[120.634073,23.95226],[120.633845,23.953365],[120.632783,23.954392],[120.631622,23.954777],[120.629402,23.954557],[120.62981,23.955211],[120.628089,23.955359],[120.627778,23.955848],[120.626947,23.955654],[120.627128,23.95652],[120.629658,23.956109],[120.629648,23.957755],[120.628563,23.958634],[120.626828,23.95855],[120.625379,23.959346],[120.627437,23.95918],[120.627662,23.959985],[120.628805,23.959734],[120.628524,23.960656],[120.62745,23.960993],[120.626809,23.962134],[120.628668,23.961319],[120.628166,23.962907],[120.62456,23.964607],[120.624355,23.965313],[120.625163,23.965284],[120.623303,23.967715],[120.621514,23.967782],[120.623328,23.968279],[120.623106,23.969394],[120.624643,23.968025],[120.622455,23.971892],[120.619832,23.974444],[120.621057,23.974614],[120.619492,23.976123],[120.619691,23.978761],[120.617147,23.980216],[120.617324,23.981675],[120.615992,23.982367],[120.616444,23.983139],[120.615793,23.984006],[120.61436,23.984256],[120.613504,23.983271],[120.612948,23.983341],[120.613022,23.98445],[120.611384,23.985802],[120.611077,23.987309],[120.609944,23.986858],[120.611612,23.984746],[120.611687,23.98376],[120.6094,23.986521],[120.609751,23.985782],[120.609251,23.985646],[120.6078,23.986328],[120.60764,23.987324],[120.608791,23.990147]]]},"properties":{"code":"10007100","name":"員林市","countyCode":"10007","countyName":"彰化縣","townCode":"10007100","townName":"員林市","level":"town","unassigned":false,"note":"","label":[120.59241757881145,23.957277923323744],"bounds":[120.544012,23.92326,120.637659,23.990147],"focusBounds":[120.544012,23.92326,120.637659,23.990147],"color":"#78a7e3","childCount":41}},{"type":"Feature","id":"10007110","geometry":{"type":"Polygon","coordinates":[[[120.512236,23.977551],[120.508357,23.976901],[120.505847,23.974423],[120.504726,23.974368],[120.504451,23.97339],[120.500304,23.973393],[120.499857,23.974469],[120.496971,23.974194],[120.497123,23.972378],[120.485864,23.973096],[120.485012,23.973248],[120.485048,23.97457],[120.483152,23.977565],[120.479287,23.977594],[120.479257,23.979461],[120.478553,23.979446],[120.478511,23.980217],[120.478076,23.980222],[120.478131,23.977773],[120.476103,23.981139],[120.47319,23.983456],[120.471849,23.983831],[120.468841,23.983594],[120.466865,23.982381],[120.46579,23.980331],[120.466279,23.979337],[120.465876,23.972699],[120.465464,23.968298],[120.464947,23.967508],[120.463919,23.967006],[120.462085,23.964627],[120.460427,23.964147],[120.459073,23.962614],[120.456258,23.96178],[120.455826,23.961187],[120.453715,23.961993],[120.451386,23.965115],[120.447475,23.965985],[120.448084,23.963084],[120.447596,23.962801],[120.448352,23.960349],[120.445899,23.958842],[120.451479,23.949695],[120.45559,23.940048],[120.460567,23.935416],[120.465513,23.932978],[120.466708,23.93145],[120.467084,23.931572],[120.47432,23.921804],[120.474889,23.922001],[120.475724,23.922119],[120.477032,23.921122],[120.478146,23.921308],[120.480794,23.920441],[120.482234,23.920665],[120.48394,23.919561],[120.484794,23.920301],[120.490264,23.9205],[120.490779,23.92387],[120.49386,23.923828],[120.493766,23.925054],[120.494553,23.925125],[120.493952,23.927038],[120.49505,23.92694],[120.495793,23.929425],[120.497396,23.929326],[120.497509,23.929718],[120.498983,23.929973],[120.500304,23.929666],[120.500998,23.92885],[120.501651,23.932417],[120.502948,23.932177],[120.50558,23.934133],[120.50659,23.934178],[120.507235,23.935162],[120.50815,23.934972],[120.50794,23.936367],[120.508422,23.937715],[120.510347,23.941369],[120.513174,23.944991],[120.513054,23.948697],[120.512005,23.95055],[120.512342,23.953948],[120.513559,23.95615],[120.514778,23.956001],[120.515755,23.958264],[120.515327,23.959083],[120.515746,23.960472],[120.51519,23.962455],[120.51529,23.965409],[120.51052,23.969093],[120.511119,23.971115],[120.510706,23.971882],[120.511022,23.973789],[120.512431,23.975018],[120.514014,23.974819],[120.514702,23.975603],[120.512236,23.977551]]]},"properties":{"code":"10007110","name":"溪湖鎮","countyCode":"10007","countyName":"彰化縣","townCode":"10007110","townName":"溪湖鎮","level":"town","unassigned":false,"note":"","label":[120.483866655876,23.950017942867913],"bounds":[120.445899,23.919561,120.515755,23.983831],"focusBounds":[120.445899,23.919561,120.515755,23.983831],"color":"#dd8590","childCount":25}},{"type":"Feature","id":"10007120","geometry":{"type":"Polygon","coordinates":[[[120.624825,23.877069],[120.621164,23.877706],[120.61737,23.879393],[120.612561,23.880538],[120.605942,23.880009],[120.605199,23.880105],[120.604726,23.881087],[120.598088,23.881335],[120.5963,23.883249],[120.592737,23.882672],[120.592917,23.877006],[120.58507,23.876832],[120.583296,23.876525],[120.583378,23.876124],[120.582748,23.87593],[120.582053,23.877145],[120.579335,23.875485],[120.576044,23.87721],[120.574801,23.879838],[120.575988,23.881867],[120.574295,23.889773],[120.575418,23.89105],[120.574344,23.893174],[120.574879,23.895464],[120.568089,23.888738],[120.568804,23.886742],[120.570563,23.884562],[120.566113,23.886179],[120.560025,23.885981],[120.559586,23.883914],[120.560752,23.883396],[120.560705,23.882617],[120.558767,23.882149],[120.557867,23.881209],[120.556411,23.874303],[120.552111,23.876536],[120.551749,23.873242],[120.553071,23.871275],[120.554739,23.87094],[120.555431,23.869938],[120.554987,23.869931],[120.55475,23.864912],[120.55629,23.864486],[120.561803,23.860452],[120.56307,23.857895],[120.570986,23.851964],[120.571982,23.851262],[120.573176,23.851764],[120.568442,23.846467],[120.565434,23.847595],[120.560044,23.84818],[120.558373,23.848849],[120.559097,23.847323],[120.56277,23.843269],[120.572278,23.832992],[120.57249,23.835228],[120.580718,23.826143],[120.583142,23.828078],[120.587743,23.82324],[120.59172,23.82019],[120.593628,23.819631],[120.59623,23.819284],[120.601831,23.820577],[120.602805,23.819899],[120.603798,23.818779],[120.604344,23.819428],[120.601907,23.823273],[120.601487,23.82583],[120.600283,23.825884],[120.599768,23.828162],[120.600078,23.830023],[120.59939,23.830943],[120.598026,23.831061],[120.598295,23.834907],[120.595273,23.839181],[120.596947,23.837666],[120.598478,23.838036],[120.601107,23.837055],[120.602836,23.838517],[120.605536,23.834847],[120.606378,23.835454],[120.606387,23.836072],[120.60896,23.837163],[120.610504,23.838576],[120.612437,23.838902],[120.615557,23.840607],[120.616076,23.841186],[120.618321,23.841415],[120.619783,23.842423],[120.61829,23.842585],[120.61832,23.84306],[120.619649,23.843513],[120.618371,23.844622],[120.61941,23.844162],[120.621087,23.844404],[120.621251,23.845638],[120.621862,23.846028],[120.621601,23.846581],[120.622835,23.846508],[120.623599,23.847067],[120.623343,23.848121],[120.619664,23.848641],[120.620675,23.849086],[120.619434,23.849618],[120.621794,23.849592],[120.622709,23.848704],[120.622958,23.849861],[120.623444,23.848898],[120.623756,23.850294],[120.624869,23.850978],[120.624495,23.852262],[120.625956,23.852076],[120.626272,23.854119],[120.625248,23.855182],[120.626267,23.85475],[120.626308,23.856213],[120.627821,23.857398],[120.626678,23.857501],[120.626517,23.858597],[120.625447,23.857707],[120.626032,23.858472],[120.624868,23.858469],[120.62424,23.859173],[120.624456,23.859763],[120.623077,23.860457],[120.62224,23.860121],[120.62326,23.860971],[120.623548,23.861968],[120.622494,23.86254],[120.622755,23.863029],[120.622087,23.863501],[120.620662,23.863636],[120.620059,23.865509],[120.620653,23.866335],[120.620159,23.868713],[120.621251,23.868597],[120.62155,23.869833],[120.62396,23.868924],[120.624221,23.870588],[120.623783,23.871474],[120.624657,23.871629],[120.625807,23.873464],[120.625767,23.875244],[120.624825,23.877069]]]},"properties":{"code":"10007120","name":"田中鎮","countyCode":"10007","countyName":"彰化縣","townCode":"10007120","townName":"田中鎮","level":"town","unassigned":false,"note":"","label":[120.59294332332264,23.85818396810383],"bounds":[120.551749,23.818779,120.627821,23.895464],"focusBounds":[120.551749,23.818779,120.627821,23.895464],"color":"#a8bf62","childCount":22}},{"type":"Feature","id":"10007130","geometry":{"type":"Polygon","coordinates":[[[120.605104,24.009593],[120.604367,24.010222],[120.602786,24.010438],[120.599094,24.009364],[120.597204,24.009519],[120.59375,24.011131],[120.592555,24.01004],[120.590143,24.010486],[120.588148,24.008646],[120.586699,24.00873],[120.585384,24.009472],[120.582708,24.007395],[120.578802,24.005651],[120.575671,24.005624],[120.574336,24.004693],[120.555136,24.002003],[120.554341,24.002509],[120.553361,24.00637],[120.552131,24.007759],[120.549273,24.008326],[120.545971,24.00809],[120.541878,24.011832],[120.538169,24.012819],[120.537409,24.013517],[120.534843,24.012841],[120.535099,24.01164],[120.528777,24.010947],[120.529569,24.009472],[120.529113,24.009326],[120.52947,24.008649],[120.528486,24.006559],[120.525512,24.00785],[120.526394,24.006823],[120.526379,24.004649],[120.527038,24.003965],[120.526642,24.001048],[120.524744,24.000744],[120.523821,24.001122],[120.523647,23.99897],[120.521051,23.998793],[120.521336,23.996231],[120.51735,23.995889],[120.517456,23.995334],[120.516406,23.995131],[120.516866,23.993512],[120.514151,23.992781],[120.512968,23.992619],[120.511723,23.993683],[120.510569,23.992935],[120.509925,23.993382],[120.509088,23.993188],[120.50823,23.991405],[120.505683,23.990794],[120.507361,23.989056],[120.506741,23.987876],[120.505283,23.9873],[120.508801,23.982578],[120.50985,23.98238],[120.512418,23.979808],[120.51399,23.979057],[120.514479,23.977894],[120.519728,23.978218],[120.521853,23.977176],[120.526508,23.977964],[120.529635,23.977392],[120.53053,23.977442],[120.531263,23.978248],[120.532366,23.977981],[120.533182,23.977257],[120.533367,23.975728],[120.534431,23.973854],[120.536461,23.972076],[120.538486,23.971158],[120.541449,23.971315],[120.544696,23.976314],[120.547182,23.975495],[120.549507,23.974767],[120.548917,23.976446],[120.550357,23.977063],[120.550503,23.977625],[120.553783,23.978099],[120.553794,23.978611],[120.555901,23.979309],[120.562598,23.980217],[120.562928,23.979436],[120.562216,23.978052],[120.562729,23.97589],[120.562619,23.972458],[120.568032,23.973103],[120.569237,23.974306],[120.570165,23.973738],[120.571228,23.973831],[120.576005,23.975681],[120.578043,23.975444],[120.575917,23.978618],[120.587818,23.980571],[120.589529,23.979811],[120.593381,23.98287],[120.598315,23.984858],[120.600106,23.986303],[120.601549,23.98678],[120.604772,23.990087],[120.608791,23.990147],[120.610819,23.990783],[120.610357,23.991921],[120.609374,23.992164],[120.608874,23.991779],[120.608879,23.992767],[120.607987,23.993701],[120.609954,23.993021],[120.610707,23.994347],[120.611413,23.994334],[120.610455,23.995662],[120.610067,23.995738],[120.610105,23.99487],[120.60929,23.995391],[120.609618,23.996847],[120.608633,23.998081],[120.606189,23.999158],[120.606431,23.9996],[120.609335,23.998729],[120.607733,24.001975],[120.606254,24.003351],[120.606308,24.004093],[120.604259,24.005207],[120.603537,24.006278],[120.603502,24.00746],[120.604064,24.007504],[120.603109,24.007949],[120.60302,24.00853],[120.604477,24.008647],[120.605104,24.009593]]]},"properties":{"code":"10007130","name":"大村鄉","countyCode":"10007","countyName":"彰化縣","townCode":"10007130","townName":"大村鄉","level":"town","unassigned":false,"note":"","label":[120.54176923695871,23.991834762062705],"bounds":[120.505283,23.971158,120.611413,24.013517],"focusBounds":[120.505283,23.971158,120.611413,24.013517],"color":"#a8bf62","childCount":16}},{"type":"Feature","id":"10007140","geometry":{"type":"Polygon","coordinates":[[[120.494589,24.005872],[120.491904,24.009428],[120.486346,24.011012],[120.482473,24.010948],[120.481191,24.011892],[120.479058,24.012373],[120.477416,24.011887],[120.474826,24.012062],[120.473091,24.012408],[120.472353,24.013061],[120.467952,24.012609],[120.46476,24.013106],[120.462861,24.012537],[120.461822,24.012808],[120.459345,24.01467],[120.459777,24.015704],[120.459139,24.016463],[120.45625,24.016493],[120.454338,24.017456],[120.45196,24.019051],[120.451991,24.021074],[120.449129,24.021186],[120.448633,24.022336],[120.446886,24.023807],[120.44481,24.023381],[120.443629,24.025496],[120.442301,24.02657],[120.441783,24.024007],[120.435451,24.022871],[120.435102,24.01929],[120.427786,24.013663],[120.426959,24.011113],[120.429933,24.008798],[120.429034,24.004792],[120.426384,24.005011],[120.425821,24.000335],[120.423845,24.000533],[120.423537,23.998722],[120.425465,23.99856],[120.424938,23.993673],[120.417934,23.996922],[120.411876,23.997953],[120.412571,23.996403],[120.417574,23.988243],[120.421773,23.983421],[120.422203,23.981167],[120.424138,23.979823],[120.42423,23.979173],[120.423322,23.978157],[120.424345,23.976491],[120.427317,23.974585],[120.429146,23.972695],[120.429569,23.971006],[120.432742,23.969741],[120.438151,23.968649],[120.440633,23.967208],[120.442239,23.965382],[120.445899,23.958842],[120.448352,23.960349],[120.447596,23.962801],[120.448084,23.963084],[120.447475,23.965985],[120.451386,23.965115],[120.453715,23.961993],[120.455826,23.961187],[120.456258,23.96178],[120.459073,23.962614],[120.460427,23.964147],[120.462085,23.964627],[120.463919,23.967006],[120.464947,23.967508],[120.465464,23.968298],[120.465876,23.972699],[120.466279,23.979337],[120.46579,23.980331],[120.466865,23.982381],[120.468841,23.983594],[120.471849,23.983831],[120.47319,23.983456],[120.476103,23.981139],[120.478131,23.977773],[120.478076,23.980222],[120.478511,23.980217],[120.478553,23.979446],[120.479257,23.979461],[120.479287,23.977594],[120.483152,23.977565],[120.485048,23.97457],[120.485012,23.973248],[120.485864,23.973096],[120.497123,23.972378],[120.496971,23.974194],[120.499857,23.974469],[120.500304,23.973393],[120.504451,23.97339],[120.504726,23.974368],[120.505847,23.974423],[120.508357,23.976901],[120.512236,23.977551],[120.511968,23.979797],[120.50954,23.98138],[120.508801,23.982578],[120.505283,23.9873],[120.506741,23.987876],[120.507361,23.989056],[120.505683,23.990794],[120.503283,23.991691],[120.501101,23.991764],[120.50307,23.992325],[120.503394,23.99328],[120.5016,23.993833],[120.499385,23.995875],[120.496108,24.000127],[120.494528,24.003737],[120.494589,24.005872]]]},"properties":{"code":"10007140","name":"埔鹽鄉","countyCode":"10007","countyName":"彰化縣","townCode":"10007140","townName":"埔鹽鄉","level":"town","unassigned":false,"note":"","label":[120.44690803399673,23.991625178684718],"bounds":[120.411876,23.958842,120.512236,24.02657],"focusBounds":[120.411876,23.958842,120.512236,24.02657],"color":"#68bec9","childCount":22}},{"type":"Feature","id":"10007150","geometry":{"type":"Polygon","coordinates":[[[120.547182,23.975495],[120.544696,23.976314],[120.541449,23.971315],[120.538486,23.971158],[120.536461,23.972076],[120.534431,23.973854],[120.533367,23.975728],[120.533182,23.977257],[120.532366,23.977981],[120.531263,23.978248],[120.53053,23.977442],[120.529635,23.977392],[120.526508,23.977964],[120.521853,23.977176],[120.519728,23.978218],[120.514479,23.977894],[120.51399,23.979057],[120.512418,23.979808],[120.50985,23.98238],[120.508801,23.982578],[120.50954,23.98138],[120.511968,23.979797],[120.512236,23.977551],[120.514702,23.975603],[120.514014,23.974819],[120.512431,23.975018],[120.511022,23.973789],[120.510706,23.971882],[120.511119,23.971115],[120.51052,23.969093],[120.51529,23.965409],[120.51519,23.962455],[120.515746,23.960472],[120.515327,23.959083],[120.515755,23.958264],[120.514778,23.956001],[120.513559,23.95615],[120.512342,23.953948],[120.512005,23.95055],[120.513054,23.948697],[120.513174,23.944991],[120.510347,23.941369],[120.508422,23.937715],[120.50794,23.936367],[120.50815,23.934972],[120.508743,23.933558],[120.507301,23.931956],[120.509315,23.930902],[120.510316,23.930914],[120.511122,23.929807],[120.512392,23.929727],[120.512463,23.930344],[120.513551,23.930331],[120.516229,23.931496],[120.519365,23.929395],[120.519188,23.931533],[120.51817,23.932136],[120.518268,23.9329],[120.516275,23.935324],[120.517476,23.936615],[120.518799,23.937637],[120.52104,23.93624],[120.528198,23.937633],[120.532359,23.936565],[120.534081,23.93168],[120.535453,23.929857],[120.537166,23.929427],[120.543882,23.931723],[120.543047,23.934295],[120.544319,23.933382],[120.551818,23.932959],[120.552826,23.934487],[120.555881,23.936757],[120.557934,23.937769],[120.559029,23.937442],[120.561507,23.937979],[120.560794,23.945237],[120.562064,23.946269],[120.563063,23.945756],[120.565857,23.950618],[120.563479,23.952353],[120.56331,23.957244],[120.561624,23.958936],[120.557873,23.95862],[120.550779,23.962203],[120.547615,23.962829],[120.544976,23.965148],[120.544012,23.968413],[120.545251,23.971169],[120.546596,23.971926],[120.547182,23.975495]]]},"properties":{"code":"10007150","name":"埔心鄉","countyCode":"10007","countyName":"彰化縣","townCode":"10007150","townName":"埔心鄉","level":"town","unassigned":false,"note":"","label":[120.53428812363109,23.952755362907062],"bounds":[120.507301,23.929395,120.565857,23.982578],"focusBounds":[120.507301,23.929395,120.565857,23.982578],"color":"#df9f6a","childCount":20}},{"type":"Feature","id":"10007160","geometry":{"type":"Polygon","coordinates":[[[120.575383,23.933295],[120.569698,23.934434],[120.567395,23.934428],[120.567307,23.935153],[120.565713,23.935167],[120.565398,23.936607],[120.564198,23.936442],[120.563488,23.938456],[120.561507,23.937979],[120.559029,23.937442],[120.557934,23.937769],[120.555881,23.936757],[120.552826,23.934487],[120.551818,23.932959],[120.544319,23.933382],[120.543047,23.934295],[120.543882,23.931723],[120.537166,23.929427],[120.535453,23.929857],[120.534081,23.93168],[120.532359,23.936565],[120.528198,23.937633],[120.52104,23.93624],[120.518799,23.937637],[120.517476,23.936615],[120.516275,23.935324],[120.518268,23.9329],[120.51817,23.932136],[120.519188,23.931533],[120.519365,23.929395],[120.516229,23.931496],[120.513551,23.930331],[120.512463,23.930344],[120.512392,23.929727],[120.511122,23.929807],[120.510316,23.930914],[120.509315,23.930902],[120.507301,23.931956],[120.508743,23.933558],[120.50815,23.934972],[120.507235,23.935162],[120.50659,23.934178],[120.50558,23.934133],[120.502948,23.932177],[120.501651,23.932417],[120.500998,23.92885],[120.500304,23.929666],[120.498983,23.929973],[120.497509,23.929718],[120.497396,23.929326],[120.495793,23.929425],[120.49505,23.92694],[120.493952,23.927038],[120.494553,23.925125],[120.497192,23.925391],[120.500694,23.923373],[120.501844,23.923451],[120.502634,23.921523],[120.504858,23.919555],[120.508268,23.918042],[120.511381,23.917357],[120.510995,23.915567],[120.51297,23.915183],[120.515502,23.913347],[120.516493,23.913891],[120.519367,23.913989],[120.521042,23.913397],[120.524001,23.913406],[120.524059,23.914292],[120.524516,23.91442],[120.528055,23.912967],[120.531843,23.912122],[120.536197,23.908178],[120.538744,23.907425],[120.538682,23.903822],[120.537925,23.901819],[120.540192,23.900818],[120.547122,23.901761],[120.546198,23.90702],[120.547325,23.907174],[120.54741,23.906695],[120.548434,23.906804],[120.548534,23.906446],[120.549522,23.906522],[120.549509,23.907045],[120.55121,23.907032],[120.551371,23.907501],[120.553371,23.907271],[120.553931,23.905509],[120.554988,23.905612],[120.556357,23.898325],[120.55727,23.898404],[120.556767,23.902022],[120.564526,23.903337],[120.569074,23.904885],[120.566207,23.911957],[120.570694,23.91431],[120.577068,23.91451],[120.577183,23.916777],[120.575171,23.922124],[120.576366,23.923242],[120.571209,23.92707],[120.573817,23.929034],[120.575383,23.933295]]]},"properties":{"code":"10007160","name":"永靖鄉","countyCode":"10007","countyName":"彰化縣","townCode":"10007160","townName":"永靖鄉","level":"town","unassigned":false,"note":"","label":[120.54850217898999,23.919799792224396],"bounds":[120.493952,23.898325,120.577183,23.938456],"focusBounds":[120.493952,23.898325,120.577183,23.938456],"color":"#c38cb8","childCount":24}},{"type":"Feature","id":"10007170","geometry":{"type":"Polygon","coordinates":[[[120.628498,23.931369],[120.623848,23.930837],[120.616672,23.933048],[120.61547,23.933987],[120.610383,23.934165],[120.609695,23.934657],[120.606993,23.933823],[120.601735,23.935525],[120.598348,23.934721],[120.598279,23.933865],[120.592843,23.933207],[120.593385,23.930583],[120.592355,23.928041],[120.589688,23.924941],[120.581142,23.92326],[120.578936,23.92758],[120.576709,23.936146],[120.576302,23.936267],[120.576202,23.934597],[120.575383,23.933295],[120.573817,23.929034],[120.571209,23.92707],[120.576366,23.923242],[120.575171,23.922124],[120.577183,23.916777],[120.577068,23.91451],[120.570694,23.91431],[120.566207,23.911957],[120.569074,23.904885],[120.564526,23.903337],[120.566163,23.893813],[120.568089,23.888738],[120.574879,23.895464],[120.574344,23.893174],[120.575418,23.89105],[120.574295,23.889773],[120.575988,23.881867],[120.574801,23.879838],[120.576044,23.87721],[120.579335,23.875485],[120.582053,23.877145],[120.582748,23.87593],[120.583378,23.876124],[120.583296,23.876525],[120.58507,23.876832],[120.592917,23.877006],[120.592737,23.882672],[120.5963,23.883249],[120.598088,23.881335],[120.604726,23.881087],[120.605199,23.880105],[120.605942,23.880009],[120.612561,23.880538],[120.61737,23.879393],[120.621164,23.877706],[120.624825,23.877069],[120.62672,23.879497],[120.626357,23.879932],[120.62746,23.883508],[120.628197,23.883446],[120.629587,23.884625],[120.628952,23.885866],[120.62957,23.886705],[120.629422,23.8891],[120.627308,23.889503],[120.630353,23.889814],[120.632117,23.889428],[120.632715,23.88976],[120.632269,23.890425],[120.634102,23.891832],[120.632238,23.892161],[120.633141,23.893196],[120.634405,23.893548],[120.63376,23.894091],[120.634227,23.894377],[120.63418,23.895239],[120.633142,23.895575],[120.632761,23.896272],[120.632941,23.896722],[120.634362,23.896748],[120.634047,23.897702],[120.634859,23.897823],[120.635065,23.898599],[120.634435,23.89955],[120.633806,23.89964],[120.633713,23.900373],[120.634926,23.901454],[120.634034,23.901643],[120.633079,23.902901],[120.631571,23.902823],[120.631369,23.903431],[120.632163,23.903383],[120.633032,23.904212],[120.632198,23.904353],[120.632647,23.905788],[120.632126,23.906751],[120.633284,23.906175],[120.633287,23.907235],[120.634222,23.907669],[120.631847,23.90841],[120.630665,23.908213],[120.630513,23.908632],[120.631553,23.908662],[120.631694,23.909277],[120.63301,23.9096],[120.631772,23.910446],[120.629949,23.910344],[120.629403,23.910813],[120.629813,23.911179],[120.632601,23.910879],[120.632603,23.911506],[120.633368,23.911762],[120.632538,23.912507],[120.633562,23.91243],[120.633059,23.914201],[120.634714,23.913117],[120.633339,23.915176],[120.634048,23.915581],[120.633271,23.915996],[120.634154,23.916201],[120.634383,23.916947],[120.633896,23.91781],[120.635092,23.9179],[120.6347,23.918857],[120.633538,23.919581],[120.634771,23.919249],[120.634971,23.920094],[120.636456,23.919369],[120.636554,23.920092],[120.635322,23.921655],[120.637188,23.921805],[120.636944,23.923456],[120.637411,23.924084],[120.635501,23.926243],[120.633139,23.926596],[120.633769,23.927222],[120.632751,23.928394],[120.631786,23.92832],[120.631957,23.928916],[120.631384,23.928732],[120.630983,23.929338],[120.628505,23.930162],[120.627823,23.931082],[120.628498,23.931369]]]},"properties":{"code":"10007170","name":"社頭鄉","countyCode":"10007","countyName":"彰化縣","townCode":"10007170","townName":"社頭鄉","level":"town","unassigned":false,"note":"","label":[120.6051333048266,23.905251115124983],"bounds":[120.564526,23.875485,120.637411,23.936267],"focusBounds":[120.564526,23.875485,120.637411,23.936267],"color":"#98b69b","childCount":24}},{"type":"Feature","id":"10007180","geometry":{"type":"Polygon","coordinates":[[[120.683801,23.80134],[120.683413,23.805418],[120.682461,23.806077],[120.678984,23.805943],[120.67798,23.814076],[120.678819,23.816295],[120.676355,23.819287],[120.6744,23.820061],[120.672589,23.81918],[120.671889,23.819407],[120.67137,23.818711],[120.669936,23.818521],[120.667983,23.817345],[120.667587,23.8166],[120.664733,23.81631],[120.66505,23.815036],[120.662445,23.815374],[120.658654,23.814526],[120.655605,23.81281],[120.650917,23.812505],[120.650065,23.814362],[120.647976,23.816638],[120.644588,23.817551],[120.641689,23.819823],[120.639931,23.820327],[120.639955,23.821114],[120.64048,23.821395],[120.639602,23.822083],[120.637761,23.821779],[120.63874,23.822633],[120.637823,23.823702],[120.639192,23.824563],[120.636602,23.824809],[120.636352,23.825539],[120.633864,23.825841],[120.637022,23.825854],[120.640009,23.825106],[120.639914,23.825752],[120.637727,23.826382],[120.639133,23.826667],[120.639455,23.827417],[120.63748,23.827322],[120.636045,23.827916],[120.636018,23.828483],[120.636771,23.828037],[120.638185,23.828917],[120.636783,23.829997],[120.637196,23.830555],[120.634353,23.831113],[120.636047,23.831645],[120.63845,23.831412],[120.637315,23.832048],[120.637054,23.83279],[120.635282,23.833211],[120.633393,23.832963],[120.63042,23.831195],[120.630878,23.832243],[120.630513,23.832428],[120.628131,23.831206],[120.626281,23.830866],[120.624306,23.829427],[120.623595,23.829485],[120.622961,23.830364],[120.623914,23.830767],[120.624244,23.831749],[120.628437,23.832047],[120.633647,23.834089],[120.632193,23.834605],[120.629105,23.834402],[120.631059,23.835644],[120.628273,23.835822],[120.629961,23.83686],[120.629978,23.837345],[120.624924,23.836594],[120.625562,23.837653],[120.628229,23.837849],[120.629057,23.838676],[120.628116,23.838458],[120.626506,23.839883],[120.626324,23.840521],[120.626778,23.84083],[120.626087,23.84114],[120.626125,23.841918],[120.623973,23.839678],[120.622245,23.838661],[120.621877,23.838766],[120.623011,23.839971],[120.620938,23.839364],[120.620937,23.84021],[120.622138,23.840852],[120.62085,23.841657],[120.618453,23.840379],[120.618596,23.839475],[120.617177,23.837625],[120.616778,23.83799],[120.617438,23.838756],[120.61634,23.839419],[120.616769,23.840144],[120.615557,23.840607],[120.612437,23.838902],[120.610504,23.838576],[120.60896,23.837163],[120.606387,23.836072],[120.606378,23.835454],[120.605536,23.834847],[120.602836,23.838517],[120.601107,23.837055],[120.598478,23.838036],[120.596947,23.837666],[120.595273,23.839181],[120.598295,23.834907],[120.598026,23.831061],[120.59939,23.830943],[120.600078,23.830023],[120.599768,23.828162],[120.600283,23.825884],[120.601487,23.82583],[120.601907,23.823273],[120.604344,23.819428],[120.603798,23.818779],[120.602805,23.819899],[120.598102,23.814668],[120.595734,23.813811],[120.595567,23.812983],[120.594847,23.81254],[120.592201,23.812347],[120.592539,23.812163],[120.592155,23.811559],[120.589908,23.811785],[120.589405,23.810711],[120.588196,23.810268],[120.587043,23.808131],[120.583048,23.805107],[120.581858,23.802719],[120.583634,23.798239],[120.583643,23.793268],[120.586962,23.791912],[120.593729,23.791086],[120.615004,23.791362],[120.628327,23.790011],[120.633132,23.788891],[120.63502,23.78677],[120.640374,23.786048],[120.642342,23.785692],[120.658137,23.791041],[120.66378,23.792142],[120.666808,23.793666],[120.674924,23.799724],[120.680132,23.801664],[120.683801,23.80134]]]},"properties":{"code":"10007180","name":"二水鄉","countyCode":"10007","countyName":"彰化縣","townCode":"10007180","townName":"二水鄉","level":"town","unassigned":false,"note":"","label":[120.62363176007794,23.809995258840928],"bounds":[120.581858,23.785692,120.683801,23.841918],"focusBounds":[120.581858,23.785692,120.683801,23.841918],"color":"#58b99d","childCount":17}},{"type":"Feature","id":"10007190","geometry":{"type":"Polygon","coordinates":[[[120.554987,23.869931],[120.548184,23.870684],[120.548053,23.871611],[120.547557,23.871799],[120.547976,23.873082],[120.547309,23.874196],[120.546588,23.87948],[120.545185,23.88246],[120.543118,23.883753],[120.541027,23.884691],[120.537261,23.885199],[120.535654,23.885011],[120.534505,23.884144],[120.5316,23.88443],[120.525208,23.882537],[120.52107,23.88434],[120.520641,23.886901],[120.519868,23.888023],[120.518131,23.888262],[120.51527,23.890362],[120.508933,23.893147],[120.503788,23.894133],[120.501633,23.893929],[120.500009,23.894943],[120.500449,23.893108],[120.49912,23.889889],[120.499686,23.882478],[120.501747,23.880115],[120.502513,23.875282],[120.50418,23.874361],[120.507323,23.871083],[120.513926,23.870129],[120.510492,23.86595],[120.511268,23.864816],[120.51251,23.863765],[120.515023,23.863927],[120.516317,23.864565],[120.518582,23.86417],[120.523345,23.858131],[120.521844,23.854453],[120.526933,23.849736],[120.532116,23.843208],[120.535445,23.841467],[120.531123,23.852479],[120.538546,23.852145],[120.542037,23.850957],[120.543819,23.848327],[120.54811,23.846048],[120.549387,23.846042],[120.5518,23.844775],[120.552228,23.845212],[120.5534,23.845047],[120.555274,23.843879],[120.555722,23.844177],[120.559855,23.84096],[120.56277,23.843269],[120.559097,23.847323],[120.558373,23.848849],[120.560044,23.84818],[120.565434,23.847595],[120.568442,23.846467],[120.573176,23.851764],[120.571982,23.851262],[120.570986,23.851964],[120.56307,23.857895],[120.561803,23.860452],[120.55629,23.864486],[120.55475,23.864912],[120.554987,23.869931]]]},"properties":{"code":"10007190","name":"北斗鎮","countyCode":"10007","countyName":"彰化縣","townCode":"10007190","townName":"北斗鎮","level":"town","unassigned":false,"note":"","label":[120.53368714427239,23.86829416527221],"bounds":[120.49912,23.84096,120.573176,23.894943],"focusBounds":[120.49912,23.84096,120.573176,23.894943],"color":"#efb44f","childCount":15}},{"type":"Feature","id":"10007200","geometry":{"type":"Polygon","coordinates":[[[120.412571,23.996403],[120.410219,23.998357],[120.408814,23.998725],[120.405689,23.99144],[120.40752,23.989245],[120.403293,23.986242],[120.401858,23.983218],[120.402733,23.978537],[120.401484,23.973485],[120.402744,23.971],[120.401991,23.967121],[120.400375,23.964024],[120.399664,23.963561],[120.400189,23.962407],[120.400037,23.96001],[120.401857,23.957877],[120.398409,23.957687],[120.398026,23.952727],[120.396966,23.952803],[120.396704,23.950866],[120.391507,23.953098],[120.386835,23.945299],[120.385812,23.945342],[120.385447,23.947204],[120.384196,23.947489],[120.38422,23.948328],[120.383047,23.948502],[120.383058,23.94761],[120.380511,23.948467],[120.380445,23.94758],[120.381909,23.947205],[120.381657,23.938921],[120.382556,23.934914],[120.382306,23.933824],[120.383072,23.93196],[120.381432,23.925642],[120.376837,23.924599],[120.375656,23.923009],[120.368641,23.922724],[120.36624,23.920509],[120.36566,23.921248],[120.364514,23.921477],[120.36371,23.919246],[120.36539,23.918352],[120.364147,23.91448],[120.363551,23.913785],[120.361055,23.9144],[120.361417,23.909638],[120.363073,23.907422],[120.362904,23.906813],[120.360463,23.906153],[120.36199,23.900493],[120.353752,23.901186],[120.35326,23.899964],[120.353694,23.896979],[120.354476,23.895541],[120.349596,23.897076],[120.349585,23.893783],[120.348995,23.893699],[120.349076,23.892607],[120.350011,23.892231],[120.346058,23.883695],[120.345382,23.883638],[120.343593,23.877666],[120.341518,23.869883],[120.346651,23.868335],[120.346318,23.867429],[120.350419,23.866234],[120.348508,23.860737],[120.349462,23.860583],[120.349254,23.858548],[120.35181,23.85964],[120.353,23.858682],[120.354855,23.859498],[120.355899,23.857794],[120.354986,23.856941],[120.355159,23.856128],[120.356024,23.855853],[120.356431,23.85489],[120.356942,23.85536],[120.358075,23.8548],[120.359783,23.856393],[120.360821,23.856632],[120.362315,23.855504],[120.362936,23.855753],[120.363835,23.855161],[120.365517,23.853197],[120.36625,23.853525],[120.366566,23.85492],[120.367225,23.855183],[120.368048,23.853736],[120.368422,23.853856],[120.371281,23.863314],[120.373904,23.862936],[120.374047,23.863439],[120.378113,23.862594],[120.378585,23.863468],[120.383484,23.862116],[120.384165,23.863464],[120.388483,23.862818],[120.389453,23.863939],[120.399746,23.864064],[120.3997,23.869659],[120.402796,23.870044],[120.403717,23.87366],[120.403518,23.874847],[120.400294,23.875731],[120.400562,23.877427],[120.402609,23.877298],[120.403054,23.880399],[120.401292,23.885045],[120.404106,23.886777],[120.407605,23.886843],[120.409353,23.88987],[120.411237,23.891483],[120.412027,23.891317],[120.412448,23.890379],[120.413018,23.886113],[120.420945,23.885778],[120.425815,23.878278],[120.428219,23.879275],[120.42895,23.878866],[120.429908,23.880289],[120.43544,23.876061],[120.438022,23.876192],[120.442107,23.874586],[120.443459,23.874528],[120.44522,23.875826],[120.446578,23.875132],[120.447324,23.875432],[120.448047,23.879165],[120.447049,23.8801],[120.446126,23.884216],[120.44499,23.885058],[120.448062,23.885939],[120.447002,23.887238],[120.446788,23.88869],[120.445902,23.889333],[120.446874,23.891695],[120.444452,23.892408],[120.443465,23.894317],[120.441097,23.894663],[120.441676,23.9006],[120.443886,23.901001],[120.443727,23.908107],[120.446945,23.908219],[120.447371,23.909002],[120.445757,23.909259],[120.447487,23.915647],[120.446585,23.918683],[120.445528,23.918891],[120.445846,23.930345],[120.454,23.930187],[120.459015,23.929145],[120.459764,23.927279],[120.466708,23.93145],[120.465513,23.932978],[120.460567,23.935416],[120.45559,23.940048],[120.451479,23.949695],[120.445899,23.958842],[120.442239,23.965382],[120.440633,23.967208],[120.438151,23.968649],[120.432742,23.969741],[120.429569,23.971006],[120.429146,23.972695],[120.427317,23.974585],[120.424345,23.976491],[120.423322,23.978157],[120.42423,23.979173],[120.424138,23.979823],[120.422203,23.981167],[120.421773,23.983421],[120.417574,23.988243],[120.412571,23.996403]]]},"properties":{"code":"10007200","name":"二林鎮","countyCode":"10007","countyName":"彰化縣","townCode":"10007200","townName":"二林鎮","level":"town","unassigned":false,"note":"","label":[120.41367377664277,23.923273523651375],"bounds":[120.341518,23.853197,120.466708,23.998725],"focusBounds":[120.341518,23.853197,120.466708,23.998725],"color":"#78a7e3","childCount":27}},{"type":"Feature","id":"10007210","geometry":{"type":"Polygon","coordinates":[[[120.564526,23.903337],[120.556767,23.902022],[120.55727,23.898404],[120.556357,23.898325],[120.554988,23.905612],[120.553931,23.905509],[120.553371,23.907271],[120.551371,23.907501],[120.55121,23.907032],[120.549509,23.907045],[120.549522,23.906522],[120.548534,23.906446],[120.548434,23.906804],[120.54741,23.906695],[120.547325,23.907174],[120.546198,23.90702],[120.547122,23.901761],[120.540192,23.900818],[120.537925,23.901819],[120.538682,23.903822],[120.538744,23.907425],[120.536197,23.908178],[120.531843,23.912122],[120.528055,23.912967],[120.524516,23.91442],[120.524059,23.914292],[120.524001,23.913406],[120.521042,23.913397],[120.519367,23.913989],[120.516493,23.913891],[120.515502,23.913347],[120.51297,23.915183],[120.510995,23.915567],[120.511381,23.917357],[120.508268,23.918042],[120.504858,23.919555],[120.502634,23.921523],[120.501844,23.923451],[120.500694,23.923373],[120.497192,23.925391],[120.494553,23.925125],[120.493766,23.925054],[120.49386,23.923828],[120.490779,23.92387],[120.490264,23.9205],[120.484794,23.920301],[120.48394,23.919561],[120.482234,23.920665],[120.480794,23.920441],[120.478146,23.921308],[120.477032,23.921122],[120.475724,23.922119],[120.474889,23.922001],[120.475598,23.919244],[120.473931,23.913207],[120.477469,23.909725],[120.482338,23.903736],[120.490051,23.899798],[120.490295,23.898246],[120.497287,23.897081],[120.500009,23.894943],[120.501633,23.893929],[120.503788,23.894133],[120.508933,23.893147],[120.51527,23.890362],[120.518131,23.888262],[120.519868,23.888023],[120.520641,23.886901],[120.52107,23.88434],[120.525208,23.882537],[120.5316,23.88443],[120.534505,23.884144],[120.535654,23.885011],[120.537261,23.885199],[120.541027,23.884691],[120.543118,23.883753],[120.545185,23.88246],[120.546588,23.87948],[120.547309,23.874196],[120.547976,23.873082],[120.547557,23.871799],[120.548053,23.871611],[120.548184,23.870684],[120.554987,23.869931],[120.555431,23.869938],[120.554739,23.87094],[120.553071,23.871275],[120.551749,23.873242],[120.552111,23.876536],[120.556411,23.874303],[120.557867,23.881209],[120.558767,23.882149],[120.560705,23.882617],[120.560752,23.883396],[120.559586,23.883914],[120.560025,23.885981],[120.566113,23.886179],[120.570563,23.884562],[120.568804,23.886742],[120.568089,23.888738],[120.566163,23.893813],[120.564526,23.903337]]]},"properties":{"code":"10007210","name":"田尾鄉","countyCode":"10007","countyName":"彰化縣","townCode":"10007210","townName":"田尾鄉","level":"town","unassigned":false,"note":"","label":[120.52557805809782,23.90041393814721],"bounds":[120.473931,23.869931,120.570563,23.925391],"focusBounds":[120.473931,23.869931,120.570563,23.925391],"color":"#a49ad4","childCount":20}},{"type":"Feature","id":"10007220","geometry":{"type":"Polygon","coordinates":[[[120.474889,23.922001],[120.47432,23.921804],[120.467084,23.931572],[120.466708,23.93145],[120.459764,23.927279],[120.459015,23.929145],[120.454,23.930187],[120.445846,23.930345],[120.445528,23.918891],[120.446585,23.918683],[120.447487,23.915647],[120.445757,23.909259],[120.447371,23.909002],[120.446945,23.908219],[120.443727,23.908107],[120.443886,23.901001],[120.441676,23.9006],[120.441097,23.894663],[120.443465,23.894317],[120.444452,23.892408],[120.446874,23.891695],[120.445902,23.889333],[120.446788,23.88869],[120.447002,23.887238],[120.448062,23.885939],[120.44499,23.885058],[120.446126,23.884216],[120.447049,23.8801],[120.448047,23.879165],[120.447324,23.875432],[120.446578,23.875132],[120.44522,23.875826],[120.443459,23.874528],[120.442107,23.874586],[120.443541,23.871961],[120.442448,23.871022],[120.442096,23.869033],[120.44474,23.864725],[120.444762,23.862418],[120.445407,23.862314],[120.445259,23.861577],[120.446115,23.86094],[120.447375,23.855921],[120.443683,23.855275],[120.444645,23.850158],[120.455099,23.838729],[120.457805,23.838243],[120.45884,23.83511],[120.460995,23.83213],[120.46422,23.825368],[120.467707,23.828965],[120.467589,23.830538],[120.468463,23.831323],[120.468552,23.832141],[120.469513,23.832649],[120.468822,23.834086],[120.471088,23.841955],[120.47381,23.846021],[120.475612,23.847766],[120.475282,23.857585],[120.48211,23.858418],[120.480601,23.855824],[120.480576,23.851271],[120.482434,23.850317],[120.484639,23.852335],[120.48804,23.854116],[120.487666,23.855275],[120.486182,23.856396],[120.486507,23.857848],[120.485708,23.85944],[120.48606,23.867745],[120.492217,23.866349],[120.500545,23.86729],[120.502092,23.867809],[120.503836,23.869229],[120.505052,23.868841],[120.507274,23.870008],[120.507323,23.871083],[120.50418,23.874361],[120.502513,23.875282],[120.501747,23.880115],[120.499686,23.882478],[120.49912,23.889889],[120.500449,23.893108],[120.500009,23.894943],[120.497287,23.897081],[120.490295,23.898246],[120.490051,23.899798],[120.482338,23.903736],[120.477469,23.909725],[120.473931,23.913207],[120.475598,23.919244],[120.474889,23.922001]]]},"properties":{"code":"10007220","name":"埤頭鄉","countyCode":"10007","countyName":"彰化縣","townCode":"10007220","townName":"埤頭鄉","level":"town","unassigned":false,"note":"","label":[120.46980426471737,23.88251108577607],"bounds":[120.441097,23.825368,120.507323,23.931572],"focusBounds":[120.441097,23.825368,120.507323,23.931572],"color":"#a8bf62","childCount":17}},{"type":"Feature","id":"10007230","geometry":{"type":"Polygon","coordinates":[[[120.408814,23.998725],[120.406002,23.99979],[120.405118,24.002281],[120.403981,24.002951],[120.398246,24.003085],[120.395323,24.00439],[120.392011,24.006695],[120.390102,24.007247],[120.389744,24.00795],[120.390596,24.010326],[120.388187,24.01106],[120.388501,24.012102],[120.388294,24.013227],[120.387554,24.013714],[120.387611,24.015964],[120.385609,24.017048],[120.385596,24.019885],[120.384561,24.020901],[120.38152,24.026579],[120.37894,24.027886],[120.378563,24.029223],[120.377581,24.029789],[120.374103,24.037691],[120.35818,24.042333],[120.341854,24.047892],[120.340916,24.036423],[120.337803,24.031287],[120.336068,24.017892],[120.335293,24.015743],[120.334142,24.013939],[120.32994,24.011466],[120.320022,24.003336],[120.316458,23.999232],[120.31187,23.989772],[120.310932,23.988347],[120.308743,23.987104],[120.308384,23.975257],[120.306921,23.972223],[120.294627,23.963215],[120.290263,23.958224],[120.286148,23.957106],[120.282833,23.954506],[120.280333,23.948401],[120.280572,23.94601],[120.281623,23.943448],[120.279549,23.934894],[120.278811,23.933595],[120.275472,23.932075],[120.269142,23.930587],[120.267192,23.928183],[120.265179,23.923744],[120.263753,23.921823],[120.261052,23.919728],[120.260646,23.918351],[120.273899,23.908497],[120.287062,23.900426],[120.29743,23.895292],[120.299568,23.894744],[120.299742,23.895293],[120.306621,23.893164],[120.306114,23.889568],[120.307033,23.889297],[120.30735,23.890138],[120.310447,23.888719],[120.312187,23.894604],[120.31508,23.893703],[120.315409,23.894547],[120.318979,23.893485],[120.318412,23.890858],[120.324126,23.889061],[120.32385,23.888241],[120.322209,23.888722],[120.320718,23.884545],[120.321941,23.884913],[120.321179,23.882786],[120.322139,23.88249],[120.321687,23.881235],[120.322607,23.880966],[120.322253,23.87997],[120.323259,23.879662],[120.323074,23.879115],[120.323987,23.878816],[120.324248,23.879266],[120.32386,23.87815],[120.325099,23.877841],[120.325277,23.878461],[120.326464,23.878873],[120.32816,23.878234],[120.330874,23.879641],[120.334252,23.87844],[120.334903,23.878686],[120.339186,23.877707],[120.33945,23.878662],[120.343593,23.877666],[120.345382,23.883638],[120.346058,23.883695],[120.350011,23.892231],[120.349076,23.892607],[120.348995,23.893699],[120.349585,23.893783],[120.349596,23.897076],[120.354476,23.895541],[120.353694,23.896979],[120.35326,23.899964],[120.353752,23.901186],[120.36199,23.900493],[120.360463,23.906153],[120.362904,23.906813],[120.363073,23.907422],[120.361417,23.909638],[120.361055,23.9144],[120.363551,23.913785],[120.364147,23.91448],[120.36539,23.918352],[120.36371,23.919246],[120.364514,23.921477],[120.36566,23.921248],[120.36624,23.920509],[120.368641,23.922724],[120.375656,23.923009],[120.376837,23.924599],[120.381432,23.925642],[120.383072,23.93196],[120.382306,23.933824],[120.382556,23.934914],[120.381657,23.938921],[120.381909,23.947205],[120.380445,23.94758],[120.380511,23.948467],[120.383058,23.94761],[120.383047,23.948502],[120.38422,23.948328],[120.384196,23.947489],[120.385447,23.947204],[120.385812,23.945342],[120.386835,23.945299],[120.391507,23.953098],[120.396704,23.950866],[120.396966,23.952803],[120.398026,23.952727],[120.398409,23.957687],[120.401857,23.957877],[120.400037,23.96001],[120.400189,23.962407],[120.399664,23.963561],[120.400375,23.964024],[120.401991,23.967121],[120.402744,23.971],[120.401484,23.973485],[120.402733,23.978537],[120.401858,23.983218],[120.403293,23.986242],[120.40752,23.989245],[120.405689,23.99144],[120.408814,23.998725]]]},"properties":{"code":"10007230","name":"芳苑鄉","countyCode":"10007","countyName":"彰化縣","townCode":"10007230","townName":"芳苑鄉","level":"town","unassigned":false,"note":"","label":[120.34200207687292,23.95621005216273],"bounds":[120.260646,23.877666,120.408814,24.047892],"focusBounds":[120.260646,23.877666,120.408814,24.047892],"color":"#a8bf62","childCount":26}},{"type":"Feature","id":"10007240","geometry":{"type":"Polygon","coordinates":[[[120.343593,23.877666],[120.33945,23.878662],[120.339186,23.877707],[120.334903,23.878686],[120.334252,23.87844],[120.330874,23.879641],[120.32816,23.878234],[120.326464,23.878873],[120.325277,23.878461],[120.325099,23.877841],[120.32386,23.87815],[120.324248,23.879266],[120.323987,23.878816],[120.323074,23.879115],[120.323259,23.879662],[120.322253,23.87997],[120.322607,23.880966],[120.321687,23.881235],[120.322139,23.88249],[120.321179,23.882786],[120.321941,23.884913],[120.320718,23.884545],[120.322209,23.888722],[120.32385,23.888241],[120.324126,23.889061],[120.318412,23.890858],[120.318979,23.893485],[120.315409,23.894547],[120.31508,23.893703],[120.312187,23.894604],[120.310447,23.888719],[120.30735,23.890138],[120.307033,23.889297],[120.306114,23.889568],[120.306621,23.893164],[120.299742,23.895293],[120.299568,23.894744],[120.29743,23.895292],[120.287062,23.900426],[120.273899,23.908497],[120.260646,23.918351],[120.260891,23.915038],[120.256239,23.907894],[120.255615,23.903375],[120.257743,23.899329],[120.25523,23.894187],[120.247151,23.888443],[120.239545,23.887689],[120.23533,23.88526],[120.230741,23.880576],[120.226151,23.87688],[120.226202,23.874143],[120.225502,23.87251],[120.223639,23.869345],[120.220362,23.866219],[120.228467,23.856115],[120.235955,23.848146],[120.24377,23.841355],[120.251858,23.835915],[120.256376,23.83373],[120.302061,23.82188],[120.308126,23.820302],[120.316402,23.820058],[120.333145,23.822286],[120.350577,23.822285],[120.360115,23.823257],[120.370325,23.828559],[120.375169,23.828606],[120.370709,23.840016],[120.377695,23.842201],[120.37774,23.844652],[120.37002,23.84459],[120.365655,23.847144],[120.366405,23.851739],[120.365517,23.853197],[120.363835,23.855161],[120.362936,23.855753],[120.362315,23.855504],[120.360821,23.856632],[120.359783,23.856393],[120.358075,23.8548],[120.356942,23.85536],[120.356431,23.85489],[120.356024,23.855853],[120.355159,23.856128],[120.354986,23.856941],[120.355899,23.857794],[120.354855,23.859498],[120.353,23.858682],[120.35181,23.85964],[120.349254,23.858548],[120.349462,23.860583],[120.348508,23.860737],[120.350419,23.866234],[120.346318,23.867429],[120.346651,23.868335],[120.341518,23.869883],[120.343593,23.877666]]]},"properties":{"code":"10007240","name":"大城鄉","countyCode":"10007","countyName":"彰化縣","townCode":"10007240","townName":"大城鄉","level":"town","unassigned":false,"note":"","label":[120.29521228471467,23.86002320550945],"bounds":[120.220362,23.820058,120.37774,23.918351],"focusBounds":[120.220362,23.820058,120.37774,23.918351],"color":"#68bec9","childCount":15}},{"type":"Feature","id":"10007250","geometry":{"type":"Polygon","coordinates":[[[120.442107,23.874586],[120.438022,23.876192],[120.43544,23.876061],[120.429908,23.880289],[120.42895,23.878866],[120.428219,23.879275],[120.425815,23.878278],[120.420945,23.885778],[120.413018,23.886113],[120.412448,23.890379],[120.412027,23.891317],[120.411237,23.891483],[120.409353,23.88987],[120.407605,23.886843],[120.404106,23.886777],[120.401292,23.885045],[120.403054,23.880399],[120.402609,23.877298],[120.400562,23.877427],[120.400294,23.875731],[120.403518,23.874847],[120.403717,23.87366],[120.402796,23.870044],[120.3997,23.869659],[120.399746,23.864064],[120.389453,23.863939],[120.388483,23.862818],[120.384165,23.863464],[120.383484,23.862116],[120.378585,23.863468],[120.378113,23.862594],[120.374047,23.863439],[120.373904,23.862936],[120.371281,23.863314],[120.368422,23.853856],[120.368048,23.853736],[120.367225,23.855183],[120.366566,23.85492],[120.36625,23.853525],[120.365517,23.853197],[120.366405,23.851739],[120.365655,23.847144],[120.37002,23.84459],[120.37774,23.844652],[120.377695,23.842201],[120.370709,23.840016],[120.375169,23.828606],[120.382899,23.828557],[120.410336,23.826376],[120.418436,23.827009],[120.425257,23.830248],[120.43311,23.830148],[120.43953,23.826865],[120.443359,23.822661],[120.447325,23.820707],[120.452089,23.817216],[120.455338,23.816663],[120.454797,23.830919],[120.45884,23.83511],[120.457805,23.838243],[120.455099,23.838729],[120.444645,23.850158],[120.443683,23.855275],[120.447375,23.855921],[120.446115,23.86094],[120.445259,23.861577],[120.445407,23.862314],[120.444762,23.862418],[120.44474,23.864725],[120.442096,23.869033],[120.442448,23.871022],[120.443541,23.871961],[120.442107,23.874586]]]},"properties":{"code":"10007250","name":"竹塘鄉","countyCode":"10007","countyName":"彰化縣","townCode":"10007250","townName":"竹塘鄉","level":"town","unassigned":false,"note":"","label":[120.4168095712938,23.85005443307729],"bounds":[120.365517,23.816663,120.45884,23.891483],"focusBounds":[120.365517,23.816663,120.45884,23.891483],"color":"#df9f6a","childCount":14}},{"type":"Feature","id":"10007260","geometry":{"type":"Polygon","coordinates":[[[120.56277,23.843269],[120.559855,23.84096],[120.555722,23.844177],[120.555274,23.843879],[120.5534,23.845047],[120.552228,23.845212],[120.5518,23.844775],[120.549387,23.846042],[120.54811,23.846048],[120.543819,23.848327],[120.542037,23.850957],[120.538546,23.852145],[120.531123,23.852479],[120.535445,23.841467],[120.532116,23.843208],[120.526933,23.849736],[120.521844,23.854453],[120.523345,23.858131],[120.518582,23.86417],[120.516317,23.864565],[120.515023,23.863927],[120.51251,23.863765],[120.511268,23.864816],[120.510492,23.86595],[120.513926,23.870129],[120.507323,23.871083],[120.507274,23.870008],[120.505052,23.868841],[120.503836,23.869229],[120.502092,23.867809],[120.500545,23.86729],[120.492217,23.866349],[120.48606,23.867745],[120.485708,23.85944],[120.486507,23.857848],[120.486182,23.856396],[120.487666,23.855275],[120.48804,23.854116],[120.484639,23.852335],[120.482434,23.850317],[120.480576,23.851271],[120.480601,23.855824],[120.48211,23.858418],[120.475282,23.857585],[120.475612,23.847766],[120.47381,23.846021],[120.471088,23.841955],[120.468822,23.834086],[120.469513,23.832649],[120.468552,23.832141],[120.468463,23.831323],[120.467589,23.830538],[120.467707,23.828965],[120.46422,23.825368],[120.460995,23.83213],[120.45884,23.83511],[120.454797,23.830919],[120.455338,23.816663],[120.458124,23.816124],[120.475263,23.809035],[120.483167,23.806569],[120.498409,23.803608],[120.50874,23.800447],[120.513373,23.799983],[120.528065,23.799065],[120.535471,23.801294],[120.551225,23.801128],[120.558182,23.799434],[120.560288,23.798145],[120.573857,23.796259],[120.583643,23.793268],[120.583634,23.798239],[120.581858,23.802719],[120.583048,23.805107],[120.587043,23.808131],[120.588196,23.810268],[120.589405,23.810711],[120.589908,23.811785],[120.592155,23.811559],[120.592539,23.812163],[120.592201,23.812347],[120.594847,23.81254],[120.595567,23.812983],[120.595734,23.813811],[120.598102,23.814668],[120.602805,23.819899],[120.601831,23.820577],[120.59623,23.819284],[120.593628,23.819631],[120.59172,23.82019],[120.587743,23.82324],[120.583142,23.828078],[120.580718,23.826143],[120.57249,23.835228],[120.572278,23.832992],[120.56277,23.843269]]]},"properties":{"code":"10007260","name":"溪州鄉","countyCode":"10007","countyName":"彰化縣","townCode":"10007260","townName":"溪州鄉","level":"town","unassigned":false,"note":"","label":[120.50904262753376,23.828898180969304],"bounds":[120.454797,23.793268,120.602805,23.871083],"focusBounds":[120.454797,23.793268,120.602805,23.871083],"color":"#c38cb8","childCount":19}}]}
