{"type":"FeatureCollection","features":[{"type":"Feature","id":"10004010","geometry":{"type":"Polygon","coordinates":[[[120.99265,24.86475],[120.9901,24.861835],[120.987532,24.862527],[120.985934,24.863549],[120.984521,24.862697],[120.98411,24.861494],[120.983215,24.861582],[120.982714,24.862985],[120.97955,24.86555],[120.979128,24.867924],[120.976535,24.869687],[120.976358,24.871029],[120.97485,24.871849],[120.974553,24.873242],[120.97232,24.873661],[120.970682,24.875068],[120.969669,24.874873],[120.968854,24.874002],[120.968622,24.875503],[120.964156,24.87955],[120.962712,24.880186],[120.956682,24.880492],[120.953608,24.88153],[120.949968,24.881191],[120.946743,24.880173],[120.946548,24.878653],[120.94382,24.874745],[120.942601,24.871528],[120.939256,24.86718],[120.93304,24.861333],[120.930913,24.860236],[120.927817,24.859538],[120.926948,24.855404],[120.925229,24.854811],[120.931275,24.852618],[120.93359,24.852755],[120.935665,24.852229],[120.940449,24.849962],[120.943158,24.846505],[120.944817,24.841066],[120.947714,24.839742],[120.955292,24.834361],[120.957042,24.833574],[120.962643,24.832552],[120.967872,24.832539],[120.974646,24.829955],[120.977973,24.829706],[120.981374,24.831219],[120.983091,24.830929],[120.985432,24.829392],[120.987692,24.825563],[120.991046,24.824018],[121.000391,24.822059],[121.002268,24.820169],[121.004766,24.819023],[121.008278,24.816214],[121.015135,24.808562],[121.018159,24.807348],[121.021189,24.802043],[121.035553,24.799624],[121.038971,24.798238],[121.04118,24.796425],[121.047884,24.794243],[121.052933,24.790716],[121.058211,24.789254],[121.061472,24.786483],[121.063062,24.786128],[121.065375,24.783901],[121.066481,24.78456],[121.066362,24.786358],[121.063678,24.789474],[121.06083,24.790841],[121.059567,24.790717],[121.060248,24.791347],[121.060504,24.793922],[121.059931,24.794935],[121.058432,24.79577],[121.058309,24.79668],[121.059359,24.799637],[121.060501,24.800012],[121.062,24.802515],[121.061812,24.804237],[121.059902,24.806792],[121.057727,24.807466],[121.055795,24.809044],[121.052996,24.812346],[121.052178,24.814107],[121.05236,24.8145],[121.05866,24.814769],[121.058923,24.815026],[121.058265,24.81553],[121.055106,24.81645],[121.054917,24.816733],[121.055959,24.816742],[121.055848,24.817562],[121.053506,24.817679],[121.055573,24.818023],[121.054117,24.819422],[121.05051,24.819717],[121.041461,24.821834],[121.039661,24.823034],[121.036418,24.827609],[121.033032,24.827631],[121.029934,24.829559],[121.027431,24.831665],[121.026779,24.833483],[121.027558,24.841079],[121.02425,24.842202],[121.021633,24.849263],[121.017668,24.850436],[121.01503,24.849948],[121.013613,24.850706],[121.01246,24.853345],[121.011535,24.85415],[121.002862,24.857026],[120.994138,24.861727],[120.993071,24.862884],[120.99265,24.86475]]]},"properties":{"code":"10004010","name":"竹北市","countyCode":"10004","countyName":"新竹縣","townCode":"10004010","townName":"竹北市","level":"town","unassigned":false,"note":"","label":[120.99884643024248,24.840786184935183],"bounds":[120.925229,24.783901,121.066481,24.88153],"focusBounds":[120.925229,24.783901,121.066481,24.88153],"color":"#78a7e3","childCount":31}},{"type":"Feature","id":"10004020","geometry":{"type":"Polygon","coordinates":[[[121.061472,24.786483],[121.058211,24.789254],[121.052933,24.790716],[121.047884,24.794243],[121.04118,24.796425],[121.038971,24.798238],[121.035553,24.799624],[121.021189,24.802043],[121.021568,24.801407],[121.025745,24.799074],[121.02206,24.798509],[121.020607,24.798806],[121.023152,24.796048],[121.020629,24.794255],[121.021791,24.790496],[121.02335,24.79064],[121.024146,24.789743],[121.024601,24.788939],[121.024356,24.787403],[121.025088,24.786391],[121.023013,24.785191],[121.027523,24.782709],[121.026747,24.780904],[121.025848,24.780284],[121.024955,24.780505],[121.024915,24.780072],[121.026143,24.778878],[121.027946,24.77881],[121.027659,24.777049],[121.028644,24.776697],[121.029671,24.777077],[121.028156,24.773163],[121.030377,24.772036],[121.029272,24.770902],[121.029187,24.768762],[121.03003,24.766294],[121.033066,24.764889],[121.033543,24.763886],[121.032406,24.761691],[121.030598,24.761201],[121.028272,24.758352],[121.026316,24.757655],[121.027377,24.757455],[121.028684,24.756174],[121.029156,24.754282],[121.030106,24.753882],[121.03456,24.748238],[121.035572,24.747805],[121.036903,24.748702],[121.037079,24.750141],[121.039181,24.752669],[121.041249,24.751411],[121.043148,24.752792],[121.046335,24.752572],[121.049123,24.754317],[121.04922,24.755122],[121.049758,24.755092],[121.051008,24.753977],[121.051179,24.75282],[121.052312,24.752633],[121.052373,24.751643],[121.053072,24.751278],[121.053622,24.749708],[121.055254,24.749271],[121.059281,24.746896],[121.061309,24.746839],[121.062911,24.74565],[121.063162,24.742096],[121.064349,24.741142],[121.064401,24.739702],[121.065966,24.738222],[121.066743,24.738759],[121.068042,24.737521],[121.068383,24.735485],[121.069525,24.73373],[121.069568,24.730807],[121.07041,24.731287],[121.071899,24.729833],[121.073626,24.730704],[121.074255,24.730268],[121.073717,24.728127],[121.07194,24.72704],[121.071848,24.726298],[121.072735,24.725946],[121.071709,24.723884],[121.068998,24.722122],[121.07056,24.71836],[121.070764,24.716411],[121.072894,24.714672],[121.073858,24.714709],[121.075063,24.713807],[121.075973,24.714529],[121.08013,24.712962],[121.082287,24.713588],[121.08261,24.71169],[121.084664,24.709551],[121.084248,24.707202],[121.085888,24.706457],[121.083989,24.704986],[121.083854,24.703925],[121.085647,24.703043],[121.087586,24.702988],[121.087412,24.700637],[121.089217,24.700257],[121.090141,24.698981],[121.090262,24.697982],[121.089634,24.697077],[121.090086,24.695531],[121.090838,24.69498],[121.091619,24.692563],[121.093659,24.690685],[121.094073,24.687117],[121.08952,24.683687],[121.089207,24.681075],[121.087928,24.679964],[121.086384,24.679488],[121.084956,24.675961],[121.086563,24.672772],[121.086068,24.668857],[121.087233,24.667253],[121.085874,24.66504],[121.08738,24.662853],[121.087774,24.659394],[121.089353,24.655732],[121.088715,24.654572],[121.090116,24.653784],[121.090737,24.652455],[121.092158,24.651843],[121.091786,24.648006],[121.095763,24.645006],[121.095919,24.641746],[121.09673,24.641328],[121.098382,24.64],[121.099786,24.641879],[121.101586,24.641318],[121.102894,24.64249],[121.10409,24.642553],[121.105107,24.643939],[121.108781,24.645639],[121.109287,24.647575],[121.11055,24.64948],[121.114025,24.651201],[121.115181,24.648916],[121.11612,24.648283],[121.121444,24.645835],[121.121802,24.645247],[121.123945,24.645189],[121.125518,24.64823],[121.128655,24.651274],[121.127085,24.65374],[121.124345,24.655854],[121.123947,24.663244],[121.122455,24.665868],[121.11738,24.668533],[121.112371,24.669232],[121.110296,24.668696],[121.106517,24.666237],[121.105422,24.666304],[121.104019,24.669239],[121.103825,24.671318],[121.101347,24.672292],[121.099622,24.674899],[121.103661,24.683575],[121.103264,24.689256],[121.10535,24.694523],[121.104114,24.697765],[121.100257,24.698349],[121.098904,24.699181],[121.098231,24.702445],[121.09911,24.70442],[121.10012,24.705299],[121.100037,24.709779],[121.103524,24.721202],[121.107098,24.730283],[121.10681,24.732197],[121.105752,24.736316],[121.105529,24.739937],[121.10413,24.744706],[121.100601,24.746659],[121.092706,24.748976],[121.082776,24.756816],[121.082735,24.757411],[121.083938,24.756861],[121.084539,24.757305],[121.084069,24.758637],[121.082664,24.759925],[121.080887,24.764681],[121.078066,24.766737],[121.073914,24.773917],[121.070698,24.774537],[121.070208,24.775965],[121.067697,24.778198],[121.063688,24.779345],[121.062491,24.780279],[121.061472,24.786483]]]},"properties":{"code":"10004020","name":"竹東鎮","countyCode":"10004","countyName":"新竹縣","townCode":"10004020","townName":"竹東鎮","level":"town","unassigned":false,"note":"","label":[121.08973577305484,24.73288151764419],"bounds":[121.020607,24.64,121.128655,24.802043],"focusBounds":[121.020607,24.64,121.128655,24.802043],"color":"#dd8590","childCount":25}},{"type":"Feature","id":"10004030","geometry":{"type":"Polygon","coordinates":[[[121.158171,24.875319],[121.157885,24.877271],[121.155383,24.880755],[121.154514,24.880178],[121.152203,24.880222],[121.151116,24.880956],[121.149685,24.880628],[121.14928,24.881222],[121.148547,24.881248],[121.145572,24.880818],[121.144662,24.880204],[121.142469,24.881741],[121.141144,24.881433],[121.139093,24.882437],[121.136761,24.880926],[121.135589,24.877988],[121.134092,24.878506],[121.133305,24.879606],[121.131233,24.880072],[121.12964,24.879685],[121.12815,24.880952],[121.123976,24.879932],[121.122037,24.880263],[121.120989,24.875315],[121.117769,24.875258],[121.116504,24.876261],[121.114983,24.876407],[121.11245,24.875094],[121.112224,24.874643],[121.113303,24.873157],[121.113268,24.871857],[121.112032,24.869616],[121.111486,24.869582],[121.111125,24.871009],[121.10996,24.872068],[121.107134,24.872213],[121.104436,24.871209],[121.103793,24.869185],[121.101276,24.870528],[121.100693,24.869899],[121.100653,24.868646],[121.095215,24.869146],[121.092873,24.868485],[121.089654,24.868472],[121.087921,24.864946],[121.08347,24.865531],[121.082182,24.863878],[121.080372,24.863117],[121.079181,24.863129],[121.078441,24.86381],[121.074237,24.862542],[121.074015,24.863597],[121.073108,24.863289],[121.06991,24.863712],[121.065225,24.861573],[121.063686,24.860111],[121.061145,24.860593],[121.057592,24.858444],[121.053854,24.857546],[121.053433,24.859086],[121.050789,24.857577],[121.048418,24.855079],[121.047005,24.854505],[121.044931,24.852649],[121.043781,24.85029],[121.042699,24.85142],[121.038838,24.851272],[121.038544,24.852276],[121.035896,24.852607],[121.033719,24.854382],[121.031507,24.854702],[121.029008,24.854122],[121.027167,24.85274],[121.021246,24.85316],[121.020129,24.853725],[121.018121,24.853568],[121.016553,24.854211],[121.014281,24.852204],[121.013613,24.850706],[121.01503,24.849948],[121.017668,24.850436],[121.021633,24.849263],[121.02425,24.842202],[121.027558,24.841079],[121.026779,24.833483],[121.027431,24.831665],[121.029934,24.829559],[121.033032,24.827631],[121.036418,24.827609],[121.039661,24.823034],[121.041461,24.821834],[121.05051,24.819717],[121.054117,24.819422],[121.055573,24.818023],[121.053506,24.817679],[121.055848,24.817562],[121.055959,24.816742],[121.054917,24.816733],[121.055106,24.81645],[121.058265,24.81553],[121.058923,24.815026],[121.05866,24.814769],[121.063738,24.81434],[121.064452,24.813581],[121.065497,24.813634],[121.065913,24.812616],[121.072731,24.80941],[121.072568,24.808264],[121.074031,24.803006],[121.07538,24.801957],[121.078155,24.801817],[121.080418,24.80029],[121.081119,24.799041],[121.08106,24.798335],[121.080159,24.797723],[121.080527,24.795954],[121.082406,24.795421],[121.082726,24.793647],[121.084334,24.792975],[121.084624,24.791283],[121.087256,24.791624],[121.088329,24.79237],[121.09087,24.791398],[121.093098,24.794214],[121.094871,24.794128],[121.096658,24.795088],[121.098549,24.793812],[121.100066,24.794117],[121.102674,24.79279],[121.105586,24.793077],[121.107689,24.792266],[121.108916,24.792414],[121.109942,24.792741],[121.109786,24.795445],[121.113397,24.804898],[121.112913,24.807039],[121.111018,24.809912],[121.111326,24.811008],[121.10988,24.814023],[121.112471,24.815315],[121.113041,24.816937],[121.110551,24.816755],[121.108751,24.817244],[121.108516,24.819238],[121.106749,24.821405],[121.108894,24.825685],[121.108145,24.828998],[121.107434,24.828933],[121.106571,24.831109],[121.105657,24.831857],[121.103793,24.831256],[121.103091,24.831554],[121.103348,24.832012],[121.10426,24.831945],[121.105474,24.833114],[121.106782,24.832998],[121.107412,24.833776],[121.108901,24.832767],[121.114549,24.831394],[121.116146,24.83186],[121.116923,24.832484],[121.116485,24.832981],[121.116999,24.833012],[121.118723,24.83131],[121.121535,24.832681],[121.122181,24.83387],[121.123189,24.833931],[121.123491,24.834648],[121.125031,24.834477],[121.126131,24.836291],[121.128152,24.837208],[121.129656,24.836879],[121.134637,24.837378],[121.135386,24.836694],[121.138856,24.837021],[121.139544,24.837605],[121.142861,24.837691],[121.143906,24.836723],[121.145231,24.836772],[121.145838,24.836267],[121.14816,24.837461],[121.148895,24.83693],[121.150395,24.83711],[121.148492,24.842468],[121.144543,24.842752],[121.144685,24.843131],[121.146316,24.843138],[121.14997,24.844362],[121.152836,24.846164],[121.153609,24.848723],[121.15554,24.849914],[121.155946,24.851943],[121.157059,24.852434],[121.156965,24.853279],[121.156304,24.853617],[121.1569,24.855146],[121.156508,24.855908],[121.158083,24.856506],[121.157692,24.856954],[121.159074,24.857921],[121.160232,24.857798],[121.15925,24.859022],[121.160073,24.858456],[121.161384,24.859469],[121.160285,24.860861],[121.160685,24.861747],[121.159882,24.862442],[121.16079,24.863139],[121.159447,24.868731],[121.156211,24.874435],[121.157917,24.874446],[121.158171,24.875319]]]},"properties":{"code":"10004030","name":"新埔鎮","countyCode":"10004","countyName":"新竹縣","townCode":"10004030","townName":"新埔鎮","level":"town","unassigned":false,"note":"","label":[121.07657963935898,24.835931005638678],"bounds":[121.013613,24.791283,121.161384,24.882437],"focusBounds":[121.013613,24.791283,121.161384,24.882437],"color":"#a49ad4","childCount":19}},{"type":"Feature","id":"10004040","geometry":{"type":"Polygon","coordinates":[[[121.243093,24.808704],[121.241754,24.80649],[121.238244,24.804653],[121.228489,24.802912],[121.221606,24.799378],[121.22086,24.802994],[121.219627,24.804079],[121.219939,24.807438],[121.218724,24.808646],[121.219684,24.810737],[121.219588,24.811789],[121.21704,24.812415],[121.214896,24.811971],[121.212829,24.810494],[121.20954,24.809482],[121.208051,24.807156],[121.204669,24.807248],[121.204459,24.808401],[121.202905,24.810306],[121.203424,24.811269],[121.205727,24.812173],[121.205864,24.81265],[121.203149,24.81457],[121.202966,24.816143],[121.202246,24.81643],[121.203314,24.817314],[121.200802,24.817814],[121.199338,24.816129],[121.199749,24.815197],[121.198776,24.81496],[121.196822,24.816788],[121.196518,24.817812],[121.192425,24.819748],[121.18591,24.823822],[121.176838,24.827288],[121.173663,24.827708],[121.176186,24.832133],[121.1745,24.83232],[121.17384,24.83344],[121.169922,24.834806],[121.168797,24.833984],[121.166445,24.836208],[121.165811,24.835892],[121.161688,24.837478],[121.16011,24.837363],[121.159417,24.838674],[121.156422,24.840684],[121.155901,24.842119],[121.154743,24.8423],[121.154416,24.844059],[121.15198,24.843813],[121.14997,24.844362],[121.146316,24.843138],[121.144685,24.843131],[121.144543,24.842752],[121.148492,24.842468],[121.150395,24.83711],[121.148895,24.83693],[121.14816,24.837461],[121.145838,24.836267],[121.145231,24.836772],[121.143906,24.836723],[121.142861,24.837691],[121.139544,24.837605],[121.138856,24.837021],[121.135386,24.836694],[121.134637,24.837378],[121.129656,24.836879],[121.128152,24.837208],[121.126131,24.836291],[121.125031,24.834477],[121.123491,24.834648],[121.123189,24.833931],[121.122181,24.83387],[121.121535,24.832681],[121.118723,24.83131],[121.116999,24.833012],[121.116485,24.832981],[121.116923,24.832484],[121.116146,24.83186],[121.114549,24.831394],[121.108901,24.832767],[121.107412,24.833776],[121.106782,24.832998],[121.105474,24.833114],[121.10426,24.831945],[121.103348,24.832012],[121.103091,24.831554],[121.103793,24.831256],[121.105657,24.831857],[121.106571,24.831109],[121.107434,24.828933],[121.108145,24.828998],[121.108894,24.825685],[121.106749,24.821405],[121.108516,24.819238],[121.108751,24.817244],[121.110551,24.816755],[121.113041,24.816937],[121.112471,24.815315],[121.10988,24.814023],[121.111326,24.811008],[121.111018,24.809912],[121.112913,24.807039],[121.113397,24.804898],[121.109786,24.795445],[121.109942,24.792741],[121.108916,24.792414],[121.110105,24.788385],[121.11219,24.786609],[121.112,24.784321],[121.1132,24.783652],[121.113489,24.781944],[121.114887,24.781384],[121.115544,24.780441],[121.114429,24.777213],[121.115459,24.776847],[121.116058,24.777233],[121.117668,24.775554],[121.117509,24.773277],[121.118503,24.770068],[121.118652,24.766668],[121.120405,24.76644],[121.121906,24.767188],[121.123602,24.766664],[121.125609,24.767039],[121.127069,24.765671],[121.129268,24.766015],[121.129853,24.766612],[121.131464,24.765469],[121.132929,24.765378],[121.135808,24.766649],[121.137769,24.765408],[121.139625,24.765918],[121.140289,24.765245],[121.141974,24.764937],[121.142687,24.765552],[121.14512,24.763897],[121.14671,24.760811],[121.147624,24.761171],[121.148516,24.759774],[121.149908,24.760487],[121.151363,24.758149],[121.152422,24.75861],[121.153017,24.757903],[121.153996,24.756893],[121.15537,24.757116],[121.158403,24.755623],[121.16007,24.756027],[121.164346,24.75488],[121.165397,24.754352],[121.165593,24.75343],[121.167796,24.752946],[121.168061,24.752298],[121.169033,24.752444],[121.169708,24.751888],[121.171743,24.752629],[121.172013,24.74938],[121.17352,24.748185],[121.173474,24.746944],[121.17807,24.746115],[121.179361,24.746774],[121.17964,24.746206],[121.178526,24.745051],[121.178454,24.743889],[121.179979,24.741364],[121.184396,24.739748],[121.184978,24.739096],[121.187253,24.740108],[121.188166,24.7414],[121.190351,24.742795],[121.191106,24.744106],[121.192603,24.743761],[121.193876,24.744117],[121.195189,24.743384],[121.196776,24.743449],[121.196945,24.741356],[121.195395,24.739511],[121.195531,24.73839],[121.196858,24.736697],[121.196816,24.734624],[121.195966,24.733518],[121.196245,24.73166],[121.199901,24.729618],[121.200407,24.728023],[121.203759,24.725387],[121.204836,24.725351],[121.206666,24.72628],[121.209961,24.729531],[121.211182,24.729627],[121.216847,24.737442],[121.218488,24.737477],[121.225336,24.741121],[121.231283,24.741555],[121.232796,24.742566],[121.236,24.742741],[121.237375,24.743748],[121.242082,24.745539],[121.243944,24.746956],[121.248173,24.744283],[121.25006,24.74559],[121.252899,24.745475],[121.25459,24.748298],[121.258804,24.751181],[121.261596,24.754555],[121.265528,24.757934],[121.26892,24.758485],[121.271125,24.757846],[121.273426,24.758584],[121.278874,24.759159],[121.284246,24.758601],[121.286567,24.759631],[121.287975,24.761807],[121.289086,24.762209],[121.29153,24.765065],[121.293073,24.76538],[121.292712,24.76738],[121.291727,24.768046],[121.287547,24.768682],[121.284574,24.77032],[121.276905,24.771132],[121.273552,24.774592],[121.2713,24.774818],[121.271355,24.777272],[121.2706,24.778351],[121.267979,24.779932],[121.266026,24.779793],[121.264859,24.781377],[121.263268,24.781148],[121.260013,24.781959],[121.258483,24.785873],[121.260433,24.787917],[121.261174,24.789956],[121.260314,24.793218],[121.259557,24.793713],[121.257605,24.79283],[121.254696,24.793852],[121.253176,24.793654],[121.251089,24.794497],[121.250369,24.795668],[121.247775,24.796675],[121.246623,24.800072],[121.247667,24.801384],[121.247442,24.803492],[121.246598,24.805089],[121.245435,24.805977],[121.245423,24.806961],[121.243176,24.808728],[121.243093,24.808704]]]},"properties":{"code":"10004040","name":"關西鎮","countyCode":"10004","countyName":"新竹縣","townCode":"10004040","townName":"關西鎮","level":"town","unassigned":false,"note":"","label":[121.17732521716282,24.786675800294148],"bounds":[121.103091,24.725351,121.293073,24.844362],"focusBounds":[121.103091,24.725351,121.293073,24.844362],"color":"#a8bf62","childCount":21}},{"type":"Feature","id":"10004050","geometry":{"type":"Polygon","coordinates":[[[121.058337,24.936841],[121.055448,24.93624],[121.051632,24.938697],[121.050252,24.938649],[121.048565,24.939463],[121.048004,24.941195],[121.046245,24.942407],[121.044487,24.94118],[121.042628,24.935475],[121.037914,24.928795],[121.035842,24.926651],[121.03138,24.918724],[121.027994,24.917311],[121.027639,24.914975],[121.026756,24.912925],[121.025552,24.911712],[121.022751,24.903789],[121.023016,24.902901],[121.021467,24.900819],[121.020399,24.89749],[121.020846,24.896898],[121.020481,24.894912],[121.019373,24.891108],[121.018246,24.889495],[121.019077,24.888701],[121.015952,24.887098],[121.014768,24.885534],[121.011482,24.883092],[121.011141,24.882275],[121.010569,24.8833],[121.010034,24.883214],[121.010448,24.882276],[121.006277,24.879295],[121.005633,24.877889],[120.998706,24.871855],[120.999255,24.871339],[120.99265,24.86475],[120.993071,24.862884],[120.994138,24.861727],[121.002862,24.857026],[121.011535,24.85415],[121.01246,24.853345],[121.013613,24.850706],[121.014281,24.852204],[121.016553,24.854211],[121.018121,24.853568],[121.020129,24.853725],[121.021246,24.85316],[121.027167,24.85274],[121.029008,24.854122],[121.031507,24.854702],[121.033719,24.854382],[121.035896,24.852607],[121.038544,24.852276],[121.038838,24.851272],[121.042699,24.85142],[121.043781,24.85029],[121.044931,24.852649],[121.047005,24.854505],[121.048418,24.855079],[121.050789,24.857577],[121.053433,24.859086],[121.053854,24.857546],[121.057592,24.858444],[121.061145,24.860593],[121.063686,24.860111],[121.065225,24.861573],[121.06991,24.863712],[121.073108,24.863289],[121.074015,24.863597],[121.074237,24.862542],[121.078441,24.86381],[121.079181,24.863129],[121.080372,24.863117],[121.082182,24.863878],[121.08347,24.865531],[121.087921,24.864946],[121.089654,24.868472],[121.092873,24.868485],[121.095215,24.869146],[121.100653,24.868646],[121.100693,24.869899],[121.101276,24.870528],[121.103793,24.869185],[121.104436,24.871209],[121.107134,24.872213],[121.10996,24.872068],[121.111125,24.871009],[121.111486,24.869582],[121.112032,24.869616],[121.113268,24.871857],[121.113303,24.873157],[121.112224,24.874643],[121.11245,24.875094],[121.114983,24.876407],[121.116504,24.876261],[121.117769,24.875258],[121.120989,24.875315],[121.122037,24.880263],[121.116334,24.881678],[121.115013,24.882546],[121.113559,24.88253],[121.110569,24.884857],[121.107821,24.886],[121.109284,24.887466],[121.109078,24.887965],[121.109978,24.888776],[121.111024,24.89122],[121.110682,24.893838],[121.109855,24.8954],[121.110114,24.896074],[121.109079,24.897736],[121.101313,24.895152],[121.09128,24.89336],[121.089429,24.895382],[121.086552,24.896517],[121.085771,24.897635],[121.083449,24.898852],[121.081961,24.898999],[121.080644,24.898352],[121.076959,24.898709],[121.076181,24.899397],[121.073839,24.899905],[121.071107,24.899478],[121.070546,24.901854],[121.069095,24.902776],[121.062453,24.904597],[121.060705,24.90366],[121.057839,24.905551],[121.057588,24.905968],[121.05912,24.907179],[121.059179,24.908051],[121.058141,24.910346],[121.058239,24.913902],[121.060386,24.918394],[121.06087,24.920294],[121.060096,24.920676],[121.060961,24.923557],[121.059663,24.925761],[121.058365,24.930076],[121.057571,24.930451],[121.058336,24.932377],[121.057657,24.933032],[121.058555,24.935158],[121.058337,24.936841]]]},"properties":{"code":"10004050","name":"湖口鄉","countyCode":"10004","countyName":"新竹縣","townCode":"10004050","townName":"湖口鄉","level":"town","unassigned":false,"note":"","label":[121.04542192322657,24.882757354916535],"bounds":[120.99265,24.85029,121.122037,24.942407],"focusBounds":[120.99265,24.85029,121.122037,24.942407],"color":"#68bec9","childCount":20}},{"type":"Feature","id":"10004060","geometry":{"type":"Polygon","coordinates":[[[121.046245,24.942407],[121.046292,24.943548],[121.044419,24.943527],[121.042615,24.94414],[121.040479,24.943306],[121.038014,24.946387],[121.030765,24.943898],[121.029755,24.94506],[121.028846,24.945151],[121.026395,24.942176],[121.025798,24.940482],[121.021539,24.941404],[121.019369,24.940416],[121.017812,24.941765],[121.015786,24.941629],[121.012683,24.943142],[121.011938,24.944795],[121.009747,24.944196],[121.0071,24.946219],[121.004258,24.943124],[121.002929,24.940013],[120.999065,24.94092],[120.996529,24.939648],[120.9942,24.939137],[120.992665,24.936889],[120.992852,24.93523],[120.99218,24.935007],[120.990319,24.935659],[120.987385,24.939046],[120.982033,24.939974],[120.969673,24.928465],[120.966271,24.921839],[120.964501,24.915777],[120.958888,24.902863],[120.952613,24.895376],[120.951736,24.890661],[120.947356,24.883826],[120.946743,24.880173],[120.949968,24.881191],[120.953608,24.88153],[120.956682,24.880492],[120.962712,24.880186],[120.964156,24.87955],[120.968622,24.875503],[120.968854,24.874002],[120.969669,24.874873],[120.970682,24.875068],[120.97232,24.873661],[120.974553,24.873242],[120.97485,24.871849],[120.976358,24.871029],[120.976535,24.869687],[120.979128,24.867924],[120.97955,24.86555],[120.982714,24.862985],[120.983215,24.861582],[120.98411,24.861494],[120.984521,24.862697],[120.985934,24.863549],[120.987532,24.862527],[120.9901,24.861835],[120.99265,24.86475],[120.999255,24.871339],[120.998706,24.871855],[121.005633,24.877889],[121.006277,24.879295],[121.010448,24.882276],[121.010034,24.883214],[121.010569,24.8833],[121.011141,24.882275],[121.011482,24.883092],[121.014768,24.885534],[121.015952,24.887098],[121.019077,24.888701],[121.018246,24.889495],[121.019373,24.891108],[121.020481,24.894912],[121.020846,24.896898],[121.020399,24.89749],[121.021467,24.900819],[121.023016,24.902901],[121.022751,24.903789],[121.025552,24.911712],[121.026756,24.912925],[121.027639,24.914975],[121.027994,24.917311],[121.03138,24.918724],[121.035842,24.926651],[121.037914,24.928795],[121.042628,24.935475],[121.044487,24.94118],[121.046245,24.942407]]]},"properties":{"code":"10004060","name":"新豐鄉","countyCode":"10004","countyName":"新竹縣","townCode":"10004060","townName":"新豐鄉","level":"town","unassigned":false,"note":"","label":[120.99398168524674,24.90709021291778],"bounds":[120.946743,24.861494,121.046292,24.946387],"focusBounds":[120.946743,24.861494,121.046292,24.946387],"color":"#df9f6a","childCount":18}},{"type":"Feature","id":"10004070","geometry":{"type":"Polygon","coordinates":[[[121.05866,24.814769],[121.05236,24.8145],[121.052178,24.814107],[121.052996,24.812346],[121.055795,24.809044],[121.057727,24.807466],[121.059902,24.806792],[121.061812,24.804237],[121.062,24.802515],[121.060501,24.800012],[121.059359,24.799637],[121.058309,24.79668],[121.058432,24.79577],[121.059931,24.794935],[121.060504,24.793922],[121.060248,24.791347],[121.059567,24.790717],[121.06083,24.790841],[121.063678,24.789474],[121.066362,24.786358],[121.066481,24.78456],[121.065375,24.783901],[121.063062,24.786128],[121.061472,24.786483],[121.062491,24.780279],[121.063688,24.779345],[121.067697,24.778198],[121.070208,24.775965],[121.070698,24.774537],[121.073914,24.773917],[121.078066,24.766737],[121.080887,24.764681],[121.082664,24.759925],[121.084069,24.758637],[121.084539,24.757305],[121.083938,24.756861],[121.082735,24.757411],[121.082776,24.756816],[121.092706,24.748976],[121.100601,24.746659],[121.10413,24.744706],[121.105529,24.739937],[121.105752,24.736316],[121.10681,24.732197],[121.109746,24.729268],[121.113475,24.727106],[121.116677,24.725582],[121.121586,24.724849],[121.124178,24.722977],[121.126005,24.726167],[121.121467,24.729081],[121.123151,24.731316],[121.127282,24.729805],[121.12727,24.73094],[121.129717,24.730309],[121.132736,24.731055],[121.134758,24.732394],[121.137187,24.730848],[121.138001,24.731702],[121.139126,24.731397],[121.14177,24.731804],[121.142146,24.732824],[121.143188,24.732307],[121.143666,24.732906],[121.143486,24.735264],[121.145609,24.734626],[121.14791,24.738419],[121.146868,24.739147],[121.146538,24.74074],[121.147403,24.742354],[121.149093,24.743045],[121.148926,24.743752],[121.15083,24.746169],[121.150203,24.748226],[121.149427,24.748943],[121.150086,24.749496],[121.149973,24.750676],[121.151757,24.752253],[121.152109,24.756095],[121.153017,24.757903],[121.152422,24.75861],[121.151363,24.758149],[121.149908,24.760487],[121.148516,24.759774],[121.147624,24.761171],[121.14671,24.760811],[121.14512,24.763897],[121.142687,24.765552],[121.141974,24.764937],[121.140289,24.765245],[121.139625,24.765918],[121.137769,24.765408],[121.135808,24.766649],[121.132929,24.765378],[121.131464,24.765469],[121.129853,24.766612],[121.129268,24.766015],[121.127069,24.765671],[121.125609,24.767039],[121.123602,24.766664],[121.121906,24.767188],[121.120405,24.76644],[121.118652,24.766668],[121.118503,24.770068],[121.117509,24.773277],[121.117668,24.775554],[121.116058,24.777233],[121.115459,24.776847],[121.114429,24.777213],[121.115544,24.780441],[121.114887,24.781384],[121.113489,24.781944],[121.1132,24.783652],[121.112,24.784321],[121.11219,24.786609],[121.110105,24.788385],[121.108916,24.792414],[121.107689,24.792266],[121.105586,24.793077],[121.102674,24.79279],[121.100066,24.794117],[121.098549,24.793812],[121.096658,24.795088],[121.094871,24.794128],[121.093098,24.794214],[121.09087,24.791398],[121.088329,24.79237],[121.087256,24.791624],[121.084624,24.791283],[121.084334,24.792975],[121.082726,24.793647],[121.082406,24.795421],[121.080527,24.795954],[121.080159,24.797723],[121.08106,24.798335],[121.081119,24.799041],[121.080418,24.80029],[121.078155,24.801817],[121.07538,24.801957],[121.074031,24.803006],[121.072568,24.808264],[121.072731,24.80941],[121.065913,24.812616],[121.065497,24.813634],[121.064452,24.813581],[121.063738,24.81434],[121.05866,24.814769]]]},"properties":{"code":"10004070","name":"芎林鄉","countyCode":"10004","countyName":"新竹縣","townCode":"10004070","townName":"芎林鄉","level":"town","unassigned":false,"note":"","label":[121.10044044101365,24.765759900609243],"bounds":[121.052178,24.722977,121.153017,24.814769],"focusBounds":[121.052178,24.722977,121.153017,24.814769],"color":"#c38cb8","childCount":12}},{"type":"Feature","id":"10004080","geometry":{"type":"Polygon","coordinates":[[[121.203759,24.725387],[121.200407,24.728023],[121.199901,24.729618],[121.196245,24.73166],[121.195966,24.733518],[121.196816,24.734624],[121.196858,24.736697],[121.195531,24.73839],[121.195395,24.739511],[121.196945,24.741356],[121.196776,24.743449],[121.195189,24.743384],[121.193876,24.744117],[121.192603,24.743761],[121.191106,24.744106],[121.190351,24.742795],[121.188166,24.7414],[121.187253,24.740108],[121.184978,24.739096],[121.184396,24.739748],[121.179979,24.741364],[121.178454,24.743889],[121.178526,24.745051],[121.17964,24.746206],[121.179361,24.746774],[121.17807,24.746115],[121.173474,24.746944],[121.17352,24.748185],[121.172013,24.74938],[121.171743,24.752629],[121.169708,24.751888],[121.169033,24.752444],[121.168061,24.752298],[121.167796,24.752946],[121.165593,24.75343],[121.165397,24.754352],[121.164346,24.75488],[121.16007,24.756027],[121.158403,24.755623],[121.15537,24.757116],[121.153996,24.756893],[121.153017,24.757903],[121.152109,24.756095],[121.151757,24.752253],[121.149973,24.750676],[121.150086,24.749496],[121.149427,24.748943],[121.150203,24.748226],[121.15083,24.746169],[121.148926,24.743752],[121.149093,24.743045],[121.147403,24.742354],[121.146538,24.74074],[121.146868,24.739147],[121.14791,24.738419],[121.145609,24.734626],[121.143486,24.735264],[121.143666,24.732906],[121.143188,24.732307],[121.142146,24.732824],[121.14177,24.731804],[121.139126,24.731397],[121.138001,24.731702],[121.137187,24.730848],[121.134758,24.732394],[121.132736,24.731055],[121.129717,24.730309],[121.12727,24.73094],[121.127282,24.729805],[121.123151,24.731316],[121.121467,24.729081],[121.126005,24.726167],[121.124178,24.722977],[121.121586,24.724849],[121.116677,24.725582],[121.113475,24.727106],[121.109746,24.729268],[121.10681,24.732197],[121.107098,24.730283],[121.103524,24.721202],[121.100037,24.709779],[121.10012,24.705299],[121.09911,24.70442],[121.098231,24.702445],[121.098904,24.699181],[121.100257,24.698349],[121.104114,24.697765],[121.10535,24.694523],[121.103264,24.689256],[121.103661,24.683575],[121.099622,24.674899],[121.101347,24.672292],[121.103825,24.671318],[121.104019,24.669239],[121.105422,24.666304],[121.106517,24.666237],[121.110296,24.668696],[121.112371,24.669232],[121.11738,24.668533],[121.122455,24.665868],[121.123947,24.663244],[121.124345,24.655854],[121.127085,24.65374],[121.128585,24.656015],[121.130382,24.65647],[121.131481,24.658978],[121.132202,24.659306],[121.135329,24.663801],[121.137422,24.664261],[121.138966,24.665696],[121.14138,24.665815],[121.143128,24.665168],[121.144413,24.667151],[121.145722,24.667351],[121.146682,24.668654],[121.147671,24.668849],[121.15095,24.671786],[121.151894,24.671915],[121.153262,24.674521],[121.155862,24.677394],[121.157607,24.681409],[121.158801,24.681636],[121.164121,24.68508],[121.164353,24.689567],[121.166644,24.693331],[121.170045,24.693828],[121.176718,24.697091],[121.183161,24.697007],[121.188949,24.698228],[121.191296,24.702294],[121.194989,24.707141],[121.194501,24.708936],[121.193776,24.708865],[121.193064,24.709841],[121.191862,24.710339],[121.192917,24.711155],[121.193946,24.713075],[121.198252,24.715207],[121.199407,24.719631],[121.201546,24.720379],[121.202239,24.721105],[121.201994,24.721582],[121.203034,24.721916],[121.203759,24.725387]]]},"properties":{"code":"10004080","name":"橫山鄉","countyCode":"10004","countyName":"新竹縣","townCode":"10004080","townName":"橫山鄉","level":"town","unassigned":false,"note":"","label":[121.14341875576041,24.704902679285652],"bounds":[121.098231,24.65374,121.203759,24.757903],"focusBounds":[121.098231,24.65374,121.203759,24.757903],"color":"#98b69b","childCount":11}},{"type":"Feature","id":"10004090","geometry":{"type":"Polygon","coordinates":[[[121.09673,24.641328],[121.095919,24.641746],[121.095763,24.645006],[121.091786,24.648006],[121.092158,24.651843],[121.090737,24.652455],[121.090116,24.653784],[121.088715,24.654572],[121.089353,24.655732],[121.087774,24.659394],[121.08738,24.662853],[121.085874,24.66504],[121.087233,24.667253],[121.086068,24.668857],[121.086563,24.672772],[121.084956,24.675961],[121.086384,24.679488],[121.087928,24.679964],[121.089207,24.681075],[121.08952,24.683687],[121.094073,24.687117],[121.093659,24.690685],[121.091619,24.692563],[121.090838,24.69498],[121.090086,24.695531],[121.089634,24.697077],[121.090262,24.697982],[121.090141,24.698981],[121.089217,24.700257],[121.087412,24.700637],[121.087586,24.702988],[121.085647,24.703043],[121.083854,24.703925],[121.083989,24.704986],[121.085888,24.706457],[121.084248,24.707202],[121.084664,24.709551],[121.08261,24.71169],[121.082287,24.713588],[121.08013,24.712962],[121.075973,24.714529],[121.075063,24.713807],[121.073858,24.714709],[121.072894,24.714672],[121.070764,24.716411],[121.07056,24.71836],[121.068998,24.722122],[121.071709,24.723884],[121.072735,24.725946],[121.071848,24.726298],[121.07194,24.72704],[121.073717,24.728127],[121.074255,24.730268],[121.073626,24.730704],[121.071899,24.729833],[121.07041,24.731287],[121.069568,24.730807],[121.066894,24.729451],[121.064418,24.730223],[121.063149,24.730108],[121.061986,24.730852],[121.061294,24.730267],[121.058684,24.730173],[121.058445,24.729098],[121.056406,24.727461],[121.055867,24.725943],[121.053823,24.724341],[121.053803,24.723408],[121.052735,24.723322],[121.050362,24.721107],[121.050608,24.719864],[121.049203,24.719676],[121.047648,24.716575],[121.046072,24.71655],[121.045232,24.717577],[121.044347,24.717199],[121.042727,24.717597],[121.042246,24.716796],[121.041297,24.716854],[121.041033,24.715799],[121.039372,24.713963],[121.039282,24.71218],[121.036938,24.71167],[121.037052,24.710679],[121.037928,24.709195],[121.037291,24.707236],[121.038637,24.707082],[121.040704,24.704314],[121.042034,24.704126],[121.041361,24.70285],[121.040171,24.702475],[121.039515,24.699456],[121.036507,24.69734],[121.036988,24.69567],[121.039382,24.69399],[121.038924,24.690618],[121.038588,24.69018],[121.035997,24.690183],[121.034977,24.687735],[121.033915,24.686847],[121.034235,24.685713],[121.035915,24.685626],[121.036616,24.685107],[121.038674,24.682214],[121.038618,24.681551],[121.037933,24.681193],[121.037911,24.677641],[121.037117,24.676847],[121.037461,24.675931],[121.036825,24.675147],[121.03684,24.673746],[121.034714,24.671961],[121.037933,24.667408],[121.038838,24.66736],[121.040635,24.668784],[121.043315,24.668149],[121.044724,24.669048],[121.046436,24.667189],[121.044726,24.663737],[121.044429,24.661618],[121.043096,24.660453],[121.042876,24.659505],[121.043291,24.65903],[121.042077,24.655192],[121.041325,24.654558],[121.04122,24.653025],[121.03944,24.651392],[121.03875,24.649348],[121.039925,24.647661],[121.040239,24.645929],[121.041595,24.644862],[121.046784,24.643326],[121.049143,24.640621],[121.048232,24.638894],[121.048866,24.637825],[121.048791,24.635005],[121.046786,24.633525],[121.045609,24.629673],[121.043653,24.628486],[121.04314,24.62725],[121.044656,24.624939],[121.045926,24.624092],[121.046442,24.622347],[121.048257,24.619833],[121.049402,24.618592],[121.051688,24.617356],[121.05154,24.615158],[121.053321,24.615451],[121.055354,24.617889],[121.056844,24.618282],[121.058454,24.619955],[121.062338,24.621828],[121.063886,24.61956],[121.064756,24.619449],[121.065903,24.618247],[121.067849,24.615055],[121.071529,24.613964],[121.073694,24.620891],[121.076864,24.622882],[121.079645,24.626894],[121.081233,24.627779],[121.082909,24.630301],[121.085273,24.630864],[121.085307,24.631634],[121.086742,24.632476],[121.088668,24.632561],[121.089357,24.634421],[121.090845,24.635863],[121.090671,24.637432],[121.09673,24.641328]]]},"properties":{"code":"10004090","name":"北埔鄉","countyCode":"10004","countyName":"新竹縣","townCode":"10004090","townName":"北埔鄉","level":"town","unassigned":false,"note":"","label":[121.06367261844602,24.6893719494094],"bounds":[121.033915,24.613964,121.09673,24.731287],"focusBounds":[121.033915,24.613964,121.09673,24.731287],"color":"#58b99d","childCount":9}},{"type":"Feature","id":"10004100","geometry":{"type":"Polygon","coordinates":[[[121.026316,24.757655],[121.023559,24.756774],[121.020396,24.75671],[121.019293,24.759092],[121.018338,24.7638],[121.016949,24.764865],[121.017018,24.765811],[121.01356,24.770935],[121.009707,24.773791],[121.008026,24.774489],[121.006333,24.774416],[120.999162,24.778519],[120.995479,24.780164],[120.993011,24.780582],[120.990425,24.776969],[120.988178,24.777419],[120.98589,24.77693],[120.985567,24.776085],[120.98476,24.775923],[120.9864,24.773535],[120.986978,24.770314],[120.98838,24.768066],[120.98638,24.768392],[120.981968,24.767429],[120.980635,24.76546],[120.980471,24.764127],[120.979416,24.763292],[120.977129,24.76311],[120.976565,24.764411],[120.974952,24.764027],[120.974423,24.764999],[120.973025,24.764217],[120.97162,24.764682],[120.970993,24.765739],[120.969841,24.765163],[120.967549,24.760595],[120.967412,24.756463],[120.966326,24.75577],[120.965327,24.756201],[120.964415,24.755209],[120.963566,24.755544],[120.96288,24.755063],[120.961506,24.751272],[120.960783,24.750882],[120.958563,24.749214],[120.957475,24.749634],[120.957163,24.748357],[120.957767,24.745562],[120.954998,24.744391],[120.954184,24.743434],[120.952625,24.74414],[120.951957,24.74379],[120.95113,24.744513],[120.948931,24.74445],[120.948109,24.74523],[120.946824,24.744792],[120.945881,24.745305],[120.943983,24.744043],[120.943164,24.738918],[120.941735,24.737169],[120.94169,24.735009],[120.939861,24.732744],[120.94233,24.730442],[120.941822,24.728557],[120.940618,24.728434],[120.938953,24.729762],[120.938012,24.729421],[120.938953,24.727815],[120.93783,24.727243],[120.938699,24.726699],[120.939274,24.725418],[120.938647,24.724875],[120.939098,24.722751],[120.93828,24.721464],[120.938842,24.720416],[120.938163,24.718322],[120.938627,24.716611],[120.936033,24.714687],[120.935428,24.712594],[120.9363,24.711004],[120.937523,24.710772],[120.938538,24.709081],[120.942213,24.707308],[120.945122,24.707894],[120.94555,24.709868],[120.946647,24.709888],[120.948163,24.711214],[120.949797,24.711197],[120.950834,24.709527],[120.950917,24.707742],[120.951903,24.707573],[120.952464,24.706395],[120.953301,24.706068],[120.952829,24.7045],[120.953408,24.704042],[120.955107,24.704575],[120.956791,24.706571],[120.95935,24.706656],[120.960638,24.709056],[120.962234,24.709585],[120.962293,24.710881],[120.963375,24.711475],[120.963914,24.711554],[120.96622,24.709643],[120.968586,24.711209],[120.970385,24.710888],[120.97068,24.711972],[120.971554,24.712435],[120.973792,24.711875],[120.976479,24.713044],[120.976118,24.713887],[120.976895,24.714385],[120.976848,24.716342],[120.977765,24.717334],[120.978679,24.714345],[120.981384,24.713994],[120.983136,24.711984],[120.984083,24.711818],[120.984726,24.710934],[120.985846,24.710852],[120.987013,24.711658],[120.987056,24.713257],[120.988071,24.713551],[120.990511,24.716175],[120.992649,24.71704],[120.993125,24.717921],[120.993762,24.716366],[120.995891,24.714953],[120.998076,24.715548],[120.998743,24.714726],[121.002534,24.714542],[121.004749,24.713158],[121.006694,24.710381],[121.008377,24.710442],[121.009476,24.711034],[121.010178,24.70962],[121.010035,24.707897],[121.011548,24.706028],[121.013661,24.708032],[121.014994,24.707902],[121.015877,24.709607],[121.017422,24.709688],[121.018421,24.711142],[121.019885,24.710597],[121.020968,24.711173],[121.021781,24.710373],[121.024939,24.710541],[121.028407,24.707515],[121.030554,24.708867],[121.033206,24.709063],[121.033791,24.709699],[121.037052,24.710679],[121.036938,24.71167],[121.039282,24.71218],[121.039372,24.713963],[121.041033,24.715799],[121.041297,24.716854],[121.042246,24.716796],[121.042727,24.717597],[121.044347,24.717199],[121.045232,24.717577],[121.046072,24.71655],[121.047648,24.716575],[121.049203,24.719676],[121.050608,24.719864],[121.050362,24.721107],[121.052735,24.723322],[121.053803,24.723408],[121.053823,24.724341],[121.055867,24.725943],[121.056406,24.727461],[121.058445,24.729098],[121.058684,24.730173],[121.061294,24.730267],[121.061986,24.730852],[121.063149,24.730108],[121.064418,24.730223],[121.066894,24.729451],[121.069568,24.730807],[121.069525,24.73373],[121.068383,24.735485],[121.068042,24.737521],[121.066743,24.738759],[121.065966,24.738222],[121.064401,24.739702],[121.064349,24.741142],[121.063162,24.742096],[121.062911,24.74565],[121.061309,24.746839],[121.059281,24.746896],[121.055254,24.749271],[121.053622,24.749708],[121.053072,24.751278],[121.052373,24.751643],[121.052312,24.752633],[121.051179,24.75282],[121.051008,24.753977],[121.049758,24.755092],[121.04922,24.755122],[121.049123,24.754317],[121.046335,24.752572],[121.043148,24.752792],[121.041249,24.751411],[121.039181,24.752669],[121.037079,24.750141],[121.036903,24.748702],[121.035572,24.747805],[121.03456,24.748238],[121.030106,24.753882],[121.029156,24.754282],[121.028684,24.756174],[121.027377,24.757455],[121.026316,24.757655]]]},"properties":{"code":"10004100","name":"寶山鄉","countyCode":"10004","countyName":"新竹縣","townCode":"10004100","townName":"寶山鄉","level":"town","unassigned":false,"note":"","label":[120.99355051844785,24.74258873196598],"bounds":[120.935428,24.704042,121.069568,24.780582],"focusBounds":[120.935428,24.704042,121.069568,24.780582],"color":"#efb44f","childCount":10}},{"type":"Feature","id":"10004110","geometry":{"type":"Polygon","coordinates":[[[121.037052,24.710679],[121.033791,24.709699],[121.033206,24.709063],[121.030554,24.708867],[121.028407,24.707515],[121.024939,24.710541],[121.021781,24.710373],[121.020968,24.711173],[121.019885,24.710597],[121.018421,24.711142],[121.017422,24.709688],[121.015877,24.709607],[121.014994,24.707902],[121.013661,24.708032],[121.011548,24.706028],[121.010035,24.707897],[121.010178,24.70962],[121.009476,24.711034],[121.008377,24.710442],[121.006694,24.710381],[121.004749,24.713158],[121.002534,24.714542],[120.998743,24.714726],[120.998076,24.715548],[120.995891,24.714953],[120.993762,24.716366],[120.993125,24.717921],[120.992649,24.71704],[120.990511,24.716175],[120.988071,24.713551],[120.987056,24.713257],[120.987013,24.711658],[120.985846,24.710852],[120.984726,24.710934],[120.984083,24.711818],[120.983136,24.711984],[120.981384,24.713994],[120.978679,24.714345],[120.977765,24.717334],[120.976848,24.716342],[120.976895,24.714385],[120.976118,24.713887],[120.976479,24.713044],[120.973792,24.711875],[120.975169,24.710889],[120.975827,24.709495],[120.974562,24.708565],[120.976686,24.706467],[120.975832,24.704942],[120.974648,24.704366],[120.973181,24.704508],[120.97222,24.70358],[120.973624,24.701159],[120.974001,24.696943],[120.971879,24.696773],[120.970192,24.694098],[120.968432,24.693185],[120.967876,24.691898],[120.966381,24.691167],[120.966015,24.690374],[120.966427,24.689163],[120.965171,24.688107],[120.966747,24.686108],[120.965701,24.684782],[120.964796,24.684679],[120.964405,24.683616],[120.967357,24.684441],[120.970582,24.684211],[120.971656,24.685487],[120.972699,24.685854],[120.973518,24.685846],[120.974355,24.684853],[120.975569,24.684564],[120.976428,24.68314],[120.976792,24.678987],[120.977519,24.678294],[120.976484,24.676175],[120.977017,24.673647],[120.977759,24.673986],[120.979313,24.673716],[120.981755,24.671783],[120.98173,24.671021],[120.983197,24.669811],[120.98319,24.667194],[120.985323,24.666743],[120.985891,24.664778],[120.986773,24.663766],[120.989084,24.663032],[120.990111,24.664759],[120.990646,24.664789],[120.990638,24.660392],[120.991684,24.659542],[120.995091,24.659297],[120.996142,24.658015],[120.995513,24.657245],[120.996096,24.655487],[120.997116,24.654664],[121.000291,24.654766],[121.004015,24.656382],[121.005997,24.655259],[121.01028,24.656207],[121.010888,24.654504],[121.01068,24.652332],[121.009762,24.651614],[121.008756,24.651568],[121.008102,24.65044],[121.008959,24.647568],[121.008186,24.644386],[121.010602,24.643743],[121.014388,24.64085],[121.01848,24.640758],[121.023508,24.641818],[121.025436,24.64121],[121.025983,24.640095],[121.025161,24.637816],[121.025737,24.636177],[121.02938,24.63287],[121.033463,24.632055],[121.037369,24.629608],[121.039059,24.629625],[121.040541,24.626966],[121.04314,24.62725],[121.043653,24.628486],[121.045609,24.629673],[121.046786,24.633525],[121.048791,24.635005],[121.048866,24.637825],[121.048232,24.638894],[121.049143,24.640621],[121.046784,24.643326],[121.041595,24.644862],[121.040239,24.645929],[121.039925,24.647661],[121.03875,24.649348],[121.03944,24.651392],[121.04122,24.653025],[121.041325,24.654558],[121.042077,24.655192],[121.043291,24.65903],[121.042876,24.659505],[121.043096,24.660453],[121.044429,24.661618],[121.044726,24.663737],[121.046436,24.667189],[121.044724,24.669048],[121.043315,24.668149],[121.040635,24.668784],[121.038838,24.66736],[121.037933,24.667408],[121.034714,24.671961],[121.03684,24.673746],[121.036825,24.675147],[121.037461,24.675931],[121.037117,24.676847],[121.037911,24.677641],[121.037933,24.681193],[121.038618,24.681551],[121.038674,24.682214],[121.036616,24.685107],[121.035915,24.685626],[121.034235,24.685713],[121.033915,24.686847],[121.034977,24.687735],[121.035997,24.690183],[121.038588,24.69018],[121.038924,24.690618],[121.039382,24.69399],[121.036988,24.69567],[121.036507,24.69734],[121.039515,24.699456],[121.040171,24.702475],[121.041361,24.70285],[121.042034,24.704126],[121.040704,24.704314],[121.038637,24.707082],[121.037291,24.707236],[121.037928,24.709195],[121.037052,24.710679]]]},"properties":{"code":"10004110","name":"峨眉鄉","countyCode":"10004","countyName":"新竹縣","townCode":"10004110","townName":"峨眉鄉","level":"town","unassigned":false,"note":"","label":[121.01041177375926,24.679709028778788],"bounds":[120.964405,24.626966,121.049143,24.717921],"focusBounds":[120.964405,24.626966,121.049143,24.717921],"color":"#78a7e3","childCount":6}},{"type":"Feature","id":"10004120","geometry":{"type":"Polygon","coordinates":[[[121.403046,24.591707],[121.401697,24.591627],[121.399848,24.59035],[121.395742,24.588933],[121.394762,24.587542],[121.393716,24.587104],[121.391332,24.586458],[121.387208,24.586562],[121.381191,24.590364],[121.372783,24.593747],[121.371824,24.597004],[121.366798,24.599185],[121.365874,24.600844],[121.363331,24.603128],[121.364321,24.605861],[121.364018,24.60725],[121.361301,24.609877],[121.361314,24.612143],[121.359517,24.613772],[121.358806,24.616679],[121.359022,24.617647],[121.361693,24.620581],[121.363062,24.620671],[121.363372,24.623589],[121.365429,24.628494],[121.365497,24.630673],[121.366418,24.631791],[121.363477,24.632455],[121.361171,24.633751],[121.357815,24.633712],[121.357389,24.637598],[121.355928,24.641054],[121.353401,24.64225],[121.352396,24.643541],[121.353015,24.648784],[121.352329,24.654048],[121.353524,24.655441],[121.352878,24.656432],[121.353818,24.659048],[121.353072,24.660388],[121.353727,24.664955],[121.353045,24.665443],[121.35365,24.666484],[121.353519,24.667798],[121.351682,24.666099],[121.350461,24.666518],[121.348992,24.667912],[121.345481,24.666436],[121.344856,24.666735],[121.344337,24.668942],[121.343668,24.669395],[121.342452,24.668852],[121.340412,24.666437],[121.339204,24.66656],[121.339808,24.67187],[121.338577,24.679958],[121.329766,24.690966],[121.324169,24.694972],[121.320274,24.695793],[121.31874,24.697634],[121.317185,24.698137],[121.312848,24.697524],[121.303904,24.692917],[121.30106,24.693819],[121.299841,24.694959],[121.299556,24.696589],[121.302263,24.701908],[121.30218,24.703876],[121.303034,24.705719],[121.30328,24.708388],[121.306407,24.713083],[121.307619,24.720175],[121.305721,24.723827],[121.305396,24.725993],[121.303873,24.726543],[121.30046,24.729836],[121.29867,24.73071],[121.298183,24.733802],[121.300201,24.737721],[121.301195,24.742108],[121.305286,24.746281],[121.305107,24.750201],[121.307716,24.754982],[121.304142,24.757445],[121.301363,24.763146],[121.300302,24.763555],[121.298085,24.762933],[121.29419,24.763866],[121.293073,24.76538],[121.29153,24.765065],[121.289086,24.762209],[121.287975,24.761807],[121.286567,24.759631],[121.284246,24.758601],[121.278874,24.759159],[121.273426,24.758584],[121.271125,24.757846],[121.26892,24.758485],[121.265528,24.757934],[121.261596,24.754555],[121.258804,24.751181],[121.25459,24.748298],[121.252899,24.745475],[121.25006,24.74559],[121.248173,24.744283],[121.243944,24.746956],[121.242082,24.745539],[121.237375,24.743748],[121.236,24.742741],[121.232796,24.742566],[121.231283,24.741555],[121.225336,24.741121],[121.218488,24.737477],[121.216847,24.737442],[121.211182,24.729627],[121.209961,24.729531],[121.206666,24.72628],[121.204836,24.725351],[121.203759,24.725387],[121.203034,24.721916],[121.201994,24.721582],[121.202239,24.721105],[121.201546,24.720379],[121.199407,24.719631],[121.198252,24.715207],[121.193946,24.713075],[121.192917,24.711155],[121.191862,24.710339],[121.193064,24.709841],[121.193776,24.708865],[121.194501,24.708936],[121.194989,24.707141],[121.191296,24.702294],[121.188949,24.698228],[121.183161,24.697007],[121.176718,24.697091],[121.170045,24.693828],[121.166644,24.693331],[121.164353,24.689567],[121.164121,24.68508],[121.158801,24.681636],[121.157607,24.681409],[121.155862,24.677394],[121.153262,24.674521],[121.151894,24.671915],[121.152251,24.671023],[121.154713,24.669562],[121.154682,24.667601],[121.155952,24.666887],[121.158665,24.668299],[121.163054,24.667839],[121.169242,24.668716],[121.170252,24.662132],[121.175668,24.660365],[121.179666,24.660994],[121.182647,24.659679],[121.183927,24.656126],[121.187719,24.652572],[121.189866,24.646233],[121.189263,24.643685],[121.185593,24.638039],[121.185765,24.633908],[121.18791,24.632881],[121.194997,24.627148],[121.199875,24.621898],[121.202146,24.620394],[121.206785,24.618678],[121.208204,24.61756],[121.209073,24.615381],[121.212152,24.613757],[121.21251,24.607547],[121.215839,24.604354],[121.216589,24.602891],[121.220449,24.599659],[121.217778,24.594964],[121.215593,24.593961],[121.21179,24.593407],[121.210021,24.591624],[121.209477,24.58964],[121.207177,24.586622],[121.200865,24.58601],[121.197514,24.579474],[121.197888,24.576236],[121.196098,24.570372],[121.197323,24.568745],[121.197608,24.566515],[121.194691,24.562194],[121.19299,24.556167],[121.193549,24.555165],[121.196301,24.553702],[121.197329,24.550654],[121.200248,24.547682],[121.201084,24.545982],[121.200628,24.543766],[121.198261,24.543347],[121.195843,24.540015],[121.195981,24.539244],[121.198034,24.537091],[121.200109,24.535566],[121.201461,24.535369],[121.201982,24.534544],[121.201219,24.530207],[121.201709,24.527928],[121.200232,24.526259],[121.200146,24.525328],[121.200508,24.524675],[121.202151,24.524624],[121.204144,24.521758],[121.2018,24.516435],[121.202014,24.514224],[121.203168,24.512494],[121.204589,24.512164],[121.206667,24.512955],[121.208178,24.511632],[121.209551,24.511486],[121.214782,24.515262],[121.215818,24.515522],[121.216745,24.515046],[121.217637,24.513796],[121.217472,24.509651],[121.222143,24.507507],[121.223642,24.506307],[121.221929,24.504817],[121.220966,24.50145],[121.219742,24.500765],[121.218673,24.498262],[121.223506,24.494392],[121.228785,24.492412],[121.229928,24.488914],[121.233431,24.487456],[121.234584,24.487872],[121.234719,24.483661],[121.23845,24.481362],[121.239396,24.480074],[121.242293,24.478476],[121.243299,24.477294],[121.243978,24.475563],[121.244478,24.469886],[121.246426,24.468765],[121.249311,24.46587],[121.258092,24.463241],[121.258041,24.457463],[121.262639,24.455246],[121.260612,24.45141],[121.261101,24.448789],[121.262196,24.448032],[121.260881,24.445646],[121.26166,24.444217],[121.258697,24.439937],[121.258781,24.438203],[121.25998,24.43619],[121.259721,24.432021],[121.259148,24.430889],[121.260218,24.429009],[121.261903,24.428509],[121.265079,24.428648],[121.269901,24.427375],[121.271063,24.427956],[121.271527,24.429747],[121.278484,24.429325],[121.28433,24.430582],[121.292755,24.430921],[121.294495,24.432465],[121.296754,24.433027],[121.305504,24.432581],[121.307674,24.433774],[121.310033,24.436218],[121.313449,24.437065],[121.317665,24.441489],[121.319637,24.445193],[121.320205,24.448008],[121.324338,24.457623],[121.326454,24.460425],[121.329497,24.462551],[121.32986,24.464261],[121.330878,24.465206],[121.332815,24.465662],[121.336001,24.467366],[121.335641,24.472035],[121.338081,24.474022],[121.340074,24.474851],[121.341406,24.477341],[121.341938,24.48063],[121.342839,24.48226],[121.344253,24.482718],[121.346317,24.484656],[121.350739,24.484343],[121.352778,24.485494],[121.35775,24.486609],[121.361894,24.490787],[121.363851,24.494957],[121.365036,24.495854],[121.371254,24.498363],[121.372519,24.502122],[121.373354,24.509896],[121.376031,24.510054],[121.379287,24.50953],[121.383568,24.510217],[121.385396,24.513802],[121.385117,24.51682],[121.387817,24.517249],[121.388534,24.5178],[121.390621,24.523031],[121.392863,24.52446],[121.397714,24.524813],[121.4015,24.528986],[121.401509,24.530218],[121.39886,24.53255],[121.398462,24.536256],[121.396747,24.539822],[121.398763,24.548203],[121.395441,24.553026],[121.39476,24.555911],[121.398365,24.560455],[121.401256,24.562006],[121.401311,24.564688],[121.403585,24.568707],[121.405667,24.569793],[121.407665,24.570032],[121.40906,24.571624],[121.411808,24.572798],[121.41233,24.573499],[121.410213,24.579387],[121.404555,24.587755],[121.403046,24.591707]]]},"properties":{"code":"10004120","name":"尖石鄉","countyCode":"10004","countyName":"新竹縣","townCode":"10004120","townName":"尖石鄉","level":"town","unassigned":false,"note":"","label":[121.29278252641548,24.562331052362605],"bounds":[121.151894,24.427375,121.41233,24.76538],"focusBounds":[121.151894,24.427375,121.41233,24.76538],"color":"#dd8590","childCount":7}},{"type":"Feature","id":"10004130","geometry":{"type":"Polygon","coordinates":[[[121.151894,24.671915],[121.15095,24.671786],[121.147671,24.668849],[121.146682,24.668654],[121.145722,24.667351],[121.144413,24.667151],[121.143128,24.665168],[121.14138,24.665815],[121.138966,24.665696],[121.137422,24.664261],[121.135329,24.663801],[121.132202,24.659306],[121.131481,24.658978],[121.130382,24.65647],[121.128585,24.656015],[121.127085,24.65374],[121.128655,24.651274],[121.125518,24.64823],[121.123945,24.645189],[121.121802,24.645247],[121.121444,24.645835],[121.11612,24.648283],[121.115181,24.648916],[121.114025,24.651201],[121.11055,24.64948],[121.109287,24.647575],[121.108781,24.645639],[121.105107,24.643939],[121.10409,24.642553],[121.102894,24.64249],[121.101586,24.641318],[121.099786,24.641879],[121.098382,24.64],[121.09673,24.641328],[121.090671,24.637432],[121.090845,24.635863],[121.089357,24.634421],[121.088668,24.632561],[121.086742,24.632476],[121.085307,24.631634],[121.085273,24.630864],[121.082909,24.630301],[121.081233,24.627779],[121.079645,24.626894],[121.076864,24.622882],[121.073694,24.620891],[121.071529,24.613964],[121.073973,24.613088],[121.075325,24.611623],[121.076083,24.609067],[121.075266,24.60585],[121.075684,24.603703],[121.081278,24.60057],[121.082804,24.594829],[121.082532,24.593052],[121.083101,24.589988],[121.081932,24.588838],[121.079504,24.588099],[121.078743,24.583754],[121.07526,24.580667],[121.07473,24.576725],[121.072678,24.572583],[121.072006,24.567894],[121.070591,24.563357],[121.067977,24.562129],[121.062734,24.557456],[121.061404,24.560002],[121.058426,24.560634],[121.058205,24.55791],[121.059213,24.556974],[121.062191,24.556154],[121.063023,24.55489],[121.066409,24.553265],[121.069992,24.550582],[121.073466,24.54942],[121.074519,24.548331],[121.074252,24.547141],[121.076232,24.543796],[121.080541,24.540961],[121.080045,24.537692],[121.077803,24.534237],[121.07867,24.532505],[121.078303,24.528902],[121.072178,24.526353],[121.06693,24.522549],[121.066689,24.520778],[121.068487,24.516586],[121.068554,24.51245],[121.069317,24.509332],[121.068104,24.507002],[121.070323,24.50608],[121.071002,24.504404],[121.072113,24.503371],[121.071888,24.498381],[121.075438,24.499452],[121.07892,24.499068],[121.08367,24.501134],[121.085556,24.501308],[121.086686,24.500771],[121.087752,24.499399],[121.090813,24.497708],[121.094886,24.496523],[121.098323,24.496478],[121.100338,24.498228],[121.10246,24.498252],[121.105328,24.500607],[121.108934,24.500971],[121.114335,24.5071],[121.117147,24.508442],[121.120962,24.50842],[121.123238,24.510239],[121.125379,24.508503],[121.127666,24.50817],[121.129657,24.506695],[121.136995,24.506655],[121.145025,24.51192],[121.146088,24.509694],[121.150586,24.506092],[121.155021,24.506799],[121.161418,24.503581],[121.164937,24.50351],[121.169138,24.502588],[121.17058,24.504117],[121.174689,24.504841],[121.177399,24.507437],[121.179417,24.507984],[121.183189,24.507933],[121.184363,24.506527],[121.18671,24.505361],[121.191622,24.507469],[121.195555,24.507119],[121.19807,24.508837],[121.200249,24.51129],[121.202409,24.511739],[121.203168,24.512494],[121.202014,24.514224],[121.2018,24.516435],[121.204144,24.521758],[121.202151,24.524624],[121.200508,24.524675],[121.200146,24.525328],[121.200232,24.526259],[121.201709,24.527928],[121.201219,24.530207],[121.201982,24.534544],[121.201461,24.535369],[121.200109,24.535566],[121.198034,24.537091],[121.195981,24.539244],[121.195843,24.540015],[121.198261,24.543347],[121.200628,24.543766],[121.201084,24.545982],[121.200248,24.547682],[121.197329,24.550654],[121.196301,24.553702],[121.193549,24.555165],[121.19299,24.556167],[121.194691,24.562194],[121.197608,24.566515],[121.197323,24.568745],[121.196098,24.570372],[121.197888,24.576236],[121.197514,24.579474],[121.200865,24.58601],[121.207177,24.586622],[121.209477,24.58964],[121.210021,24.591624],[121.21179,24.593407],[121.215593,24.593961],[121.217778,24.594964],[121.220449,24.599659],[121.216589,24.602891],[121.215839,24.604354],[121.21251,24.607547],[121.212152,24.613757],[121.209073,24.615381],[121.208204,24.61756],[121.206785,24.618678],[121.202146,24.620394],[121.199875,24.621898],[121.194997,24.627148],[121.18791,24.632881],[121.185765,24.633908],[121.185593,24.638039],[121.189263,24.643685],[121.189866,24.646233],[121.187719,24.652572],[121.183927,24.656126],[121.182647,24.659679],[121.179666,24.660994],[121.175668,24.660365],[121.170252,24.662132],[121.169242,24.668716],[121.163054,24.667839],[121.158665,24.668299],[121.155952,24.666887],[121.154682,24.667601],[121.154713,24.669562],[121.152251,24.671023],[121.151894,24.671915]]]},"properties":{"code":"10004130","name":"五峰鄉","countyCode":"10004","countyName":"新竹縣","townCode":"10004130","townName":"五峰鄉","level":"town","unassigned":false,"note":"","label":[121.13898627197327,24.57756991831062],"bounds":[121.058205,24.496478,121.220449,24.671915],"focusBounds":[121.058205,24.496478,121.220449,24.671915],"color":"#a49ad4","childCount":4}}]}
