{"type":"FeatureCollection","features":[{"type":"Feature","id":"10010010","geometry":{"type":"Polygon","coordinates":[[[120.408806,23.506572],[120.408981,23.508563],[120.407015,23.51063],[120.405327,23.511179],[120.393026,23.506624],[120.388956,23.507125],[120.38792,23.509097],[120.388072,23.51444],[120.388802,23.516067],[120.386121,23.516634],[120.384615,23.515438],[120.380239,23.514728],[120.378705,23.510454],[120.378651,23.507552],[120.377874,23.505256],[120.3758,23.503701],[120.373125,23.503222],[120.372388,23.502161],[120.371193,23.502002],[120.371341,23.502885],[120.370208,23.502289],[120.36873,23.503098],[120.368183,23.504517],[120.36791,23.509719],[120.364903,23.513496],[120.363937,23.51404],[120.360721,23.51244],[120.35936,23.513378],[120.356723,23.512856],[120.356064,23.510615],[120.354428,23.51053],[120.352873,23.509807],[120.351211,23.505083],[120.347959,23.505236],[120.347044,23.506389],[120.345242,23.505769],[120.341942,23.505836],[120.334321,23.508321],[120.331676,23.507844],[120.328515,23.506156],[120.325941,23.505819],[120.325819,23.504908],[120.322682,23.502846],[120.321844,23.500572],[120.320239,23.499911],[120.313759,23.500447],[120.313363,23.499522],[120.31414,23.499179],[120.313778,23.497851],[120.315172,23.497537],[120.315612,23.497911],[120.315857,23.496184],[120.320052,23.495186],[120.320794,23.493424],[120.314629,23.488822],[120.317358,23.487937],[120.315645,23.487528],[120.314871,23.483187],[120.30799,23.475637],[120.303601,23.478852],[120.290059,23.47811],[120.2903,23.473246],[120.289494,23.467727],[120.29467,23.466879],[120.289522,23.452516],[120.292308,23.448606],[120.29124,23.445662],[120.292169,23.444824],[120.29118,23.444101],[120.291309,23.442358],[120.290168,23.441029],[120.291444,23.439531],[120.291476,23.437781],[120.292743,23.434552],[120.302972,23.436382],[120.307764,23.436508],[120.30945,23.437664],[120.313273,23.438159],[120.31473,23.437094],[120.317828,23.437372],[120.318618,23.43681],[120.320399,23.437297],[120.321341,23.43576],[120.323488,23.434708],[120.326744,23.434939],[120.327936,23.433893],[120.331296,23.433016],[120.331871,23.432365],[120.332465,23.432752],[120.33395,23.429852],[120.335268,23.429275],[120.336783,23.429076],[120.338879,23.43028],[120.341275,23.429974],[120.34221,23.428862],[120.344919,23.430168],[120.35065,23.431442],[120.353583,23.430356],[120.356017,23.434512],[120.35363,23.435283],[120.354848,23.442076],[120.351748,23.443979],[120.353936,23.449345],[120.349877,23.450794],[120.351083,23.452413],[120.358213,23.45486],[120.356335,23.456459],[120.355493,23.458747],[120.362031,23.461056],[120.360833,23.463766],[120.366358,23.461893],[120.368364,23.462285],[120.369588,23.463503],[120.371836,23.462415],[120.372417,23.463087],[120.374151,23.463215],[120.373834,23.462298],[120.374266,23.46201],[120.379041,23.464652],[120.380106,23.462699],[120.380378,23.458571],[120.384355,23.458475],[120.384419,23.461263],[120.388246,23.461626],[120.389765,23.462527],[120.394173,23.462519],[120.39428,23.466463],[120.395278,23.467451],[120.396646,23.467742],[120.397897,23.470257],[120.399278,23.471068],[120.398504,23.474006],[120.399069,23.478418],[120.39806,23.479533],[120.396888,23.479532],[120.39691,23.48044],[120.394419,23.480765],[120.394142,23.482179],[120.393438,23.482377],[120.393936,23.488949],[120.394722,23.490747],[120.389785,23.49135],[120.389184,23.493588],[120.389196,23.497148],[120.389957,23.497942],[120.389345,23.49865],[120.391517,23.500267],[120.394472,23.50081],[120.400205,23.498755],[120.40101,23.501871],[120.403829,23.503736],[120.405932,23.503864],[120.408806,23.506572]]]},"properties":{"code":"10010010","name":"太保市","countyCode":"10010","countyName":"嘉義縣","townCode":"10010010","townName":"太保市","level":"town","unassigned":false,"note":"","label":[120.33980514043176,23.476494220073334],"bounds":[120.289494,23.428862,120.408981,23.516634],"focusBounds":[120.289494,23.428862,120.408981,23.516634],"color":"#78a7e3","childCount":18}},{"type":"Feature","id":"10010020","geometry":{"type":"Polygon","coordinates":[[[120.290059,23.47811],[120.291151,23.481403],[120.284221,23.486182],[120.283419,23.487598],[120.283848,23.490302],[120.28051,23.491359],[120.274311,23.491292],[120.266561,23.488777],[120.261869,23.485408],[120.262165,23.483098],[120.261543,23.481505],[120.262158,23.478471],[120.258259,23.477125],[120.256629,23.477803],[120.255824,23.477613],[120.253936,23.474778],[120.253331,23.470965],[120.252318,23.469934],[120.250835,23.470341],[120.246149,23.475179],[120.242717,23.476188],[120.240918,23.475929],[120.23875,23.474369],[120.238223,23.469411],[120.233891,23.468751],[120.230388,23.467346],[120.227848,23.467875],[120.226296,23.469144],[120.225513,23.465964],[120.226395,23.463607],[120.221836,23.462937],[120.221634,23.459835],[120.220209,23.45957],[120.215849,23.455626],[120.215205,23.455597],[120.214308,23.456965],[120.213073,23.45695],[120.210904,23.455798],[120.210271,23.453898],[120.20834,23.453782],[120.206227,23.452945],[120.207472,23.451683],[120.207928,23.449583],[120.209326,23.448964],[120.208232,23.448249],[120.208838,23.446735],[120.211605,23.445776],[120.213754,23.442646],[120.218015,23.440602],[120.219499,23.44191],[120.220424,23.441781],[120.220765,23.438755],[120.220137,23.437231],[120.221848,23.43626],[120.220973,23.436347],[120.220852,23.435197],[120.219512,23.433883],[120.21984,23.433154],[120.219145,23.431137],[120.219674,23.428779],[120.218277,23.428803],[120.218613,23.427809],[120.217938,23.426892],[120.218638,23.425751],[120.218257,23.424023],[120.218784,23.422971],[120.221067,23.422016],[120.222976,23.420103],[120.224018,23.421911],[120.22466,23.421982],[120.227022,23.420511],[120.2282,23.418845],[120.230424,23.41991],[120.233546,23.419861],[120.23385,23.420395],[120.231448,23.421056],[120.231275,23.42166],[120.232973,23.421742],[120.233967,23.422715],[120.235166,23.42283],[120.235484,23.424125],[120.237203,23.42393],[120.236615,23.421283],[120.237369,23.419719],[120.235779,23.417754],[120.236159,23.417081],[120.237233,23.417021],[120.237598,23.416226],[120.235924,23.411877],[120.233829,23.409181],[120.235767,23.4076],[120.242802,23.402919],[120.243245,23.400601],[120.246986,23.397794],[120.249574,23.397407],[120.251976,23.39599],[120.258112,23.39459],[120.259431,23.398],[120.259487,23.400148],[120.25794,23.40369],[120.259965,23.403925],[120.262939,23.408007],[120.264428,23.407431],[120.265789,23.408421],[120.266782,23.408477],[120.267613,23.409386],[120.267848,23.412654],[120.266948,23.415532],[120.267403,23.417391],[120.266211,23.417984],[120.266235,23.41852],[120.27001,23.419415],[120.272362,23.422555],[120.274102,23.421429],[120.273872,23.418436],[120.276933,23.41845],[120.277912,23.419424],[120.277933,23.421267],[120.279948,23.421494],[120.281388,23.423176],[120.280886,23.423682],[120.279776,23.423182],[120.279715,23.424455],[120.281238,23.425101],[120.282472,23.425027],[120.283267,23.426162],[120.281845,23.427265],[120.281657,23.432851],[120.277223,23.431331],[120.269648,23.431055],[120.269939,23.444905],[120.26696,23.448139],[120.26754,23.448453],[120.269512,23.447647],[120.271124,23.450566],[120.273404,23.448046],[120.275935,23.44823],[120.277548,23.44983],[120.279073,23.449581],[120.281656,23.450178],[120.282501,23.449264],[120.281054,23.447019],[120.281136,23.44565],[120.282599,23.445788],[120.283209,23.447721],[120.284525,23.447901],[120.285115,23.447195],[120.284299,23.445876],[120.28505,23.444452],[120.286254,23.44393],[120.287304,23.444161],[120.2869,23.446298],[120.287749,23.446854],[120.288517,23.446292],[120.288126,23.444385],[120.288989,23.443259],[120.29031,23.445439],[120.29124,23.445662],[120.292308,23.448606],[120.289522,23.452516],[120.29467,23.466879],[120.289494,23.467727],[120.2903,23.473246],[120.290059,23.47811]]]},"properties":{"code":"10010020","name":"朴子市","countyCode":"10010","countyName":"嘉義縣","townCode":"10010020","townName":"朴子市","level":"town","unassigned":false,"note":"","label":[120.24578101589626,23.44503303651775],"bounds":[120.206227,23.39459,120.29467,23.491359],"focusBounds":[120.206227,23.39459,120.29467,23.491359],"color":"#dd8590","childCount":27}},{"type":"Feature","id":"10010030","geometry":{"type":"Polygon","coordinates":[[[120.235767,23.4076],[120.233829,23.409181],[120.235924,23.411877],[120.237598,23.416226],[120.237233,23.417021],[120.236159,23.417081],[120.235779,23.417754],[120.237369,23.419719],[120.236615,23.421283],[120.237203,23.42393],[120.235484,23.424125],[120.235166,23.42283],[120.233967,23.422715],[120.232973,23.421742],[120.231275,23.42166],[120.231448,23.421056],[120.23385,23.420395],[120.233546,23.419861],[120.230424,23.41991],[120.2282,23.418845],[120.227022,23.420511],[120.22466,23.421982],[120.224018,23.421911],[120.222976,23.420103],[120.221067,23.422016],[120.218784,23.422971],[120.218257,23.424023],[120.218638,23.425751],[120.217938,23.426892],[120.218613,23.427809],[120.218277,23.428803],[120.219674,23.428779],[120.219145,23.431137],[120.21984,23.433154],[120.219512,23.433883],[120.220852,23.435197],[120.220973,23.436347],[120.221848,23.43626],[120.220137,23.437231],[120.220765,23.438755],[120.220424,23.441781],[120.219499,23.44191],[120.218015,23.440602],[120.213754,23.442646],[120.211605,23.445776],[120.208838,23.446735],[120.208232,23.448249],[120.209326,23.448964],[120.207928,23.449583],[120.207472,23.451683],[120.206227,23.452945],[120.194278,23.44825],[120.197624,23.446831],[120.201427,23.443873],[120.204931,23.442764],[120.206766,23.441276],[120.207097,23.439779],[120.204976,23.437354],[120.206588,23.435583],[120.207591,23.432984],[120.206319,23.427127],[120.207167,23.42446],[120.206954,23.423595],[120.204362,23.422118],[120.203805,23.420677],[120.200961,23.420671],[120.200162,23.418415],[120.195951,23.420393],[120.194972,23.421523],[120.192988,23.421644],[120.192878,23.419069],[120.190338,23.415529],[120.188241,23.422941],[120.186477,23.42414],[120.186437,23.421908],[120.185879,23.421081],[120.184808,23.420638],[120.1816,23.42078],[120.176641,23.417488],[120.175671,23.416054],[120.173852,23.41063],[120.172955,23.410441],[120.172626,23.411465],[120.171898,23.411881],[120.170946,23.411096],[120.16991,23.409128],[120.171118,23.407667],[120.164288,23.404138],[120.162268,23.40431],[120.159994,23.405372],[120.161612,23.397917],[120.161674,23.39466],[120.163705,23.393041],[120.160729,23.388792],[120.157056,23.389912],[120.155504,23.39094],[120.153648,23.388959],[120.154584,23.389468],[120.15498,23.38919],[120.155689,23.390074],[120.156718,23.389362],[120.156154,23.388643],[120.156725,23.388263],[120.157352,23.389052],[120.159265,23.387689],[120.157784,23.38579],[120.156799,23.38641],[120.157301,23.387234],[120.156716,23.386506],[120.155042,23.387585],[120.155504,23.388182],[120.154004,23.388115],[120.157344,23.38495],[120.156897,23.384268],[120.157453,23.384926],[120.158191,23.384783],[120.158011,23.383759],[120.157305,23.383437],[120.157069,23.383876],[120.157255,23.383313],[120.15804,23.383312],[120.157301,23.383035],[120.15704,23.381783],[120.157361,23.382993],[120.15788,23.383192],[120.158341,23.381775],[120.157099,23.38152],[120.157243,23.380823],[120.158406,23.381536],[120.15761,23.380268],[120.15798,23.379806],[120.157337,23.380437],[120.157219,23.379824],[120.156456,23.379781],[120.155915,23.384704],[120.155208,23.384715],[120.153025,23.387616],[120.152275,23.387997],[120.151841,23.387505],[120.152055,23.3886],[120.150701,23.388354],[120.148077,23.385529],[120.139533,23.385292],[120.137597,23.384684],[120.13166,23.384779],[120.131934,23.376256],[120.130898,23.370443],[120.129447,23.368777],[120.12803,23.363568],[120.122967,23.354803],[120.121941,23.351559],[120.11934,23.34693],[120.118378,23.343661],[120.118569,23.342841],[120.119061,23.343131],[120.118078,23.340162],[120.132289,23.329756],[120.13692,23.327991],[120.147082,23.321067],[120.148582,23.319573],[120.14837,23.315273],[120.149663,23.313249],[120.154303,23.313016],[120.155515,23.310482],[120.156221,23.310041],[120.160582,23.310645],[120.16264,23.309984],[120.163399,23.311072],[120.167093,23.309909],[120.169936,23.310828],[120.171232,23.312164],[120.171523,23.315286],[120.172438,23.316905],[120.17715,23.31905],[120.180281,23.322177],[120.180705,23.325721],[120.178475,23.329784],[120.180239,23.334872],[120.179005,23.33866],[120.17594,23.341519],[120.182544,23.348484],[120.189672,23.362113],[120.19613,23.364777],[120.199129,23.369286],[120.2018,23.370162],[120.201983,23.370609],[120.199935,23.371453],[120.201159,23.373021],[120.201133,23.37387],[120.20176,23.373809],[120.205254,23.376239],[120.207432,23.379927],[120.211935,23.381106],[120.217713,23.379048],[120.21945,23.377761],[120.221822,23.380908],[120.225227,23.38208],[120.227147,23.381582],[120.230889,23.386759],[120.226713,23.389436],[120.227518,23.39329],[120.227257,23.394138],[120.229094,23.396335],[120.230599,23.399446],[120.232247,23.40031],[120.234572,23.400717],[120.236146,23.401738],[120.236008,23.402304],[120.234789,23.402875],[120.230825,23.403713],[120.232701,23.405861],[120.23471,23.406608],[120.235767,23.4076]]]},"properties":{"code":"10010030","name":"布袋鎮","countyCode":"10010","countyName":"嘉義縣","townCode":"10010030","townName":"布袋鎮","level":"town","unassigned":false,"note":"","label":[120.15237764162599,23.35340400275473],"bounds":[120.118078,23.309909,120.237598,23.452945],"focusBounds":[120.118078,23.309909,120.237598,23.452945],"color":"#a49ad4","childCount":24}},{"type":"Feature","id":"10010040","geometry":{"type":"Polygon","coordinates":[[[120.505944,23.633825],[120.503829,23.635232],[120.5017,23.634795],[120.499492,23.635063],[120.493213,23.633127],[120.491097,23.634832],[120.488726,23.635896],[120.487549,23.635226],[120.487168,23.634157],[120.488145,23.631442],[120.487871,23.630708],[120.485857,23.630631],[120.482632,23.632195],[120.479255,23.632947],[120.478638,23.632632],[120.477023,23.629535],[120.473994,23.631067],[120.468536,23.630275],[120.460395,23.62934],[120.458476,23.627671],[120.454,23.6263],[120.451047,23.627124],[120.453366,23.628495],[120.45403,23.629458],[120.454182,23.62992],[120.453034,23.630691],[120.452225,23.630749],[120.449965,23.62942],[120.446992,23.629653],[120.444503,23.630534],[120.442642,23.628892],[120.44113,23.625974],[120.43787,23.626533],[120.435665,23.625858],[120.4351,23.624748],[120.437,23.623797],[120.437167,23.622037],[120.436192,23.621727],[120.4335,23.622804],[120.431814,23.62156],[120.43154,23.61984],[120.43015,23.618383],[120.42762,23.61934],[120.426682,23.619162],[120.425379,23.61801],[120.422027,23.619266],[120.421144,23.621434],[120.420703,23.625164],[120.418105,23.623981],[120.416116,23.621463],[120.413815,23.622407],[120.41268,23.622534],[120.411793,23.621772],[120.412113,23.621285],[120.413634,23.62147],[120.414274,23.619134],[120.412836,23.61611],[120.411053,23.613959],[120.407496,23.611933],[120.405158,23.607407],[120.407605,23.606402],[120.406438,23.603306],[120.408394,23.602125],[120.412912,23.602116],[120.41376,23.60122],[120.414654,23.601424],[120.415622,23.603861],[120.416911,23.605145],[120.424167,23.605796],[120.426688,23.605525],[120.427631,23.604609],[120.427847,23.602782],[120.426276,23.600371],[120.426188,23.599008],[120.427016,23.598704],[120.429503,23.599083],[120.42618,23.595285],[120.425906,23.59342],[120.42676,23.592207],[120.430276,23.591325],[120.435312,23.591393],[120.442728,23.594229],[120.447657,23.59397],[120.448792,23.593045],[120.448007,23.591224],[120.448329,23.59013],[120.453957,23.587106],[120.45606,23.582489],[120.456862,23.580265],[120.459171,23.578297],[120.460447,23.578716],[120.464319,23.58256],[120.469806,23.58091],[120.470306,23.578527],[120.469388,23.57712],[120.469937,23.575801],[120.470928,23.575322],[120.473501,23.575499],[120.475023,23.576805],[120.481339,23.567921],[120.48322,23.566217],[120.485,23.567454],[120.486605,23.567608],[120.487483,23.5658],[120.488112,23.565495],[120.489457,23.567784],[120.491011,23.568215],[120.494653,23.567032],[120.495532,23.564065],[120.498861,23.56421],[120.499911,23.563299],[120.500584,23.564917],[120.50124,23.565117],[120.502001,23.564296],[120.502435,23.56188],[120.50196,23.560456],[120.499773,23.558629],[120.499852,23.557067],[120.503114,23.556131],[120.50485,23.556358],[120.506998,23.55492],[120.507956,23.555603],[120.5078,23.557528],[120.508492,23.557699],[120.50998,23.556823],[120.510706,23.555608],[120.511846,23.556356],[120.512334,23.556037],[120.511213,23.552503],[120.510253,23.551429],[120.511175,23.550184],[120.512461,23.550165],[120.512615,23.551041],[120.516387,23.551569],[120.517155,23.55312],[120.519154,23.554987],[120.518446,23.556254],[120.519641,23.558075],[120.521573,23.558146],[120.524548,23.560597],[120.52603,23.560537],[120.527741,23.561572],[120.530847,23.559395],[120.531399,23.560436],[120.531118,23.566217],[120.531658,23.566651],[120.534085,23.566645],[120.535844,23.568866],[120.535208,23.570555],[120.533296,23.571073],[120.531574,23.573334],[120.529601,23.577373],[120.530154,23.578178],[120.530079,23.579985],[120.52895,23.580881],[120.526652,23.580926],[120.525327,23.582928],[120.524797,23.585612],[120.526667,23.587666],[120.529433,23.58855],[120.531482,23.590645],[120.531948,23.590466],[120.533596,23.591636],[120.5318,23.595563],[120.532026,23.596371],[120.532598,23.596093],[120.533372,23.596818],[120.532136,23.598835],[120.529279,23.600121],[120.527729,23.603207],[120.518094,23.61046],[120.515038,23.615188],[120.512398,23.61796],[120.51025,23.619349],[120.509457,23.621754],[120.507702,23.62299],[120.506455,23.625861],[120.506495,23.62815],[120.507647,23.630235],[120.505944,23.633825]]]},"properties":{"code":"10010040","name":"大林鎮","countyCode":"10010","countyName":"嘉義縣","townCode":"10010040","townName":"大林鎮","level":"town","unassigned":false,"note":"","label":[120.48730249796316,23.601628210590235],"bounds":[120.405158,23.550165,120.535844,23.635896],"focusBounds":[120.405158,23.550165,120.535844,23.635896],"color":"#a8bf62","childCount":21}},{"type":"Feature","id":"10010050","geometry":{"type":"Polygon","coordinates":[[[120.45606,23.582489],[120.454417,23.580789],[120.4534,23.582494],[120.450559,23.582927],[120.445767,23.584904],[120.445479,23.583786],[120.441803,23.584372],[120.439818,23.579314],[120.4285,23.57914],[120.42828,23.577413],[120.426165,23.579665],[120.418231,23.577038],[120.415877,23.57324],[120.414086,23.57221],[120.406637,23.570268],[120.403173,23.570492],[120.403917,23.565691],[120.408554,23.562729],[120.408352,23.560133],[120.404938,23.56041],[120.403747,23.561968],[120.399713,23.562199],[120.39707,23.564355],[120.393729,23.565713],[120.389375,23.565022],[120.387556,23.565503],[120.383831,23.557417],[120.386086,23.557569],[120.385897,23.555419],[120.380682,23.555562],[120.380547,23.55654],[120.378812,23.555807],[120.378977,23.550674],[120.380618,23.5484],[120.379873,23.547781],[120.376413,23.549065],[120.374256,23.538795],[120.374571,23.535803],[120.375382,23.534424],[120.384145,23.534599],[120.384234,23.5316],[120.394316,23.53169],[120.394332,23.529633],[120.399959,23.52967],[120.400206,23.520483],[120.400655,23.520082],[120.40011,23.519292],[120.400694,23.518732],[120.401588,23.51895],[120.399564,23.516952],[120.398788,23.514519],[120.397697,23.513978],[120.396076,23.514026],[120.393528,23.514824],[120.391374,23.514799],[120.388802,23.516067],[120.388072,23.51444],[120.38792,23.509097],[120.388956,23.507125],[120.393026,23.506624],[120.405327,23.511179],[120.407015,23.51063],[120.408981,23.508563],[120.408806,23.506572],[120.407851,23.502604],[120.408318,23.498704],[120.408996,23.498403],[120.412166,23.499106],[120.413297,23.502255],[120.416754,23.505357],[120.424518,23.506217],[120.426445,23.508829],[120.428144,23.50924],[120.432531,23.508745],[120.433789,23.509836],[120.43382,23.511108],[120.432526,23.513699],[120.433845,23.515168],[120.433616,23.517168],[120.435043,23.517267],[120.435841,23.516767],[120.437363,23.515146],[120.437183,23.513966],[120.439057,23.512238],[120.440612,23.511933],[120.442148,23.513321],[120.440621,23.518294],[120.444391,23.517278],[120.445296,23.518213],[120.446768,23.518428],[120.453278,23.515877],[120.457111,23.515681],[120.457389,23.513638],[120.456283,23.512944],[120.456308,23.511769],[120.457777,23.508915],[120.459539,23.507707],[120.460629,23.506214],[120.462065,23.503265],[120.462325,23.501241],[120.464426,23.499072],[120.467473,23.49878],[120.469721,23.499771],[120.470829,23.503819],[120.472586,23.505199],[120.473502,23.506847],[120.474753,23.506817],[120.480003,23.504337],[120.481308,23.504384],[120.483155,23.505362],[120.485324,23.506063],[120.485184,23.507543],[120.487819,23.509491],[120.487944,23.510404],[120.490743,23.512021],[120.488684,23.513274],[120.490164,23.513568],[120.493729,23.517942],[120.49557,23.519273],[120.496095,23.52123],[120.495425,23.52275],[120.495587,23.526421],[120.497113,23.526564],[120.497681,23.527107],[120.496653,23.531093],[120.496909,23.532796],[120.498218,23.533771],[120.498549,23.535168],[120.503829,23.53796],[120.503846,23.540595],[120.505787,23.544471],[120.504932,23.545251],[120.505233,23.545837],[120.507057,23.547341],[120.509004,23.547197],[120.510387,23.545658],[120.510305,23.543136],[120.511844,23.543692],[120.512463,23.541937],[120.513561,23.54128],[120.514632,23.543071],[120.515952,23.545442],[120.51812,23.547375],[120.518332,23.549577],[120.519207,23.5506],[120.516387,23.551569],[120.512615,23.551041],[120.512461,23.550165],[120.511175,23.550184],[120.510253,23.551429],[120.511213,23.552503],[120.512334,23.556037],[120.511846,23.556356],[120.510706,23.555608],[120.50998,23.556823],[120.508492,23.557699],[120.5078,23.557528],[120.507956,23.555603],[120.506998,23.55492],[120.50485,23.556358],[120.503114,23.556131],[120.499852,23.557067],[120.499773,23.558629],[120.50196,23.560456],[120.502435,23.56188],[120.502001,23.564296],[120.50124,23.565117],[120.500584,23.564917],[120.499911,23.563299],[120.498861,23.56421],[120.495532,23.564065],[120.494653,23.567032],[120.491011,23.568215],[120.489457,23.567784],[120.488112,23.565495],[120.487483,23.5658],[120.486605,23.567608],[120.485,23.567454],[120.48322,23.566217],[120.481339,23.567921],[120.475023,23.576805],[120.473501,23.575499],[120.470928,23.575322],[120.469937,23.575801],[120.469388,23.57712],[120.470306,23.578527],[120.469806,23.58091],[120.464319,23.58256],[120.460447,23.578716],[120.459171,23.578297],[120.456862,23.580265],[120.45606,23.582489]]]},"properties":{"code":"10010050","name":"民雄鄉","countyCode":"10010","countyName":"嘉義縣","townCode":"10010050","townName":"民雄鄉","level":"town","unassigned":false,"note":"","label":[120.43557557902659,23.54803182064],"bounds":[120.374256,23.498403,120.519207,23.584904],"focusBounds":[120.374256,23.498403,120.519207,23.584904],"color":"#68bec9","childCount":29}},{"type":"Feature","id":"10010060","geometry":{"type":"Polygon","coordinates":[[[120.413815,23.622407],[120.414151,23.623147],[120.411569,23.624499],[120.409598,23.625241],[120.406626,23.625183],[120.406414,23.632545],[120.405754,23.633746],[120.404087,23.634029],[120.40147,23.632901],[120.400887,23.632154],[120.402645,23.626937],[120.394482,23.624052],[120.393096,23.624217],[120.392208,23.62346],[120.392408,23.622387],[120.386054,23.620699],[120.382807,23.614629],[120.383382,23.612908],[120.380685,23.611718],[120.379987,23.610015],[120.37114,23.609485],[120.369107,23.608558],[120.368119,23.607478],[120.36651,23.607806],[120.365711,23.602475],[120.361558,23.598257],[120.360281,23.596133],[120.360845,23.595222],[120.367256,23.59408],[120.367739,23.595087],[120.372429,23.594247],[120.373576,23.594612],[120.372563,23.589704],[120.370622,23.587826],[120.37108,23.587468],[120.370617,23.584963],[120.369337,23.585052],[120.368486,23.583044],[120.369573,23.581359],[120.371146,23.581342],[120.372048,23.580508],[120.377064,23.580226],[120.377205,23.579595],[120.376122,23.578061],[120.374102,23.578909],[120.372982,23.577776],[120.373037,23.576883],[120.375395,23.575821],[120.374257,23.573877],[120.375709,23.572072],[120.376549,23.571706],[120.377359,23.572362],[120.378571,23.572324],[120.381822,23.571265],[120.385212,23.571963],[120.389979,23.570854],[120.387556,23.565503],[120.389375,23.565022],[120.393729,23.565713],[120.39707,23.564355],[120.399713,23.562199],[120.403747,23.561968],[120.404938,23.56041],[120.408352,23.560133],[120.408554,23.562729],[120.403917,23.565691],[120.403173,23.570492],[120.406637,23.570268],[120.414086,23.57221],[120.415877,23.57324],[120.418231,23.577038],[120.426165,23.579665],[120.42828,23.577413],[120.4285,23.57914],[120.439818,23.579314],[120.441803,23.584372],[120.445479,23.583786],[120.445767,23.584904],[120.450559,23.582927],[120.4534,23.582494],[120.454417,23.580789],[120.45606,23.582489],[120.453957,23.587106],[120.448329,23.59013],[120.448007,23.591224],[120.448792,23.593045],[120.447657,23.59397],[120.442728,23.594229],[120.435312,23.591393],[120.430276,23.591325],[120.42676,23.592207],[120.425906,23.59342],[120.42618,23.595285],[120.429503,23.599083],[120.427016,23.598704],[120.426188,23.599008],[120.426276,23.600371],[120.427847,23.602782],[120.427631,23.604609],[120.426688,23.605525],[120.424167,23.605796],[120.416911,23.605145],[120.415622,23.603861],[120.414654,23.601424],[120.41376,23.60122],[120.412912,23.602116],[120.408394,23.602125],[120.406438,23.603306],[120.407605,23.606402],[120.405158,23.607407],[120.407496,23.611933],[120.411053,23.613959],[120.412836,23.61611],[120.414274,23.619134],[120.413634,23.62147],[120.412113,23.621285],[120.411793,23.621772],[120.41268,23.622534],[120.413815,23.622407]]]},"properties":{"code":"10010060","name":"溪口鄉","countyCode":"10010","countyName":"嘉義縣","townCode":"10010060","townName":"溪口鄉","level":"town","unassigned":false,"note":"","label":[120.39308501894531,23.590555729842126],"bounds":[120.360281,23.560133,120.45606,23.634029],"focusBounds":[120.360281,23.560133,120.45606,23.634029],"color":"#df9f6a","childCount":14}},{"type":"Feature","id":"10010070","geometry":{"type":"Polygon","coordinates":[[[120.387556,23.565503],[120.389979,23.570854],[120.385212,23.571963],[120.381822,23.571265],[120.378571,23.572324],[120.377359,23.572362],[120.376549,23.571706],[120.375709,23.572072],[120.374257,23.573877],[120.375395,23.575821],[120.373037,23.576883],[120.372982,23.577776],[120.374102,23.578909],[120.376122,23.578061],[120.377205,23.579595],[120.377064,23.580226],[120.372048,23.580508],[120.371146,23.581342],[120.369573,23.581359],[120.368486,23.583044],[120.369337,23.585052],[120.370617,23.584963],[120.37108,23.587468],[120.370622,23.587826],[120.372563,23.589704],[120.373576,23.594612],[120.372429,23.594247],[120.367739,23.595087],[120.367256,23.59408],[120.360845,23.595222],[120.360281,23.596133],[120.356695,23.594036],[120.350315,23.592787],[120.341547,23.591859],[120.335245,23.592999],[120.333659,23.591786],[120.333121,23.579202],[120.332263,23.578026],[120.326483,23.573896],[120.321396,23.572507],[120.31866,23.572514],[120.311561,23.575027],[120.307441,23.574654],[120.306446,23.573575],[120.306475,23.572063],[120.310236,23.567207],[120.310591,23.564533],[120.308043,23.563312],[120.305719,23.562992],[120.304539,23.556555],[120.307368,23.557152],[120.310449,23.55865],[120.310811,23.556959],[120.306987,23.548247],[120.310552,23.546896],[120.308492,23.542679],[120.303419,23.538728],[120.309156,23.537867],[120.310336,23.536892],[120.313024,23.536222],[120.315901,23.534573],[120.311998,23.533912],[120.310867,23.531646],[120.308878,23.531613],[120.308236,23.51918],[120.30642,23.519514],[120.305763,23.518933],[120.305364,23.513319],[120.305664,23.512921],[120.308542,23.513132],[120.311297,23.511799],[120.315402,23.511118],[120.320235,23.506677],[120.322859,23.505759],[120.325941,23.505819],[120.328515,23.506156],[120.331676,23.507844],[120.334321,23.508321],[120.341942,23.505836],[120.345242,23.505769],[120.347044,23.506389],[120.347959,23.505236],[120.351211,23.505083],[120.352873,23.509807],[120.354428,23.51053],[120.356064,23.510615],[120.356723,23.512856],[120.35936,23.513378],[120.360721,23.51244],[120.363937,23.51404],[120.364903,23.513496],[120.36791,23.509719],[120.368183,23.504517],[120.36873,23.503098],[120.370208,23.502289],[120.371341,23.502885],[120.371193,23.502002],[120.372388,23.502161],[120.373125,23.503222],[120.3758,23.503701],[120.377874,23.505256],[120.378651,23.507552],[120.378705,23.510454],[120.380239,23.514728],[120.384615,23.515438],[120.386121,23.516634],[120.388802,23.516067],[120.391374,23.514799],[120.393528,23.514824],[120.396076,23.514026],[120.397697,23.513978],[120.398788,23.514519],[120.399564,23.516952],[120.401588,23.51895],[120.400694,23.518732],[120.40011,23.519292],[120.400655,23.520082],[120.400206,23.520483],[120.399959,23.52967],[120.394332,23.529633],[120.394316,23.53169],[120.384234,23.5316],[120.384145,23.534599],[120.375382,23.534424],[120.374571,23.535803],[120.374256,23.538795],[120.376413,23.549065],[120.379873,23.547781],[120.380618,23.5484],[120.378977,23.550674],[120.378812,23.555807],[120.380547,23.55654],[120.380682,23.555562],[120.385897,23.555419],[120.386086,23.557569],[120.383831,23.557417],[120.387556,23.565503]]]},"properties":{"code":"10010070","name":"新港鄉","countyCode":"10010","countyName":"嘉義縣","townCode":"10010070","townName":"新港鄉","level":"town","unassigned":false,"note":"","label":[120.34432834551838,23.5461657259817],"bounds":[120.303419,23.502002,120.401588,23.596133],"focusBounds":[120.303419,23.502002,120.401588,23.596133],"color":"#98b69b","childCount":23}},{"type":"Feature","id":"10010080","geometry":{"type":"Polygon","coordinates":[[[120.325941,23.505819],[120.322859,23.505759],[120.320235,23.506677],[120.315402,23.511118],[120.311297,23.511799],[120.308542,23.513132],[120.305664,23.512921],[120.305364,23.513319],[120.305763,23.518933],[120.30642,23.519514],[120.308236,23.51918],[120.308878,23.531613],[120.310867,23.531646],[120.311998,23.533912],[120.315901,23.534573],[120.313024,23.536222],[120.310336,23.536892],[120.309156,23.537867],[120.303419,23.538728],[120.308492,23.542679],[120.310552,23.546896],[120.306987,23.548247],[120.310811,23.556959],[120.310449,23.55865],[120.307368,23.557152],[120.304539,23.556555],[120.305719,23.562992],[120.295941,23.564632],[120.293231,23.564169],[120.290827,23.56289],[120.289341,23.561368],[120.289055,23.55899],[120.290766,23.550542],[120.286226,23.547559],[120.282601,23.546026],[120.280198,23.545878],[120.27702,23.544039],[120.276187,23.543244],[120.275205,23.540699],[120.272588,23.531484],[120.271913,23.530748],[120.268912,23.530198],[120.266603,23.531062],[120.262627,23.534485],[120.258105,23.543754],[120.256098,23.546092],[120.253824,23.546419],[120.248905,23.545758],[120.243356,23.543611],[120.242094,23.541538],[120.241912,23.53949],[120.244051,23.532608],[120.247081,23.515269],[120.246652,23.51383],[120.24478,23.511633],[120.239104,23.50769],[120.230884,23.505438],[120.223047,23.504318],[120.215774,23.506907],[120.210065,23.50966],[120.206669,23.510598],[120.20681,23.511584],[120.20633,23.511615],[120.206271,23.511142],[120.203095,23.512047],[120.202844,23.511124],[120.201855,23.511271],[120.200992,23.507659],[120.204796,23.506369],[120.208121,23.504449],[120.209064,23.504465],[120.211501,23.501915],[120.215034,23.500833],[120.21696,23.498909],[120.216701,23.497208],[120.21293,23.49778],[120.210708,23.496315],[120.210146,23.493615],[120.211625,23.48976],[120.21309,23.489619],[120.214323,23.492634],[120.218248,23.493417],[120.220884,23.493168],[120.220945,23.492483],[120.219299,23.491677],[120.221478,23.488439],[120.219254,23.487187],[120.214568,23.486221],[120.22099,23.482119],[120.224658,23.478965],[120.225382,23.477083],[120.226296,23.469144],[120.227848,23.467875],[120.230388,23.467346],[120.233891,23.468751],[120.238223,23.469411],[120.23875,23.474369],[120.240918,23.475929],[120.242717,23.476188],[120.246149,23.475179],[120.250835,23.470341],[120.252318,23.469934],[120.253331,23.470965],[120.253936,23.474778],[120.255824,23.477613],[120.256629,23.477803],[120.258259,23.477125],[120.262158,23.478471],[120.261543,23.481505],[120.262165,23.483098],[120.261869,23.485408],[120.266561,23.488777],[120.274311,23.491292],[120.28051,23.491359],[120.283848,23.490302],[120.283419,23.487598],[120.284221,23.486182],[120.291151,23.481403],[120.290059,23.47811],[120.303601,23.478852],[120.30799,23.475637],[120.314871,23.483187],[120.315645,23.487528],[120.317358,23.487937],[120.314629,23.488822],[120.320794,23.493424],[120.320052,23.495186],[120.315857,23.496184],[120.315612,23.497911],[120.315172,23.497537],[120.313778,23.497851],[120.31414,23.499179],[120.313363,23.499522],[120.313759,23.500447],[120.320239,23.499911],[120.321844,23.500572],[120.322682,23.502846],[120.325819,23.504908],[120.325941,23.505819]]]},"properties":{"code":"10010080","name":"六腳鄉","countyCode":"10010","countyName":"嘉義縣","townCode":"10010080","townName":"六腳鄉","level":"town","unassigned":false,"note":"","label":[120.27147398968,23.510519668983264],"bounds":[120.200992,23.467346,120.325941,23.564632],"focusBounds":[120.200992,23.467346,120.325941,23.564632],"color":"#58b99d","childCount":25}},{"type":"Feature","id":"10010090","geometry":{"type":"MultiPolygon","coordinates":[[[[120.151922,23.392736],[120.149807,23.398532],[120.144749,23.403774],[120.142832,23.40947],[120.141175,23.412506],[120.140945,23.411053],[120.143897,23.40288],[120.147712,23.398535],[120.150197,23.389175],[120.151593,23.38947],[120.152394,23.390447],[120.152442,23.391079],[120.151093,23.391645],[120.151532,23.392612],[120.152511,23.391644],[120.151922,23.392736]]],[[[120.1369,23.421361],[120.135472,23.423759],[120.135623,23.425482],[120.135111,23.424331],[120.135298,23.422742],[120.136021,23.421643],[120.1369,23.421361]]],[[[120.182496,23.509842],[120.18014,23.51016],[120.172411,23.514678],[120.166587,23.517232],[120.165408,23.517208],[120.164562,23.51583],[120.158136,23.515923],[120.149311,23.518921],[120.145846,23.520823],[120.145848,23.518482],[120.142638,23.518498],[120.142455,23.517434],[120.125399,23.52047],[120.122687,23.520064],[120.120384,23.518516],[120.119441,23.517183],[120.118924,23.515056],[120.119429,23.495486],[120.120423,23.492972],[120.123427,23.489644],[120.125419,23.488366],[120.127371,23.487941],[120.133565,23.488154],[120.157857,23.495039],[120.158966,23.494551],[120.158711,23.493583],[120.160737,23.492926],[120.162523,23.49315],[120.169683,23.492189],[120.169679,23.491766],[120.16865,23.491747],[120.169679,23.491699],[120.169669,23.490511],[120.168407,23.490572],[120.169619,23.490468],[120.169361,23.489888],[120.167623,23.490726],[120.160098,23.49185],[120.15523,23.491079],[120.156647,23.487536],[120.155792,23.484071],[120.154719,23.484049],[120.154108,23.482253],[120.151528,23.480697],[120.149805,23.478438],[120.149047,23.47814],[120.149616,23.476032],[120.149277,23.475746],[120.148625,23.475973],[120.148095,23.475667],[120.148665,23.475826],[120.149016,23.474758],[120.148125,23.474435],[120.147778,23.475442],[120.146892,23.474999],[120.146032,23.474223],[120.14704,23.474756],[120.147841,23.473718],[120.146933,23.473063],[120.146296,23.47377],[120.146791,23.472929],[120.145902,23.472281],[120.144978,23.473337],[120.145847,23.474091],[120.144867,23.473404],[120.145579,23.472238],[120.144092,23.470108],[120.14432,23.468046],[120.146084,23.466112],[120.14524,23.464936],[120.14557,23.464238],[120.145349,23.464973],[120.146123,23.465769],[120.14695,23.46518],[120.146436,23.464119],[120.146018,23.464272],[120.146394,23.463967],[120.145275,23.462214],[120.144817,23.459825],[120.13905,23.458048],[120.13437,23.454065],[120.133253,23.451583],[120.135395,23.447703],[120.138188,23.449037],[120.136426,23.448487],[120.135394,23.451125],[120.138768,23.452663],[120.139918,23.450675],[120.13879,23.449731],[120.138689,23.44894],[120.139081,23.449707],[120.142577,23.451451],[120.14968,23.454269],[120.151146,23.455679],[120.152246,23.454852],[120.15259,23.453928],[120.152241,23.452619],[120.152783,23.452153],[120.151701,23.451969],[120.150966,23.448978],[120.155603,23.448263],[120.154678,23.447804],[120.149793,23.441852],[120.148326,23.438724],[120.147546,23.439029],[120.146892,23.438366],[120.146519,23.437468],[120.147277,23.436332],[120.145789,23.433277],[120.145512,23.428596],[120.14796,23.427916],[120.148179,23.427217],[120.148218,23.427804],[120.150469,23.427713],[120.148856,23.427433],[120.148458,23.426052],[120.149004,23.425529],[120.151258,23.426146],[120.153616,23.4284],[120.155737,23.428565],[120.156002,23.427302],[120.152757,23.42477],[120.151796,23.424627],[120.152511,23.424577],[120.151629,23.423893],[120.151129,23.423965],[120.151611,23.4245],[120.149532,23.42303],[120.149545,23.419805],[120.15054,23.41949],[120.151266,23.418286],[120.14924,23.415652],[120.148242,23.415111],[120.149283,23.413119],[120.149411,23.406147],[120.151361,23.398593],[120.151837,23.398625],[120.152438,23.399777],[120.153005,23.398611],[120.153835,23.399152],[120.154143,23.404263],[120.159977,23.406125],[120.159994,23.405372],[120.162268,23.40431],[120.164288,23.404138],[120.171118,23.407667],[120.16991,23.409128],[120.170946,23.411096],[120.171898,23.411881],[120.172626,23.411465],[120.172955,23.410441],[120.173852,23.41063],[120.175671,23.416054],[120.176641,23.417488],[120.1816,23.42078],[120.184808,23.420638],[120.185879,23.421081],[120.186437,23.421908],[120.186477,23.42414],[120.188241,23.422941],[120.190338,23.415529],[120.192878,23.419069],[120.192988,23.421644],[120.194972,23.421523],[120.195951,23.420393],[120.200162,23.418415],[120.200961,23.420671],[120.203805,23.420677],[120.204362,23.422118],[120.206954,23.423595],[120.207167,23.42446],[120.206319,23.427127],[120.207591,23.432984],[120.206588,23.435583],[120.204976,23.437354],[120.207097,23.439779],[120.206766,23.441276],[120.204931,23.442764],[120.201427,23.443873],[120.197624,23.446831],[120.194278,23.44825],[120.206227,23.452945],[120.20834,23.453782],[120.210271,23.453898],[120.210904,23.455798],[120.213073,23.45695],[120.214308,23.456965],[120.215205,23.455597],[120.215849,23.455626],[120.220209,23.45957],[120.221634,23.459835],[120.221836,23.462937],[120.226395,23.463607],[120.225513,23.465964],[120.226296,23.469144],[120.225382,23.477083],[120.224658,23.478965],[120.22099,23.482119],[120.214568,23.486221],[120.219254,23.487187],[120.221478,23.488439],[120.219299,23.491677],[120.220945,23.492483],[120.220884,23.493168],[120.218248,23.493417],[120.214323,23.492634],[120.21309,23.489619],[120.211625,23.48976],[120.210146,23.493615],[120.210708,23.496315],[120.21293,23.49778],[120.216701,23.497208],[120.21696,23.498909],[120.215034,23.500833],[120.211501,23.501915],[120.209064,23.504465],[120.208121,23.504449],[120.204796,23.506369],[120.200992,23.507659],[120.201855,23.511271],[120.200986,23.5114],[120.201277,23.512437],[120.196737,23.512995],[120.196382,23.512353],[120.194591,23.512497],[120.189928,23.510043],[120.187552,23.510604],[120.182496,23.509842]]]]},"properties":{"code":"10010090","name":"東石鄉","countyCode":"10010","countyName":"嘉義縣","townCode":"10010090","townName":"東石鄉","level":"town","unassigned":false,"note":"","label":[120.17479085401946,23.465801097524558],"bounds":[120.118924,23.389175,120.226395,23.520823],"focusBounds":[120.118924,23.389175,120.226395,23.520823],"color":"#78a7e3","childCount":23}},{"type":"Feature","id":"10010100","geometry":{"type":"Polygon","coordinates":[[[120.258112,23.39459],[120.251976,23.39599],[120.249574,23.397407],[120.246986,23.397794],[120.243245,23.400601],[120.242802,23.402919],[120.235767,23.4076],[120.23471,23.406608],[120.232701,23.405861],[120.230825,23.403713],[120.234789,23.402875],[120.236008,23.402304],[120.236146,23.401738],[120.234572,23.400717],[120.232247,23.40031],[120.230599,23.399446],[120.229094,23.396335],[120.227257,23.394138],[120.227518,23.39329],[120.226713,23.389436],[120.230889,23.386759],[120.227147,23.381582],[120.225227,23.38208],[120.221822,23.380908],[120.21945,23.377761],[120.217713,23.379048],[120.211935,23.381106],[120.207432,23.379927],[120.205254,23.376239],[120.20176,23.373809],[120.201133,23.37387],[120.201159,23.373021],[120.199935,23.371453],[120.201983,23.370609],[120.2018,23.370162],[120.199129,23.369286],[120.19613,23.364777],[120.189672,23.362113],[120.182544,23.348484],[120.17594,23.341519],[120.179005,23.33866],[120.180239,23.334872],[120.178475,23.329784],[120.180705,23.325721],[120.180281,23.322177],[120.17715,23.31905],[120.172438,23.316905],[120.171523,23.315286],[120.171232,23.312164],[120.169936,23.310828],[120.167093,23.309909],[120.163399,23.311072],[120.16264,23.309984],[120.167205,23.307819],[120.170949,23.30458],[120.173923,23.299902],[120.173727,23.299151],[120.176005,23.293908],[120.17868,23.291727],[120.184067,23.290318],[120.188294,23.290075],[120.18953,23.290957],[120.189355,23.292349],[120.186151,23.295379],[120.185817,23.29635],[120.18624,23.298125],[120.18841,23.301233],[120.19169,23.30027],[120.200094,23.293991],[120.204275,23.2919],[120.208605,23.291295],[120.211826,23.292707],[120.212355,23.291694],[120.220874,23.296],[120.222638,23.298319],[120.227056,23.305314],[120.228281,23.310152],[120.231231,23.316186],[120.234284,23.319808],[120.23555,23.323268],[120.237592,23.326647],[120.239697,23.327556],[120.241093,23.327074],[120.245867,23.326852],[120.249225,23.328928],[120.256395,23.331072],[120.267051,23.340632],[120.267499,23.344757],[120.265723,23.344589],[120.263663,23.345093],[120.260711,23.344471],[120.266037,23.35258],[120.267853,23.353537],[120.270494,23.353689],[120.273316,23.35273],[120.274783,23.351712],[120.276159,23.348333],[120.277737,23.347716],[120.281414,23.348233],[120.28622,23.350291],[120.286056,23.353961],[120.284607,23.356254],[120.283699,23.359736],[120.283803,23.362051],[120.284627,23.363498],[120.282392,23.363207],[120.281642,23.366457],[120.28022,23.366317],[120.280079,23.366941],[120.278941,23.3667],[120.279945,23.368363],[120.278834,23.369316],[120.274372,23.369033],[120.273546,23.373639],[120.269732,23.373346],[120.269247,23.375324],[120.268679,23.375499],[120.268556,23.377817],[120.269494,23.380533],[120.269462,23.382878],[120.268831,23.383579],[120.269598,23.387869],[120.264799,23.392714],[120.262422,23.392938],[120.258112,23.39459]]]},"properties":{"code":"10010100","name":"義竹鄉","countyCode":"10010","countyName":"嘉義縣","townCode":"10010100","townName":"義竹鄉","level":"town","unassigned":false,"note":"","label":[120.21970993029012,23.34799326751589],"bounds":[120.16264,23.290075,120.28622,23.4076],"focusBounds":[120.16264,23.290075,120.28622,23.4076],"color":"#efb44f","childCount":22}},{"type":"Feature","id":"10010110","geometry":{"type":"Polygon","coordinates":[[[120.29124,23.445662],[120.29031,23.445439],[120.288989,23.443259],[120.288126,23.444385],[120.288517,23.446292],[120.287749,23.446854],[120.2869,23.446298],[120.287304,23.444161],[120.286254,23.44393],[120.28505,23.444452],[120.284299,23.445876],[120.285115,23.447195],[120.284525,23.447901],[120.283209,23.447721],[120.282599,23.445788],[120.281136,23.44565],[120.281054,23.447019],[120.282501,23.449264],[120.281656,23.450178],[120.279073,23.449581],[120.277548,23.44983],[120.275935,23.44823],[120.273404,23.448046],[120.271124,23.450566],[120.269512,23.447647],[120.26754,23.448453],[120.26696,23.448139],[120.269939,23.444905],[120.269648,23.431055],[120.277223,23.431331],[120.281657,23.432851],[120.281845,23.427265],[120.283267,23.426162],[120.282472,23.425027],[120.281238,23.425101],[120.279715,23.424455],[120.279776,23.423182],[120.280886,23.423682],[120.281388,23.423176],[120.279948,23.421494],[120.277933,23.421267],[120.277912,23.419424],[120.276933,23.41845],[120.273872,23.418436],[120.274102,23.421429],[120.272362,23.422555],[120.27001,23.419415],[120.266235,23.41852],[120.266211,23.417984],[120.267403,23.417391],[120.266948,23.415532],[120.267848,23.412654],[120.267613,23.409386],[120.266782,23.408477],[120.265789,23.408421],[120.264428,23.407431],[120.262939,23.408007],[120.259965,23.403925],[120.25794,23.40369],[120.259487,23.400148],[120.259431,23.398],[120.258112,23.39459],[120.262422,23.392938],[120.264799,23.392714],[120.269598,23.387869],[120.268831,23.383579],[120.269462,23.382878],[120.269494,23.380533],[120.268556,23.377817],[120.268679,23.375499],[120.269247,23.375324],[120.269732,23.373346],[120.273546,23.373639],[120.274372,23.369033],[120.278834,23.369316],[120.279945,23.368363],[120.278941,23.3667],[120.280079,23.366941],[120.28022,23.366317],[120.281642,23.366457],[120.282392,23.363207],[120.284627,23.363498],[120.285689,23.366932],[120.290279,23.371835],[120.29274,23.375318],[120.299363,23.37534],[120.303614,23.375963],[120.307964,23.374947],[120.310946,23.375437],[120.310336,23.3831],[120.311197,23.383394],[120.311005,23.385568],[120.314774,23.38846],[120.317844,23.388434],[120.318846,23.387183],[120.319422,23.387343],[120.319895,23.386774],[120.319447,23.386037],[120.321793,23.383533],[120.323577,23.383643],[120.324263,23.384376],[120.328687,23.386117],[120.328935,23.384879],[120.333336,23.385847],[120.34272,23.396222],[120.343022,23.398166],[120.344689,23.399502],[120.349378,23.401297],[120.353434,23.401213],[120.355852,23.401728],[120.357372,23.408407],[120.356211,23.409725],[120.355148,23.409785],[120.354329,23.411206],[120.35304,23.411993],[120.351737,23.411816],[120.350084,23.410616],[120.349779,23.41104],[120.350454,23.413461],[120.35123,23.414222],[120.352609,23.414393],[120.354502,23.418123],[120.358078,23.41932],[120.358061,23.420299],[120.355989,23.423241],[120.35605,23.428665],[120.356885,23.431863],[120.358752,23.433664],[120.356017,23.434512],[120.353583,23.430356],[120.35065,23.431442],[120.344919,23.430168],[120.34221,23.428862],[120.341275,23.429974],[120.338879,23.43028],[120.336783,23.429076],[120.335268,23.429275],[120.33395,23.429852],[120.332465,23.432752],[120.331871,23.432365],[120.331296,23.433016],[120.327936,23.433893],[120.326744,23.434939],[120.323488,23.434708],[120.321341,23.43576],[120.320399,23.437297],[120.318618,23.43681],[120.317828,23.437372],[120.31473,23.437094],[120.313273,23.438159],[120.30945,23.437664],[120.307764,23.436508],[120.302972,23.436382],[120.292743,23.434552],[120.291476,23.437781],[120.291444,23.439531],[120.290168,23.441029],[120.291309,23.442358],[120.29118,23.444101],[120.292169,23.444824],[120.29124,23.445662]]]},"properties":{"code":"10010110","name":"鹿草鄉","countyCode":"10010","countyName":"嘉義縣","townCode":"10010110","townName":"鹿草鄉","level":"town","unassigned":false,"note":"","label":[120.30383925643675,23.410739962585687],"bounds":[120.25794,23.363207,120.358752,23.450566],"focusBounds":[120.25794,23.363207,120.358752,23.450566],"color":"#a49ad4","childCount":15}},{"type":"Feature","id":"10010120","geometry":{"type":"Polygon","coordinates":[[[120.439564,23.43956],[120.438718,23.441201],[120.437282,23.442258],[120.43665,23.443426],[120.43586,23.443584],[120.435961,23.444194],[120.438236,23.444806],[120.438562,23.445709],[120.438039,23.446531],[120.436952,23.446486],[120.434464,23.450688],[120.43285,23.450107],[120.430201,23.452176],[120.429298,23.461041],[120.426045,23.460746],[120.424096,23.461363],[120.415161,23.460274],[120.413183,23.462066],[120.412798,23.463957],[120.411279,23.464784],[120.405096,23.463411],[120.394173,23.462519],[120.389765,23.462527],[120.388246,23.461626],[120.384419,23.461263],[120.384355,23.458475],[120.380378,23.458571],[120.380106,23.462699],[120.379041,23.464652],[120.374266,23.46201],[120.373834,23.462298],[120.374151,23.463215],[120.372417,23.463087],[120.371836,23.462415],[120.369588,23.463503],[120.368364,23.462285],[120.366358,23.461893],[120.360833,23.463766],[120.362031,23.461056],[120.355493,23.458747],[120.356335,23.456459],[120.358213,23.45486],[120.351083,23.452413],[120.349877,23.450794],[120.353936,23.449345],[120.351748,23.443979],[120.354848,23.442076],[120.35363,23.435283],[120.356017,23.434512],[120.358752,23.433664],[120.356885,23.431863],[120.35605,23.428665],[120.355989,23.423241],[120.358061,23.420299],[120.358078,23.41932],[120.354502,23.418123],[120.352609,23.414393],[120.35123,23.414222],[120.350454,23.413461],[120.349779,23.41104],[120.350084,23.410616],[120.351737,23.411816],[120.35304,23.411993],[120.354329,23.411206],[120.355148,23.409785],[120.356211,23.409725],[120.357372,23.408407],[120.355852,23.401728],[120.35985,23.402665],[120.381041,23.403435],[120.386871,23.404762],[120.404173,23.410046],[120.406704,23.411511],[120.408109,23.413426],[120.409424,23.412429],[120.410492,23.410168],[120.414491,23.41124],[120.416303,23.410417],[120.417945,23.408517],[120.418372,23.406295],[120.420062,23.403464],[120.421952,23.407044],[120.423276,23.406424],[120.426128,23.406867],[120.427757,23.406369],[120.42868,23.407309],[120.430314,23.406484],[120.431676,23.407916],[120.432246,23.410815],[120.433202,23.411288],[120.434347,23.411084],[120.434399,23.412145],[120.435709,23.412205],[120.436214,23.412818],[120.436906,23.412288],[120.438084,23.413355],[120.439399,23.41295],[120.439998,23.413731],[120.440252,23.413081],[120.441562,23.413163],[120.444544,23.411005],[120.450085,23.409231],[120.45179,23.408291],[120.453267,23.406476],[120.454325,23.406341],[120.453982,23.40722],[120.459193,23.404637],[120.460938,23.404707],[120.46084,23.403724],[120.461842,23.402439],[120.464954,23.40077],[120.466725,23.400539],[120.467688,23.401122],[120.468835,23.400515],[120.469525,23.399404],[120.472183,23.398077],[120.4734,23.398073],[120.474331,23.395968],[120.476145,23.39383],[120.475385,23.391001],[120.477471,23.390711],[120.479419,23.387589],[120.480869,23.389312],[120.482142,23.38928],[120.483151,23.389839],[120.484004,23.391517],[120.485674,23.391438],[120.485236,23.392399],[120.48554,23.393062],[120.486274,23.393109],[120.486908,23.39237],[120.487933,23.393006],[120.489164,23.392446],[120.488654,23.393608],[120.489775,23.394399],[120.490325,23.395624],[120.493754,23.394958],[120.49425,23.394231],[120.494864,23.394415],[120.495145,23.393203],[120.495905,23.394301],[120.497608,23.394496],[120.498378,23.399138],[120.497565,23.399845],[120.497326,23.401304],[120.498962,23.402933],[120.498979,23.403982],[120.497364,23.404225],[120.494587,23.403413],[120.492781,23.40561],[120.490211,23.406125],[120.48733,23.408863],[120.484802,23.408527],[120.483657,23.406897],[120.481938,23.406632],[120.482504,23.407935],[120.481244,23.410956],[120.481714,23.412801],[120.480104,23.414358],[120.479816,23.416197],[120.478088,23.417133],[120.478305,23.418888],[120.479391,23.419955],[120.479084,23.421439],[120.483184,23.42182],[120.483493,23.424],[120.486176,23.424571],[120.486869,23.425932],[120.487691,23.425284],[120.489202,23.426302],[120.492712,23.426453],[120.493474,23.427159],[120.493943,23.430034],[120.493455,23.43224],[120.490199,23.435145],[120.488201,23.436186],[120.487637,23.438042],[120.48027,23.440418],[120.477363,23.441857],[120.472755,23.442032],[120.469445,23.439563],[120.468973,23.438056],[120.467734,23.436578],[120.464693,23.434729],[120.463255,23.430945],[120.461761,23.428967],[120.457118,23.427108],[120.453998,23.427323],[120.451224,23.429],[120.446817,23.429683],[120.446223,23.430782],[120.446521,23.432517],[120.444551,23.434364],[120.44363,23.434123],[120.441982,23.431822],[120.439903,23.432146],[120.438384,23.436158],[120.439564,23.43956]]]},"properties":{"code":"10010120","name":"水上鄉","countyCode":"10010","countyName":"嘉義縣","townCode":"10010120","townName":"水上鄉","level":"town","unassigned":false,"note":"","label":[120.41354974764306,23.436360526850766],"bounds":[120.349779,23.387589,120.498979,23.464784],"focusBounds":[120.349779,23.387589,120.498979,23.464784],"color":"#dd8590","childCount":26}},{"type":"Feature","id":"10010130","geometry":{"type":"Polygon","coordinates":[[[120.49518,23.452863],[120.489616,23.452246],[120.481945,23.457823],[120.480601,23.46001],[120.476805,23.461983],[120.468735,23.46162],[120.464551,23.458295],[120.464524,23.455612],[120.461016,23.455319],[120.457317,23.452845],[120.457613,23.452442],[120.455493,23.450379],[120.454713,23.450318],[120.45461,23.44832],[120.452868,23.444865],[120.449641,23.443421],[120.447128,23.443402],[120.441669,23.440165],[120.439564,23.43956],[120.438384,23.436158],[120.439903,23.432146],[120.441982,23.431822],[120.44363,23.434123],[120.444551,23.434364],[120.446521,23.432517],[120.446223,23.430782],[120.446817,23.429683],[120.451224,23.429],[120.453998,23.427323],[120.457118,23.427108],[120.461761,23.428967],[120.463255,23.430945],[120.464693,23.434729],[120.467734,23.436578],[120.468973,23.438056],[120.469445,23.439563],[120.472755,23.442032],[120.477363,23.441857],[120.48027,23.440418],[120.487637,23.438042],[120.488201,23.436186],[120.490199,23.435145],[120.493455,23.43224],[120.493943,23.430034],[120.493474,23.427159],[120.492712,23.426453],[120.489202,23.426302],[120.487691,23.425284],[120.486869,23.425932],[120.486176,23.424571],[120.483493,23.424],[120.483184,23.42182],[120.479084,23.421439],[120.479391,23.419955],[120.478305,23.418888],[120.478088,23.417133],[120.479816,23.416197],[120.480104,23.414358],[120.481714,23.412801],[120.481244,23.410956],[120.482504,23.407935],[120.481938,23.406632],[120.483657,23.406897],[120.484802,23.408527],[120.48733,23.408863],[120.490211,23.406125],[120.492781,23.40561],[120.494587,23.403413],[120.497364,23.404225],[120.498979,23.403982],[120.498962,23.402933],[120.497326,23.401304],[120.497565,23.399845],[120.498378,23.399138],[120.497608,23.394496],[120.495905,23.394301],[120.495145,23.393203],[120.497502,23.391232],[120.497105,23.389384],[120.499143,23.388045],[120.499029,23.387398],[120.496819,23.384245],[120.495902,23.383878],[120.494521,23.384307],[120.49141,23.382635],[120.490278,23.383071],[120.489175,23.38178],[120.484402,23.379481],[120.483593,23.377336],[120.482941,23.372327],[120.483935,23.369567],[120.486251,23.370308],[120.488725,23.373068],[120.489451,23.372836],[120.490097,23.371121],[120.491502,23.372487],[120.494271,23.369488],[120.496055,23.369951],[120.499473,23.368035],[120.501788,23.367825],[120.502596,23.369536],[120.503442,23.369355],[120.503473,23.368887],[120.504836,23.368902],[120.504927,23.367432],[120.506762,23.36703],[120.507319,23.366515],[120.507177,23.365892],[120.50877,23.364625],[120.509549,23.364474],[120.509895,23.364878],[120.510539,23.36436],[120.510674,23.363557],[120.510219,23.363308],[120.510531,23.362379],[120.511222,23.36226],[120.511182,23.360642],[120.512092,23.360621],[120.512426,23.359831],[120.512464,23.356299],[120.510845,23.354003],[120.50809,23.35276],[120.50616,23.355297],[120.504719,23.35468],[120.503562,23.350288],[120.503783,23.349394],[120.504636,23.349347],[120.504455,23.346544],[120.505674,23.34547],[120.505091,23.344815],[120.50786,23.342995],[120.509611,23.343369],[120.510429,23.344091],[120.514257,23.343861],[120.514776,23.343286],[120.515584,23.343739],[120.51842,23.342012],[120.52068,23.341947],[120.521417,23.340461],[120.523112,23.340678],[120.524745,23.338202],[120.525853,23.339198],[120.526931,23.339385],[120.527591,23.338589],[120.530294,23.338062],[120.531534,23.336817],[120.533723,23.336471],[120.534273,23.337611],[120.535481,23.33824],[120.536625,23.337733],[120.538167,23.337961],[120.541621,23.340032],[120.543783,23.339612],[120.547153,23.339811],[120.547165,23.342212],[120.550446,23.343066],[120.55549,23.345692],[120.558544,23.349579],[120.559563,23.352219],[120.561941,23.354038],[120.565851,23.354733],[120.567929,23.356032],[120.572415,23.360155],[120.574784,23.363252],[120.576047,23.363206],[120.577118,23.36174],[120.579169,23.362323],[120.581525,23.361647],[120.582778,23.362364],[120.584738,23.361554],[120.587131,23.361847],[120.587596,23.363507],[120.588901,23.364434],[120.590013,23.36727],[120.591612,23.367489],[120.592964,23.368599],[120.594102,23.368371],[120.594944,23.36955],[120.59793,23.370818],[120.598811,23.372839],[120.598807,23.374912],[120.59792,23.376259],[120.597992,23.380983],[120.601198,23.385396],[120.60137,23.386538],[120.602876,23.388854],[120.603487,23.392295],[120.60487,23.395798],[120.601739,23.397477],[120.601291,23.398816],[120.601781,23.400564],[120.601045,23.402476],[120.602723,23.403358],[120.602437,23.405253],[120.604209,23.410267],[120.601159,23.414403],[120.603074,23.416691],[120.602906,23.418919],[120.601952,23.419961],[120.602572,23.421805],[120.601684,23.42255],[120.601178,23.424675],[120.599011,23.426906],[120.596752,23.427831],[120.594808,23.429463],[120.593891,23.433518],[120.594386,23.435834],[120.592685,23.438857],[120.588459,23.441852],[120.587569,23.441962],[120.586263,23.441112],[120.58425,23.441848],[120.581144,23.444487],[120.578497,23.444059],[120.575198,23.444928],[120.566396,23.450407],[120.563101,23.449875],[120.559705,23.450153],[120.558112,23.449405],[120.555792,23.45065],[120.551667,23.451866],[120.541834,23.453328],[120.532212,23.452604],[120.526921,23.451225],[120.523495,23.451536],[120.520691,23.450172],[120.51742,23.44944],[120.514493,23.449988],[120.508009,23.45273],[120.49518,23.452863]]]},"properties":{"code":"10010130","name":"中埔鄉","countyCode":"10010","countyName":"嘉義縣","townCode":"10010130","townName":"中埔鄉","level":"town","unassigned":false,"note":"","label":[120.54467963461309,23.403852471589154],"bounds":[120.438384,23.336471,120.60487,23.461983],"focusBounds":[120.438384,23.336471,120.60487,23.461983],"color":"#a49ad4","childCount":22}},{"type":"Feature","id":"10010140","geometry":{"type":"Polygon","coordinates":[[[120.71613,23.498502],[120.715628,23.498438],[120.714457,23.500134],[120.71265,23.500798],[120.710985,23.502818],[120.709752,23.502794],[120.708863,23.503362],[120.70875,23.510275],[120.706614,23.509811],[120.699514,23.509732],[120.69794,23.511287],[120.694718,23.510686],[120.691963,23.511721],[120.688651,23.508414],[120.685062,23.507745],[120.682314,23.509052],[120.677771,23.513649],[120.675409,23.514167],[120.67408,23.515405],[120.670728,23.516379],[120.667687,23.519837],[120.665662,23.520829],[120.664005,23.522404],[120.662005,23.522967],[120.660525,23.524015],[120.658898,23.526937],[120.659052,23.530652],[120.65778,23.531723],[120.657697,23.532389],[120.656079,23.53328],[120.655117,23.534861],[120.6557,23.536801],[120.654821,23.539856],[120.654942,23.541765],[120.6513,23.537655],[120.649035,23.536198],[120.646945,23.536108],[120.644352,23.53408],[120.642864,23.533589],[120.641398,23.532135],[120.637339,23.530634],[120.634445,23.530563],[120.632967,23.532118],[120.632724,23.533404],[120.628545,23.535476],[120.628193,23.536454],[120.626131,23.537995],[120.62064,23.540095],[120.618861,23.543484],[120.616796,23.544987],[120.616343,23.547252],[120.613405,23.549217],[120.612873,23.550106],[120.610437,23.551698],[120.606909,23.553028],[120.606441,23.553122],[120.606077,23.552022],[120.603709,23.549604],[120.602588,23.549286],[120.600982,23.549929],[120.599768,23.549783],[120.596732,23.548392],[120.595083,23.548258],[120.595002,23.546375],[120.592231,23.5449],[120.590333,23.544566],[120.588366,23.541838],[120.587526,23.541528],[120.582801,23.543128],[120.579132,23.541673],[120.575072,23.541936],[120.57091,23.539846],[120.568876,23.539835],[120.568662,23.541237],[120.567329,23.54128],[120.565726,23.54041],[120.565541,23.541464],[120.566812,23.542142],[120.566919,23.543313],[120.565677,23.543704],[120.563428,23.543184],[120.562032,23.544175],[120.560889,23.543936],[120.560479,23.544353],[120.558944,23.543786],[120.558633,23.542506],[120.557312,23.541573],[120.555374,23.541257],[120.555297,23.542951],[120.55345,23.544735],[120.550729,23.543557],[120.549943,23.543912],[120.548093,23.546537],[120.544809,23.546696],[120.542609,23.545826],[120.541035,23.547135],[120.539698,23.546149],[120.538384,23.548095],[120.536638,23.549431],[120.535324,23.548761],[120.532975,23.548972],[120.529873,23.547984],[120.527002,23.548549],[120.525927,23.546793],[120.525462,23.547272],[120.524526,23.54718],[120.522853,23.546126],[120.521122,23.546016],[120.520231,23.544378],[120.519167,23.54371],[120.518433,23.544453],[120.514632,23.543071],[120.513561,23.54128],[120.512463,23.541937],[120.511844,23.543692],[120.510305,23.543136],[120.510387,23.545658],[120.509004,23.547197],[120.507057,23.547341],[120.505233,23.545837],[120.504932,23.545251],[120.505787,23.544471],[120.503846,23.540595],[120.503829,23.53796],[120.498549,23.535168],[120.498218,23.533771],[120.496909,23.532796],[120.496653,23.531093],[120.497681,23.527107],[120.497113,23.526564],[120.495587,23.526421],[120.495425,23.52275],[120.496095,23.52123],[120.49557,23.519273],[120.493729,23.517942],[120.490164,23.513568],[120.488684,23.513274],[120.490743,23.512021],[120.487944,23.510404],[120.487819,23.509491],[120.485184,23.507543],[120.485324,23.506063],[120.483155,23.505362],[120.484705,23.501738],[120.484649,23.498964],[120.483681,23.498239],[120.483767,23.496084],[120.487391,23.492147],[120.488463,23.49208],[120.489424,23.491365],[120.493615,23.491126],[120.494619,23.490121],[120.496294,23.49013],[120.498944,23.490988],[120.501313,23.489817],[120.502927,23.487507],[120.504024,23.48751],[120.508114,23.482688],[120.508591,23.483546],[120.509175,23.483175],[120.510359,23.483664],[120.511158,23.483431],[120.512288,23.484365],[120.515387,23.4814],[120.518023,23.481498],[120.523467,23.480313],[120.525102,23.480359],[120.52589,23.481385],[120.526922,23.481005],[120.527479,23.479723],[120.528456,23.480084],[120.531033,23.478769],[120.532254,23.47896],[120.532874,23.47975],[120.532785,23.485632],[120.533619,23.487598],[120.536088,23.488373],[120.533342,23.48953],[120.533513,23.490362],[120.534759,23.490912],[120.536712,23.489372],[120.539524,23.489183],[120.539841,23.48821],[120.539416,23.485806],[120.541597,23.484451],[120.543063,23.48477],[120.544674,23.48372],[120.54472,23.483069],[120.545865,23.482803],[120.545916,23.481284],[120.544456,23.481445],[120.543645,23.480823],[120.54444,23.478877],[120.543085,23.477911],[120.543055,23.476677],[120.543987,23.475928],[120.544285,23.474135],[120.546417,23.473022],[120.547969,23.470858],[120.550925,23.470874],[120.552336,23.471424],[120.553892,23.469897],[120.558467,23.467745],[120.560728,23.466065],[120.561231,23.467452],[120.562221,23.468235],[120.563421,23.471408],[120.56442,23.470862],[120.565846,23.471157],[120.56833,23.469614],[120.569841,23.469553],[120.570241,23.467943],[120.57195,23.466893],[120.571755,23.464722],[120.573619,23.463535],[120.575775,23.464141],[120.577307,23.462679],[120.578241,23.463027],[120.578678,23.46234],[120.580117,23.461819],[120.582518,23.462701],[120.5836,23.461189],[120.589337,23.462315],[120.591156,23.464805],[120.593226,23.465748],[120.598149,23.46487],[120.60013,23.466527],[120.60406,23.468137],[120.606379,23.467245],[120.608112,23.465155],[120.60952,23.465844],[120.610671,23.468386],[120.610557,23.470244],[120.611673,23.472031],[120.612254,23.477735],[120.615316,23.478818],[120.617268,23.482382],[120.619724,23.484559],[120.6197,23.485296],[120.618631,23.486138],[120.618652,23.487602],[120.620296,23.489556],[120.620814,23.491389],[120.622673,23.491993],[120.628088,23.492312],[120.628878,23.497036],[120.629369,23.498081],[120.630044,23.498196],[120.632684,23.497169],[120.634643,23.494812],[120.640002,23.494826],[120.642201,23.493817],[120.642579,23.491531],[120.639195,23.490018],[120.637727,23.487491],[120.638474,23.486574],[120.638221,23.484737],[120.638733,23.483677],[120.638142,23.481788],[120.639197,23.480211],[120.639183,23.478543],[120.640712,23.477425],[120.641054,23.475167],[120.642152,23.473605],[120.642207,23.472326],[120.641072,23.47099],[120.641249,23.470424],[120.643059,23.46948],[120.644041,23.468001],[120.648565,23.46577],[120.646266,23.462741],[120.647546,23.458689],[120.648739,23.458277],[120.650478,23.455509],[120.654123,23.452844],[120.656453,23.452135],[120.659063,23.452127],[120.661442,23.450912],[120.663711,23.451235],[120.672081,23.44972],[120.674152,23.4499],[120.674554,23.451894],[120.67661,23.454367],[120.684192,23.456089],[120.685798,23.456919],[120.686369,23.458325],[120.689118,23.461188],[120.689745,23.462772],[120.689667,23.46626],[120.691263,23.468336],[120.69486,23.469149],[120.696398,23.471426],[120.701581,23.47146],[120.703627,23.472643],[120.706003,23.476604],[120.705932,23.482848],[120.710814,23.494089],[120.712178,23.495957],[120.714643,23.496933],[120.71613,23.498502]]]},"properties":{"code":"10010140","name":"竹崎鄉","countyCode":"10010","countyName":"嘉義縣","townCode":"10010140","townName":"竹崎鄉","level":"town","unassigned":false,"note":"","label":[120.58510043508802,23.501916363109416],"bounds":[120.483155,23.44972,120.71613,23.553122],"focusBounds":[120.483155,23.44972,120.71613,23.553122],"color":"#a8bf62","childCount":24}},{"type":"Feature","id":"10010150","geometry":{"type":"Polygon","coordinates":[[[120.736159,23.570457],[120.733146,23.571003],[120.727905,23.570326],[120.724497,23.571895],[120.717945,23.569042],[120.716574,23.56952],[120.716099,23.571064],[120.714735,23.570811],[120.7126,23.571346],[120.711005,23.570831],[120.710051,23.571188],[120.7089,23.575707],[120.70466,23.574975],[120.698913,23.576338],[120.693697,23.576505],[120.689414,23.57521],[120.686333,23.574879],[120.681987,23.571847],[120.676241,23.570711],[120.674888,23.571248],[120.673317,23.57367],[120.672461,23.576555],[120.671338,23.578003],[120.669959,23.578784],[120.668582,23.577782],[120.665686,23.577775],[120.660685,23.576293],[120.658055,23.572878],[120.656705,23.572403],[120.650702,23.572447],[120.649864,23.572791],[120.649212,23.574955],[120.647339,23.576652],[120.646576,23.576748],[120.644146,23.575287],[120.64346,23.575713],[120.643482,23.578211],[120.644708,23.579446],[120.645963,23.579434],[120.64726,23.580387],[120.649197,23.583452],[120.649264,23.585698],[120.647327,23.585806],[120.64708,23.58748],[120.648639,23.590259],[120.649121,23.592469],[120.645751,23.59352],[120.643067,23.592565],[120.636781,23.591929],[120.630831,23.589951],[120.62522,23.590657],[120.623418,23.590106],[120.622965,23.588014],[120.618707,23.584106],[120.615464,23.585319],[120.612888,23.584408],[120.610133,23.582608],[120.606515,23.584211],[120.605512,23.583664],[120.600734,23.583104],[120.594824,23.585404],[120.591087,23.585013],[120.589746,23.585718],[120.588838,23.585498],[120.585919,23.582598],[120.585042,23.582977],[120.581403,23.582128],[120.578497,23.583359],[120.576743,23.583514],[120.576364,23.584418],[120.574949,23.584676],[120.574119,23.585989],[120.570711,23.588041],[120.567093,23.587741],[120.565865,23.589319],[120.564966,23.589511],[120.56309,23.589638],[120.560841,23.588592],[120.558142,23.589058],[120.557291,23.589866],[120.557045,23.592335],[120.556482,23.592878],[120.551922,23.593947],[120.548709,23.593731],[120.537517,23.594531],[120.533372,23.596818],[120.532598,23.596093],[120.532026,23.596371],[120.5318,23.595563],[120.533596,23.591636],[120.531948,23.590466],[120.531482,23.590645],[120.529433,23.58855],[120.526667,23.587666],[120.524797,23.585612],[120.525327,23.582928],[120.526652,23.580926],[120.52895,23.580881],[120.530079,23.579985],[120.530154,23.578178],[120.529601,23.577373],[120.531574,23.573334],[120.533296,23.571073],[120.535208,23.570555],[120.535844,23.568866],[120.534085,23.566645],[120.531658,23.566651],[120.531118,23.566217],[120.531399,23.560436],[120.530847,23.559395],[120.527741,23.561572],[120.52603,23.560537],[120.524548,23.560597],[120.521573,23.558146],[120.519641,23.558075],[120.518446,23.556254],[120.519154,23.554987],[120.517155,23.55312],[120.516387,23.551569],[120.519207,23.5506],[120.518332,23.549577],[120.51812,23.547375],[120.515952,23.545442],[120.514632,23.543071],[120.518433,23.544453],[120.519167,23.54371],[120.520231,23.544378],[120.521122,23.546016],[120.522853,23.546126],[120.524526,23.54718],[120.525462,23.547272],[120.525927,23.546793],[120.527002,23.548549],[120.529873,23.547984],[120.532975,23.548972],[120.535324,23.548761],[120.536638,23.549431],[120.538384,23.548095],[120.539698,23.546149],[120.541035,23.547135],[120.542609,23.545826],[120.544809,23.546696],[120.548093,23.546537],[120.549943,23.543912],[120.550729,23.543557],[120.55345,23.544735],[120.555297,23.542951],[120.555374,23.541257],[120.557312,23.541573],[120.558633,23.542506],[120.558944,23.543786],[120.560479,23.544353],[120.560889,23.543936],[120.562032,23.544175],[120.563428,23.543184],[120.565677,23.543704],[120.566919,23.543313],[120.566812,23.542142],[120.565541,23.541464],[120.565726,23.54041],[120.567329,23.54128],[120.568662,23.541237],[120.568876,23.539835],[120.57091,23.539846],[120.575072,23.541936],[120.579132,23.541673],[120.582801,23.543128],[120.587526,23.541528],[120.588366,23.541838],[120.590333,23.544566],[120.592231,23.5449],[120.595002,23.546375],[120.595083,23.548258],[120.596732,23.548392],[120.599768,23.549783],[120.600982,23.549929],[120.602588,23.549286],[120.603709,23.549604],[120.606077,23.552022],[120.606441,23.553122],[120.606909,23.553028],[120.610437,23.551698],[120.612873,23.550106],[120.613405,23.549217],[120.616343,23.547252],[120.616796,23.544987],[120.618861,23.543484],[120.62064,23.540095],[120.626131,23.537995],[120.628193,23.536454],[120.628545,23.535476],[120.632724,23.533404],[120.632967,23.532118],[120.634445,23.530563],[120.637339,23.530634],[120.641398,23.532135],[120.642864,23.533589],[120.644352,23.53408],[120.646945,23.536108],[120.649035,23.536198],[120.6513,23.537655],[120.654942,23.541765],[120.654821,23.539856],[120.6557,23.536801],[120.655117,23.534861],[120.656079,23.53328],[120.657697,23.532389],[120.65778,23.531723],[120.659052,23.530652],[120.658898,23.526937],[120.660525,23.524015],[120.662005,23.522967],[120.664005,23.522404],[120.665662,23.520829],[120.667687,23.519837],[120.670728,23.516379],[120.67408,23.515405],[120.675409,23.514167],[120.677771,23.513649],[120.682314,23.509052],[120.685062,23.507745],[120.688651,23.508414],[120.691963,23.511721],[120.694718,23.510686],[120.69794,23.511287],[120.699514,23.509732],[120.706614,23.509811],[120.70875,23.510275],[120.708863,23.503362],[120.709752,23.502794],[120.710985,23.502818],[120.71265,23.500798],[120.714457,23.500134],[120.715628,23.498438],[120.71613,23.498502],[120.719117,23.498228],[120.718286,23.498802],[120.717472,23.501183],[120.717848,23.506667],[120.720715,23.511179],[120.722635,23.511806],[120.723146,23.512437],[120.723323,23.51709],[120.724905,23.519582],[120.727051,23.529317],[120.728415,23.531611],[120.729935,23.532563],[120.730666,23.535854],[120.732562,23.539104],[120.732414,23.54012],[120.731287,23.541415],[120.731744,23.544022],[120.73592,23.546804],[120.740402,23.548567],[120.742808,23.548828],[120.743546,23.550802],[120.743047,23.552987],[120.74465,23.553212],[120.746601,23.554265],[120.744885,23.557773],[120.74262,23.558851],[120.741805,23.562475],[120.740253,23.565584],[120.736159,23.570457]]]},"properties":{"code":"10010150","name":"梅山鄉","countyCode":"10010","countyName":"嘉義縣","townCode":"10010150","townName":"梅山鄉","level":"town","unassigned":false,"note":"","label":[120.68884790212306,23.541879547595467],"bounds":[120.514632,23.498228,120.746601,23.596818],"focusBounds":[120.514632,23.498228,120.746601,23.596818],"color":"#df9f6a","childCount":18}},{"type":"Feature","id":"10010160","geometry":{"type":"Polygon","coordinates":[[[120.674152,23.4499],[120.672081,23.44972],[120.663711,23.451235],[120.661442,23.450912],[120.659063,23.452127],[120.656453,23.452135],[120.654123,23.452844],[120.650478,23.455509],[120.648739,23.458277],[120.647546,23.458689],[120.646266,23.462741],[120.648565,23.46577],[120.644041,23.468001],[120.643059,23.46948],[120.641249,23.470424],[120.641072,23.47099],[120.642207,23.472326],[120.642152,23.473605],[120.641054,23.475167],[120.640712,23.477425],[120.639183,23.478543],[120.639197,23.480211],[120.638142,23.481788],[120.638733,23.483677],[120.638221,23.484737],[120.638474,23.486574],[120.637727,23.487491],[120.639195,23.490018],[120.642579,23.491531],[120.642201,23.493817],[120.640002,23.494826],[120.634643,23.494812],[120.632684,23.497169],[120.630044,23.498196],[120.629369,23.498081],[120.628878,23.497036],[120.628088,23.492312],[120.622673,23.491993],[120.620814,23.491389],[120.620296,23.489556],[120.618652,23.487602],[120.618631,23.486138],[120.6197,23.485296],[120.619724,23.484559],[120.617268,23.482382],[120.615316,23.478818],[120.612254,23.477735],[120.611673,23.472031],[120.610557,23.470244],[120.610671,23.468386],[120.60952,23.465844],[120.608112,23.465155],[120.606379,23.467245],[120.60406,23.468137],[120.60013,23.466527],[120.598149,23.46487],[120.593226,23.465748],[120.591156,23.464805],[120.589337,23.462315],[120.5836,23.461189],[120.582518,23.462701],[120.580117,23.461819],[120.578678,23.46234],[120.578241,23.463027],[120.577307,23.462679],[120.575775,23.464141],[120.573619,23.463535],[120.571755,23.464722],[120.57195,23.466893],[120.570241,23.467943],[120.569841,23.469553],[120.56833,23.469614],[120.565846,23.471157],[120.56442,23.470862],[120.563421,23.471408],[120.562221,23.468235],[120.561231,23.467452],[120.560728,23.466065],[120.558467,23.467745],[120.553892,23.469897],[120.552336,23.471424],[120.550925,23.470874],[120.547969,23.470858],[120.546417,23.473022],[120.544285,23.474135],[120.543987,23.475928],[120.543055,23.476677],[120.543085,23.477911],[120.54444,23.478877],[120.543645,23.480823],[120.544456,23.481445],[120.545916,23.481284],[120.545865,23.482803],[120.54472,23.483069],[120.544674,23.48372],[120.543063,23.48477],[120.541597,23.484451],[120.539416,23.485806],[120.539841,23.48821],[120.539524,23.489183],[120.536712,23.489372],[120.534759,23.490912],[120.533513,23.490362],[120.533342,23.48953],[120.536088,23.488373],[120.533619,23.487598],[120.532785,23.485632],[120.532874,23.47975],[120.532254,23.47896],[120.531033,23.478769],[120.528456,23.480084],[120.527479,23.479723],[120.526922,23.481005],[120.52589,23.481385],[120.525102,23.480359],[120.523467,23.480313],[120.518023,23.481498],[120.515387,23.4814],[120.512288,23.484365],[120.511158,23.483431],[120.510359,23.483664],[120.509175,23.483175],[120.508591,23.483546],[120.508114,23.482688],[120.504024,23.48751],[120.502927,23.487507],[120.501313,23.489817],[120.500966,23.488595],[120.501908,23.486327],[120.503731,23.485001],[120.502473,23.482902],[120.502535,23.481929],[120.50177,23.481708],[120.501821,23.480928],[120.504078,23.480977],[120.504321,23.480344],[120.503692,23.478882],[120.505083,23.478775],[120.509012,23.475159],[120.509345,23.472672],[120.508616,23.471371],[120.507182,23.471758],[120.506561,23.47009],[120.50486,23.469509],[120.503752,23.467175],[120.501766,23.466915],[120.500907,23.465776],[120.499715,23.465387],[120.500662,23.460972],[120.497533,23.457868],[120.497028,23.45524],[120.496052,23.454546],[120.49518,23.452863],[120.508009,23.45273],[120.514493,23.449988],[120.51742,23.44944],[120.520691,23.450172],[120.523495,23.451536],[120.526921,23.451225],[120.532212,23.452604],[120.541834,23.453328],[120.551667,23.451866],[120.555792,23.45065],[120.558112,23.449405],[120.559705,23.450153],[120.563101,23.449875],[120.566396,23.450407],[120.575198,23.444928],[120.578497,23.444059],[120.581144,23.444487],[120.58425,23.441848],[120.586263,23.441112],[120.587569,23.441962],[120.588459,23.441852],[120.592685,23.438857],[120.594386,23.435834],[120.593891,23.433518],[120.594808,23.429463],[120.596752,23.427831],[120.599011,23.426906],[120.601178,23.424675],[120.601684,23.42255],[120.602572,23.421805],[120.601952,23.419961],[120.602906,23.418919],[120.603074,23.416691],[120.601159,23.414403],[120.604209,23.410267],[120.602437,23.405253],[120.602723,23.403358],[120.601045,23.402476],[120.601781,23.400564],[120.601291,23.398816],[120.601739,23.397477],[120.60487,23.395798],[120.603487,23.392295],[120.602876,23.388854],[120.60137,23.386538],[120.601198,23.385396],[120.597992,23.380983],[120.59792,23.376259],[120.598807,23.374912],[120.598811,23.372839],[120.59793,23.370818],[120.594944,23.36955],[120.594102,23.368371],[120.592964,23.368599],[120.591612,23.367489],[120.590013,23.36727],[120.588901,23.364434],[120.587596,23.363507],[120.587131,23.361847],[120.587947,23.360113],[120.590148,23.358305],[120.590355,23.355714],[120.589708,23.355011],[120.589631,23.353903],[120.590824,23.35402],[120.592031,23.35333],[120.592503,23.351893],[120.594408,23.350807],[120.598289,23.346992],[120.604286,23.347838],[120.605208,23.346886],[120.607029,23.34697],[120.608356,23.34383],[120.612841,23.342836],[120.615244,23.343101],[120.618261,23.342563],[120.619065,23.341262],[120.61899,23.340183],[120.619723,23.340353],[120.620022,23.339726],[120.62581,23.341775],[120.626854,23.34133],[120.628832,23.341906],[120.63221,23.341185],[120.63418,23.34209],[120.635219,23.344306],[120.638395,23.344148],[120.63563,23.348495],[120.634893,23.350631],[120.634975,23.353095],[120.639112,23.35734],[120.6391,23.358593],[120.64106,23.360975],[120.642169,23.365244],[120.643705,23.366501],[120.646319,23.367074],[120.645698,23.371423],[120.644662,23.372682],[120.644362,23.374156],[120.642478,23.375307],[120.641919,23.376673],[120.642483,23.37779],[120.642153,23.378919],[120.643194,23.384013],[120.643027,23.384974],[120.642055,23.385312],[120.642125,23.387925],[120.64325,23.388637],[120.643505,23.390227],[120.646485,23.391504],[120.64679,23.393052],[120.64783,23.394569],[120.647651,23.397969],[120.646582,23.401097],[120.645741,23.40203],[120.647661,23.401395],[120.650021,23.401338],[120.652699,23.399696],[120.653887,23.399587],[120.655354,23.401251],[120.655477,23.402243],[120.654848,23.404948],[120.652465,23.407656],[120.652344,23.410901],[120.65566,23.410176],[120.658327,23.408871],[120.659834,23.409238],[120.662187,23.413575],[120.66307,23.420848],[120.666685,23.423178],[120.669674,23.428606],[120.673091,23.431828],[120.674373,23.436254],[120.677361,23.437702],[120.68257,23.438276],[120.681663,23.440813],[120.679526,23.442764],[120.679029,23.444735],[120.676159,23.447502],[120.674488,23.448231],[120.674152,23.4499]]]},"properties":{"code":"10010160","name":"番路鄉","countyCode":"10010","countyName":"嘉義縣","townCode":"10010160","townName":"番路鄉","level":"town","unassigned":false,"note":"","label":[120.62457299010467,23.442002863130586],"bounds":[120.49518,23.339726,120.68257,23.498196],"focusBounds":[120.49518,23.339726,120.68257,23.498196],"color":"#df9f6a","childCount":11}},{"type":"Feature","id":"10010170","geometry":{"type":"Polygon","coordinates":[[[120.651983,23.291176],[120.654239,23.299824],[120.653778,23.302501],[120.654307,23.306194],[120.655242,23.309024],[120.656211,23.309721],[120.658551,23.313855],[120.658542,23.323233],[120.657511,23.325971],[120.656089,23.326806],[120.656201,23.328726],[120.65552,23.330089],[120.65592,23.33306],[120.65641,23.335213],[120.658771,23.339412],[120.660772,23.339967],[120.662895,23.342869],[120.662926,23.344059],[120.662469,23.34534],[120.661597,23.345914],[120.661629,23.348128],[120.660889,23.350021],[120.658769,23.351506],[120.6583,23.354554],[120.656896,23.356974],[120.654842,23.357405],[120.6541,23.358265],[120.6524,23.357631],[120.651014,23.358727],[120.649324,23.358912],[120.648435,23.361283],[120.646061,23.364643],[120.646319,23.367074],[120.643705,23.366501],[120.642169,23.365244],[120.64106,23.360975],[120.6391,23.358593],[120.639112,23.35734],[120.634975,23.353095],[120.634893,23.350631],[120.63563,23.348495],[120.638395,23.344148],[120.635219,23.344306],[120.63418,23.34209],[120.63221,23.341185],[120.628832,23.341906],[120.626854,23.34133],[120.62581,23.341775],[120.620022,23.339726],[120.619723,23.340353],[120.61899,23.340183],[120.619065,23.341262],[120.618261,23.342563],[120.615244,23.343101],[120.612841,23.342836],[120.608356,23.34383],[120.607029,23.34697],[120.605208,23.346886],[120.604286,23.347838],[120.598289,23.346992],[120.594408,23.350807],[120.592503,23.351893],[120.592031,23.35333],[120.590824,23.35402],[120.589631,23.353903],[120.589708,23.355011],[120.590355,23.355714],[120.590148,23.358305],[120.587947,23.360113],[120.587131,23.361847],[120.584738,23.361554],[120.582778,23.362364],[120.581525,23.361647],[120.579169,23.362323],[120.577118,23.36174],[120.576047,23.363206],[120.574784,23.363252],[120.572415,23.360155],[120.567929,23.356032],[120.565851,23.354733],[120.561941,23.354038],[120.559563,23.352219],[120.558544,23.349579],[120.55549,23.345692],[120.550446,23.343066],[120.547165,23.342212],[120.547153,23.339811],[120.543783,23.339612],[120.541621,23.340032],[120.538167,23.337961],[120.536625,23.337733],[120.535481,23.33824],[120.534273,23.337611],[120.533723,23.336471],[120.536814,23.333263],[120.539996,23.32787],[120.537056,23.326538],[120.535108,23.323246],[120.53378,23.321976],[120.53195,23.321148],[120.531562,23.318097],[120.530853,23.317107],[120.529411,23.316857],[120.527281,23.314636],[120.523891,23.313346],[120.522607,23.311885],[120.52388,23.302391],[120.52568,23.29824],[120.526279,23.295334],[120.526009,23.292226],[120.524463,23.291543],[120.523773,23.290103],[120.522576,23.28932],[120.521979,23.287395],[120.522951,23.284461],[120.522943,23.28206],[120.520968,23.279686],[120.522323,23.27429],[120.520426,23.271776],[120.523494,23.268317],[120.526092,23.266489],[120.526617,23.264148],[120.528531,23.261957],[120.52932,23.257874],[120.530564,23.257294],[120.530791,23.255916],[120.53218,23.255304],[120.532278,23.254654],[120.530319,23.248526],[120.527909,23.24536],[120.524164,23.241998],[120.519439,23.239486],[120.519047,23.239055],[120.519656,23.237895],[120.520605,23.237641],[120.526295,23.231132],[120.527022,23.230994],[120.527545,23.231789],[120.529679,23.232548],[120.531327,23.231726],[120.531958,23.229665],[120.534051,23.228988],[120.53599,23.229236],[120.53976,23.227668],[120.541508,23.227829],[120.548534,23.223988],[120.549785,23.221338],[120.552506,23.220266],[120.553502,23.218901],[120.55431,23.218746],[120.554981,23.217473],[120.558077,23.216823],[120.561372,23.217414],[120.563784,23.220216],[120.565288,23.22098],[120.571025,23.218215],[120.574874,23.217698],[120.57824,23.214798],[120.579681,23.218991],[120.581779,23.219925],[120.584898,23.223246],[120.586613,23.224164],[120.588875,23.230057],[120.590034,23.231664],[120.590248,23.234332],[120.591966,23.236716],[120.592489,23.239854],[120.593796,23.239419],[120.595793,23.236727],[120.596549,23.234366],[120.596386,23.231719],[120.59724,23.229042],[120.602722,23.22608],[120.606518,23.225777],[120.608172,23.224678],[120.609825,23.222636],[120.611649,23.222815],[120.613078,23.223995],[120.616762,23.223545],[120.618389,23.225645],[120.624764,23.227175],[120.626186,23.228557],[120.62838,23.229447],[120.629567,23.229056],[120.631206,23.229511],[120.633298,23.228624],[120.634109,23.229225],[120.635823,23.2283],[120.638906,23.227949],[120.642423,23.225724],[120.644174,23.225317],[120.646908,23.227133],[120.647934,23.226738],[120.648233,23.225544],[120.651383,23.224086],[120.653445,23.224538],[120.649484,23.228639],[120.64955,23.230651],[120.650467,23.232963],[120.650088,23.233381],[120.650353,23.23465],[120.651311,23.235819],[120.650664,23.235853],[120.651161,23.236652],[120.65052,23.23709],[120.650851,23.237992],[120.649207,23.240405],[120.649403,23.241575],[120.648644,23.243049],[120.648641,23.244444],[120.647893,23.244628],[120.649234,23.246909],[120.648058,23.248463],[120.64845,23.249252],[120.647729,23.249593],[120.642083,23.256809],[120.642089,23.261029],[120.640691,23.266516],[120.638265,23.269361],[120.639301,23.270611],[120.64109,23.271024],[120.640632,23.274165],[120.641871,23.274644],[120.643153,23.27598],[120.641913,23.278542],[120.644051,23.282228],[120.643222,23.286262],[120.641857,23.287476],[120.643723,23.289437],[120.642033,23.292686],[120.643585,23.295933],[120.647024,23.297439],[120.649453,23.292903],[120.651983,23.291176]]]},"properties":{"code":"10010170","name":"大埔鄉","countyCode":"10010","countyName":"嘉義縣","townCode":"10010170","townName":"大埔鄉","level":"town","unassigned":false,"note":"","label":[120.58832413721456,23.294212034893786],"bounds":[120.519047,23.214798,120.662926,23.367074],"focusBounds":[120.519047,23.214798,120.662926,23.367074],"color":"#c38cb8","childCount":5}},{"type":"Feature","id":"10010180","geometry":{"type":"Polygon","coordinates":[[[120.813792,23.60095],[120.811259,23.600134],[120.809791,23.598688],[120.805124,23.598617],[120.803329,23.596646],[120.801091,23.596625],[120.798074,23.597444],[120.794917,23.597248],[120.790871,23.600944],[120.78745,23.60127],[120.783129,23.600737],[120.778311,23.602033],[120.776534,23.604028],[120.774576,23.605205],[120.77005,23.606055],[120.769413,23.608371],[120.766899,23.609764],[120.764282,23.612237],[120.758081,23.612488],[120.753562,23.614816],[120.750918,23.614451],[120.749215,23.612201],[120.74748,23.611164],[120.746355,23.612478],[120.744388,23.612665],[120.741365,23.61227],[120.739399,23.610355],[120.737398,23.609632],[120.735859,23.609547],[120.730865,23.610807],[120.729844,23.610492],[120.728956,23.608775],[120.726743,23.607425],[120.724552,23.60377],[120.727814,23.601376],[120.728751,23.598988],[120.73271,23.597172],[120.729903,23.593638],[120.732587,23.589688],[120.732337,23.58784],[120.733993,23.584211],[120.7324,23.579849],[120.732161,23.577128],[120.735172,23.575026],[120.736059,23.573053],[120.736159,23.570457],[120.740253,23.565584],[120.741805,23.562475],[120.74262,23.558851],[120.744885,23.557773],[120.746601,23.554265],[120.74465,23.553212],[120.743047,23.552987],[120.743546,23.550802],[120.742808,23.548828],[120.740402,23.548567],[120.73592,23.546804],[120.731744,23.544022],[120.731287,23.541415],[120.732414,23.54012],[120.732562,23.539104],[120.730666,23.535854],[120.729935,23.532563],[120.728415,23.531611],[120.727051,23.529317],[120.724905,23.519582],[120.723323,23.51709],[120.723146,23.512437],[120.722635,23.511806],[120.720715,23.511179],[120.717848,23.506667],[120.717472,23.501183],[120.718286,23.498802],[120.719117,23.498228],[120.71613,23.498502],[120.714643,23.496933],[120.712178,23.495957],[120.710814,23.494089],[120.705932,23.482848],[120.706003,23.476604],[120.703627,23.472643],[120.701581,23.47146],[120.696398,23.471426],[120.69486,23.469149],[120.691263,23.468336],[120.689667,23.46626],[120.689745,23.462772],[120.689118,23.461188],[120.686369,23.458325],[120.685798,23.456919],[120.684192,23.456089],[120.67661,23.454367],[120.674554,23.451894],[120.674152,23.4499],[120.674488,23.448231],[120.676159,23.447502],[120.679029,23.444735],[120.679526,23.442764],[120.681663,23.440813],[120.68257,23.438276],[120.677361,23.437702],[120.674373,23.436254],[120.673091,23.431828],[120.669674,23.428606],[120.666685,23.423178],[120.66307,23.420848],[120.662187,23.413575],[120.659834,23.409238],[120.658327,23.408871],[120.65566,23.410176],[120.652344,23.410901],[120.652465,23.407656],[120.654848,23.404948],[120.655477,23.402243],[120.655354,23.401251],[120.653887,23.399587],[120.652699,23.399696],[120.650021,23.401338],[120.647661,23.401395],[120.645741,23.40203],[120.646582,23.401097],[120.647651,23.397969],[120.64783,23.394569],[120.64679,23.393052],[120.646485,23.391504],[120.643505,23.390227],[120.64325,23.388637],[120.642125,23.387925],[120.642055,23.385312],[120.643027,23.384974],[120.643194,23.384013],[120.642153,23.378919],[120.642483,23.37779],[120.641919,23.376673],[120.642478,23.375307],[120.644362,23.374156],[120.644662,23.372682],[120.645698,23.371423],[120.646319,23.367074],[120.646061,23.364643],[120.648435,23.361283],[120.649324,23.358912],[120.651014,23.358727],[120.6524,23.357631],[120.6541,23.358265],[120.654842,23.357405],[120.656896,23.356974],[120.6583,23.354554],[120.658769,23.351506],[120.660889,23.350021],[120.661629,23.348128],[120.661597,23.345914],[120.662469,23.34534],[120.662926,23.344059],[120.662895,23.342869],[120.660772,23.339967],[120.658771,23.339412],[120.65641,23.335213],[120.65592,23.33306],[120.65552,23.330089],[120.656201,23.328726],[120.656089,23.326806],[120.657511,23.325971],[120.658542,23.323233],[120.658551,23.313855],[120.656211,23.309721],[120.655242,23.309024],[120.654307,23.306194],[120.653778,23.302501],[120.654239,23.299824],[120.651983,23.291176],[120.655319,23.291934],[120.65741,23.295244],[120.658426,23.295972],[120.65967,23.294761],[120.661831,23.295007],[120.661984,23.293961],[120.662674,23.293541],[120.663604,23.293884],[120.66539,23.293169],[120.665619,23.294084],[120.667314,23.294026],[120.66824,23.2921],[120.669717,23.292195],[120.67089,23.290199],[120.67141,23.289969],[120.673738,23.291111],[120.674549,23.290888],[120.675956,23.290285],[120.676166,23.288595],[120.677354,23.287844],[120.678822,23.288846],[120.683899,23.287108],[120.68717,23.2866],[120.689897,23.285308],[120.693511,23.28454],[120.699544,23.284424],[120.70116,23.285557],[120.701396,23.286895],[120.703415,23.28909],[120.703343,23.290309],[120.70257,23.291048],[120.702873,23.291793],[120.702341,23.293842],[120.702834,23.297564],[120.704377,23.301975],[120.70677,23.304728],[120.710301,23.306749],[120.712166,23.308697],[120.716284,23.307609],[120.72131,23.308267],[120.730629,23.305612],[120.730806,23.307812],[120.730168,23.310756],[120.732307,23.313859],[120.735572,23.315734],[120.739431,23.316842],[120.740072,23.317777],[120.740386,23.320432],[120.741049,23.321082],[120.747856,23.321909],[120.750073,23.324039],[120.750823,23.325926],[120.752873,23.327043],[120.753251,23.328191],[120.752216,23.329928],[120.752381,23.331031],[120.756444,23.33279],[120.758828,23.336444],[120.758552,23.337301],[120.757078,23.338559],[120.758484,23.340868],[120.757513,23.342977],[120.758069,23.344265],[120.761676,23.343515],[120.764427,23.34167],[120.768456,23.343878],[120.773334,23.341823],[120.774457,23.343],[120.777135,23.343538],[120.779274,23.342508],[120.783447,23.342317],[120.785215,23.345342],[120.787581,23.346141],[120.788593,23.348595],[120.788452,23.352821],[120.791806,23.353467],[120.791986,23.357243],[120.793056,23.357593],[120.795264,23.356753],[120.796242,23.356858],[120.797903,23.360314],[120.799511,23.3612],[120.800645,23.360643],[120.801082,23.36373],[120.802509,23.365594],[120.804695,23.367211],[120.803273,23.36946],[120.804584,23.370815],[120.805788,23.370909],[120.807242,23.369107],[120.808519,23.368391],[120.809835,23.369548],[120.813396,23.369423],[120.816276,23.371479],[120.821195,23.370523],[120.823094,23.371941],[120.825422,23.371707],[120.825741,23.373492],[120.828528,23.374954],[120.829112,23.375797],[120.829767,23.381577],[120.829378,23.383431],[120.830972,23.386601],[120.832915,23.387206],[120.834628,23.386681],[120.834906,23.387718],[120.834104,23.388723],[120.834118,23.389653],[120.835582,23.389861],[120.836873,23.393387],[120.83888,23.39448],[120.841007,23.394923],[120.841173,23.396077],[120.838759,23.396505],[120.838413,23.398247],[120.840534,23.39977],[120.841043,23.401011],[120.842357,23.401743],[120.843939,23.403924],[120.844755,23.408229],[120.847504,23.409958],[120.847924,23.411213],[120.849308,23.41201],[120.84952,23.42016],[120.853093,23.42194],[120.853968,23.423187],[120.857077,23.421968],[120.858103,23.424338],[120.859102,23.425119],[120.860042,23.423785],[120.862304,23.424578],[120.864523,23.423941],[120.86625,23.426078],[120.868126,23.426645],[120.86962,23.42643],[120.871738,23.429598],[120.873404,23.429651],[120.875415,23.431345],[120.875362,23.432768],[120.878918,23.43215],[120.881617,23.433014],[120.882822,23.435414],[120.883824,23.436256],[120.885561,23.434813],[120.886765,23.434854],[120.890697,23.442413],[120.890597,23.443439],[120.891394,23.444231],[120.891767,23.446609],[120.892871,23.445214],[120.895146,23.445922],[120.896418,23.449594],[120.896245,23.450417],[120.900411,23.452094],[120.900523,23.454089],[120.902369,23.454142],[120.904484,23.452948],[120.90567,23.453176],[120.906442,23.454591],[120.907465,23.455041],[120.908331,23.456706],[120.909402,23.457544],[120.911658,23.457626],[120.912936,23.458517],[120.915173,23.458006],[120.916165,23.458888],[120.921438,23.4591],[120.922483,23.458143],[120.923873,23.458346],[120.926189,23.457484],[120.92684,23.455998],[120.928483,23.455493],[120.928385,23.456909],[120.931548,23.457143],[120.93475,23.45844],[120.935106,23.458905],[120.934494,23.459892],[120.934498,23.461451],[120.936639,23.463781],[120.938908,23.463915],[120.941157,23.463009],[120.948435,23.464167],[120.955999,23.467336],[120.957515,23.469503],[120.954798,23.469114],[120.952202,23.467719],[120.947519,23.467123],[120.942262,23.469322],[120.939327,23.472133],[120.937568,23.473054],[120.93465,23.473113],[120.932381,23.471131],[120.930963,23.470664],[120.926496,23.47296],[120.920922,23.474928],[120.91875,23.474949],[120.917483,23.475693],[120.915089,23.474632],[120.910212,23.47623],[120.908054,23.475822],[120.901952,23.476081],[120.899838,23.475375],[120.896498,23.475895],[120.886177,23.475373],[120.884269,23.474308],[120.884138,23.473141],[120.882058,23.470013],[120.881899,23.468289],[120.880026,23.467622],[120.873095,23.468527],[120.868339,23.470625],[120.866689,23.472298],[120.8632,23.47355],[120.858126,23.472847],[120.856224,23.473424],[120.854202,23.473303],[120.849145,23.472092],[120.847011,23.473009],[120.844085,23.47281],[120.842092,23.473258],[120.838973,23.471218],[120.832643,23.474731],[120.829896,23.480728],[120.827898,23.482147],[120.827076,23.483381],[120.826181,23.488514],[120.825304,23.489709],[120.825314,23.495309],[120.822851,23.498671],[120.824068,23.505278],[120.82283,23.508623],[120.823045,23.511359],[120.820134,23.514144],[120.819556,23.515581],[120.81977,23.517496],[120.819114,23.519534],[120.820349,23.521482],[120.817969,23.523686],[120.811609,23.533709],[120.810288,23.535185],[120.808637,23.535971],[120.80897,23.537609],[120.808325,23.539299],[120.808177,23.542133],[120.808833,23.54586],[120.811288,23.549427],[120.811494,23.551054],[120.814481,23.55173],[120.815864,23.553109],[120.815903,23.553666],[120.814046,23.555405],[120.814148,23.556242],[120.815882,23.557368],[120.820627,23.5624],[120.819924,23.564517],[120.821527,23.568478],[120.821111,23.570146],[120.821897,23.57091],[120.819626,23.574531],[120.819906,23.577679],[120.820226,23.578692],[120.821566,23.579902],[120.821618,23.582142],[120.823493,23.583974],[120.824692,23.584202],[120.824628,23.585317],[120.825527,23.586367],[120.823705,23.587159],[120.820692,23.589537],[120.819019,23.592188],[120.81867,23.593714],[120.817048,23.595191],[120.817122,23.59634],[120.818612,23.598242],[120.818315,23.599059],[120.813792,23.60095]]]},"properties":{"code":"10010180","name":"阿里山鄉","countyCode":"10010","countyName":"嘉義縣","townCode":"10010180","townName":"阿里山鄉","level":"town","unassigned":false,"note":"","label":[120.76190777573521,23.42767068258354],"bounds":[120.641919,23.284424,120.957515,23.614816],"focusBounds":[120.641919,23.284424,120.957515,23.614816],"color":"#98b69b","childCount":12}}]}
